{"type":"FeatureCollection","features":[{"type":"Feature","properties":{"MAPTAXLOT":"1812000000600","MAPNUMBER":"18120000","TAXLOT":"600","ACCTNO":"0773299","MAPACRES":616.40487416},"geometry":{"type":"Polygon","coordinates":[[[-124.12356,43.959374],[-124.123595,43.962969],[-124.123665,43.966555],[-124.123735,43.970142],[-124.128747,43.970151],[-124.133759,43.97016],[-124.138771,43.970164],[-124.141278,43.970165],[-124.141892,43.970165],[-124.141926,43.970017],[-124.141955,43.969814],[-124.141955,43.969812],[-124.141996,43.969606],[-124.141996,43.969606],[-124.141996,43.969605],[-124.142012,43.969361],[-124.142012,43.96936],[-124.142089,43.969056],[-124.142156,43.968787],[-124.142219,43.968516],[-124.142266,43.96827],[-124.142302,43.968002],[-124.142302,43.968001],[-124.142302,43.968001],[-124.142302,43.968],[-124.142314,43.967873],[-124.142303,43.967695],[-124.142319,43.967513],[-124.142332,43.967296],[-124.142343,43.967099],[-124.142343,43.967098],[-124.142387,43.967006],[-124.142423,43.966849],[-124.142423,43.966848],[-124.142411,43.966712],[-124.142411,43.966712],[-124.142411,43.966711],[-124.142437,43.966579],[-124.142485,43.966424],[-124.142485,43.966424],[-124.142485,43.966423],[-124.142493,43.966245],[-124.142493,43.966245],[-124.142493,43.966245],[-124.142515,43.966101],[-124.14255,43.96599],[-124.142582,43.965829],[-124.142582,43.965827],[-124.142577,43.965737],[-124.142577,43.965737],[-124.142577,43.965737],[-124.142612,43.965568],[-124.142686,43.965335],[-124.142686,43.965335],[-124.142686,43.965335],[-124.142709,43.965093],[-124.142714,43.964918],[-124.142714,43.964917],[-124.14277,43.964781],[-124.142807,43.964648],[-124.142808,43.964648],[-124.142808,43.964648],[-124.142812,43.964528],[-124.142812,43.964527],[-124.142838,43.964402],[-124.142879,43.964255],[-124.142901,43.964114],[-124.142901,43.964112],[-124.142896,43.964025],[-124.142896,43.964024],[-124.142896,43.964024],[-124.142912,43.963917],[-124.142945,43.963654],[-124.142945,43.963652],[-124.142942,43.963475],[-124.142942,43.963473],[-124.142986,43.963381],[-124.143003,43.96328],[-124.143003,43.963279],[-124.143014,43.963082],[-124.143014,43.963081],[-124.143034,43.962971],[-124.143083,43.962841],[-124.143083,43.96284],[-124.143083,43.96284],[-124.143091,43.962657],[-124.143091,43.962656],[-124.143129,43.962478],[-124.143129,43.962476],[-124.143124,43.962387],[-124.143124,43.962386],[-124.143166,43.962209],[-124.143208,43.962081],[-124.143245,43.961932],[-124.143271,43.96174],[-124.143271,43.961738],[-124.143273,43.961655],[-124.143273,43.961653],[-124.143291,43.961568],[-124.143339,43.961478],[-124.143364,43.961392],[-124.143395,43.961273],[-124.143395,43.961273],[-124.143395,43.961273],[-124.143407,43.961149],[-124.14341,43.961025],[-124.14341,43.961023],[-124.143447,43.960934],[-124.143447,43.960934],[-124.143447,43.960934],[-124.143453,43.960853],[-124.143453,43.960851],[-124.143478,43.960752],[-124.143521,43.960661],[-124.143522,43.96066],[-124.143515,43.960619],[-124.143512,43.960571],[-124.143512,43.960569],[-124.143537,43.960481],[-124.143537,43.960481],[-124.143539,43.96039],[-124.143521,43.960276],[-124.143521,43.960275],[-124.143549,43.960164],[-124.143596,43.960064],[-124.143622,43.959939],[-124.143622,43.959937],[-124.143594,43.959847],[-124.143593,43.959757],[-124.143602,43.959668],[-124.143602,43.959666],[-124.143626,43.95957],[-124.143627,43.959569],[-124.143618,43.959485],[-124.143618,43.959484],[-124.143643,43.959396],[-124.143643,43.959395],[-124.143644,43.959288],[-124.143655,43.959156],[-124.143655,43.959153],[-124.143673,43.959078],[-124.143726,43.958945],[-124.14374,43.958865],[-124.143756,43.958762],[-124.143757,43.95876],[-124.143744,43.958671],[-124.143744,43.95867],[-124.143765,43.95858],[-124.143765,43.958579],[-124.143769,43.958454],[-124.143769,43.958452],[-124.143802,43.958314],[-124.143829,43.9582],[-124.143829,43.958198],[-124.143814,43.958128],[-124.143814,43.958127],[-124.143832,43.95806],[-124.143848,43.957944],[-124.143865,43.957911],[-124.143899,43.957847],[-124.14392,43.957751],[-124.14392,43.95775],[-124.143919,43.957674],[-124.143919,43.957673],[-124.143942,43.957545],[-124.143942,43.957543],[-124.143943,43.957493],[-124.143943,43.957491],[-124.144001,43.957327],[-124.144011,43.957299],[-124.144011,43.957299],[-124.14402,43.957203],[-124.14402,43.9572],[-124.144044,43.95709],[-124.144058,43.956949],[-124.144058,43.956946],[-124.144062,43.956832],[-124.144062,43.956831],[-124.144086,43.95666],[-124.144108,43.956519],[-124.144145,43.956371],[-124.144145,43.95637],[-124.144139,43.956276],[-124.144134,43.956189],[-124.14414,43.956046],[-124.14414,43.956043],[-124.144198,43.95586],[-124.144214,43.955777],[-124.144215,43.955774],[-124.14361,43.955774],[-124.142792,43.955774],[-124.142788,43.955774],[-124.142611,43.955774],[-124.142608,43.955774],[-124.138598,43.955774],[-124.133586,43.955774],[-124.128574,43.955774],[-124.128573,43.955774],[-124.123561,43.955774],[-124.12356,43.959374]]]}},{"type":"Feature","properties":{"MAPTAXLOT":"1912000000300","MAPNUMBER":"19120000","TAXLOT":"300","ACCTNO":"0856128","MAPACRES":4269.86241699},"geometry":{"type":"MultiPolygon","coordinates":[[[[-124.124982,43.932975],[-124.125039,43.936595],[-124.125083,43.940214],[-124.12513,43.943833],[-124.124653,43.947451],[-124.124175,43.951069],[-124.123702,43.954688],[-124.123561,43.955774],[-124.128573,43.955774],[-124.128574,43.955774],[-124.133586,43.955774],[-124.138598,43.955774],[-124.142608,43.955774],[-124.142611,43.955774],[-124.142788,43.955774],[-124.142792,43.955774],[-124.14361,43.955774],[-124.144215,43.955774],[-124.144206,43.955684],[-124.144205,43.955547],[-124.144212,43.955412],[-124.144242,43.955332],[-124.14425,43.955225],[-124.144264,43.955068],[-124.144242,43.954967],[-124.144249,43.954887],[-124.144283,43.954823],[-124.144311,43.954712],[-124.144311,43.954599],[-124.144336,43.954505],[-124.144357,43.954353],[-124.144381,43.954237],[-124.144379,43.954147],[-124.144394,43.95408],[-124.144411,43.953976],[-124.144444,43.953892],[-124.144472,43.95374],[-124.144489,43.953578],[-124.144518,43.95342],[-124.144559,43.953276],[-124.144561,43.953191],[-124.144561,43.953059],[-124.144584,43.952949],[-124.144629,43.952805],[-124.144635,43.952725],[-124.144632,43.952607],[-124.144638,43.952516],[-124.144655,43.95248],[-124.144685,43.952344],[-124.144691,43.952196],[-124.144719,43.952088],[-124.144719,43.951972],[-124.144739,43.951791],[-124.144774,43.951614],[-124.144779,43.951515],[-124.144835,43.951302],[-124.144857,43.951172],[-124.144858,43.951059],[-124.144852,43.950892],[-124.144868,43.950721],[-124.144905,43.950569],[-124.144937,43.95042],[-124.144943,43.950255],[-124.14494,43.950148],[-124.144981,43.950015],[-124.144995,43.949932],[-124.14501,43.9498],[-124.145001,43.949643],[-124.145014,43.949541],[-124.145059,43.949411],[-124.145094,43.949226],[-124.145101,43.949097],[-124.14512,43.94897],[-124.145159,43.948804],[-124.145174,43.948674],[-124.145191,43.948514],[-124.145229,43.94826],[-124.145245,43.948082],[-124.145259,43.94787],[-124.145272,43.947705],[-124.145265,43.947526],[-124.145285,43.947366],[-124.145287,43.947196],[-124.145286,43.947064],[-124.1453,43.946907],[-124.145306,43.94669],[-124.145321,43.94644],[-124.145319,43.946286],[-124.14532,43.946113],[-124.145332,43.945932],[-124.145327,43.945715],[-124.145332,43.945616],[-124.145297,43.945477],[-124.145276,43.945376],[-124.145247,43.945212],[-124.145201,43.945019],[-124.145163,43.944899],[-124.145143,43.944749],[-124.145111,43.944659],[-124.145121,43.944582],[-124.14517,43.944443],[-124.145254,43.944325],[-124.145372,43.944143],[-124.145443,43.943992],[-124.14556,43.943834],[-124.145622,43.943692],[-124.145658,43.943401],[-124.145743,43.943107],[-124.145799,43.942957],[-124.145866,43.942743],[-124.145924,43.942522],[-124.145998,43.942289],[-124.146048,43.942106],[-124.146092,43.941904],[-124.146143,43.941675],[-124.146189,43.941489],[-124.146217,43.941381],[-124.146245,43.941218],[-124.146272,43.941102],[-124.146332,43.940963],[-124.146352,43.940853],[-124.146344,43.940727],[-124.146351,43.940644],[-124.14638,43.940492],[-124.146394,43.940415],[-124.146397,43.940329],[-124.146393,43.940203],[-124.146408,43.940022],[-124.146432,43.939848],[-124.146426,43.939744],[-124.146434,43.939562],[-124.146455,43.939479],[-124.146474,43.939344],[-124.146476,43.939248],[-124.146494,43.939118],[-124.146522,43.938947],[-124.146543,43.938724],[-124.146578,43.93855],[-124.146603,43.938393],[-124.146641,43.938213],[-124.146643,43.938122],[-124.146682,43.93794],[-124.146711,43.937862],[-124.146732,43.93776],[-124.146726,43.937669],[-124.146744,43.937578],[-124.146779,43.937404],[-124.146808,43.937321],[-124.146818,43.937244],[-124.146855,43.937034],[-124.14689,43.936857],[-124.146915,43.9367],[-124.146949,43.93658],[-124.146966,43.936476],[-124.147045,43.936218],[-124.147065,43.936107],[-124.147094,43.935955],[-124.147123,43.935803],[-124.147153,43.935602],[-124.147193,43.935384],[-124.147213,43.935218],[-124.147238,43.935067],[-124.147245,43.934932],[-124.147258,43.934767],[-124.147273,43.934692],[-124.147293,43.934587],[-124.147295,43.934496],[-124.147312,43.934405],[-124.14732,43.93429],[-124.147331,43.934144],[-124.147366,43.933975],[-124.147384,43.933771],[-124.147406,43.93357],[-124.147438,43.933399],[-124.147443,43.933303],[-124.147459,43.933176],[-124.147483,43.933016],[-124.147509,43.932872],[-124.14751,43.932776],[-124.147529,43.932702],[-124.147573,43.932557],[-124.147605,43.932326],[-124.147625,43.93216],[-124.147647,43.931962],[-124.147666,43.931758],[-124.147671,43.931599],[-124.147687,43.931425],[-124.147662,43.931322],[-124.14762,43.931123],[-124.147584,43.930973],[-124.147543,43.930867],[-124.147469,43.930762],[-124.147406,43.930599],[-124.147403,43.930547],[-124.147392,43.930438],[-124.147348,43.930335],[-124.147343,43.930247],[-124.147352,43.930082],[-124.14739,43.930018],[-124.147463,43.929911],[-124.14754,43.929859],[-124.147632,43.929749],[-124.147728,43.929636],[-124.147823,43.929524],[-124.147904,43.929411],[-124.147989,43.929246],[-124.148038,43.929113],[-124.148115,43.928943],[-124.148166,43.928771],[-124.148188,43.928647],[-124.148215,43.928517],[-124.148258,43.92842],[-124.148308,43.928295],[-124.148322,43.928217],[-124.148318,43.928154],[-124.148327,43.92805],[-124.148341,43.927906],[-124.148345,43.927785],[-124.148326,43.927652],[-124.148306,43.927518],[-124.148296,43.92735],[-124.148264,43.927187],[-124.148249,43.927011],[-124.148226,43.926806],[-124.148211,43.926625],[-124.148224,43.926466],[-124.148236,43.926347],[-124.148269,43.926198],[-124.148311,43.926081],[-124.1484,43.925853],[-124.148455,43.925698],[-124.148535,43.925509],[-124.14861,43.9253],[-124.14864,43.92517],[-124.148645,43.925066],[-124.148655,43.924854],[-124.148672,43.924697],[-124.148706,43.924501],[-124.148752,43.924258],[-124.148808,43.924048],[-124.148875,43.923837],[-124.148902,43.923721],[-124.14893,43.923555],[-124.148953,43.923367],[-124.148988,43.923133],[-124.14901,43.922993],[-124.149037,43.922818],[-124.149073,43.922592],[-124.149091,43.922451],[-124.149126,43.922275],[-124.149157,43.92209],[-124.149196,43.921929],[-124.149247,43.9217],[-124.149302,43.92147],[-124.149344,43.921296],[-124.149388,43.921066],[-124.149439,43.920793],[-124.149478,43.920547],[-124.149497,43.92036],[-124.149519,43.920167],[-124.149536,43.920005],[-124.149556,43.919823],[-124.149575,43.919635],[-124.149606,43.919396],[-124.149634,43.91923],[-124.149653,43.9191],[-124.149669,43.918932],[-124.149685,43.918811],[-124.149725,43.918593],[-124.149745,43.918482],[-124.149763,43.918292],[-124.149772,43.918179],[-124.149806,43.91806],[-124.149825,43.917922],[-124.149842,43.917826],[-124.149862,43.917729],[-124.149909,43.91756],[-124.149929,43.91745],[-124.149946,43.917284],[-124.149984,43.917107],[-124.15002,43.916947],[-124.150039,43.916823],[-124.150064,43.916723],[-124.150088,43.916563],[-124.150108,43.916447],[-124.150133,43.916295],[-124.150157,43.916133],[-124.150177,43.916019],[-124.150231,43.915839],[-124.150271,43.915692],[-124.150294,43.915565],[-124.150318,43.915463],[-124.150375,43.915327],[-124.150397,43.9152],[-124.150432,43.915017],[-124.15047,43.914838],[-124.1505,43.914633],[-124.150532,43.914468],[-124.150559,43.914294],[-124.150582,43.914112],[-124.150603,43.91401],[-124.150626,43.913828],[-124.150652,43.913698],[-124.150656,43.913569],[-124.150684,43.913406],[-124.150696,43.91323],[-124.150711,43.9131],[-124.150744,43.912888],[-124.150757,43.912731],[-124.150775,43.912579],[-124.150799,43.912414],[-124.150806,43.912271],[-124.150818,43.912169],[-124.150817,43.912075],[-124.15082,43.911943],[-124.150839,43.911751],[-124.150849,43.911613],[-124.15086,43.911418],[-124.150871,43.91128],[-124.150896,43.911128],[-124.150916,43.91096],[-124.150944,43.910781],[-124.150968,43.910623],[-124.150991,43.910494],[-124.150996,43.910442],[-124.151007,43.910323],[-124.151023,43.910144],[-124.151047,43.909913],[-124.151052,43.909816],[-124.151051,43.909731],[-124.151062,43.909591],[-124.151077,43.909409],[-124.151086,43.90923],[-124.151107,43.909018],[-124.151127,43.908911],[-124.151152,43.908761],[-124.151181,43.908607],[-124.15122,43.908504],[-124.151275,43.90834],[-124.151323,43.90819],[-124.151357,43.908066],[-124.151403,43.907938],[-124.151468,43.907763],[-124.151508,43.907666],[-124.151593,43.907504],[-124.151665,43.907375],[-124.151709,43.907291],[-124.151755,43.907175],[-124.151793,43.907044],[-124.151832,43.906939],[-124.151864,43.906773],[-124.151874,43.906622],[-124.151885,43.906426],[-124.151881,43.90624],[-124.151877,43.906053],[-124.151887,43.905954],[-124.151934,43.90573],[-124.151978,43.90552],[-124.152005,43.90539],[-124.152037,43.905235],[-124.152075,43.90505],[-124.152111,43.904832],[-124.152122,43.904692],[-124.152114,43.904563],[-124.152091,43.904374],[-124.152051,43.904153],[-124.152029,43.903972],[-124.152031,43.903816],[-124.152055,43.903653],[-124.152089,43.903509],[-124.152144,43.903299],[-124.152182,43.903174],[-124.15222,43.903052],[-124.152263,43.902935],[-124.152312,43.902802],[-124.152334,43.90274],[-124.15238,43.90261],[-124.152423,43.902436],[-124.152452,43.902301],[-124.152487,43.902181],[-124.15254,43.902048],[-124.152617,43.901881],[-124.152699,43.901669],[-124.152763,43.901538],[-124.152848,43.901365],[-124.152906,43.901199],[-124.152945,43.901076],[-124.15298,43.900969],[-124.153016,43.900819],[-124.15302,43.90063],[-124.15301,43.900405],[-124.152974,43.900247],[-124.152948,43.900069],[-124.152912,43.899908],[-124.152897,43.899785],[-124.152862,43.899528],[-124.152833,43.899364],[-124.152822,43.899246],[-124.152801,43.89908],[-124.152794,43.898901],[-124.152783,43.89872],[-124.152788,43.89855],[-124.152801,43.898448],[-124.152813,43.898269],[-124.152844,43.898087],[-124.152886,43.897907],[-124.152945,43.897686],[-124.152971,43.897558],[-124.152992,43.897456],[-124.153014,43.897384],[-124.153056,43.897207],[-124.153086,43.897074],[-124.153123,43.896873],[-124.153152,43.89666],[-124.153186,43.896464],[-124.153223,43.896315],[-124.153263,43.896168],[-124.153288,43.896082],[-124.153322,43.895949],[-124.153344,43.895877],[-124.153393,43.895736],[-124.15341,43.895636],[-124.153408,43.895546],[-124.153425,43.895455],[-124.153455,43.895388],[-124.153483,43.895277],[-124.153517,43.89515],[-124.153517,43.895092],[-124.153531,43.895001],[-124.153529,43.894913],[-124.15354,43.894847],[-124.153546,43.894748],[-124.153532,43.894641],[-124.153525,43.894529],[-124.153508,43.89443],[-124.153495,43.894283],[-124.153467,43.894193],[-124.153466,43.894056],[-124.153458,43.893921],[-124.153468,43.893715],[-124.153485,43.89355],[-124.153506,43.893393],[-124.153538,43.893109],[-124.153568,43.892916],[-124.153606,43.892656],[-124.153644,43.892474],[-124.153701,43.892293],[-124.153769,43.892099],[-124.153827,43.891927],[-124.153877,43.891747],[-124.153921,43.891597],[-124.15397,43.891456],[-124.154061,43.8912],[-124.154086,43.891109],[-124.154099,43.891012],[-124.154156,43.890835],[-124.154198,43.890707],[-124.154263,43.890527],[-124.154285,43.890394],[-124.154317,43.890289],[-124.154378,43.890108],[-124.154425,43.889945],[-124.15447,43.889801],[-124.154511,43.889668],[-124.154535,43.889562],[-124.154553,43.889425],[-124.154566,43.889323],[-124.154592,43.88919],[-124.15462,43.889019],[-124.154612,43.888945],[-124.154617,43.888909],[-124.154641,43.888796],[-124.154673,43.888641],[-124.154671,43.88855],[-124.154662,43.88846],[-124.154673,43.888391],[-124.154687,43.888303],[-124.154677,43.88821],[-124.154697,43.888091],[-124.154713,43.887986],[-124.154722,43.887882],[-124.154747,43.887759],[-124.154763,43.887677],[-124.154776,43.887572],[-124.154763,43.88749],[-124.154786,43.8873],[-124.154836,43.88712],[-124.154831,43.887041],[-124.154832,43.886931],[-124.154847,43.886746],[-124.154849,43.88665],[-124.154847,43.886488],[-124.154857,43.886397],[-124.154868,43.886265],[-124.154876,43.886095],[-124.154909,43.885945],[-124.154925,43.885764],[-124.154947,43.885626],[-124.154963,43.885463],[-124.15497,43.885328],[-124.15499,43.885204],[-124.155001,43.885022],[-124.155019,43.884808],[-124.155032,43.88459],[-124.15503,43.884434],[-124.155026,43.884297],[-124.155041,43.884049],[-124.155061,43.883867],[-124.155072,43.883743],[-124.155073,43.883636],[-124.155084,43.883507],[-124.155105,43.883339],[-124.155113,43.883231],[-124.155126,43.883069],[-124.155137,43.882986],[-124.15516,43.882873],[-124.155176,43.882754],[-124.155201,43.882605],[-124.155215,43.88252],[-124.155232,43.88236],[-124.155242,43.882288],[-124.155268,43.882147],[-124.155273,43.882098],[-124.153974,43.882097],[-124.150734,43.882094],[-124.151402,43.878233],[-124.152299,43.87584],[-124.151853,43.875827],[-124.151448,43.875772],[-124.151029,43.87563],[-124.150577,43.875402],[-124.15025,43.875237],[-124.149683,43.874965],[-124.149328,43.874807],[-124.148982,43.874629],[-124.148629,43.874344],[-124.148554,43.874184],[-124.148298,43.873956],[-124.148092,43.873801],[-124.147616,43.873782],[-124.14734,43.873852],[-124.146988,43.873999],[-124.146778,43.874221],[-124.146573,43.874538],[-124.146352,43.874895],[-124.146181,43.875305],[-124.146165,43.875663],[-124.146144,43.875941],[-124.146178,43.876196],[-124.14609,43.876435],[-124.145806,43.876673],[-124.145423,43.876813],[-124.145102,43.876904],[-124.144769,43.876955],[-124.144466,43.877032],[-124.144271,43.877207],[-124.144064,43.877328],[-124.143786,43.877421],[-124.143326,43.87753],[-124.14278,43.877608],[-124.142306,43.877643],[-124.141831,43.877645],[-124.141396,43.877557],[-124.140884,43.877257],[-124.140458,43.877],[-124.139977,43.876907],[-124.139481,43.876889],[-124.138945,43.876918],[-124.138604,43.876976],[-124.138302,43.877086],[-124.138015,43.877122],[-124.137709,43.876984],[-124.137594,43.876778],[-124.137505,43.876552],[-124.137275,43.876438],[-124.136791,43.876453],[-124.136448,43.876504],[-124.136193,43.876593],[-124.135938,43.876864],[-124.135826,43.877164],[-124.13593,43.877498],[-124.136099,43.877668],[-124.136219,43.877813],[-124.136204,43.877916],[-124.13607,43.878008],[-124.135819,43.87803],[-124.135556,43.877997],[-124.135522,43.877891],[-124.135552,43.877768],[-124.1355,43.877682],[-124.135371,43.877707],[-124.135188,43.877773],[-124.135048,43.877933],[-124.13503,43.87825],[-124.135104,43.878544],[-124.135149,43.878833],[-124.135314,43.879091],[-124.135554,43.87936],[-124.135617,43.879486],[-124.13557,43.879629],[-124.135354,43.879764],[-124.134947,43.879861],[-124.13462,43.879851],[-124.134222,43.879755],[-124.133888,43.879778],[-124.133879,43.881242],[-124.132158,43.881251],[-124.13198,43.88141],[-124.131673,43.881491],[-124.131229,43.881559],[-124.130746,43.88175],[-124.130428,43.882036],[-124.130066,43.882391],[-124.129653,43.882661],[-124.12933,43.882873],[-124.129041,43.88303],[-124.128871,43.883206],[-124.128706,43.883407],[-124.128589,43.883646],[-124.128334,43.883742],[-124.127853,43.883811],[-124.127278,43.883876],[-124.126399,43.883836],[-124.12582,43.883821],[-124.125317,43.883837],[-124.125199,43.88384],[-124.125208,43.884164],[-124.125202,43.885906],[-124.1252,43.889413],[-124.1252,43.889526],[-124.125198,43.893146],[-124.1252,43.896766],[-124.125202,43.900273],[-124.125202,43.900386],[-124.125147,43.904006],[-124.125091,43.907626],[-124.125035,43.911246],[-124.12498,43.914865],[-124.124966,43.918488],[-124.124959,43.920299],[-124.124953,43.92211],[-124.124939,43.925732],[-124.124925,43.929355],[-124.124982,43.932975]],[[-124.144658,43.918416],[-124.1446,43.922029],[-124.144542,43.925643],[-124.144484,43.929256],[-124.139594,43.929281],[-124.134705,43.929306],[-124.129815,43.92933],[-124.12984,43.92571],[-124.129864,43.92209],[-124.134776,43.92207],[-124.139688,43.92205],[-124.139735,43.918434],[-124.144658,43.918416]]],[[[-124.1307,43.878474],[-124.134926,43.878472],[-124.13492,43.878441],[-124.134891,43.878111],[-124.134934,43.877894],[-124.135055,43.877742],[-124.135282,43.877634],[-124.135487,43.877627],[-124.135639,43.87767],[-124.135683,43.877797],[-124.135692,43.877931],[-124.135786,43.877955],[-124.135971,43.877929],[-124.136032,43.87786],[-124.135951,43.877754],[-124.135829,43.877576],[-124.135717,43.877418],[-124.135692,43.877156],[-124.135782,43.876795],[-124.135991,43.876553],[-124.136328,43.876407],[-124.136778,43.876299],[-124.137188,43.876293],[-124.137434,43.876339],[-124.137618,43.876481],[-124.137694,43.876674],[-124.137771,43.876853],[-124.13789,43.876984],[-124.138034,43.877041],[-124.138254,43.876987],[-124.138502,43.876911],[-124.13884,43.876793],[-124.139283,43.876718],[-124.139916,43.876705],[-124.140291,43.87672],[-124.140596,43.876832],[-124.140935,43.877051],[-124.141202,43.877298],[-124.141442,43.877412],[-124.141859,43.877514],[-124.142335,43.877519],[-124.142807,43.877457],[-124.143132,43.877426],[-124.14337,43.877365],[-124.143676,43.877322],[-124.143899,43.877245],[-124.144077,43.877098],[-124.144365,43.876927],[-124.144622,43.876858],[-124.144982,43.876793],[-124.145349,43.876694],[-124.145619,43.87653],[-124.145789,43.876397],[-124.145895,43.876144],[-124.145918,43.875759],[-124.14588,43.875443],[-124.145936,43.875131],[-124.146002,43.874826],[-124.14624,43.874447],[-124.146402,43.874199],[-124.146665,43.873908],[-124.146895,43.873712],[-124.14726,43.873618],[-124.147546,43.873568],[-124.147881,43.873558],[-124.148251,43.873661],[-124.148513,43.873828],[-124.148701,43.873997],[-124.149069,43.874228],[-124.149462,43.874411],[-124.149796,43.874522],[-124.150106,43.87456],[-124.150401,43.87451],[-124.150751,43.874438],[-124.150754,43.874485],[-124.150415,43.87459],[-124.150165,43.874612],[-124.150028,43.87467],[-124.150066,43.874831],[-124.150279,43.874959],[-124.150585,43.875077],[-124.150953,43.875315],[-124.151377,43.875524],[-124.151823,43.875652],[-124.152213,43.875633],[-124.152583,43.875581],[-124.152931,43.875462],[-124.153146,43.87532],[-124.153292,43.875048],[-124.153297,43.874951],[-124.153212,43.87432],[-124.153368,43.874008],[-124.153802,43.87376],[-124.154543,43.873628],[-124.155041,43.873594],[-124.155678,43.873809],[-124.156636,43.871742],[-124.155951,43.871225],[-124.155299,43.871225],[-124.154028,43.871225],[-124.15167,43.871225],[-124.150444,43.871225],[-124.145288,43.871225],[-124.140284,43.871225],[-124.14024,43.871225],[-124.135279,43.871225],[-124.135192,43.871225],[-124.132961,43.871224],[-124.132961,43.871224],[-124.132884,43.871345],[-124.13281,43.871467],[-124.132739,43.87159],[-124.13267,43.871714],[-124.132605,43.871839],[-124.132543,43.871964],[-124.132484,43.872091],[-124.132428,43.872218],[-124.132375,43.872345],[-124.132325,43.872474],[-124.132294,43.872556],[-124.132368,43.87257],[-124.132323,43.872698],[-124.132282,43.872827],[-124.132244,43.872957],[-124.132208,43.873086],[-124.132176,43.873217],[-124.132147,43.873348],[-124.132035,43.873335],[-124.132009,43.873468],[-124.131986,43.873601],[-124.131967,43.873734],[-124.13196,43.873782],[-124.131949,43.87387],[-124.131836,43.873862],[-124.131582,43.875873],[-124.131568,43.875976],[-124.131546,43.876114],[-124.131521,43.876252],[-124.131493,43.87639],[-124.131461,43.876527],[-124.131426,43.876664],[-124.131388,43.8768],[-124.131346,43.876936],[-124.131301,43.877071],[-124.131253,43.877206],[-124.131202,43.87734],[-124.131147,43.877473],[-124.13109,43.877606],[-124.1307,43.878474]]],[[[-124.125084,43.874848],[-124.130137,43.874848],[-124.130142,43.878474],[-124.130381,43.878474],[-124.130801,43.877538],[-124.130857,43.877409],[-124.13091,43.877279],[-124.13096,43.877149],[-124.131007,43.877018],[-124.13105,43.876887],[-124.131091,43.876755],[-124.131128,43.876622],[-124.131162,43.876489],[-124.131193,43.876356],[-124.13122,43.876222],[-124.131245,43.876088],[-124.131266,43.875953],[-124.131279,43.875853],[-124.131361,43.875208],[-124.131323,43.875206],[-124.131496,43.87384],[-124.13142,43.873835],[-124.131432,43.873747],[-124.131438,43.873696],[-124.131459,43.873556],[-124.131483,43.873417],[-124.13151,43.873278],[-124.131541,43.873139],[-124.131575,43.873001],[-124.131612,43.872863],[-124.131653,43.872726],[-124.131697,43.872589],[-124.131744,43.872452],[-124.131795,43.872317],[-124.131848,43.872182],[-124.131905,43.872047],[-124.131966,43.871914],[-124.131822,43.871879],[-124.131882,43.871754],[-124.131949,43.87162],[-124.13202,43.871487],[-124.132093,43.871355],[-124.13217,43.871224],[-124.130276,43.871223],[-124.130132,43.871223],[-124.125322,43.871221],[-124.125072,43.871221],[-124.125084,43.874848]]]]}},{"type":"Feature","properties":{"MAPTAXLOT":"1912000000400","MAPNUMBER":"19120000","TAXLOT":"400","ACCTNO":"0856144","MAPACRES":273.65828414},"geometry":{"type":"Polygon","coordinates":[[[-124.139594,43.929281],[-124.144484,43.929256],[-124.144542,43.925643],[-124.1446,43.922029],[-124.144658,43.918416],[-124.139735,43.918434],[-124.139688,43.92205],[-124.134776,43.92207],[-124.129864,43.92209],[-124.12984,43.92571],[-124.129815,43.92933],[-124.134705,43.929306],[-124.139594,43.929281]]]}}]}