{"type":"FeatureCollection","features":[{"type":"Feature","properties":{"MAPTAXLOT":"2203000003200","MAPNUMBER":"22030000","TAXLOT":"3200","ACCTNO":"0969210","MAPACRES":209.95010191},"geometry":{"type":"Polygon","coordinates":[[[-123.061403,43.620107],[-123.066761,43.620186],[-123.066733,43.61649],[-123.066706,43.612794],[-123.066595,43.609223],[-123.061257,43.609234],[-123.061305,43.612817],[-123.056347,43.612838],[-123.056377,43.616491],[-123.056406,43.620034],[-123.061403,43.620107]]]}},{"type":"Feature","properties":{"MAPTAXLOT":"2203000003400","MAPNUMBER":"22030000","TAXLOT":"3400","ACCTNO":"0969236","MAPACRES":31.45038832},"geometry":{"type":"Polygon","coordinates":[[[-123.061257,43.609234],[-123.066595,43.609223],[-123.066539,43.607438],[-123.06387,43.607442],[-123.063815,43.605656],[-123.062255,43.605658],[-123.061209,43.605661],[-123.061257,43.609234]]]}},{"type":"Feature","properties":{"MAPTAXLOT":"2203000003401","MAPNUMBER":"22030000","TAXLOT":"3401","ACCTNO":"0977148","MAPACRES":10.56237122},"geometry":{"type":"Polygon","coordinates":[[[-123.06387,43.607442],[-123.066539,43.607438],[-123.066484,43.605653],[-123.063815,43.605656],[-123.06387,43.607442]]]}},{"type":"Feature","properties":{"MAPTAXLOT":"2203000003500","MAPNUMBER":"22030000","TAXLOT":"3500","ACCTNO":"0969244","MAPACRES":78.16414571},"geometry":{"type":"Polygon","coordinates":[[[-123.056318,43.609243],[-123.061257,43.609234],[-123.061209,43.605661],[-123.057334,43.605666],[-123.056289,43.605666],[-123.052418,43.605654],[-123.051366,43.605653],[-123.051405,43.609252],[-123.056318,43.609243]]]}},{"type":"Feature","properties":{"MAPTAXLOT":"2203000003600","MAPNUMBER":"22030000","TAXLOT":"3600","ACCTNO":"0969251","MAPACRES":312.57073573},"geometry":{"type":"Polygon","coordinates":[[[-123.051521,43.620069],[-123.056406,43.620034],[-123.056377,43.616491],[-123.056347,43.612838],[-123.061305,43.612817],[-123.061257,43.609234],[-123.056318,43.609243],[-123.051405,43.609252],[-123.051366,43.605653],[-123.047503,43.605642],[-123.046441,43.60565],[-123.046522,43.609261],[-123.046603,43.612878],[-123.046619,43.616491],[-123.046636,43.620105],[-123.051521,43.620069]]]}},{"type":"Feature","properties":{"MAPTAXLOT":"2203000003700","MAPNUMBER":"22030000","TAXLOT":"3700","ACCTNO":"0969269","MAPACRES":474.88308927},"geometry":{"type":"Polygon","coordinates":[[[-123.026787,43.609505],[-123.026773,43.613085],[-123.026721,43.620206],[-123.036678,43.620156],[-123.046636,43.620105],[-123.046619,43.616491],[-123.046603,43.612878],[-123.041595,43.612931],[-123.036651,43.612982],[-123.036637,43.609383],[-123.036623,43.605723],[-123.032838,43.605743],[-123.031713,43.605749],[-123.028023,43.605768],[-123.026802,43.605771],[-123.026787,43.609505]]]}},{"type":"Feature","properties":{"MAPTAXLOT":"2203000003800","MAPNUMBER":"22030000","TAXLOT":"3800","ACCTNO":"0969277","MAPACRES":158.67556684},"geometry":{"type":"Polygon","coordinates":[[[-123.041595,43.612931],[-123.046603,43.612878],[-123.046522,43.609261],[-123.046441,43.60565],[-123.042579,43.60568],[-123.041532,43.605688],[-123.037653,43.605718],[-123.036623,43.605723],[-123.036637,43.609383],[-123.036651,43.612982],[-123.041595,43.612931]]]}},{"type":"Feature","properties":{"MAPTAXLOT":"2203000003900","MAPNUMBER":"22030000","TAXLOT":"3900","ACCTNO":"0969285","MAPACRES":649.84500719},"geometry":{"type":"Polygon","coordinates":[[[-123.006467,43.620175],[-123.011531,43.620183],[-123.016594,43.620191],[-123.021658,43.620198],[-123.026721,43.620206],[-123.026773,43.613085],[-123.026787,43.609505],[-123.026802,43.605771],[-123.023074,43.605777],[-123.021703,43.605783],[-123.019978,43.605783],[-123.01997,43.605783],[-123.018125,43.605786],[-123.01659,43.605785],[-123.013178,43.605782],[-123.011484,43.605781],[-123.008524,43.605779],[-123.008231,43.605775],[-123.006377,43.605749],[-123.006397,43.609504],[-123.006415,43.612904],[-123.006441,43.61654],[-123.006467,43.620175]]]}},{"type":"Feature","properties":{"MAPTAXLOT":"2203320000077","MAPNUMBER":"22033200","TAXLOT":"77","ACCTNO":"000None","MAPACRES":4.62037239},"geometry":{"type":"MultiPolygon","coordinates":[[[[-123.077657,43.605668],[-123.077651,43.605686],[-123.077697,43.605883],[-123.077749,43.60608],[-123.077808,43.606275],[-123.077874,43.606469],[-123.077946,43.606672],[-123.078026,43.606896],[-123.078054,43.606962],[-123.078088,43.607026],[-123.078129,43.607088],[-123.078177,43.607147],[-123.078232,43.607203],[-123.078292,43.607256],[-123.078358,43.607306],[-123.078429,43.607351],[-123.078504,43.607393],[-123.078584,43.607429],[-123.078668,43.607461],[-123.079323,43.607689],[-123.079499,43.607752],[-123.079671,43.607821],[-123.079839,43.607894],[-123.080004,43.607971],[-123.080164,43.608053],[-123.080321,43.608139],[-123.080472,43.608229],[-123.080736,43.608392],[-123.080828,43.608453],[-123.080915,43.608517],[-123.080996,43.608585],[-123.081071,43.608656],[-123.08114,43.608731],[-123.081203,43.608808],[-123.08126,43.608888],[-123.08131,43.60897],[-123.081352,43.609055],[-123.081388,43.609141],[-123.081417,43.609228],[-123.081438,43.609317],[-123.081452,43.609406],[-123.081458,43.609496],[-123.081457,43.609586],[-123.081419,43.610292],[-123.081387,43.610885],[-123.081378,43.610997],[-123.081361,43.611108],[-123.081338,43.611219],[-123.081252,43.61158],[-123.081222,43.611722],[-123.081199,43.611864],[-123.081183,43.612007],[-123.081174,43.61215],[-123.081138,43.612938],[-123.081364,43.61294],[-123.0814,43.612155],[-123.081409,43.612018],[-123.081424,43.611881],[-123.081447,43.611744],[-123.081476,43.611609],[-123.081562,43.611247],[-123.081586,43.611129],[-123.081603,43.61101],[-123.081613,43.610891],[-123.081638,43.610429],[-123.081683,43.609592],[-123.081685,43.6095],[-123.081679,43.609408],[-123.081666,43.609316],[-123.081647,43.609225],[-123.081619,43.609133],[-123.081585,43.609042],[-123.081543,43.608953],[-123.081495,43.608866],[-123.08144,43.608781],[-123.081378,43.608698],[-123.08131,43.608618],[-123.081236,43.608541],[-123.081156,43.608467],[-123.08107,43.608397],[-123.080979,43.60833],[-123.080883,43.608267],[-123.080619,43.608104],[-123.080481,43.608021],[-123.080339,43.607942],[-123.080194,43.607866],[-123.080045,43.607794],[-123.079893,43.607725],[-123.079739,43.607659],[-123.079581,43.607598],[-123.079421,43.60754],[-123.078766,43.607313],[-123.078691,43.607284],[-123.078621,43.607251],[-123.078554,43.607213],[-123.078492,43.607171],[-123.078436,43.607126],[-123.078385,43.607077],[-123.07834,43.607025],[-123.078302,43.60697],[-123.07827,43.606913],[-123.078245,43.606855],[-123.078093,43.606428],[-123.078028,43.606237],[-123.07797,43.606045],[-123.077919,43.605852],[-123.077875,43.605658],[-123.077655,43.605656],[-123.077657,43.605668]]],[[[-123.091602,43.610473],[-123.091572,43.610492],[-123.091542,43.610513],[-123.091514,43.610534],[-123.091486,43.610556],[-123.09146,43.610581],[-123.091436,43.610605],[-123.091415,43.61063],[-123.091395,43.610653],[-123.091374,43.610679],[-123.091354,43.610705],[-123.091338,43.61073],[-123.09132,43.610755],[-123.091303,43.610782],[-123.091288,43.610809],[-123.091272,43.610837],[-123.091261,43.610868],[-123.091251,43.610897],[-123.091244,43.610927],[-123.09124,43.610956],[-123.091235,43.610984],[-123.091232,43.611016],[-123.091233,43.611049],[-123.091239,43.611079],[-123.091244,43.61111],[-123.091257,43.611141],[-123.091268,43.611169],[-123.091285,43.611199],[-123.091304,43.611228],[-123.091327,43.611255],[-123.091351,43.61128],[-123.091378,43.611305],[-123.091406,43.611327],[-123.091626,43.611487],[-123.091627,43.611332],[-123.091515,43.611251],[-123.091493,43.611233],[-123.091472,43.611215],[-123.091453,43.611195],[-123.091436,43.611175],[-123.091423,43.611154],[-123.091411,43.611133],[-123.091402,43.61111],[-123.091393,43.611087],[-123.091388,43.611064],[-123.091384,43.61104],[-123.091383,43.611018],[-123.091385,43.610995],[-123.091389,43.610969],[-123.091394,43.610943],[-123.0914,43.610919],[-123.091407,43.610895],[-123.091416,43.610873],[-123.091428,43.610849],[-123.091441,43.610826],[-123.091456,43.610804],[-123.091473,43.610779],[-123.091489,43.610755],[-123.091505,43.610733],[-123.091524,43.61071],[-123.091543,43.610688],[-123.091562,43.610666],[-123.091581,43.610646],[-123.091602,43.610627],[-123.091625,43.610608],[-123.091632,43.610603],[-123.091633,43.610454],[-123.091602,43.610473]]]]}},{"type":"Feature","properties":{"MAPTAXLOT":"2203320000088","MAPNUMBER":"22033200","TAXLOT":"88","ACCTNO":"000None","MAPACRES":1.71534637},"geometry":{"type":"Polygon","coordinates":[[[-123.081507,43.612941],[-123.081591,43.612942],[-123.081645,43.612943],[-123.081639,43.612865],[-123.08163,43.612654],[-123.08162,43.612436],[-123.081618,43.612127],[-123.081669,43.611862],[-123.081743,43.611657],[-123.08188,43.611415],[-123.082026,43.611201],[-123.082117,43.610905],[-123.082223,43.610699],[-123.082409,43.610431],[-123.082606,43.610186],[-123.082743,43.610009],[-123.08283,43.609842],[-123.082874,43.609667],[-123.082897,43.609471],[-123.0829,43.609339],[-123.082901,43.60932],[-123.082831,43.609141],[-123.082735,43.609068],[-123.082628,43.608995],[-123.082352,43.60885],[-123.08212,43.608758],[-123.081884,43.608582],[-123.081652,43.608464],[-123.081587,43.608431],[-123.081404,43.608269],[-123.081136,43.608064],[-123.080704,43.607751],[-123.08051,43.607582],[-123.080369,43.607435],[-123.080199,43.607341],[-123.080094,43.607305],[-123.079968,43.607285],[-123.079825,43.607279],[-123.07974,43.607275],[-123.079418,43.607268],[-123.079179,43.607258],[-123.078958,43.607188],[-123.078683,43.607073],[-123.078588,43.607015],[-123.078466,43.606852],[-123.078417,43.606672],[-123.078333,43.606395],[-123.078273,43.606208],[-123.078182,43.606015],[-123.078094,43.60575],[-123.078091,43.60566],[-123.078016,43.605659],[-123.078021,43.605769],[-123.078065,43.605949],[-123.0782,43.606203],[-123.078285,43.606479],[-123.078346,43.606712],[-123.07846,43.606943],[-123.078623,43.607127],[-123.078846,43.607243],[-123.079097,43.607297],[-123.07933,43.607319],[-123.079735,43.607325],[-123.080026,43.607341],[-123.080258,43.607433],[-123.080517,43.607661],[-123.08101,43.608034],[-123.081321,43.608284],[-123.081652,43.608531],[-123.081653,43.608532],[-123.082016,43.608765],[-123.082418,43.608952],[-123.082652,43.609082],[-123.082803,43.609207],[-123.082841,43.609372],[-123.082801,43.609649],[-123.08269,43.609975],[-123.082492,43.610198],[-123.082247,43.610528],[-123.082044,43.610871],[-123.081922,43.611175],[-123.081658,43.611573],[-123.08163,43.611654],[-123.081547,43.611884],[-123.081516,43.612126],[-123.08151,43.61241],[-123.081486,43.612824],[-123.081507,43.612941]]]}},{"type":"Feature","properties":{"MAPTAXLOT":"2203320001100","MAPNUMBER":"22033200","TAXLOT":"1100","ACCTNO":"0971331","MAPACRES":2.65178369},"geometry":{"type":"Polygon","coordinates":[[[-123.077875,43.605658],[-123.077919,43.605852],[-123.07797,43.606045],[-123.078028,43.606237],[-123.078093,43.606428],[-123.078245,43.606855],[-123.07827,43.606913],[-123.078302,43.60697],[-123.07834,43.607025],[-123.078385,43.607077],[-123.078436,43.607126],[-123.078492,43.607171],[-123.078554,43.607213],[-123.078621,43.607251],[-123.078691,43.607284],[-123.078766,43.607313],[-123.079421,43.60754],[-123.079581,43.607598],[-123.079739,43.607659],[-123.079893,43.607725],[-123.080045,43.607794],[-123.080194,43.607866],[-123.080339,43.607942],[-123.080481,43.608021],[-123.080619,43.608104],[-123.080883,43.608267],[-123.080979,43.60833],[-123.08107,43.608397],[-123.081156,43.608467],[-123.081236,43.608541],[-123.08131,43.608618],[-123.081378,43.608698],[-123.08144,43.608781],[-123.081495,43.608866],[-123.081543,43.608953],[-123.081585,43.609042],[-123.081619,43.609133],[-123.081647,43.609225],[-123.081652,43.608531],[-123.081321,43.608284],[-123.08101,43.608034],[-123.080517,43.607661],[-123.080258,43.607433],[-123.080026,43.607341],[-123.079735,43.607325],[-123.07933,43.607319],[-123.079097,43.607297],[-123.078846,43.607243],[-123.078623,43.607127],[-123.07846,43.606943],[-123.078346,43.606712],[-123.078285,43.606479],[-123.0782,43.606203],[-123.078065,43.605949],[-123.078021,43.605769],[-123.078016,43.605659],[-123.077875,43.605658]]]}},{"type":"Feature","properties":{"MAPTAXLOT":"2203320001101","MAPNUMBER":"22033200","TAXLOT":"1101","ACCTNO":"0971349","MAPACRES":7.82301259},"geometry":{"type":"Polygon","coordinates":[[[-123.078094,43.60575],[-123.078182,43.606015],[-123.078273,43.606208],[-123.078333,43.606395],[-123.078417,43.606672],[-123.078466,43.606852],[-123.078588,43.607015],[-123.078683,43.607073],[-123.078958,43.607188],[-123.079179,43.607258],[-123.079418,43.607268],[-123.07974,43.607275],[-123.079825,43.607279],[-123.0811,43.606731],[-123.08097,43.60657],[-123.080712,43.606254],[-123.080515,43.606012],[-123.080244,43.60568],[-123.078091,43.60566],[-123.078094,43.60575]]]}},{"type":"Feature","properties":{"MAPTAXLOT":"2203320001105","MAPNUMBER":"22033200","TAXLOT":"1105","ACCTNO":"1356276","MAPACRES":3.0656551},"geometry":{"type":"Polygon","coordinates":[[[-123.079825,43.607279],[-123.079968,43.607285],[-123.080094,43.607305],[-123.080199,43.607341],[-123.080369,43.607435],[-123.08051,43.607582],[-123.080704,43.607751],[-123.081136,43.608064],[-123.081404,43.608269],[-123.081587,43.608431],[-123.081652,43.608464],[-123.081659,43.607417],[-123.081438,43.607146],[-123.081312,43.606991],[-123.0811,43.606731],[-123.079825,43.607279]]]}},{"type":"Feature","properties":{"MAPTAXLOT":"2203320001106","MAPNUMBER":"22033200","TAXLOT":"1106","ACCTNO":"1369170","MAPACRES":23.61001436},"geometry":{"type":"Polygon","coordinates":[[[-123.07875,43.610256],[-123.081419,43.610292],[-123.081457,43.609586],[-123.081458,43.609496],[-123.081452,43.609406],[-123.081438,43.609317],[-123.081417,43.609228],[-123.081388,43.609141],[-123.081352,43.609055],[-123.08131,43.60897],[-123.08126,43.608888],[-123.081203,43.608808],[-123.08114,43.608731],[-123.081071,43.608656],[-123.080996,43.608585],[-123.080915,43.608517],[-123.080828,43.608453],[-123.080736,43.608392],[-123.080472,43.608229],[-123.080321,43.608139],[-123.080164,43.608053],[-123.080004,43.607971],[-123.079839,43.607894],[-123.079671,43.607821],[-123.079499,43.607752],[-123.079323,43.607689],[-123.078668,43.607461],[-123.078584,43.607429],[-123.078504,43.607393],[-123.078429,43.607351],[-123.078358,43.607306],[-123.078292,43.607256],[-123.078232,43.607203],[-123.078177,43.607147],[-123.078129,43.607088],[-123.078088,43.607026],[-123.078054,43.606962],[-123.078026,43.606896],[-123.077946,43.606672],[-123.077519,43.606804],[-123.076677,43.607231],[-123.075771,43.607726],[-123.078366,43.609533],[-123.07875,43.610256]]]}},{"type":"Feature","properties":{"MAPTAXLOT":"2203320001107","MAPNUMBER":"22033200","TAXLOT":"1107","ACCTNO":"1369188","MAPACRES":31.86433917},"geometry":{"type":"Polygon","coordinates":[[[-123.071692,43.610162],[-123.07875,43.610256],[-123.078366,43.609533],[-123.075771,43.607726],[-123.071695,43.60771],[-123.071693,43.60926],[-123.071692,43.610162]]]}},{"type":"Feature","properties":{"MAPTAXLOT":"2203320001200","MAPNUMBER":"22033200","TAXLOT":"1200","ACCTNO":"0971356","MAPACRES":242.55971742},"geometry":{"type":"Polygon","coordinates":[[[-123.066733,43.61649],[-123.066761,43.620186],[-123.071676,43.620152],[-123.076592,43.620117],[-123.076611,43.616493],[-123.076629,43.613058],[-123.079153,43.613083],[-123.08113,43.613108],[-123.081138,43.612938],[-123.078682,43.612913],[-123.076629,43.612893],[-123.071688,43.612844],[-123.071692,43.610162],[-123.071693,43.60926],[-123.071695,43.60771],[-123.071699,43.605653],[-123.067425,43.605653],[-123.066484,43.605653],[-123.066539,43.607438],[-123.066595,43.609223],[-123.066706,43.612794],[-123.066733,43.61649]]]}},{"type":"Feature","properties":{"MAPTAXLOT":"2303000000200","MAPNUMBER":"23030000","TAXLOT":"200","ACCTNO":"0973956","MAPACRES":576.84575827},"geometry":{"type":"Polygon","coordinates":[[[-123.026802,43.605771],[-123.028023,43.605768],[-123.028004,43.602219],[-123.027986,43.59867],[-123.028003,43.595135],[-123.028019,43.5916],[-123.022593,43.591463],[-123.017474,43.591332],[-123.017636,43.594927],[-123.01256,43.594825],[-123.007135,43.594716],[-123.007031,43.598328],[-123.007616,43.602006],[-123.008231,43.605775],[-123.008524,43.605779],[-123.011484,43.605781],[-123.013178,43.605782],[-123.01659,43.605785],[-123.018125,43.605786],[-123.01997,43.605783],[-123.019978,43.605783],[-123.021703,43.605783],[-123.023074,43.605777],[-123.026802,43.605771]]]}},{"type":"Feature","properties":{"MAPTAXLOT":"2303000000400","MAPNUMBER":"23030000","TAXLOT":"400","ACCTNO":"0973964","MAPACRES":82.80552854},"geometry":{"type":"Polygon","coordinates":[[[-123.01256,43.594825],[-123.017636,43.594927],[-123.017474,43.591332],[-123.012356,43.591218],[-123.007239,43.591104],[-123.007135,43.594716],[-123.01256,43.594825]]]}},{"type":"Feature","properties":{"MAPTAXLOT":"2303000001000","MAPNUMBER":"23030000","TAXLOT":"1000","ACCTNO":"0974020","MAPACRES":640.66297732},"geometry":{"type":"Polygon","coordinates":[[[-123.017429,43.575809],[-123.017576,43.57581],[-123.017577,43.57581],[-123.022433,43.575867],[-123.027346,43.575919],[-123.027307,43.568641],[-123.027268,43.561364],[-123.007337,43.561357],[-123.007472,43.568624],[-123.007233,43.575891],[-123.012402,43.575853],[-123.017429,43.575809]]]}},{"type":"Feature","properties":{"MAPTAXLOT":"2303000001100","MAPNUMBER":"23030000","TAXLOT":"1100","ACCTNO":"0974038","MAPACRES":656.8167362},"geometry":{"type":"Polygon","coordinates":[[[-123.042231,43.57645],[-123.047193,43.576627],[-123.0472,43.572586],[-123.047207,43.568545],[-123.047238,43.56506],[-123.047269,43.561575],[-123.037311,43.561325],[-123.027268,43.561364],[-123.027307,43.568641],[-123.027346,43.575919],[-123.032307,43.576096],[-123.037268,43.576273],[-123.042231,43.57645]]]}},{"type":"Feature","properties":{"MAPTAXLOT":"2303000001200","MAPNUMBER":"23030000","TAXLOT":"1200","ACCTNO":"0974046","MAPACRES":492.94280196},"geometry":{"type":"Polygon","coordinates":[[[-123.052194,43.576626],[-123.057196,43.576624],[-123.057212,43.572629],[-123.057226,43.568629],[-123.062242,43.568671],[-123.067277,43.568734],[-123.067293,43.565131],[-123.067309,43.561546],[-123.062273,43.561554],[-123.057257,43.561561],[-123.052255,43.561568],[-123.047269,43.561575],[-123.047238,43.56506],[-123.047207,43.568545],[-123.0472,43.572586],[-123.047193,43.576627],[-123.052194,43.576626]]]}},{"type":"Feature","properties":{"MAPTAXLOT":"2303000001300","MAPNUMBER":"23030000","TAXLOT":"1300","ACCTNO":"0974053","MAPACRES":176.73297761},"geometry":{"type":"Polygon","coordinates":[[[-123.062199,43.576625],[-123.067202,43.576628],[-123.067235,43.572681],[-123.067277,43.568734],[-123.062242,43.568671],[-123.057226,43.568629],[-123.057212,43.572629],[-123.057196,43.576624],[-123.062199,43.576625]]]}},{"type":"Feature","properties":{"MAPTAXLOT":"2303000001800","MAPNUMBER":"23030000","TAXLOT":"1800","ACCTNO":"0974103","MAPACRES":564.38801065},"geometry":{"type":"Polygon","coordinates":[[[-123.082197,43.562095],[-123.087214,43.562147],[-123.087245,43.558465],[-123.087271,43.554783],[-123.087297,43.551107],[-123.087328,43.54744],[-123.082325,43.547418],[-123.077323,43.547396],[-123.077301,43.551009],[-123.072318,43.550955],[-123.06734,43.550916],[-123.067325,43.554463],[-123.067317,43.558003],[-123.067309,43.561546],[-123.072246,43.561795],[-123.077163,43.562042],[-123.082197,43.562095]]]}},{"type":"Feature","properties":{"MAPTAXLOT":"2303000001900","MAPNUMBER":"23030000","TAXLOT":"1900","ACCTNO":"0974129","MAPACRES":79.29315952},"geometry":{"type":"Polygon","coordinates":[[[-123.072318,43.550955],[-123.077301,43.551009],[-123.077323,43.547396],[-123.072326,43.547374],[-123.067342,43.547352],[-123.06734,43.550916],[-123.072318,43.550955]]]}},{"type":"Feature","properties":{"MAPTAXLOT":"2303000002000","MAPNUMBER":"23030000","TAXLOT":"2000","ACCTNO":"0974137","MAPACRES":622.5301327},"geometry":{"type":"Polygon","coordinates":[[[-123.062273,43.561554],[-123.067309,43.561546],[-123.067317,43.558003],[-123.067325,43.554463],[-123.06734,43.550916],[-123.067342,43.547352],[-123.062355,43.547277],[-123.057384,43.547202],[-123.052416,43.547127],[-123.047456,43.547051],[-123.048187,43.554597],[-123.047269,43.561575],[-123.052255,43.561568],[-123.057257,43.561561],[-123.062273,43.561554]]]}},{"type":"Feature","properties":{"MAPTAXLOT":"2303000002100","MAPNUMBER":"23030000","TAXLOT":"2100","ACCTNO":"0974145","MAPACRES":655.09725593},"geometry":{"type":"Polygon","coordinates":[[[-123.037311,43.561325],[-123.047269,43.561575],[-123.048187,43.554597],[-123.047456,43.547051],[-123.042456,43.547],[-123.037467,43.546948],[-123.032485,43.546896],[-123.027508,43.546845],[-123.027295,43.554054],[-123.027268,43.561364],[-123.037311,43.561325]]]}},{"type":"Feature","properties":{"MAPTAXLOT":"2303000002200","MAPNUMBER":"23030000","TAXLOT":"2200","ACCTNO":"0974152","MAPACRES":638.72645672},"geometry":{"type":"Polygon","coordinates":[[[-123.007337,43.561357],[-123.027268,43.561364],[-123.027295,43.554054],[-123.027508,43.546845],[-123.017596,43.546836],[-123.007694,43.546827],[-123.007337,43.561357]]]}},{"type":"Feature","properties":{"MAPTAXLOT":"2303000002500","MAPNUMBER":"23030000","TAXLOT":"2500","ACCTNO":"0974186","MAPACRES":318.47754006},"geometry":{"type":"Polygon","coordinates":[[[-123.017596,43.546836],[-123.027508,43.546845],[-123.027538,43.543224],[-123.027569,43.539631],[-123.007677,43.539578],[-123.007694,43.546827],[-123.017596,43.546836]]]}},{"type":"Feature","properties":{"MAPTAXLOT":"2303000002600","MAPNUMBER":"23030000","TAXLOT":"2600","ACCTNO":"0974194","MAPACRES":317.71246052},"geometry":{"type":"Polygon","coordinates":[[[-123.042456,43.547],[-123.047456,43.547051],[-123.047433,43.543502],[-123.047408,43.539867],[-123.042388,43.539808],[-123.03737,43.539748],[-123.032469,43.53969],[-123.027569,43.539631],[-123.027538,43.543224],[-123.027508,43.546845],[-123.032485,43.546896],[-123.037467,43.546948],[-123.042456,43.547]]]}},{"type":"Feature","properties":{"MAPTAXLOT":"2303000002700","MAPNUMBER":"23030000","TAXLOT":"2700","ACCTNO":"0974202","MAPACRES":39.37828355},"geometry":{"type":"Polygon","coordinates":[[[-123.047456,43.547051],[-123.052416,43.547127],[-123.052469,43.543574],[-123.047433,43.543502],[-123.047456,43.547051]]]}},{"type":"Feature","properties":{"MAPTAXLOT":"2303000002800","MAPNUMBER":"23030000","TAXLOT":"2800","ACCTNO":"0974210","MAPACRES":162.25447609},"geometry":{"type":"Polygon","coordinates":[[[-123.052416,43.547127],[-123.057384,43.547202],[-123.057439,43.543645],[-123.062391,43.543716],[-123.062264,43.539907],[-123.057335,43.539894],[-123.052371,43.539881],[-123.047408,43.539867],[-123.047433,43.543502],[-123.052469,43.543574],[-123.052416,43.547127]]]}},{"type":"Feature","properties":{"MAPTAXLOT":"2303000002900","MAPNUMBER":"23030000","TAXLOT":"2900","ACCTNO":"0974228","MAPACRES":122.26051101},"geometry":{"type":"Polygon","coordinates":[[[-123.062355,43.547277],[-123.067342,43.547352],[-123.067449,43.543788],[-123.067397,43.539921],[-123.062264,43.539907],[-123.062391,43.543716],[-123.057439,43.543645],[-123.057384,43.547202],[-123.062355,43.547277]]]}},{"type":"Feature","properties":{"MAPTAXLOT":"2303000003000","MAPNUMBER":"23030000","TAXLOT":"3000","ACCTNO":"0974236","MAPACRES":39.13973642},"geometry":{"type":"Polygon","coordinates":[[[-123.067342,43.547352],[-123.072326,43.547374],[-123.072341,43.543793],[-123.067449,43.543788],[-123.067342,43.547352]]]}},{"type":"Feature","properties":{"MAPTAXLOT":"2303000003100","MAPNUMBER":"23030000","TAXLOT":"3100","ACCTNO":"0974244","MAPACRES":285.96978746},"geometry":{"type":"Polygon","coordinates":[[[-123.082325,43.547418],[-123.087328,43.54744],[-123.087338,43.543806],[-123.08734,43.540163],[-123.082293,43.540102],[-123.077255,43.540041],[-123.072221,43.539979],[-123.067397,43.539921],[-123.067449,43.543788],[-123.072341,43.543793],[-123.072326,43.547374],[-123.077323,43.547396],[-123.082325,43.547418]]]}},{"type":"Feature","properties":{"MAPTAXLOT":"2303030000100","MAPNUMBER":"23030300","TAXLOT":"100","ACCTNO":"0974277","MAPACRES":153.28930777},"geometry":{"type":"Polygon","coordinates":[[[-123.028004,43.602219],[-123.028023,43.605768],[-123.031713,43.605749],[-123.032838,43.605743],[-123.036623,43.605723],[-123.037653,43.605718],[-123.037719,43.602148],[-123.037794,43.598579],[-123.03289,43.598625],[-123.027986,43.59867],[-123.028004,43.602219]]]}},{"type":"Feature","properties":{"MAPTAXLOT":"2303030000200","MAPNUMBER":"23030300","TAXLOT":"200","ACCTNO":"0974285","MAPACRES":420.34986715},"geometry":{"type":"Polygon","coordinates":[[[-123.041532,43.605688],[-123.042579,43.60568],[-123.042602,43.602106],[-123.047479,43.602064],[-123.047455,43.598485],[-123.047456,43.594924],[-123.047457,43.591363],[-123.042694,43.591454],[-123.037931,43.591544],[-123.032975,43.591572],[-123.028019,43.5916],[-123.028003,43.595135],[-123.027986,43.59867],[-123.03289,43.598625],[-123.037794,43.598579],[-123.037719,43.602148],[-123.037653,43.605718],[-123.041532,43.605688]]]}},{"type":"Feature","properties":{"MAPTAXLOT":"2303030000300","MAPNUMBER":"23030300","TAXLOT":"300","ACCTNO":"0974293","MAPACRES":38.84324804},"geometry":{"type":"Polygon","coordinates":[[[-123.046441,43.60565],[-123.047503,43.605642],[-123.047479,43.602064],[-123.042602,43.602106],[-123.042579,43.60568],[-123.046441,43.60565]]]}},{"type":"Feature","properties":{"MAPTAXLOT":"2303040000088","MAPNUMBER":"23030400","TAXLOT":"88","ACCTNO":"000None","MAPACRES":0.44744553},"geometry":{"type":"Polygon","coordinates":[[[-123.06351,43.595242],[-123.063755,43.595397],[-123.064105,43.595535],[-123.064333,43.595608],[-123.064572,43.59565],[-123.06477,43.595676],[-123.065082,43.595695],[-123.065296,43.595704],[-123.065455,43.595722],[-123.065534,43.595741],[-123.065659,43.595797],[-123.065765,43.595865],[-123.065839,43.595925],[-123.065925,43.595975],[-123.066058,43.59604],[-123.06628,43.596135],[-123.066497,43.596206],[-123.066708,43.5963],[-123.066899,43.596382],[-123.067097,43.596462],[-123.06728,43.596517],[-123.067382,43.596541],[-123.067506,43.596545],[-123.067633,43.596547],[-123.067735,43.59653],[-123.067828,43.596495],[-123.067913,43.596439],[-123.06801,43.596364],[-123.068101,43.596299],[-123.068173,43.596234],[-123.068212,43.596172],[-123.068246,43.59612],[-123.068269,43.59606],[-123.068315,43.596005],[-123.068323,43.595998],[-123.068307,43.595941],[-123.068284,43.595956],[-123.06821,43.596052],[-123.068153,43.596143],[-123.068042,43.596272],[-123.067819,43.596442],[-123.067756,43.596481],[-123.067647,43.596511],[-123.067472,43.59651],[-123.067279,43.596481],[-123.067232,43.596474],[-123.066901,43.596347],[-123.066522,43.596174],[-123.066171,43.596047],[-123.065983,43.595955],[-123.065897,43.595914],[-123.065693,43.595774],[-123.065543,43.595699],[-123.065317,43.595666],[-123.065023,43.595654],[-123.064716,43.595633],[-123.064654,43.595629],[-123.064273,43.595558],[-123.063838,43.59541],[-123.06351,43.595242]]]}},{"type":"Feature","properties":{"MAPTAXLOT":"2303040000100","MAPNUMBER":"23030400","TAXLOT":"100","ACCTNO":"0974319","MAPACRES":471.3266338},"geometry":{"type":"Polygon","coordinates":[[[-123.066484,43.605653],[-123.067425,43.605653],[-123.067362,43.602127],[-123.067297,43.598528],[-123.062271,43.598518],[-123.057339,43.598508],[-123.057342,43.594933],[-123.057343,43.594078],[-123.057345,43.591367],[-123.052401,43.591365],[-123.047457,43.591363],[-123.047456,43.594924],[-123.047455,43.598485],[-123.047479,43.602064],[-123.047503,43.605642],[-123.051366,43.605653],[-123.052418,43.605654],[-123.056289,43.605666],[-123.057334,43.605666],[-123.061209,43.605661],[-123.062255,43.605658],[-123.063815,43.605656],[-123.066484,43.605653]]]}},{"type":"Feature","properties":{"MAPTAXLOT":"2303040000200","MAPNUMBER":"23030400","TAXLOT":"200","ACCTNO":"0974327","MAPACRES":80.29539952},"geometry":{"type":"MultiPolygon","coordinates":[[[[-123.057339,43.598508],[-123.062271,43.598518],[-123.067297,43.598528],[-123.067282,43.596772],[-123.068806,43.596882],[-123.069031,43.596926],[-123.069275,43.597041],[-123.068983,43.596842],[-123.068896,43.596778],[-123.068813,43.596712],[-123.068736,43.596642],[-123.068664,43.59657],[-123.068597,43.596494],[-123.068536,43.596416],[-123.068481,43.596336],[-123.068432,43.596254],[-123.068389,43.59617],[-123.068353,43.596084],[-123.068323,43.595998],[-123.068315,43.596005],[-123.068269,43.59606],[-123.068246,43.59612],[-123.068212,43.596172],[-123.068173,43.596234],[-123.068101,43.596299],[-123.06801,43.596364],[-123.067913,43.596439],[-123.067828,43.596495],[-123.067735,43.59653],[-123.067633,43.596547],[-123.067506,43.596545],[-123.067382,43.596541],[-123.06728,43.596517],[-123.067097,43.596462],[-123.066899,43.596382],[-123.066708,43.5963],[-123.066497,43.596206],[-123.06628,43.596135],[-123.066058,43.59604],[-123.065925,43.595975],[-123.065839,43.595925],[-123.065765,43.595865],[-123.065659,43.595797],[-123.065534,43.595741],[-123.065455,43.595722],[-123.065296,43.595704],[-123.065082,43.595695],[-123.06477,43.595676],[-123.064572,43.59565],[-123.064333,43.595608],[-123.064105,43.595535],[-123.063755,43.595397],[-123.06351,43.595242],[-123.063133,43.595068],[-123.06275,43.594941],[-123.06223,43.594739],[-123.061814,43.59459],[-123.061615,43.594499],[-123.061348,43.594375],[-123.061169,43.59424],[-123.060985,43.594123],[-123.060864,43.594101],[-123.060824,43.594094],[-123.060499,43.59411],[-123.060218,43.594135],[-123.059867,43.594143],[-123.059516,43.59416],[-123.059236,43.594207],[-123.058984,43.594301],[-123.05861,43.594379],[-123.058466,43.594438],[-123.058237,43.594485],[-123.058071,43.594493],[-123.057954,43.594449],[-123.057764,43.594328],[-123.057546,43.594165],[-123.057343,43.594078],[-123.057342,43.594933],[-123.057339,43.598508]]],[[[-123.068586,43.595891],[-123.06869,43.596205],[-123.069139,43.596722],[-123.069315,43.596843],[-123.069877,43.596883],[-123.069777,43.596775],[-123.069598,43.596641],[-123.069336,43.596495],[-123.069242,43.596429],[-123.069067,43.59627],[-123.068951,43.59613],[-123.068823,43.595999],[-123.068728,43.595909],[-123.068614,43.595886],[-123.068586,43.595891]]],[[[-123.07211,43.598289],[-123.072262,43.598349],[-123.072258,43.598155],[-123.07222,43.598143],[-123.07211,43.598289]]]]}},{"type":"Feature","properties":{"MAPTAXLOT":"2303040000600","MAPNUMBER":"23030400","TAXLOT":"600","ACCTNO":"1168929","MAPACRES":22.46023324},"geometry":{"type":"Polygon","coordinates":[[[-123.057343,43.594078],[-123.057546,43.594165],[-123.057764,43.594328],[-123.057954,43.594449],[-123.058071,43.594493],[-123.058237,43.594485],[-123.058466,43.594438],[-123.05861,43.594379],[-123.058984,43.594301],[-123.059236,43.594207],[-123.059516,43.59416],[-123.059867,43.594143],[-123.060218,43.594135],[-123.060499,43.59411],[-123.060824,43.594094],[-123.060864,43.594101],[-123.060855,43.591363],[-123.057345,43.591367],[-123.057343,43.594078]]]}},{"type":"Feature","properties":{"MAPTAXLOT":"2303040000700","MAPNUMBER":"23030400","TAXLOT":"700","ACCTNO":"1179934","MAPACRES":6.36027962},"geometry":{"type":"Polygon","coordinates":[[[-123.067166,43.593497],[-123.067166,43.593549],[-123.067254,43.593549],[-123.067905,43.593548],[-123.067896,43.593497],[-123.067895,43.593493],[-123.067253,43.593494],[-123.067234,43.591354],[-123.064149,43.591359],[-123.064503,43.591518],[-123.064551,43.591541],[-123.064596,43.591567],[-123.064637,43.591596],[-123.064675,43.591627],[-123.06471,43.591661],[-123.064852,43.591814],[-123.064904,43.591865],[-123.064963,43.591912],[-123.065026,43.591956],[-123.065095,43.591996],[-123.065168,43.592032],[-123.065244,43.592062],[-123.066146,43.592388],[-123.06622,43.592417],[-123.06629,43.592451],[-123.066356,43.592489],[-123.066417,43.59253],[-123.066474,43.592575],[-123.066525,43.592624],[-123.06657,43.592675],[-123.06661,43.592729],[-123.066923,43.593202],[-123.066945,43.593231],[-123.066972,43.593256],[-123.067004,43.593279],[-123.06704,43.593298],[-123.06708,43.593313],[-123.067122,43.593325],[-123.067165,43.593332],[-123.067166,43.593497]]]}},{"type":"Feature","properties":{"MAPTAXLOT":"2303040000800","MAPNUMBER":"23030400","TAXLOT":"800","ACCTNO":"1258910","MAPACRES":4.10451909},"geometry":{"type":"Polygon","coordinates":[[[-123.065983,43.595955],[-123.066171,43.596047],[-123.066522,43.596174],[-123.066901,43.596347],[-123.067232,43.596474],[-123.067279,43.596481],[-123.067267,43.595031],[-123.068149,43.595029],[-123.068151,43.595029],[-123.068127,43.594887],[-123.068127,43.594887],[-123.065979,43.59489],[-123.06598,43.595211],[-123.065983,43.595955]]]}},{"type":"Feature","properties":{"MAPTAXLOT":"2303040000900","MAPNUMBER":"23030400","TAXLOT":"900","ACCTNO":"1258928","MAPACRES":19.57604845},"geometry":{"type":"Polygon","coordinates":[[[-123.060864,43.594101],[-123.060985,43.594123],[-123.061169,43.59424],[-123.061348,43.594375],[-123.061615,43.594499],[-123.061814,43.59459],[-123.06223,43.594739],[-123.06275,43.594941],[-123.063133,43.595068],[-123.06351,43.595242],[-123.063497,43.591359],[-123.062288,43.591361],[-123.060855,43.591363],[-123.060864,43.594101]]]}},{"type":"Feature","properties":{"MAPTAXLOT":"2303040001000","MAPNUMBER":"23030400","TAXLOT":"1000","ACCTNO":"1597747","MAPACRES":16.58323991},"geometry":{"type":"Polygon","coordinates":[[[-123.06351,43.595242],[-123.063838,43.59541],[-123.064273,43.595558],[-123.064654,43.595629],[-123.064716,43.595633],[-123.06471,43.593865],[-123.065545,43.593998],[-123.065569,43.593922],[-123.065873,43.592965],[-123.066513,43.592963],[-123.066719,43.593274],[-123.066747,43.593311],[-123.066782,43.593347],[-123.066821,43.593379],[-123.066865,43.593408],[-123.066912,43.593434],[-123.066964,43.593456],[-123.067018,43.593473],[-123.067075,43.593486],[-123.067133,43.593494],[-123.067166,43.593497],[-123.067165,43.593332],[-123.067122,43.593325],[-123.06708,43.593313],[-123.06704,43.593298],[-123.067004,43.593279],[-123.066972,43.593256],[-123.066945,43.593231],[-123.066923,43.593202],[-123.06661,43.592729],[-123.06657,43.592675],[-123.066525,43.592624],[-123.066474,43.592575],[-123.066417,43.59253],[-123.066356,43.592489],[-123.06629,43.592451],[-123.06622,43.592417],[-123.066146,43.592388],[-123.065244,43.592062],[-123.065168,43.592032],[-123.065095,43.591996],[-123.065026,43.591956],[-123.064963,43.591912],[-123.064904,43.591865],[-123.064852,43.591814],[-123.06471,43.591661],[-123.064675,43.591627],[-123.064637,43.591596],[-123.064596,43.591567],[-123.064551,43.591541],[-123.064503,43.591518],[-123.064149,43.591359],[-123.063497,43.591359],[-123.06351,43.595242]]]}},{"type":"Feature","properties":{"MAPTAXLOT":"2303040001001","MAPNUMBER":"23030400","TAXLOT":"1001","ACCTNO":"1797388","MAPACRES":4.25395726},"geometry":{"type":"Polygon","coordinates":[[[-123.06724,43.594197],[-123.067243,43.594198],[-123.067243,43.594198],[-123.068024,43.594327],[-123.068027,43.594327],[-123.068032,43.594328],[-123.068034,43.594328],[-123.067905,43.593548],[-123.067254,43.593549],[-123.067166,43.593549],[-123.067166,43.593497],[-123.067133,43.593494],[-123.067075,43.593486],[-123.067018,43.593473],[-123.066964,43.593456],[-123.066912,43.593434],[-123.066865,43.593408],[-123.066821,43.593379],[-123.066782,43.593347],[-123.066747,43.593311],[-123.066719,43.593274],[-123.066513,43.592963],[-123.065873,43.592965],[-123.065569,43.593922],[-123.065579,43.593923],[-123.065719,43.593946],[-123.066999,43.594158],[-123.067215,43.594193],[-123.067217,43.594194],[-123.067224,43.594195],[-123.067235,43.594196],[-123.067235,43.594196],[-123.06724,43.594197]]]}},{"type":"Feature","properties":{"MAPTAXLOT":"2303040001002","MAPNUMBER":"23030400","TAXLOT":"1002","ACCTNO":"1914976","MAPACRES":8.11680266},"geometry":{"type":"Polygon","coordinates":[[[-123.064716,43.595633],[-123.065023,43.595654],[-123.065317,43.595666],[-123.065543,43.595699],[-123.065693,43.595774],[-123.065897,43.595914],[-123.065983,43.595955],[-123.06598,43.595211],[-123.065979,43.59489],[-123.068127,43.594887],[-123.068127,43.594887],[-123.068034,43.594328],[-123.068032,43.594328],[-123.068027,43.594327],[-123.068024,43.594327],[-123.067243,43.594198],[-123.067243,43.594198],[-123.06724,43.594197],[-123.066919,43.594211],[-123.066885,43.594212],[-123.066884,43.594212],[-123.066773,43.594195],[-123.066364,43.594129],[-123.066149,43.594095],[-123.065545,43.593998],[-123.06471,43.593865],[-123.064716,43.595633]]]}},{"type":"Feature","properties":{"MAPTAXLOT":"2303050000077","MAPNUMBER":"23030500","TAXLOT":"77","ACCTNO":"000None","MAPACRES":4.10691674},"geometry":{"type":"Polygon","coordinates":[[[-123.077655,43.605656],[-123.077875,43.605658],[-123.077875,43.605658],[-123.07784,43.60548],[-123.077811,43.605303],[-123.077803,43.605252],[-123.077784,43.605141],[-123.077758,43.60503],[-123.077726,43.604921],[-123.077687,43.604812],[-123.077643,43.604705],[-123.077592,43.604599],[-123.077535,43.604495],[-123.077473,43.604393],[-123.077405,43.604292],[-123.077331,43.604194],[-123.077251,43.604098],[-123.077166,43.604005],[-123.076136,43.602919],[-123.075982,43.602761],[-123.075823,43.602606],[-123.075664,43.602458],[-123.075499,43.602313],[-123.07533,43.602171],[-123.075157,43.602031],[-123.074978,43.601895],[-123.074796,43.601762],[-123.074168,43.601314],[-123.074106,43.601268],[-123.074047,43.60122],[-123.073973,43.601153],[-123.073905,43.601084],[-123.073842,43.601011],[-123.073784,43.600936],[-123.073733,43.600859],[-123.073688,43.60078],[-123.073649,43.600699],[-123.073617,43.600617],[-123.073592,43.600533],[-123.073573,43.600449],[-123.07356,43.600364],[-123.073555,43.600278],[-123.073556,43.600192],[-123.073571,43.599917],[-123.073583,43.599693],[-123.073584,43.599612],[-123.073578,43.599532],[-123.073565,43.599452],[-123.073545,43.599372],[-123.073518,43.599294],[-123.073485,43.599217],[-123.073445,43.599142],[-123.073399,43.599068],[-123.073346,43.598997],[-123.073288,43.598929],[-123.073224,43.598863],[-123.073154,43.5988],[-123.073079,43.598741],[-123.072999,43.598685],[-123.072914,43.598632],[-123.072825,43.598584],[-123.072733,43.59854],[-123.072265,43.598539],[-123.072287,43.598548],[-123.072557,43.598656],[-123.072637,43.598691],[-123.072714,43.598729],[-123.072788,43.59877],[-123.072859,43.598815],[-123.072931,43.598866],[-123.072999,43.598921],[-123.073061,43.59898],[-123.073119,43.599042],[-123.073171,43.599107],[-123.073218,43.599174],[-123.073257,43.599244],[-123.073291,43.599315],[-123.073318,43.599388],[-123.073338,43.599462],[-123.073351,43.599536],[-123.073357,43.599611],[-123.073357,43.599687],[-123.073344,43.59991],[-123.07333,43.600186],[-123.073328,43.600274],[-123.073333,43.600361],[-123.073344,43.600448],[-123.073362,43.600535],[-123.073386,43.600621],[-123.073416,43.600706],[-123.073452,43.600789],[-123.073494,43.600871],[-123.073542,43.600951],[-123.073569,43.600991],[-123.073621,43.601063],[-123.073678,43.601132],[-123.073739,43.601199],[-123.073805,43.601264],[-123.073875,43.601327],[-123.073941,43.60138],[-123.07401,43.601431],[-123.074637,43.601879],[-123.074743,43.601957],[-123.074912,43.602081],[-123.075037,43.602181],[-123.075163,43.602282],[-123.075259,43.602366],[-123.075282,43.602386],[-123.075399,43.602492],[-123.075517,43.602597],[-123.075633,43.602704],[-123.075744,43.602812],[-123.075858,43.60292],[-123.07595,43.603013],[-123.076084,43.603139],[-123.07617,43.603229],[-123.076301,43.603367],[-123.07633,43.603397],[-123.076513,43.60359],[-123.076737,43.603811],[-123.076952,43.604037],[-123.076991,43.604093],[-123.07705,43.604152],[-123.077143,43.604267],[-123.077235,43.604383],[-123.077321,43.604501],[-123.077398,43.604623],[-123.07747,43.604747],[-123.077489,43.604788],[-123.077515,43.604877],[-123.077539,43.605011],[-123.077562,43.605143],[-123.077585,43.605269],[-123.077594,43.605319],[-123.077634,43.605548],[-123.077655,43.605656],[-123.077655,43.605656]]]}},{"type":"Feature","properties":{"MAPTAXLOT":"2303050000088","MAPNUMBER":"23030500","TAXLOT":"88","ACCTNO":"000None","MAPACRES":1.4948865},"geometry":{"type":"Polygon","coordinates":[[[-123.078016,43.605659],[-123.078091,43.60566],[-123.078091,43.60566],[-123.078103,43.605572],[-123.078104,43.605331],[-123.078118,43.605129],[-123.078085,43.604998],[-123.078101,43.604864],[-123.078103,43.604796],[-123.078107,43.604739],[-123.078102,43.604634],[-123.078025,43.604467],[-123.077907,43.604362],[-123.077762,43.604232],[-123.077557,43.604097],[-123.077472,43.604011],[-123.077309,43.603897],[-123.077255,43.60382],[-123.077203,43.603708],[-123.07721,43.603616],[-123.077234,43.603542],[-123.07723,43.603448],[-123.077189,43.603388],[-123.0771,43.60332],[-123.077078,43.603265],[-123.077009,43.603153],[-123.076891,43.603064],[-123.076748,43.602944],[-123.076583,43.602819],[-123.076383,43.602663],[-123.076167,43.602516],[-123.076091,43.602458],[-123.076003,43.602391],[-123.07585,43.602287],[-123.075675,43.602149],[-123.075443,43.601942],[-123.075288,43.601832],[-123.075095,43.601708],[-123.074968,43.601621],[-123.07483,43.601559],[-123.07465,43.601485],[-123.074546,43.601392],[-123.074452,43.601305],[-123.074397,43.60121],[-123.074381,43.601084],[-123.074382,43.600982],[-123.074444,43.600868],[-123.074515,43.600789],[-123.074651,43.600692],[-123.074765,43.600608],[-123.074963,43.600421],[-123.075082,43.600282],[-123.075139,43.600137],[-123.075185,43.600006],[-123.075149,43.599846],[-123.075057,43.599688],[-123.074939,43.599525],[-123.074774,43.59933],[-123.074535,43.599142],[-123.074331,43.599002],[-123.074163,43.598872],[-123.073884,43.598741],[-123.073574,43.598595],[-123.073446,43.598541],[-123.073294,43.598541],[-123.073535,43.598642],[-123.073843,43.598787],[-123.074114,43.598915],[-123.074277,43.599041],[-123.074481,43.59918],[-123.074714,43.599363],[-123.074874,43.599552],[-123.074989,43.599712],[-123.075076,43.599862],[-123.075108,43.600004],[-123.075066,43.600123],[-123.075013,43.60026],[-123.074901,43.60039],[-123.074708,43.600572],[-123.074597,43.600653],[-123.074456,43.600754],[-123.074377,43.600843],[-123.074307,43.600972],[-123.074306,43.601086],[-123.074307,43.601098],[-123.07431,43.601118],[-123.074323,43.601223],[-123.074386,43.601333],[-123.074487,43.601426],[-123.074601,43.601528],[-123.074791,43.601606],[-123.074922,43.601665],[-123.075044,43.601749],[-123.075236,43.601872],[-123.075387,43.601979],[-123.075618,43.602184],[-123.075796,43.602326],[-123.075949,43.602431],[-123.076031,43.602492],[-123.076114,43.602555],[-123.07633,43.602702],[-123.076528,43.602857],[-123.076693,43.602981],[-123.076835,43.603101],[-123.076945,43.603184],[-123.077007,43.603284],[-123.077033,43.603348],[-123.077126,43.60342],[-123.077155,43.603462],[-123.077159,43.603536],[-123.077134,43.603608],[-123.077127,43.603716],[-123.077185,43.603841],[-123.077248,43.60393],[-123.077414,43.604048],[-123.077501,43.604134],[-123.077707,43.604269],[-123.077848,43.604397],[-123.077958,43.604494],[-123.078027,43.604644],[-123.078031,43.604739],[-123.078028,43.604794],[-123.078025,43.604861],[-123.078009,43.605],[-123.078042,43.605132],[-123.078029,43.60533],[-123.078028,43.605569],[-123.078016,43.605659],[-123.078016,43.605659]]]}},{"type":"Feature","properties":{"MAPTAXLOT":"2303050000100","MAPNUMBER":"23030500","TAXLOT":"100","ACCTNO":"1627437","MAPACRES":39.89310136},"geometry":{"type":"Polygon","coordinates":[[[-123.067362,43.602127],[-123.072331,43.60214],[-123.072313,43.6012],[-123.072273,43.598978],[-123.073061,43.59898],[-123.072999,43.598921],[-123.072931,43.598866],[-123.072859,43.598815],[-123.07227,43.598813],[-123.072265,43.598539],[-123.070877,43.598536],[-123.06985,43.598534],[-123.067297,43.598528],[-123.067362,43.602127]]]}},{"type":"Feature","properties":{"MAPTAXLOT":"2303050000101","MAPNUMBER":"23030500","TAXLOT":"101","ACCTNO":"0974376","MAPACRES":38.76498518},"geometry":{"type":"Polygon","coordinates":[[[-123.067425,43.605653],[-123.071699,43.605653],[-123.072395,43.605654],[-123.072394,43.60561],[-123.072331,43.60214],[-123.067362,43.602127],[-123.067425,43.605653]]]}},{"type":"Feature","properties":{"MAPTAXLOT":"2303050000200","MAPNUMBER":"23030500","TAXLOT":"200","ACCTNO":"0974384","MAPACRES":9.83881227},"geometry":{"type":"Polygon","coordinates":[[[-123.073857,43.603843],[-123.075103,43.603855],[-123.075798,43.603739],[-123.075668,43.603544],[-123.076212,43.603405],[-123.07633,43.603397],[-123.076301,43.603367],[-123.07617,43.603229],[-123.076084,43.603139],[-123.07595,43.603013],[-123.075858,43.60292],[-123.075744,43.602812],[-123.075633,43.602704],[-123.075517,43.602597],[-123.075399,43.602492],[-123.075282,43.602386],[-123.075259,43.602366],[-123.075163,43.602282],[-123.075037,43.602181],[-123.074912,43.602081],[-123.074743,43.601957],[-123.072471,43.602417],[-123.073603,43.603581],[-123.073857,43.603843]]]}},{"type":"Feature","properties":{"MAPTAXLOT":"2303050000201","MAPNUMBER":"23030500","TAXLOT":"201","ACCTNO":"1180445","MAPACRES":49.33323809},"geometry":{"type":"Polygon","coordinates":[[[-123.071695,43.60771],[-123.075771,43.607726],[-123.076677,43.607231],[-123.077519,43.606804],[-123.077946,43.606672],[-123.077874,43.606469],[-123.077808,43.606275],[-123.077749,43.60608],[-123.077697,43.605883],[-123.077651,43.605686],[-123.077657,43.605668],[-123.077655,43.605656],[-123.077655,43.605656],[-123.077634,43.605548],[-123.077594,43.605319],[-123.077585,43.605269],[-123.077562,43.605143],[-123.077539,43.605011],[-123.077515,43.604877],[-123.077489,43.604788],[-123.07747,43.604747],[-123.077398,43.604623],[-123.077321,43.604501],[-123.077235,43.604383],[-123.077143,43.604267],[-123.07705,43.604152],[-123.076991,43.604093],[-123.076952,43.604037],[-123.076737,43.603811],[-123.076513,43.60359],[-123.07633,43.603397],[-123.076212,43.603405],[-123.075668,43.603544],[-123.075798,43.603739],[-123.075103,43.603855],[-123.073857,43.603843],[-123.073603,43.603581],[-123.072471,43.602417],[-123.072467,43.6021],[-123.072455,43.601217],[-123.073569,43.600991],[-123.073542,43.600951],[-123.072313,43.6012],[-123.072331,43.60214],[-123.072394,43.60561],[-123.072395,43.605654],[-123.071699,43.605653],[-123.071695,43.60771]]]}},{"type":"Feature","properties":{"MAPTAXLOT":"2303050000300","MAPNUMBER":"23030500","TAXLOT":"300","ACCTNO":"0974392","MAPACRES":8.86703561},"geometry":{"type":"Polygon","coordinates":[[[-123.080244,43.60568],[-123.080244,43.60568],[-123.080511,43.605682],[-123.077732,43.602354],[-123.074703,43.598725],[-123.074552,43.598544],[-123.072686,43.596309],[-123.07248,43.596064],[-123.072269,43.595822],[-123.070072,43.593364],[-123.070063,43.591347],[-123.07005,43.591347],[-123.069816,43.591348],[-123.06979,43.591348],[-123.069633,43.592701],[-123.069721,43.593177],[-123.069968,43.59355],[-123.070277,43.593895],[-123.071216,43.594947],[-123.071825,43.595629],[-123.072667,43.596603],[-123.072667,43.596604],[-123.072669,43.596605],[-123.073488,43.597588],[-123.074286,43.598543],[-123.077093,43.601906],[-123.080244,43.60568],[-123.080244,43.60568]]]}},{"type":"Feature","properties":{"MAPTAXLOT":"2303050000400","MAPNUMBER":"23030500","TAXLOT":"400","ACCTNO":"0974400","MAPACRES":6.10885286},"geometry":{"type":"Polygon","coordinates":[[[-123.072733,43.59854],[-123.072825,43.598584],[-123.072914,43.598632],[-123.072999,43.598685],[-123.073079,43.598741],[-123.073154,43.5988],[-123.073224,43.598863],[-123.073288,43.598929],[-123.073346,43.598997],[-123.073399,43.599068],[-123.073445,43.599142],[-123.073485,43.599217],[-123.073518,43.599294],[-123.073545,43.599372],[-123.073565,43.599452],[-123.073578,43.599532],[-123.073584,43.599612],[-123.073583,43.599693],[-123.073571,43.599917],[-123.073556,43.600192],[-123.073555,43.600278],[-123.07356,43.600364],[-123.073573,43.600449],[-123.073592,43.600533],[-123.073617,43.600617],[-123.073649,43.600699],[-123.073688,43.60078],[-123.073733,43.600859],[-123.073784,43.600936],[-123.073842,43.601011],[-123.073905,43.601084],[-123.073973,43.601153],[-123.074047,43.60122],[-123.074118,43.601185],[-123.07431,43.601118],[-123.074307,43.601098],[-123.074306,43.601086],[-123.074307,43.600972],[-123.074377,43.600843],[-123.074456,43.600754],[-123.074597,43.600653],[-123.074708,43.600572],[-123.074901,43.60039],[-123.075013,43.60026],[-123.075066,43.600123],[-123.075108,43.600004],[-123.075076,43.599862],[-123.074989,43.599712],[-123.074874,43.599552],[-123.074714,43.599363],[-123.074481,43.59918],[-123.074277,43.599041],[-123.074114,43.598915],[-123.073843,43.598787],[-123.073535,43.598642],[-123.073294,43.598541],[-123.072733,43.59854]]]}},{"type":"Feature","properties":{"MAPTAXLOT":"2303050000401","MAPNUMBER":"23030500","TAXLOT":"401","ACCTNO":"1111960","MAPACRES":67.25526234},"geometry":{"type":"MultiPolygon","coordinates":[[[[-123.07887,43.599719],[-123.079052,43.599921],[-123.079357,43.600311],[-123.079831,43.600501],[-123.080353,43.6005],[-123.080431,43.600769],[-123.079369,43.601164],[-123.077732,43.602354],[-123.080511,43.605682],[-123.080511,43.605682],[-123.080851,43.605685],[-123.081671,43.605693],[-123.082343,43.605698],[-123.082343,43.605698],[-123.082264,43.602166],[-123.082183,43.59856],[-123.077201,43.59855],[-123.074552,43.598544],[-123.074703,43.598725],[-123.076298,43.59873],[-123.076373,43.598872],[-123.076714,43.599112],[-123.077053,43.599132],[-123.077492,43.598981],[-123.077918,43.599057],[-123.078404,43.599028],[-123.07887,43.599719]]],[[[-123.075823,43.602606],[-123.075982,43.602761],[-123.076136,43.602919],[-123.077166,43.604005],[-123.077251,43.604098],[-123.077331,43.604194],[-123.077405,43.604292],[-123.077473,43.604393],[-123.077535,43.604495],[-123.077592,43.604599],[-123.077643,43.604705],[-123.077687,43.604812],[-123.077726,43.604921],[-123.077758,43.60503],[-123.077784,43.605141],[-123.077803,43.605252],[-123.077811,43.605303],[-123.07784,43.60548],[-123.077875,43.605658],[-123.077875,43.605658],[-123.078016,43.605659],[-123.078016,43.605659],[-123.078028,43.605569],[-123.078029,43.60533],[-123.078042,43.605132],[-123.078009,43.605],[-123.078025,43.604861],[-123.078028,43.604794],[-123.078031,43.604739],[-123.078027,43.604644],[-123.077958,43.604494],[-123.077848,43.604397],[-123.077707,43.604269],[-123.077501,43.604134],[-123.077414,43.604048],[-123.077248,43.60393],[-123.077185,43.603841],[-123.077127,43.603716],[-123.077134,43.603608],[-123.077159,43.603536],[-123.077155,43.603462],[-123.077126,43.60342],[-123.077033,43.603348],[-123.077007,43.603284],[-123.076945,43.603184],[-123.076835,43.603101],[-123.076693,43.602981],[-123.076528,43.602857],[-123.07633,43.602702],[-123.076114,43.602555],[-123.076031,43.602492],[-123.075823,43.602606]]],[[[-123.076091,43.602458],[-123.076167,43.602516],[-123.076383,43.602663],[-123.076583,43.602819],[-123.076748,43.602944],[-123.076891,43.603064],[-123.077009,43.603153],[-123.077078,43.603265],[-123.0771,43.60332],[-123.077189,43.603388],[-123.07723,43.603448],[-123.077234,43.603542],[-123.07721,43.603616],[-123.077203,43.603708],[-123.077255,43.60382],[-123.077309,43.603897],[-123.077472,43.604011],[-123.077557,43.604097],[-123.077762,43.604232],[-123.077907,43.604362],[-123.078025,43.604467],[-123.078102,43.604634],[-123.078107,43.604739],[-123.078103,43.604796],[-123.078101,43.604864],[-123.078085,43.604998],[-123.078118,43.605129],[-123.078104,43.605331],[-123.078103,43.605572],[-123.078091,43.60566],[-123.078091,43.60566],[-123.080244,43.60568],[-123.080244,43.60568],[-123.077093,43.601906],[-123.076091,43.602458]]]]}},{"type":"Feature","properties":{"MAPTAXLOT":"2303050000402","MAPNUMBER":"23030500","TAXLOT":"402","ACCTNO":"1410685","MAPACRES":9.25956324},"geometry":{"type":"MultiPolygon","coordinates":[[[[-123.073574,43.598595],[-123.073884,43.598741],[-123.074163,43.598872],[-123.074331,43.599002],[-123.074535,43.599142],[-123.074774,43.59933],[-123.074939,43.599525],[-123.075057,43.599688],[-123.075149,43.599846],[-123.075185,43.600006],[-123.075139,43.600137],[-123.075082,43.600282],[-123.074963,43.600421],[-123.074765,43.600608],[-123.074651,43.600692],[-123.074515,43.600789],[-123.074444,43.600868],[-123.074382,43.600982],[-123.074381,43.601084],[-123.074397,43.60121],[-123.074452,43.601305],[-123.074546,43.601392],[-123.07465,43.601485],[-123.07483,43.601559],[-123.074968,43.601621],[-123.075095,43.601708],[-123.075288,43.601832],[-123.075443,43.601942],[-123.075675,43.602149],[-123.07585,43.602287],[-123.076003,43.602391],[-123.076091,43.602458],[-123.077093,43.601906],[-123.074286,43.598543],[-123.073446,43.598541],[-123.073574,43.598595]]],[[[-123.074118,43.601185],[-123.074047,43.60122],[-123.074106,43.601268],[-123.074168,43.601314],[-123.074796,43.601762],[-123.074978,43.601895],[-123.075157,43.602031],[-123.07533,43.602171],[-123.075499,43.602313],[-123.075664,43.602458],[-123.075823,43.602606],[-123.076031,43.602492],[-123.075949,43.602431],[-123.075796,43.602326],[-123.075618,43.602184],[-123.075387,43.601979],[-123.075236,43.601872],[-123.075044,43.601749],[-123.074922,43.601665],[-123.074791,43.601606],[-123.074601,43.601528],[-123.074487,43.601426],[-123.074386,43.601333],[-123.074323,43.601223],[-123.07431,43.601118],[-123.074118,43.601185]]]]}},{"type":"Feature","properties":{"MAPTAXLOT":"2303050000403","MAPNUMBER":"23030500","TAXLOT":"403","ACCTNO":"1410693","MAPACRES":20.79986142},"geometry":{"type":"Polygon","coordinates":[[[-123.074703,43.598725],[-123.077732,43.602354],[-123.079369,43.601164],[-123.080431,43.600769],[-123.080353,43.6005],[-123.079831,43.600501],[-123.079357,43.600311],[-123.079052,43.599921],[-123.07887,43.599719],[-123.078404,43.599028],[-123.077918,43.599057],[-123.077492,43.598981],[-123.077053,43.599132],[-123.076714,43.599112],[-123.076373,43.598872],[-123.076298,43.59873],[-123.074703,43.598725]]]}},{"type":"Feature","properties":{"MAPTAXLOT":"2303050000500","MAPNUMBER":"23030500","TAXLOT":"500","ACCTNO":"0974418","MAPACRES":198.05825656},"geometry":{"type":"Polygon","coordinates":[[[-123.077118,43.594955],[-123.082102,43.594962],[-123.082183,43.59856],[-123.082264,43.602166],[-123.082343,43.605698],[-123.082343,43.605698],[-123.085279,43.605725],[-123.086676,43.605738],[-123.087321,43.605738],[-123.087321,43.605738],[-123.087227,43.602179],[-123.08713,43.598571],[-123.087069,43.594968],[-123.087008,43.591366],[-123.082021,43.591347],[-123.077034,43.591329],[-123.077118,43.594955]]]}},{"type":"Feature","properties":{"MAPTAXLOT":"2303050000600","MAPNUMBER":"23030500","TAXLOT":"600","ACCTNO":"0974426","MAPACRES":2.89051777},"geometry":{"type":"Polygon","coordinates":[[[-123.072467,43.6021],[-123.072471,43.602417],[-123.074743,43.601957],[-123.074637,43.601879],[-123.07401,43.601431],[-123.073941,43.60138],[-123.073875,43.601327],[-123.073797,43.601379],[-123.073511,43.601464],[-123.073249,43.601474],[-123.073007,43.601515],[-123.072806,43.601667],[-123.072735,43.60182],[-123.07271,43.601971],[-123.072583,43.602056],[-123.072467,43.6021]]]}},{"type":"Feature","properties":{"MAPTAXLOT":"2303050000601","MAPNUMBER":"23030500","TAXLOT":"601","ACCTNO":"1012200","MAPACRES":1.50106498},"geometry":{"type":"Polygon","coordinates":[[[-123.073569,43.600991],[-123.072455,43.601217],[-123.072467,43.6021],[-123.072583,43.602056],[-123.07271,43.601971],[-123.072735,43.60182],[-123.072806,43.601667],[-123.073007,43.601515],[-123.073249,43.601474],[-123.073511,43.601464],[-123.073797,43.601379],[-123.073875,43.601327],[-123.073805,43.601264],[-123.073739,43.601199],[-123.073678,43.601132],[-123.073621,43.601063],[-123.073569,43.600991]]]}},{"type":"Feature","properties":{"MAPTAXLOT":"2303050000700","MAPNUMBER":"23030500","TAXLOT":"700","ACCTNO":"0974434","MAPACRES":5.10176365},"geometry":{"type":"MultiPolygon","coordinates":[[[[-123.072313,43.6012],[-123.073542,43.600951],[-123.073494,43.600871],[-123.073452,43.600789],[-123.073416,43.600706],[-123.073386,43.600621],[-123.073362,43.600535],[-123.073344,43.600448],[-123.073333,43.600361],[-123.073328,43.600274],[-123.07333,43.600186],[-123.073344,43.59991],[-123.073357,43.599687],[-123.073357,43.599611],[-123.073351,43.599536],[-123.073338,43.599462],[-123.073318,43.599388],[-123.073291,43.599315],[-123.073257,43.599244],[-123.073218,43.599174],[-123.073171,43.599107],[-123.073119,43.599042],[-123.073061,43.59898],[-123.072273,43.598978],[-123.072313,43.6012]]],[[[-123.07227,43.598813],[-123.072859,43.598815],[-123.072788,43.59877],[-123.072714,43.598729],[-123.072637,43.598691],[-123.072557,43.598656],[-123.072287,43.598548],[-123.072265,43.598539],[-123.07227,43.598813]]]]}},{"type":"Feature","properties":{"MAPTAXLOT":"2303054000077","MAPNUMBER":"23030540","TAXLOT":"77","ACCTNO":"000None","MAPACRES":5.68587701},"geometry":{"type":"Polygon","coordinates":[[[-123.072265,43.598539],[-123.072733,43.59854],[-123.072666,43.598512],[-123.072397,43.598404],[-123.072262,43.598349],[-123.07211,43.598289],[-123.07222,43.598143],[-123.07207,43.598097],[-123.071724,43.59801],[-123.071611,43.597949],[-123.071424,43.59783],[-123.071166,43.597699],[-123.070915,43.597638],[-123.070767,43.5976],[-123.070614,43.597533],[-123.07045,43.597424],[-123.070316,43.59729],[-123.070141,43.597139],[-123.070037,43.597056],[-123.069908,43.596918],[-123.069877,43.596883],[-123.069315,43.596843],[-123.069139,43.596722],[-123.06869,43.596205],[-123.068586,43.595891],[-123.068565,43.595828],[-123.068457,43.595501],[-123.068364,43.594943],[-123.068188,43.593879],[-123.068121,43.593477],[-123.068108,43.593377],[-123.068102,43.593276],[-123.068104,43.593175],[-123.068114,43.593075],[-123.06813,43.592975],[-123.068154,43.592875],[-123.068186,43.592777],[-123.068242,43.592622],[-123.068697,43.59135],[-123.068463,43.591351],[-123.067967,43.592736],[-123.067937,43.592829],[-123.067912,43.592922],[-123.067894,43.593017],[-123.067882,43.593112],[-123.067876,43.593207],[-123.067877,43.593303],[-123.067883,43.593398],[-123.067895,43.593493],[-123.067896,43.593497],[-123.067905,43.593548],[-123.068034,43.594328],[-123.068127,43.594887],[-123.068151,43.595029],[-123.068285,43.595836],[-123.068295,43.595889],[-123.068307,43.595941],[-123.068323,43.595998],[-123.068353,43.596084],[-123.068389,43.59617],[-123.068432,43.596254],[-123.068481,43.596336],[-123.068536,43.596416],[-123.068597,43.596494],[-123.068664,43.59657],[-123.068736,43.596642],[-123.068813,43.596712],[-123.068896,43.596778],[-123.068983,43.596842],[-123.069275,43.597041],[-123.06983,43.597422],[-123.069981,43.597525],[-123.070096,43.597601],[-123.070216,43.597673],[-123.07034,43.597742],[-123.070468,43.597807],[-123.070599,43.597867],[-123.070733,43.597924],[-123.070867,43.597978],[-123.072265,43.598539]]]}},{"type":"Feature","properties":{"MAPTAXLOT":"2303054000088","MAPNUMBER":"23030540","TAXLOT":"88","ACCTNO":"000None","MAPACRES":0.87798681},"geometry":{"type":"Polygon","coordinates":[[[-123.073294,43.598541],[-123.073446,43.598541],[-123.073266,43.598466],[-123.073023,43.598359],[-123.072669,43.598234],[-123.072378,43.598132],[-123.07231,43.598112],[-123.072097,43.598046],[-123.071759,43.597961],[-123.071658,43.597907],[-123.071471,43.597787],[-123.071201,43.597649],[-123.07094,43.597586],[-123.070799,43.59755],[-123.07066,43.597488],[-123.070507,43.597388],[-123.070376,43.597256],[-123.070198,43.597103],[-123.070096,43.597022],[-123.069971,43.596887],[-123.069836,43.59674],[-123.069652,43.596602],[-123.069624,43.596589],[-123.069463,43.596511],[-123.069427,43.596486],[-123.069313,43.596408],[-123.069149,43.59628],[-123.069056,43.596163],[-123.068927,43.596017],[-123.068809,43.595903],[-123.068733,43.595791],[-123.068693,43.595679],[-123.068701,43.595566],[-123.06869,43.595503],[-123.068666,43.595463],[-123.068636,43.595392],[-123.068606,43.595329],[-123.068602,43.595245],[-123.068611,43.595201],[-123.068653,43.595156],[-123.068718,43.595126],[-123.068821,43.595092],[-123.068918,43.595038],[-123.068959,43.594973],[-123.068958,43.594943],[-123.068956,43.594943],[-123.068894,43.594943],[-123.068856,43.595011],[-123.068699,43.595074],[-123.068565,43.595169],[-123.068547,43.595265],[-123.068573,43.595353],[-123.068627,43.595472],[-123.06865,43.595584],[-123.068651,43.595694],[-123.068652,43.595777],[-123.068605,43.595815],[-123.068565,43.595828],[-123.068586,43.595891],[-123.068614,43.595886],[-123.068728,43.595909],[-123.068823,43.595999],[-123.068951,43.59613],[-123.069067,43.59627],[-123.069242,43.596429],[-123.069336,43.596495],[-123.069598,43.596641],[-123.069777,43.596775],[-123.069877,43.596883],[-123.069908,43.596918],[-123.070037,43.597056],[-123.070141,43.597139],[-123.070316,43.59729],[-123.07045,43.597424],[-123.070614,43.597533],[-123.070767,43.5976],[-123.070915,43.597638],[-123.071166,43.597699],[-123.071424,43.59783],[-123.071611,43.597949],[-123.071724,43.59801],[-123.07207,43.598097],[-123.07222,43.598143],[-123.072258,43.598155],[-123.072347,43.598182],[-123.072637,43.598284],[-123.072987,43.598407],[-123.073227,43.598513],[-123.073294,43.598541]]]}},{"type":"Feature","properties":{"MAPTAXLOT":"2303054000100","MAPNUMBER":"23030540","TAXLOT":"100","ACCTNO":"0974442","MAPACRES":8.99642384},"geometry":{"type":"Polygon","coordinates":[[[-123.067297,43.598528],[-123.06985,43.598534],[-123.06983,43.597422],[-123.069275,43.597041],[-123.069031,43.596926],[-123.068806,43.596882],[-123.067282,43.596772],[-123.067297,43.598528]]]}},{"type":"Feature","properties":{"MAPTAXLOT":"2303054000200","MAPNUMBER":"23030540","TAXLOT":"200","ACCTNO":"0974459","MAPACRES":1.83163741},"geometry":{"type":"Polygon","coordinates":[[[-123.06985,43.598534],[-123.070877,43.598536],[-123.070867,43.597978],[-123.070733,43.597924],[-123.070599,43.597867],[-123.070468,43.597807],[-123.07034,43.597742],[-123.070216,43.597673],[-123.070096,43.597601],[-123.069981,43.597525],[-123.06983,43.597422],[-123.06985,43.598534]]]}},{"type":"Feature","properties":{"MAPTAXLOT":"2303054000300","MAPNUMBER":"23030540","TAXLOT":"300","ACCTNO":"0974467","MAPACRES":0.85851197},"geometry":{"type":"Polygon","coordinates":[[[-123.070877,43.598536],[-123.072265,43.598539],[-123.070867,43.597978],[-123.070877,43.598536]]]}},{"type":"Feature","properties":{"MAPTAXLOT":"2303054000400","MAPNUMBER":"23030540","TAXLOT":"400","ACCTNO":"0974475","MAPACRES":17.36949818},"geometry":{"type":"MultiPolygon","coordinates":[[[[-123.07155,43.596054],[-123.071445,43.596044],[-123.071338,43.596038],[-123.071232,43.596038],[-123.071125,43.596042],[-123.07102,43.596051],[-123.070915,43.596065],[-123.070811,43.596084],[-123.07071,43.596107],[-123.07061,43.596135],[-123.070514,43.596167],[-123.07042,43.596204],[-123.07033,43.596245],[-123.069624,43.596589],[-123.069652,43.596602],[-123.069836,43.59674],[-123.069971,43.596887],[-123.070096,43.597022],[-123.070198,43.597103],[-123.070376,43.597256],[-123.070507,43.597388],[-123.07066,43.597488],[-123.070799,43.59755],[-123.07094,43.597586],[-123.071201,43.597649],[-123.071471,43.597787],[-123.071658,43.597907],[-123.071759,43.597961],[-123.072097,43.598046],[-123.07231,43.598112],[-123.072444,43.598064],[-123.072444,43.598064],[-123.072348,43.598024],[-123.072383,43.597612],[-123.073488,43.597588],[-123.072669,43.596605],[-123.072667,43.596604],[-123.072667,43.596603],[-123.072607,43.596539],[-123.072542,43.596478],[-123.072471,43.596419],[-123.072396,43.596365],[-123.072316,43.596313],[-123.072231,43.596266],[-123.072143,43.596223],[-123.072051,43.596183],[-123.071956,43.596148],[-123.071858,43.596118],[-123.071757,43.596092],[-123.071655,43.596071],[-123.07155,43.596054]]],[[[-123.068927,43.596017],[-123.069056,43.596163],[-123.069149,43.59628],[-123.069313,43.596408],[-123.069427,43.596486],[-123.070204,43.596109],[-123.070298,43.596065],[-123.070396,43.596026],[-123.070496,43.595992],[-123.0706,43.595961],[-123.070705,43.595935],[-123.070813,43.595913],[-123.070922,43.595896],[-123.071032,43.595884],[-123.071143,43.595876],[-123.071254,43.595873],[-123.071366,43.595875],[-123.071477,43.595881],[-123.071588,43.595892],[-123.071825,43.595629],[-123.071216,43.594947],[-123.068958,43.594943],[-123.068959,43.594973],[-123.068918,43.595038],[-123.068821,43.595092],[-123.068718,43.595126],[-123.068653,43.595156],[-123.068611,43.595201],[-123.068602,43.595245],[-123.068606,43.595329],[-123.068636,43.595392],[-123.068666,43.595463],[-123.06869,43.595503],[-123.068701,43.595566],[-123.068693,43.595679],[-123.068733,43.595791],[-123.068809,43.595903],[-123.068927,43.596017]]],[[[-123.072262,43.598349],[-123.072397,43.598404],[-123.072666,43.598512],[-123.072733,43.59854],[-123.073294,43.598541],[-123.073227,43.598513],[-123.072987,43.598407],[-123.072637,43.598284],[-123.072347,43.598182],[-123.072258,43.598155],[-123.072262,43.598349]]]]}},{"type":"Feature","properties":{"MAPTAXLOT":"2303054000401","MAPNUMBER":"23030540","TAXLOT":"401","ACCTNO":"0974483","MAPACRES":2.66359284},"geometry":{"type":"Polygon","coordinates":[[[-123.073446,43.598541],[-123.074286,43.598543],[-123.073488,43.597588],[-123.072383,43.597612],[-123.072348,43.598024],[-123.072444,43.598064],[-123.072444,43.598064],[-123.07231,43.598112],[-123.072378,43.598132],[-123.072669,43.598234],[-123.073023,43.598359],[-123.073266,43.598466],[-123.073446,43.598541]]]}},{"type":"Feature","properties":{"MAPTAXLOT":"2303054000500","MAPNUMBER":"23030540","TAXLOT":"500","ACCTNO":"0974491","MAPACRES":127.49235471},"geometry":{"type":"MultiPolygon","coordinates":[[[[-123.070072,43.593364],[-123.072269,43.595822],[-123.07248,43.596064],[-123.072686,43.596309],[-123.074552,43.598544],[-123.077201,43.59855],[-123.082183,43.59856],[-123.082102,43.594962],[-123.077118,43.594955],[-123.077034,43.591329],[-123.072134,43.591342],[-123.070063,43.591347],[-123.070072,43.593364]]],[[[-123.07033,43.596245],[-123.07042,43.596204],[-123.070514,43.596167],[-123.07061,43.596135],[-123.07071,43.596107],[-123.070811,43.596084],[-123.070915,43.596065],[-123.07102,43.596051],[-123.071125,43.596042],[-123.071232,43.596038],[-123.071338,43.596038],[-123.071445,43.596044],[-123.07155,43.596054],[-123.071655,43.596071],[-123.071757,43.596092],[-123.071858,43.596118],[-123.071956,43.596148],[-123.072051,43.596183],[-123.072143,43.596223],[-123.072231,43.596266],[-123.072316,43.596313],[-123.072396,43.596365],[-123.072471,43.596419],[-123.072542,43.596478],[-123.072607,43.596539],[-123.072667,43.596603],[-123.071825,43.595629],[-123.071588,43.595892],[-123.071477,43.595881],[-123.071366,43.595875],[-123.071254,43.595873],[-123.071143,43.595876],[-123.071032,43.595884],[-123.070922,43.595896],[-123.070813,43.595913],[-123.070705,43.595935],[-123.0706,43.595961],[-123.070496,43.595992],[-123.070396,43.596026],[-123.070298,43.596065],[-123.070204,43.596109],[-123.069427,43.596486],[-123.069463,43.596511],[-123.069624,43.596589],[-123.07033,43.596245]]]]}},{"type":"Feature","properties":{"MAPTAXLOT":"2303054000800","MAPNUMBER":"23030540","TAXLOT":"800","ACCTNO":"0974509","MAPACRES":0.2563041},"geometry":{"type":"Polygon","coordinates":[[[-123.065545,43.593998],[-123.066149,43.594095],[-123.066364,43.594129],[-123.066773,43.594195],[-123.066884,43.594212],[-123.066885,43.594212],[-123.066919,43.594211],[-123.06724,43.594197],[-123.067235,43.594196],[-123.067235,43.594196],[-123.067224,43.594195],[-123.067217,43.594194],[-123.067215,43.594193],[-123.066999,43.594158],[-123.065719,43.593946],[-123.065579,43.593923],[-123.065569,43.593922],[-123.065545,43.593998]]]}},{"type":"Feature","properties":{"MAPTAXLOT":"2303054000801","MAPNUMBER":"23030540","TAXLOT":"801","ACCTNO":"1179942","MAPACRES":3.28687403},"geometry":{"type":"MultiPolygon","coordinates":[[[[-123.067279,43.596481],[-123.067472,43.59651],[-123.067647,43.596511],[-123.067756,43.596481],[-123.067819,43.596442],[-123.068042,43.596272],[-123.068153,43.596143],[-123.06821,43.596052],[-123.068284,43.595956],[-123.068307,43.595941],[-123.068295,43.595889],[-123.068285,43.595836],[-123.068151,43.595029],[-123.068149,43.595029],[-123.067267,43.595031],[-123.067279,43.596481]]],[[[-123.068457,43.595501],[-123.068565,43.595828],[-123.068605,43.595815],[-123.068652,43.595777],[-123.068651,43.595694],[-123.06865,43.595584],[-123.068627,43.595472],[-123.068573,43.595353],[-123.068547,43.595265],[-123.068565,43.595169],[-123.068699,43.595074],[-123.068856,43.595011],[-123.068894,43.594943],[-123.068364,43.594943],[-123.068457,43.595501]]]]}},{"type":"Feature","properties":{"MAPTAXLOT":"2303054000900","MAPNUMBER":"23030540","TAXLOT":"900","ACCTNO":"0974517","MAPACRES":1.10989719},"geometry":{"type":"Polygon","coordinates":[[[-123.068894,43.594943],[-123.068956,43.594943],[-123.06854,43.593882],[-123.068188,43.593879],[-123.068364,43.594943],[-123.068894,43.594943]]]}},{"type":"Feature","properties":{"MAPTAXLOT":"2303054001000","MAPNUMBER":"23030540","TAXLOT":"1000","ACCTNO":"0974525","MAPACRES":4.66666336},"geometry":{"type":"Polygon","coordinates":[[[-123.068958,43.594943],[-123.071216,43.594947],[-123.070277,43.593895],[-123.06854,43.593882],[-123.068956,43.594943],[-123.068958,43.594943]]]}},{"type":"Feature","properties":{"MAPTAXLOT":"2303054001300","MAPNUMBER":"23030540","TAXLOT":"1300","ACCTNO":"0974541","MAPACRES":7.21349804},"geometry":{"type":"Polygon","coordinates":[[[-123.06854,43.593882],[-123.070277,43.593895],[-123.069968,43.59355],[-123.069721,43.593177],[-123.069633,43.592701],[-123.06979,43.591348],[-123.069445,43.591349],[-123.069393,43.591349],[-123.069227,43.591349],[-123.068999,43.591935],[-123.068242,43.592622],[-123.068186,43.592777],[-123.068154,43.592875],[-123.06813,43.592975],[-123.068114,43.593075],[-123.068104,43.593175],[-123.068102,43.593276],[-123.068108,43.593377],[-123.068121,43.593477],[-123.068188,43.593879],[-123.06854,43.593882]]]}},{"type":"Feature","properties":{"MAPTAXLOT":"2303054001500","MAPNUMBER":"23030540","TAXLOT":"1500","ACCTNO":"0974566","MAPACRES":4.07699338},"geometry":{"type":"Polygon","coordinates":[[[-123.067234,43.591354],[-123.067253,43.593494],[-123.067895,43.593493],[-123.067883,43.593398],[-123.067877,43.593303],[-123.067876,43.593207],[-123.067882,43.593112],[-123.067894,43.593017],[-123.067912,43.592922],[-123.067937,43.592829],[-123.067967,43.592736],[-123.068463,43.591351],[-123.067234,43.591354]]]}},{"type":"Feature","properties":{"MAPTAXLOT":"2303054001600","MAPNUMBER":"23030540","TAXLOT":"1600","ACCTNO":"0974574","MAPACRES":1.06454407},"geometry":{"type":"Polygon","coordinates":[[[-123.068697,43.59135],[-123.068242,43.592622],[-123.068999,43.591935],[-123.069227,43.591349],[-123.068697,43.59135]]]}},{"type":"Feature","properties":{"MAPTAXLOT":"2303080000077","MAPNUMBER":"23030800","TAXLOT":"77","ACCTNO":"000None","MAPACRES":5.13361896},"geometry":{"type":"Polygon","coordinates":[[[-123.068463,43.591351],[-123.068697,43.59135],[-123.06876,43.591175],[-123.068802,43.591112],[-123.068857,43.59096],[-123.068973,43.590634],[-123.068984,43.590494],[-123.069077,43.590235],[-123.069118,43.590123],[-123.069152,43.590019],[-123.069166,43.589982],[-123.069173,43.589962],[-123.069195,43.589901],[-123.069212,43.589849],[-123.069233,43.589778],[-123.069244,43.589722],[-123.069255,43.589657],[-123.069264,43.589579],[-123.069265,43.589563],[-123.069264,43.589451],[-123.06927,43.589339],[-123.069283,43.589227],[-123.069303,43.589116],[-123.06933,43.589005],[-123.069781,43.587769],[-123.070019,43.587128],[-123.070227,43.586477],[-123.07027,43.586354],[-123.070319,43.586233],[-123.070373,43.586113],[-123.070434,43.585994],[-123.070501,43.585877],[-123.070574,43.585762],[-123.070653,43.585649],[-123.071287,43.584703],[-123.071564,43.58398],[-123.071668,43.583599],[-123.071905,43.58291],[-123.072431,43.582225],[-123.072685,43.581894],[-123.072712,43.581672],[-123.072668,43.581538],[-123.072454,43.581414],[-123.072344,43.581387],[-123.071558,43.581194],[-123.070831,43.581084],[-123.070784,43.581217],[-123.071508,43.581327],[-123.072362,43.581536],[-123.072541,43.58164],[-123.07252,43.581827],[-123.072266,43.582158],[-123.071728,43.582859],[-123.071491,43.583547],[-123.071387,43.583927],[-123.071151,43.584548],[-123.070205,43.586029],[-123.069509,43.587908],[-123.06921,43.588714],[-123.069097,43.589178],[-123.069066,43.589483],[-123.069068,43.589523],[-123.069067,43.589574],[-123.069067,43.589643],[-123.069057,43.589704],[-123.069047,43.589754],[-123.069028,43.589819],[-123.069012,43.589867],[-123.06899,43.589928],[-123.068983,43.589948],[-123.06897,43.589984],[-123.068935,43.590088],[-123.068802,43.59046],[-123.068718,43.590586],[-123.068546,43.591064],[-123.068541,43.591133],[-123.068463,43.591351]]]}},{"type":"Feature","properties":{"MAPTAXLOT":"2303080000100","MAPNUMBER":"23030800","TAXLOT":"100","ACCTNO":"0974582","MAPACRES":6.45734673},"geometry":{"type":"Polygon","coordinates":[[[-123.067234,43.591354],[-123.068463,43.591351],[-123.068541,43.591133],[-123.068546,43.591064],[-123.068718,43.590586],[-123.068802,43.59046],[-123.068935,43.590088],[-123.06897,43.589984],[-123.068983,43.589948],[-123.06899,43.589928],[-123.069012,43.589867],[-123.069028,43.589819],[-123.069047,43.589754],[-123.069057,43.589704],[-123.069067,43.589643],[-123.069067,43.589574],[-123.069068,43.589523],[-123.069066,43.589483],[-123.067229,43.589495],[-123.067234,43.591354]]]}},{"type":"Feature","properties":{"MAPTAXLOT":"2303080000200","MAPNUMBER":"23030800","TAXLOT":"200","ACCTNO":"0974590","MAPACRES":0.97895147},"geometry":{"type":"Polygon","coordinates":[[[-123.068984,43.590494],[-123.068973,43.590634],[-123.068857,43.59096],[-123.068802,43.591112],[-123.06876,43.591175],[-123.068697,43.59135],[-123.069227,43.591349],[-123.069393,43.591349],[-123.069445,43.591349],[-123.069424,43.591149],[-123.069388,43.590992],[-123.069325,43.590802],[-123.069254,43.590609],[-123.069161,43.590458],[-123.069102,43.59032],[-123.069077,43.590235],[-123.068984,43.590494]]]}},{"type":"Feature","properties":{"MAPTAXLOT":"2303080000300","MAPNUMBER":"23030800","TAXLOT":"300","ACCTNO":"0974608","MAPACRES":374.01041176},"geometry":{"type":"MultiPolygon","coordinates":[[[[-123.073261,43.580892],[-123.073257,43.58105],[-123.073245,43.581209],[-123.073226,43.581367],[-123.073201,43.581524],[-123.073168,43.581681],[-123.073128,43.581837],[-123.073081,43.581992],[-123.073027,43.582145],[-123.072966,43.582298],[-123.072899,43.582448],[-123.072824,43.582598],[-123.072743,43.582745],[-123.072656,43.58289],[-123.072207,43.583602],[-123.072102,43.583797],[-123.071992,43.583991],[-123.071877,43.584183],[-123.071757,43.584374],[-123.071633,43.584563],[-123.070855,43.585724],[-123.070779,43.585832],[-123.07071,43.585941],[-123.070646,43.586053],[-123.070588,43.586166],[-123.070535,43.586281],[-123.070489,43.586397],[-123.070448,43.586514],[-123.070239,43.587168],[-123.070119,43.58749],[-123.07,43.587811],[-123.069551,43.589042],[-123.069526,43.589147],[-123.069508,43.589252],[-123.069496,43.589357],[-123.06949,43.589463],[-123.069491,43.589568],[-123.069499,43.589674],[-123.069513,43.589779],[-123.069534,43.589884],[-123.069562,43.589988],[-123.069595,43.590091],[-123.07005,43.591347],[-123.070063,43.591347],[-123.072134,43.591342],[-123.077034,43.591329],[-123.082021,43.591347],[-123.087008,43.591366],[-123.08703,43.587698],[-123.08705,43.584031],[-123.082096,43.584028],[-123.077141,43.584023],[-123.077195,43.580344],[-123.082133,43.580355],[-123.082168,43.57673],[-123.077244,43.576761],[-123.075733,43.57674],[-123.075674,43.576809],[-123.075612,43.576876],[-123.075547,43.576942],[-123.075267,43.577233],[-123.074981,43.577521],[-123.07469,43.577807],[-123.074394,43.578089],[-123.074093,43.578369],[-123.074003,43.578455],[-123.073918,43.578544],[-123.073839,43.578637],[-123.073766,43.578731],[-123.073699,43.578828],[-123.073638,43.578927],[-123.073584,43.579028],[-123.073536,43.579131],[-123.073494,43.579235],[-123.073459,43.57934],[-123.07343,43.579447],[-123.073408,43.579554],[-123.073394,43.579662],[-123.073261,43.580892]]],[[[-123.073202,43.578946],[-123.072344,43.581387],[-123.072454,43.581414],[-123.072668,43.581538],[-123.072712,43.581672],[-123.07282,43.582002],[-123.072872,43.581845],[-123.072917,43.581687],[-123.072955,43.581528],[-123.072986,43.581368],[-123.073009,43.581207],[-123.073026,43.581046],[-123.073035,43.580885],[-123.073168,43.579649],[-123.073184,43.579534],[-123.073207,43.579419],[-123.073237,43.579305],[-123.073275,43.579192],[-123.07332,43.579081],[-123.073371,43.578971],[-123.07343,43.578863],[-123.073495,43.578757],[-123.073566,43.578654],[-123.073644,43.578553],[-123.073729,43.578454],[-123.073819,43.578359],[-123.073916,43.578266],[-123.074216,43.577987],[-123.074511,43.577706],[-123.074801,43.577421],[-123.075086,43.577134],[-123.075365,43.576844],[-123.075418,43.57679],[-123.075469,43.576736],[-123.075358,43.576734],[-123.073202,43.578946]]],[[[-123.071287,43.584703],[-123.071429,43.584491],[-123.071533,43.584322],[-123.071633,43.584151],[-123.07173,43.583979],[-123.071564,43.58398],[-123.071287,43.584703]]],[[[-123.069264,43.589579],[-123.069255,43.589657],[-123.069244,43.589722],[-123.069233,43.589778],[-123.069212,43.589849],[-123.069195,43.589901],[-123.069173,43.589962],[-123.069166,43.589982],[-123.069152,43.590019],[-123.069118,43.590123],[-123.069077,43.590235],[-123.069102,43.59032],[-123.069161,43.590458],[-123.069254,43.590609],[-123.069325,43.590802],[-123.069388,43.590992],[-123.069424,43.591149],[-123.069445,43.591349],[-123.06979,43.591348],[-123.069816,43.591348],[-123.069376,43.590132],[-123.06934,43.59002],[-123.06931,43.589907],[-123.069288,43.589793],[-123.069272,43.589678],[-123.069265,43.589563],[-123.069264,43.589579]]]]}},{"type":"Feature","properties":{"MAPTAXLOT":"2303080000301","MAPNUMBER":"23030800","TAXLOT":"301","ACCTNO":"0974616","MAPACRES":120.41374519},"geometry":{"type":"Polygon","coordinates":[[[-123.082096,43.584028],[-123.08705,43.584031],[-123.087073,43.580364],[-123.087091,43.576699],[-123.082168,43.57673],[-123.082133,43.580355],[-123.077195,43.580344],[-123.077141,43.584023],[-123.082096,43.584028]]]}},{"type":"Feature","properties":{"MAPTAXLOT":"2303080000400","MAPNUMBER":"23030800","TAXLOT":"400","ACCTNO":"0974624","MAPACRES":7.07535784},"geometry":{"type":"Polygon","coordinates":[[[-123.067229,43.589495],[-123.069066,43.589483],[-123.069097,43.589178],[-123.06921,43.588714],[-123.069509,43.587908],[-123.067225,43.587906],[-123.067229,43.589495]]]}},{"type":"Feature","properties":{"MAPTAXLOT":"2303080000700","MAPNUMBER":"23030800","TAXLOT":"700","ACCTNO":"0974632","MAPACRES":55.51504748},"geometry":{"type":"MultiPolygon","coordinates":[[[[-123.067215,43.584012],[-123.067224,43.587637],[-123.067225,43.587906],[-123.069509,43.587908],[-123.070205,43.586029],[-123.071151,43.584548],[-123.071387,43.583927],[-123.071491,43.583547],[-123.071728,43.582859],[-123.072266,43.582158],[-123.07252,43.581827],[-123.072541,43.58164],[-123.072362,43.581536],[-123.071508,43.581327],[-123.070784,43.581217],[-123.070689,43.581482],[-123.067211,43.581507],[-123.067215,43.584012]]],[[[-123.072685,43.581894],[-123.072431,43.582225],[-123.071905,43.58291],[-123.071668,43.583599],[-123.071564,43.58398],[-123.07173,43.583979],[-123.072791,43.582304],[-123.07282,43.582002],[-123.072712,43.581672],[-123.072685,43.581894]]]]}},{"type":"Feature","properties":{"MAPTAXLOT":"2303080000800","MAPNUMBER":"23030800","TAXLOT":"800","ACCTNO":"0974640","MAPACRES":66.02560461},"geometry":{"type":"Polygon","coordinates":[[[-123.067211,43.581507],[-123.070689,43.581482],[-123.070784,43.581217],[-123.070831,43.581084],[-123.071558,43.581194],[-123.072344,43.581387],[-123.073202,43.578946],[-123.075358,43.576734],[-123.074188,43.576718],[-123.072223,43.576691],[-123.067202,43.576628],[-123.067209,43.58032],[-123.067211,43.581507]]]}},{"type":"Feature","properties":{"MAPTAXLOT":"2303080000900","MAPNUMBER":"23030800","TAXLOT":"900","ACCTNO":"0974665","MAPACRES":7.8469108},"geometry":{"type":"Polygon","coordinates":[[[-123.069816,43.591348],[-123.07005,43.591347],[-123.069595,43.590091],[-123.069562,43.589988],[-123.069534,43.589884],[-123.069513,43.589779],[-123.069499,43.589674],[-123.069491,43.589568],[-123.06949,43.589463],[-123.069496,43.589357],[-123.069508,43.589252],[-123.069526,43.589147],[-123.069551,43.589042],[-123.07,43.587811],[-123.070119,43.58749],[-123.070239,43.587168],[-123.070448,43.586514],[-123.070489,43.586397],[-123.070535,43.586281],[-123.070588,43.586166],[-123.070646,43.586053],[-123.07071,43.585941],[-123.070779,43.585832],[-123.070855,43.585724],[-123.071633,43.584563],[-123.071757,43.584374],[-123.071877,43.584183],[-123.071992,43.583991],[-123.072102,43.583797],[-123.072207,43.583602],[-123.072656,43.58289],[-123.072743,43.582745],[-123.072824,43.582598],[-123.072899,43.582448],[-123.072966,43.582298],[-123.073027,43.582145],[-123.073081,43.581992],[-123.073128,43.581837],[-123.073168,43.581681],[-123.073201,43.581524],[-123.073226,43.581367],[-123.073245,43.581209],[-123.073257,43.58105],[-123.073261,43.580892],[-123.073394,43.579662],[-123.073408,43.579554],[-123.07343,43.579447],[-123.073459,43.57934],[-123.073494,43.579235],[-123.073536,43.579131],[-123.073584,43.579028],[-123.073638,43.578927],[-123.073699,43.578828],[-123.073766,43.578731],[-123.073839,43.578637],[-123.073918,43.578544],[-123.074003,43.578455],[-123.074093,43.578369],[-123.074394,43.578089],[-123.07469,43.577807],[-123.074981,43.577521],[-123.075267,43.577233],[-123.075547,43.576942],[-123.075612,43.576876],[-123.075674,43.576809],[-123.075733,43.57674],[-123.075469,43.576736],[-123.075418,43.57679],[-123.075365,43.576844],[-123.075086,43.577134],[-123.074801,43.577421],[-123.074511,43.577706],[-123.074216,43.577987],[-123.073916,43.578266],[-123.073819,43.578359],[-123.073729,43.578454],[-123.073644,43.578553],[-123.073566,43.578654],[-123.073495,43.578757],[-123.07343,43.578863],[-123.073371,43.578971],[-123.07332,43.579081],[-123.073275,43.579192],[-123.073237,43.579305],[-123.073207,43.579419],[-123.073184,43.579534],[-123.073168,43.579649],[-123.073035,43.580885],[-123.073026,43.581046],[-123.073009,43.581207],[-123.072986,43.581368],[-123.072955,43.581528],[-123.072917,43.581687],[-123.072872,43.581845],[-123.07282,43.582002],[-123.072791,43.582304],[-123.07173,43.583979],[-123.071633,43.584151],[-123.071533,43.584322],[-123.071429,43.584491],[-123.071287,43.584703],[-123.070653,43.585649],[-123.070574,43.585762],[-123.070501,43.585877],[-123.070434,43.585994],[-123.070373,43.586113],[-123.070319,43.586233],[-123.07027,43.586354],[-123.070227,43.586477],[-123.070019,43.587128],[-123.069781,43.587769],[-123.06933,43.589005],[-123.069303,43.589116],[-123.069283,43.589227],[-123.06927,43.589339],[-123.069264,43.589451],[-123.069265,43.589563],[-123.069272,43.589678],[-123.069288,43.589793],[-123.06931,43.589907],[-123.06934,43.59002],[-123.069376,43.590132],[-123.069816,43.591348]]]}},{"type":"Feature","properties":{"MAPTAXLOT":"2303090000100","MAPNUMBER":"23030900","TAXLOT":"100","ACCTNO":"0974673","MAPACRES":81.42036211},"geometry":{"type":"Polygon","coordinates":[[[-123.047457,43.591363],[-123.052401,43.591365],[-123.052348,43.587614],[-123.052295,43.583963],[-123.047323,43.58395],[-123.047389,43.587607],[-123.047457,43.591363]]]}},{"type":"Feature","properties":{"MAPTAXLOT":"2303090000200","MAPNUMBER":"23030900","TAXLOT":"200","ACCTNO":"0974681","MAPACRES":405.53898913},"geometry":{"type":"Polygon","coordinates":[[[-123.064149,43.591359],[-123.067234,43.591354],[-123.067229,43.589495],[-123.067225,43.587906],[-123.067224,43.587637],[-123.067215,43.584012],[-123.067211,43.581507],[-123.067209,43.58032],[-123.062222,43.580313],[-123.057234,43.580305],[-123.052245,43.580297],[-123.047258,43.580289],[-123.047323,43.58395],[-123.052295,43.583963],[-123.052348,43.587614],[-123.052401,43.591365],[-123.057345,43.591367],[-123.060855,43.591363],[-123.062288,43.591361],[-123.063497,43.591359],[-123.064149,43.591359]]]}},{"type":"Feature","properties":{"MAPTAXLOT":"2303090000300","MAPNUMBER":"23030900","TAXLOT":"300","ACCTNO":"0974699","MAPACRES":162.96591324},"geometry":{"type":"Polygon","coordinates":[[[-123.062222,43.580313],[-123.067209,43.58032],[-123.067202,43.576628],[-123.062199,43.576625],[-123.057196,43.576624],[-123.052194,43.576626],[-123.047193,43.576627],[-123.047258,43.580289],[-123.052245,43.580297],[-123.057234,43.580305],[-123.062222,43.580313]]]}},{"type":"Feature","properties":{"MAPTAXLOT":"2303100000200","MAPNUMBER":"23031000","TAXLOT":"200","ACCTNO":"0974715","MAPACRES":419.09273544},"geometry":{"type":"Polygon","coordinates":[[[-123.042694,43.591454],[-123.047457,43.591363],[-123.047389,43.587607],[-123.047323,43.58395],[-123.047258,43.580289],[-123.047193,43.576627],[-123.042231,43.57645],[-123.042344,43.580109],[-123.042457,43.583767],[-123.037586,43.583585],[-123.032622,43.583399],[-123.028117,43.58323],[-123.028069,43.587338],[-123.028019,43.5916],[-123.032975,43.591572],[-123.037931,43.591544],[-123.042694,43.591454]]]}},{"type":"Feature","properties":{"MAPTAXLOT":"2303100000300","MAPNUMBER":"23031000","TAXLOT":"300","ACCTNO":"0974723","MAPACRES":157.08123893},"geometry":{"type":"Polygon","coordinates":[[[-123.028117,43.58323],[-123.032622,43.583399],[-123.037586,43.583585],[-123.042457,43.583767],[-123.042344,43.580109],[-123.042231,43.57645],[-123.037268,43.576273],[-123.037428,43.57993],[-123.032465,43.579748],[-123.027731,43.579575],[-123.028117,43.58323]]]}},{"type":"Feature","properties":{"MAPTAXLOT":"2303100000500","MAPNUMBER":"23031000","TAXLOT":"500","ACCTNO":"0974749","MAPACRES":79.30317901},"geometry":{"type":"Polygon","coordinates":[[[-123.032465,43.579748],[-123.037428,43.57993],[-123.037268,43.576273],[-123.032307,43.576096],[-123.027346,43.575919],[-123.027731,43.579575],[-123.032465,43.579748]]]}},{"type":"Feature","properties":{"MAPTAXLOT":"2303110000100","MAPNUMBER":"23031100","TAXLOT":"100","ACCTNO":"0974756","MAPACRES":366.63686281},"geometry":{"type":"Polygon","coordinates":[[[-123.012379,43.583618],[-123.006743,43.583756],[-123.006987,43.587362],[-123.007239,43.591104],[-123.012356,43.591218],[-123.017474,43.591332],[-123.022593,43.591463],[-123.028019,43.5916],[-123.028069,43.587338],[-123.028117,43.58323],[-123.02279,43.58338],[-123.017523,43.583491],[-123.012379,43.583618]]]}},{"type":"Feature","properties":{"MAPTAXLOT":"2303110000200","MAPNUMBER":"23031100","TAXLOT":"200","ACCTNO":"0974764","MAPACRES":178.14483074},"geometry":{"type":"Polygon","coordinates":[[[-123.006743,43.583756],[-123.012379,43.583618],[-123.017523,43.583491],[-123.02279,43.58338],[-123.022542,43.579628],[-123.017452,43.579648],[-123.017429,43.575816],[-123.017429,43.575809],[-123.012402,43.575853],[-123.012391,43.579759],[-123.006988,43.579823],[-123.006743,43.583756]]]}},{"type":"Feature","properties":{"MAPTAXLOT":"2303110000300","MAPNUMBER":"23031100","TAXLOT":"300","ACCTNO":"0974772","MAPACRES":127.30134355},"geometry":{"type":"Polygon","coordinates":[[[-123.017429,43.575816],[-123.017452,43.579648],[-123.022542,43.579628],[-123.02279,43.58338],[-123.028117,43.58323],[-123.027731,43.579575],[-123.027346,43.575919],[-123.022433,43.575867],[-123.017577,43.57581],[-123.017576,43.57581],[-123.017429,43.575809],[-123.017429,43.575816]]]}},{"type":"Feature","properties":{"MAPTAXLOT":"2303110000400","MAPNUMBER":"23031100","TAXLOT":"400","ACCTNO":"0974780","MAPACRES":45.91599432},"geometry":{"type":"Polygon","coordinates":[[[-123.006988,43.579823],[-123.012391,43.579759],[-123.012402,43.575853],[-123.007233,43.575891],[-123.006988,43.579823]]]}},{"type":"Feature","properties":{"MAPTAXLOT":"2303170000100","MAPNUMBER":"23031700","TAXLOT":"100","ACCTNO":"0974798","MAPACRES":89.96079604},"geometry":{"type":"Polygon","coordinates":[[[-123.072223,43.576691],[-123.074188,43.576718],[-123.074362,43.573699],[-123.076225,43.569514],[-123.07609,43.569069],[-123.072235,43.568924],[-123.072244,43.572812],[-123.067235,43.572681],[-123.067202,43.576628],[-123.072223,43.576691]]]}},{"type":"Feature","properties":{"MAPTAXLOT":"2303170000200","MAPNUMBER":"23031700","TAXLOT":"200","ACCTNO":"0974814","MAPACRES":272.71069589},"geometry":{"type":"MultiPolygon","coordinates":[[[[-123.067277,43.568734],[-123.072235,43.568924],[-123.07609,43.569069],[-123.076225,43.569514],[-123.074362,43.573699],[-123.074188,43.576718],[-123.075358,43.576734],[-123.075469,43.576736],[-123.075545,43.576647],[-123.075616,43.576556],[-123.075681,43.576463],[-123.07574,43.576368],[-123.075793,43.57627],[-123.07584,43.576172],[-123.075882,43.576071],[-123.075917,43.57597],[-123.075945,43.575868],[-123.075968,43.575764],[-123.075984,43.57566],[-123.075993,43.575556],[-123.076093,43.573904],[-123.076106,43.573756],[-123.076124,43.573609],[-123.07615,43.573463],[-123.076181,43.573317],[-123.07622,43.573172],[-123.076264,43.573027],[-123.076315,43.572884],[-123.076373,43.572743],[-123.076436,43.572602],[-123.076506,43.572463],[-123.077551,43.570585],[-123.077593,43.570504],[-123.077628,43.57042],[-123.077657,43.570336],[-123.077679,43.57025],[-123.077694,43.570164],[-123.077702,43.570077],[-123.077704,43.56999],[-123.077698,43.569903],[-123.077686,43.569817],[-123.077666,43.569731],[-123.07764,43.569646],[-123.077607,43.569562],[-123.077568,43.56948],[-123.077522,43.5694],[-123.07747,43.569321],[-123.077411,43.569245],[-123.077347,43.569172],[-123.077277,43.569101],[-123.077196,43.569098],[-123.077196,43.569029],[-123.077142,43.568986],[-123.075411,43.567376],[-123.075529,43.567218],[-123.077195,43.568767],[-123.077194,43.56819],[-123.077178,43.565474],[-123.077163,43.562042],[-123.072246,43.561795],[-123.067309,43.561546],[-123.067293,43.565131],[-123.067277,43.568734]]],[[[-123.077565,43.569112],[-123.077632,43.569193],[-123.077693,43.569276],[-123.077747,43.569362],[-123.077794,43.56945],[-123.077835,43.569539],[-123.077868,43.56963],[-123.077895,43.569722],[-123.077914,43.569815],[-123.077926,43.569909],[-123.077931,43.570003],[-123.077928,43.570098],[-123.077918,43.570192],[-123.077901,43.570285],[-123.077877,43.570377],[-123.077845,43.570469],[-123.077807,43.570559],[-123.077761,43.570647],[-123.076717,43.572524],[-123.076649,43.572658],[-123.076588,43.572793],[-123.076533,43.572929],[-123.076484,43.573067],[-123.076441,43.573206],[-123.076404,43.573346],[-123.076374,43.573486],[-123.076349,43.573627],[-123.076331,43.573769],[-123.07632,43.573911],[-123.076219,43.575563],[-123.076209,43.575676],[-123.076192,43.575788],[-123.076167,43.575899],[-123.076136,43.57601],[-123.076098,43.576119],[-123.076054,43.576227],[-123.076002,43.576334],[-123.075945,43.576438],[-123.07588,43.576541],[-123.07581,43.576642],[-123.075733,43.57674],[-123.077244,43.576761],[-123.082168,43.57673],[-123.082157,43.573015],[-123.082158,43.569293],[-123.077818,43.569122],[-123.077565,43.569112]]]]}},{"type":"Feature","properties":{"MAPTAXLOT":"2303170000300","MAPNUMBER":"23031700","TAXLOT":"300","ACCTNO":"0974822","MAPACRES":240.10907727},"geometry":{"type":"Polygon","coordinates":[[[-123.082168,43.57673],[-123.087091,43.576699],[-123.087155,43.573095],[-123.087218,43.569492],[-123.087218,43.565818],[-123.087214,43.562147],[-123.082197,43.562095],[-123.077163,43.562042],[-123.077178,43.565474],[-123.077194,43.56819],[-123.077817,43.568214],[-123.077818,43.569122],[-123.082158,43.569293],[-123.082157,43.573015],[-123.082168,43.57673]]]}},{"type":"Feature","properties":{"MAPTAXLOT":"2303170000301","MAPNUMBER":"23031700","TAXLOT":"301","ACCTNO":"1007838","MAPACRES":1.12055829},"geometry":{"type":"MultiPolygon","coordinates":[[[[-123.077195,43.568767],[-123.077315,43.568878],[-123.077383,43.568934],[-123.077447,43.568991],[-123.077508,43.569051],[-123.077565,43.569112],[-123.077818,43.569122],[-123.077817,43.568214],[-123.077194,43.56819],[-123.077195,43.568767]]],[[[-123.077196,43.569098],[-123.077277,43.569101],[-123.077237,43.569064],[-123.077196,43.569029],[-123.077196,43.569098]]]]}},{"type":"Feature","properties":{"MAPTAXLOT":"2303170000400","MAPNUMBER":"23031700","TAXLOT":"400","ACCTNO":"0974848","MAPACRES":43.30237898},"geometry":{"type":"Polygon","coordinates":[[[-123.067235,43.572681],[-123.072244,43.572812],[-123.072235,43.568924],[-123.067277,43.568734],[-123.067235,43.572681]]]}},{"type":"Feature","properties":{"MAPTAXLOT":"2303170000500","MAPNUMBER":"23031700","TAXLOT":"500","ACCTNO":"0974855","MAPACRES":5.1566089},"geometry":{"type":"Polygon","coordinates":[[[-123.075469,43.576736],[-123.075733,43.57674],[-123.07581,43.576642],[-123.07588,43.576541],[-123.075945,43.576438],[-123.076002,43.576334],[-123.076054,43.576227],[-123.076098,43.576119],[-123.076136,43.57601],[-123.076167,43.575899],[-123.076192,43.575788],[-123.076209,43.575676],[-123.076219,43.575563],[-123.07632,43.573911],[-123.076331,43.573769],[-123.076349,43.573627],[-123.076374,43.573486],[-123.076404,43.573346],[-123.076441,43.573206],[-123.076484,43.573067],[-123.076533,43.572929],[-123.076588,43.572793],[-123.076649,43.572658],[-123.076717,43.572524],[-123.077761,43.570647],[-123.077807,43.570559],[-123.077845,43.570469],[-123.077877,43.570377],[-123.077901,43.570285],[-123.077918,43.570192],[-123.077928,43.570098],[-123.077931,43.570003],[-123.077926,43.569909],[-123.077914,43.569815],[-123.077895,43.569722],[-123.077868,43.56963],[-123.077835,43.569539],[-123.077794,43.56945],[-123.077747,43.569362],[-123.077693,43.569276],[-123.077632,43.569193],[-123.077565,43.569112],[-123.077508,43.569051],[-123.077447,43.568991],[-123.077383,43.568934],[-123.077315,43.568878],[-123.077195,43.568767],[-123.075529,43.567218],[-123.075411,43.567376],[-123.077142,43.568986],[-123.077196,43.569029],[-123.077237,43.569064],[-123.077277,43.569101],[-123.077347,43.569172],[-123.077411,43.569245],[-123.07747,43.569321],[-123.077522,43.5694],[-123.077568,43.56948],[-123.077607,43.569562],[-123.07764,43.569646],[-123.077666,43.569731],[-123.077686,43.569817],[-123.077698,43.569903],[-123.077704,43.56999],[-123.077702,43.570077],[-123.077694,43.570164],[-123.077679,43.57025],[-123.077657,43.570336],[-123.077628,43.57042],[-123.077593,43.570504],[-123.077551,43.570585],[-123.076506,43.572463],[-123.076436,43.572602],[-123.076373,43.572743],[-123.076315,43.572884],[-123.076264,43.573027],[-123.07622,43.573172],[-123.076181,43.573317],[-123.07615,43.573463],[-123.076124,43.573609],[-123.076106,43.573756],[-123.076093,43.573904],[-123.075993,43.575556],[-123.075984,43.57566],[-123.075968,43.575764],[-123.075945,43.575868],[-123.075917,43.57597],[-123.075882,43.576071],[-123.07584,43.576172],[-123.075793,43.57627],[-123.07574,43.576368],[-123.075681,43.576463],[-123.075616,43.576556],[-123.075545,43.576647],[-123.075469,43.576736]]]}}]}