{"type":"FeatureCollection","features":[{"type":"Feature","properties":{"MAPTAXLOT":"1525000000300","MAPNUMBER":"15250000","TAXLOT":"300","ACCTNO":"0027092","MAPACRES":528.89523407},"geometry":{"type":"Polygon","coordinates":[[[-122.50354,44.22131],[-122.503538,44.221519],[-122.503538,44.221523],[-122.503531,44.221773],[-122.503536,44.221775],[-122.506368,44.222932],[-122.507634,44.223834],[-122.511971,44.227567],[-122.512261,44.228745],[-122.513133,44.228745],[-122.52244,44.228688],[-122.523183,44.228155],[-122.52327,44.21457],[-122.521302,44.214556],[-122.518417,44.214534],[-122.516257,44.214518],[-122.513565,44.214498],[-122.513565,44.214498],[-122.511212,44.214509],[-122.511211,44.214509],[-122.508576,44.214522],[-122.506166,44.214531],[-122.506166,44.214531],[-122.503584,44.214516],[-122.50354,44.22131]]]}},{"type":"Feature","properties":{"MAPTAXLOT":"1525000000301","MAPNUMBER":"15250000","TAXLOT":"301","ACCTNO":"1023124","MAPACRES":43.03865764},"geometry":{"type":"Polygon","coordinates":[[[-122.51187,44.229798],[-122.514257,44.231528],[-122.517473,44.230833],[-122.519436,44.230832],[-122.52244,44.228688],[-122.513133,44.228745],[-122.512261,44.228745],[-122.51187,44.229798]]]}},{"type":"Feature","properties":{"MAPTAXLOT":"1535000000100","MAPNUMBER":"15350000","TAXLOT":"100","ACCTNO":"0027191","MAPACRES":464.75707538},"geometry":{"type":"Polygon","coordinates":[[[-122.496227,44.222112],[-122.497572,44.222565],[-122.500752,44.222624],[-122.502935,44.221725],[-122.503531,44.221773],[-122.503538,44.221523],[-122.503538,44.221519],[-122.50354,44.22131],[-122.503584,44.214516],[-122.503584,44.214515],[-122.504316,44.20975],[-122.496388,44.209788],[-122.495507,44.209787],[-122.491371,44.209772],[-122.490675,44.209772],[-122.490675,44.209772],[-122.486367,44.209756],[-122.48585,44.209743],[-122.485892,44.221248],[-122.485917,44.221251],[-122.488157,44.222114],[-122.489964,44.220838],[-122.492047,44.219991],[-122.496227,44.222112]]]}},{"type":"Feature","properties":{"MAPTAXLOT":"1535000000300","MAPNUMBER":"15350000","TAXLOT":"300","ACCTNO":"0027217","MAPACRES":505.62622026},"geometry":{"type":"Polygon","coordinates":[[[-122.465843,44.216939],[-122.465779,44.22279],[-122.469354,44.22227],[-122.469934,44.222688],[-122.47419,44.222184],[-122.477428,44.219391],[-122.479654,44.219032],[-122.483272,44.220905],[-122.485892,44.221248],[-122.48585,44.209743],[-122.481437,44.209724],[-122.480873,44.209722],[-122.476508,44.209704],[-122.475895,44.209701],[-122.471577,44.209703],[-122.470863,44.209705],[-122.466646,44.209707],[-122.465831,44.209708],[-122.465837,44.213324],[-122.465843,44.216939]]]}},{"type":"Feature","properties":{"MAPTAXLOT":"1535000000500","MAPNUMBER":"15350000","TAXLOT":"500","ACCTNO":"0027233","MAPACRES":102.67101877},"geometry":{"type":"Polygon","coordinates":[[[-122.461673,44.221722],[-122.465772,44.222791],[-122.465779,44.22279],[-122.465843,44.216939],[-122.460633,44.216934],[-122.455423,44.216929],[-122.455437,44.218838],[-122.456343,44.218952],[-122.457718,44.221076],[-122.460171,44.222013],[-122.461673,44.221722]]]}},{"type":"Feature","properties":{"MAPTAXLOT":"1535000000600","MAPNUMBER":"15350000","TAXLOT":"600","ACCTNO":"0027241","MAPACRES":123.86406606},"geometry":{"type":"Polygon","coordinates":[[[-122.460633,44.216934],[-122.465843,44.216939],[-122.465837,44.213324],[-122.460632,44.21332],[-122.46063,44.209706],[-122.456954,44.209705],[-122.455429,44.209705],[-122.455426,44.213317],[-122.455423,44.216929],[-122.460633,44.216934]]]}},{"type":"Feature","properties":{"MAPTAXLOT":"1535000000601","MAPNUMBER":"15350000","TAXLOT":"601","ACCTNO":"1407699","MAPACRES":41.28261281},"geometry":{"type":"Polygon","coordinates":[[[-122.460632,44.21332],[-122.465837,44.213324],[-122.465831,44.209708],[-122.4618,44.209706],[-122.46063,44.209706],[-122.460632,44.21332]]]}},{"type":"Feature","properties":{"MAPTAXLOT":"1535000000700","MAPNUMBER":"15350000","TAXLOT":"700","ACCTNO":"0027258","MAPACRES":176.47441758},"geometry":{"type":"Polygon","coordinates":[[[-122.453647,44.218612],[-122.455437,44.218838],[-122.455423,44.216929],[-122.455426,44.213317],[-122.455429,44.209705],[-122.452108,44.209701],[-122.450344,44.2097],[-122.447263,44.209697],[-122.446239,44.209699],[-122.445259,44.209701],[-122.445307,44.216905],[-122.445301,44.21744],[-122.445307,44.217438],[-122.447935,44.216342],[-122.448871,44.217015],[-122.453647,44.218612]]]}},{"type":"Feature","properties":{"MAPTAXLOT":"1625000000100","MAPNUMBER":"16250000","TAXLOT":"100","ACCTNO":"0077105","MAPACRES":693.79740508},"geometry":{"type":"Polygon","coordinates":[[[-122.506553,44.19873],[-122.506528,44.202326],[-122.506527,44.202506],[-122.506504,44.205656],[-122.506502,44.205923],[-122.506502,44.205924],[-122.506357,44.209653],[-122.506166,44.214531],[-122.506166,44.214531],[-122.508576,44.214522],[-122.511211,44.214509],[-122.511212,44.214509],[-122.513565,44.214498],[-122.513565,44.214498],[-122.516257,44.214518],[-122.518417,44.214534],[-122.521302,44.214556],[-122.52327,44.21457],[-122.526348,44.214563],[-122.526409,44.209602],[-122.526449,44.205961],[-122.526351,44.198678],[-122.521393,44.198697],[-122.516434,44.198715],[-122.511518,44.198722],[-122.506553,44.198729],[-122.506553,44.19873]]]}},{"type":"Feature","properties":{"MAPTAXLOT":"1625000001400","MAPNUMBER":"16250000","TAXLOT":"1400","ACCTNO":"0077238","MAPACRES":629.4532873},"geometry":{"type":"Polygon","coordinates":[[[-122.521393,44.198697],[-122.526351,44.198678],[-122.526341,44.19145],[-122.526397,44.184219],[-122.516429,44.184211],[-122.506397,44.184506],[-122.506438,44.187805],[-122.506439,44.188117],[-122.506479,44.19136],[-122.50648,44.191727],[-122.506516,44.194916],[-122.506516,44.195228],[-122.506553,44.198471],[-122.506553,44.198729],[-122.511518,44.198722],[-122.516434,44.198715],[-122.521393,44.198697]]]}},{"type":"Feature","properties":{"MAPTAXLOT":"1625000001500","MAPNUMBER":"16250000","TAXLOT":"1500","ACCTNO":"0077246","MAPACRES":626.41661852},"geometry":{"type":"Polygon","coordinates":[[[-122.516429,44.184211],[-122.526397,44.184219],[-122.526395,44.180661],[-122.52638,44.177106],[-122.526337,44.173485],[-122.526287,44.169878],[-122.521299,44.169871],[-122.516312,44.169863],[-122.511324,44.169976],[-122.508395,44.170042],[-122.50832,44.170144],[-122.508293,44.170192],[-122.508259,44.170238],[-122.508219,44.170282],[-122.508174,44.170322],[-122.508123,44.17036],[-122.508067,44.170393],[-122.508007,44.170422],[-122.507943,44.170447],[-122.507798,44.170498],[-122.50774,44.170507],[-122.507683,44.170521],[-122.507629,44.170539],[-122.507578,44.170561],[-122.50753,44.170587],[-122.507487,44.170617],[-122.507449,44.17065],[-122.507416,44.170686],[-122.507388,44.170724],[-122.507367,44.170764],[-122.506734,44.172176],[-122.506694,44.172273],[-122.506649,44.172369],[-122.506597,44.172464],[-122.506539,44.172557],[-122.506476,44.172647],[-122.506407,44.172736],[-122.506332,44.172822],[-122.506331,44.173629],[-122.506331,44.173692],[-122.506329,44.177169],[-122.506327,44.177296],[-122.506363,44.180709],[-122.506363,44.180901],[-122.506396,44.18425],[-122.506397,44.184506],[-122.516429,44.184211]]]}},{"type":"Feature","properties":{"MAPTAXLOT":"1625000005301","MAPNUMBER":"16250000","TAXLOT":"5301","ACCTNO":"1471810","MAPACRES":133.54591226},"geometry":{"type":"Polygon","coordinates":[[[-122.506334,44.170089],[-122.506332,44.172822],[-122.506407,44.172736],[-122.506476,44.172647],[-122.506539,44.172557],[-122.506597,44.172464],[-122.506649,44.172369],[-122.506694,44.172273],[-122.506734,44.172176],[-122.507367,44.170764],[-122.507388,44.170724],[-122.507416,44.170686],[-122.507449,44.17065],[-122.507487,44.170617],[-122.50753,44.170587],[-122.507578,44.170561],[-122.507629,44.170539],[-122.507683,44.170521],[-122.50774,44.170507],[-122.507798,44.170498],[-122.507943,44.170447],[-122.508007,44.170422],[-122.508067,44.170393],[-122.508123,44.17036],[-122.508174,44.170322],[-122.508219,44.170282],[-122.508259,44.170238],[-122.508293,44.170192],[-122.50832,44.170144],[-122.508395,44.170042],[-122.511324,44.169976],[-122.511313,44.1691],[-122.511554,44.169096],[-122.511637,44.169097],[-122.511719,44.169103],[-122.5118,44.169115],[-122.51188,44.169131],[-122.511957,44.169151],[-122.512032,44.169177],[-122.512104,44.169207],[-122.5126,44.169399],[-122.51267,44.169423],[-122.512742,44.169443],[-122.512816,44.169459],[-122.512891,44.16947],[-122.512968,44.169476],[-122.513045,44.169479],[-122.513122,44.169476],[-122.513199,44.169469],[-122.513274,44.169458],[-122.513348,44.169442],[-122.513791,44.169346],[-122.513857,44.169329],[-122.513921,44.169307],[-122.513982,44.169281],[-122.514039,44.169251],[-122.514092,44.169217],[-122.514139,44.16918],[-122.514182,44.169139],[-122.514218,44.169095],[-122.514249,44.169049],[-122.514366,44.168895],[-122.514411,44.168831],[-122.514449,44.168765],[-122.51448,44.168696],[-122.514505,44.168627],[-122.514522,44.168556],[-122.514554,44.168507],[-122.514596,44.168447],[-122.514643,44.16839],[-122.514695,44.168334],[-122.514751,44.16828],[-122.514812,44.168229],[-122.514877,44.168181],[-122.514947,44.168129],[-122.515012,44.168073],[-122.515072,44.168014],[-122.515127,44.167953],[-122.515175,44.167889],[-122.515218,44.167823],[-122.515254,44.167755],[-122.515284,44.167685],[-122.515536,44.166888],[-122.51557,44.166791],[-122.515611,44.166696],[-122.515659,44.166603],[-122.515713,44.166511],[-122.515774,44.166421],[-122.516189,44.166417],[-122.516124,44.164628],[-122.513693,44.164653],[-122.51365,44.162861],[-122.511241,44.162882],[-122.50645,44.162937],[-122.50645,44.162973],[-122.506449,44.163057],[-122.50642,44.164805],[-122.506392,44.166531],[-122.506392,44.166573],[-122.506363,44.168331],[-122.506334,44.170089]]]}},{"type":"Feature","properties":{"MAPTAXLOT":"1626010000100","MAPNUMBER":"16260100","TAXLOT":"100","ACCTNO":"1829991","MAPACRES":32.75545017},"geometry":{"type":"Polygon","coordinates":[[[-122.503584,44.214516],[-122.506166,44.214531],[-122.506357,44.209653],[-122.506502,44.205924],[-122.504316,44.20975],[-122.503584,44.214515],[-122.503584,44.214516]]]}},{"type":"Feature","properties":{"MAPTAXLOT":"1635000000700","MAPNUMBER":"16350000","TAXLOT":"700","ACCTNO":"0082550","MAPACRES":458.82803266},"geometry":{"type":"Polygon","coordinates":[[[-122.465831,44.209708],[-122.466646,44.209707],[-122.46652,44.205925],[-122.466517,44.202394],[-122.466514,44.198862],[-122.461691,44.198867],[-122.456868,44.19887],[-122.452046,44.198874],[-122.447223,44.198878],[-122.447238,44.202391],[-122.447252,44.205905],[-122.447263,44.209697],[-122.450344,44.2097],[-122.452108,44.209701],[-122.455429,44.209705],[-122.456954,44.209705],[-122.46063,44.209706],[-122.4618,44.209706],[-122.465831,44.209708]]]}},{"type":"Feature","properties":{"MAPTAXLOT":"1635000000800","MAPNUMBER":"16350000","TAXLOT":"800","ACCTNO":"0082568","MAPACRES":349.95472651},"geometry":{"type":"Polygon","coordinates":[[[-122.466646,44.209707],[-122.470863,44.209705],[-122.471577,44.209703],[-122.471551,44.205903],[-122.476503,44.205882],[-122.481428,44.205867],[-122.486288,44.205852],[-122.486311,44.20228],[-122.486333,44.198709],[-122.481412,44.198746],[-122.47649,44.198782],[-122.471502,44.198823],[-122.466514,44.198862],[-122.466517,44.202394],[-122.46652,44.205925],[-122.466646,44.209707]]]}},{"type":"Feature","properties":{"MAPTAXLOT":"1635000000900","MAPNUMBER":"16350000","TAXLOT":"900","ACCTNO":"0082576","MAPACRES":124.4855484},"geometry":{"type":"Polygon","coordinates":[[[-122.471577,44.209703],[-122.475895,44.209701],[-122.476508,44.209704],[-122.480873,44.209722],[-122.481437,44.209724],[-122.48585,44.209743],[-122.486367,44.209756],[-122.486288,44.205852],[-122.481428,44.205867],[-122.476503,44.205882],[-122.471551,44.205903],[-122.471577,44.209703]]]}},{"type":"Feature","properties":{"MAPTAXLOT":"1635000001000","MAPNUMBER":"16350000","TAXLOT":"1000","ACCTNO":"0082584","MAPACRES":486.66068748},"geometry":{"type":"Polygon","coordinates":[[[-122.491371,44.209772],[-122.495507,44.209787],[-122.496388,44.209788],[-122.504316,44.20975],[-122.506502,44.205924],[-122.506502,44.205923],[-122.506504,44.205656],[-122.506527,44.202506],[-122.506528,44.202326],[-122.506553,44.19873],[-122.506553,44.198729],[-122.506553,44.198471],[-122.501289,44.19853],[-122.496287,44.198586],[-122.486333,44.198709],[-122.486311,44.20228],[-122.486288,44.205852],[-122.486367,44.209756],[-122.490675,44.209772],[-122.490675,44.209772],[-122.491371,44.209772]]]}},{"type":"Feature","properties":{"MAPTAXLOT":"1635000001100","MAPNUMBER":"16350000","TAXLOT":"1100","ACCTNO":"0082592","MAPACRES":633.0469358},"geometry":{"type":"Polygon","coordinates":[[[-122.486333,44.198709],[-122.496287,44.198586],[-122.501289,44.19853],[-122.506553,44.198471],[-122.506516,44.195228],[-122.506516,44.194916],[-122.50648,44.191727],[-122.506479,44.19136],[-122.506439,44.188117],[-122.506438,44.187805],[-122.506397,44.184506],[-122.506396,44.18425],[-122.50113,44.184278],[-122.496137,44.184305],[-122.491182,44.18434],[-122.486609,44.184373],[-122.486566,44.184408],[-122.486518,44.184441],[-122.486467,44.18447],[-122.486411,44.184496],[-122.486353,44.184517],[-122.486291,44.184534],[-122.486228,44.184547],[-122.486254,44.187959],[-122.48628,44.191542],[-122.486333,44.198709]]]}},{"type":"Feature","properties":{"MAPTAXLOT":"1635000001200","MAPNUMBER":"16350000","TAXLOT":"1200","ACCTNO":"0082600","MAPACRES":434.25338401},"geometry":{"type":"Polygon","coordinates":[[[-122.481412,44.198746],[-122.486333,44.198709],[-122.48628,44.191542],[-122.486254,44.187959],[-122.476278,44.187977],[-122.471274,44.187986],[-122.471349,44.191553],[-122.466204,44.191556],[-122.466359,44.195209],[-122.466514,44.198862],[-122.471502,44.198823],[-122.47649,44.198782],[-122.481412,44.198746]]]}},{"type":"Feature","properties":{"MAPTAXLOT":"1635000001300","MAPNUMBER":"16350000","TAXLOT":"1300","ACCTNO":"0082618","MAPACRES":197.24444311},"geometry":{"type":"Polygon","coordinates":[[[-122.466204,44.191556],[-122.471349,44.191553],[-122.471274,44.187986],[-122.476278,44.187977],[-122.486254,44.187959],[-122.486228,44.184547],[-122.486227,44.184375],[-122.481218,44.18439],[-122.476208,44.184405],[-122.471199,44.184419],[-122.466189,44.184433],[-122.466197,44.187995],[-122.466204,44.191556]]]}},{"type":"Feature","properties":{"MAPTAXLOT":"1635000001400","MAPNUMBER":"16350000","TAXLOT":"1400","ACCTNO":"0082626","MAPACRES":114.74078414},"geometry":{"type":"Polygon","coordinates":[[[-122.461691,44.198867],[-122.466514,44.198862],[-122.466359,44.195209],[-122.466204,44.191556],[-122.461433,44.191643],[-122.461562,44.195255],[-122.456693,44.195301],[-122.456868,44.19887],[-122.461691,44.198867]]]}},{"type":"Feature","properties":{"MAPTAXLOT":"1635000001500","MAPNUMBER":"16350000","TAXLOT":"1500","ACCTNO":"0082634","MAPACRES":977.10013624},"geometry":{"type":"Polygon","coordinates":[[[-122.447223,44.198878],[-122.452046,44.198874],[-122.456868,44.19887],[-122.456693,44.195301],[-122.461562,44.195255],[-122.461433,44.191643],[-122.466204,44.191556],[-122.466197,44.187995],[-122.466189,44.184433],[-122.466192,44.180871],[-122.466194,44.177309],[-122.466197,44.173748],[-122.466199,44.171485],[-122.466097,44.171499],[-122.465971,44.171553],[-122.465833,44.171642],[-122.465795,44.17166],[-122.46572,44.171687],[-122.46562,44.171704],[-122.465357,44.17173],[-122.464668,44.171754],[-122.464443,44.171771],[-122.464355,44.171788],[-122.464217,44.171824],[-122.464067,44.171895],[-122.463739,44.172128],[-122.463588,44.172208],[-122.463362,44.172315],[-122.463111,44.172413],[-122.462986,44.172448],[-122.462811,44.172474],[-122.462585,44.1725],[-122.462122,44.172516],[-122.461997,44.172543],[-122.461872,44.172533],[-122.461734,44.172523],[-122.461409,44.172477],[-122.461235,44.172458],[-122.461047,44.172457],[-122.460872,44.172483],[-122.460784,44.17251],[-122.460708,44.172545],[-122.459916,44.172983],[-122.459364,44.173223],[-122.458849,44.173374],[-122.458198,44.173524],[-122.457319,44.173799],[-122.457144,44.173843],[-122.457006,44.173869],[-122.456655,44.173922],[-122.456055,44.173937],[-122.455742,44.173971],[-122.454316,44.173947],[-122.453953,44.173954],[-122.453728,44.173971],[-122.453402,44.174005],[-122.452964,44.174066],[-122.451798,44.174259],[-122.451348,44.174302],[-122.45116,44.174328],[-122.451034,44.174363],[-122.450834,44.174434],[-122.450645,44.174532],[-122.450557,44.174604],[-122.450418,44.174774],[-122.450367,44.174828],[-122.450254,44.17489],[-122.450179,44.174917],[-122.450041,44.174907],[-122.449991,44.174898],[-122.449916,44.174871],[-122.449718,44.174726],[-122.449556,44.174563],[-122.449445,44.174463],[-122.449308,44.174382],[-122.449146,44.174309],[-122.449021,44.174272],[-122.448834,44.174253],[-122.448521,44.174252],[-122.448421,44.174269],[-122.448132,44.174349],[-122.447881,44.174438],[-122.447141,44.174868],[-122.446907,44.175062],[-122.446664,44.175278],[-122.446456,44.175451],[-122.446287,44.175628],[-122.446284,44.175849],[-122.446261,44.177564],[-122.446232,44.181149],[-122.446203,44.184734],[-122.446662,44.188318],[-122.44712,44.191902],[-122.447172,44.19539],[-122.447223,44.198878]]]}},{"type":"Feature","properties":{"MAPTAXLOT":"1635000001900","MAPNUMBER":"16350000","TAXLOT":"1900","ACCTNO":"0082675","MAPACRES":5272.30801131},"geometry":{"type":"Polygon","coordinates":[[[-122.383134,44.194404],[-122.386782,44.194595],[-122.391939,44.194865],[-122.391836,44.191262],[-122.39693,44.191529],[-122.402022,44.191795],[-122.407112,44.192061],[-122.406924,44.189746],[-122.407475,44.189791],[-122.407691,44.189786],[-122.408766,44.1896],[-122.409492,44.189875],[-122.410454,44.189684],[-122.411332,44.189228],[-122.411794,44.189012],[-122.411821,44.189],[-122.411774,44.188409],[-122.413061,44.188399],[-122.413232,44.188318],[-122.413638,44.188265],[-122.414229,44.188149],[-122.414644,44.188013],[-122.415252,44.187432],[-122.415674,44.186956],[-122.416355,44.186297],[-122.416559,44.186178],[-122.416449,44.184768],[-122.417969,44.184758],[-122.418226,44.184529],[-122.418871,44.184256],[-122.419156,44.184057],[-122.419659,44.183915],[-122.42009,44.183756],[-122.420131,44.183538],[-122.420281,44.183301],[-122.420977,44.182855],[-122.421231,44.182713],[-122.421446,44.182598],[-122.421471,44.181139],[-122.424035,44.181124],[-122.424051,44.181103],[-122.424197,44.180907],[-122.424518,44.180536],[-122.424694,44.180411],[-122.425333,44.180171],[-122.425872,44.180035],[-122.426144,44.179857],[-122.426274,44.179789],[-122.426442,44.179666],[-122.427308,44.179031],[-122.427558,44.178882],[-122.428043,44.178738],[-122.428675,44.178663],[-122.428876,44.178499],[-122.429492,44.178073],[-122.429963,44.17784],[-122.431423,44.177532],[-122.436356,44.177543],[-122.441328,44.177554],[-122.445111,44.177562],[-122.445434,44.177104],[-122.446284,44.175849],[-122.446287,44.175628],[-122.446309,44.173982],[-122.446358,44.1704],[-122.4662,44.170186],[-122.466004,44.163067],[-122.446079,44.163227],[-122.4458,44.156053],[-122.43578,44.155952],[-122.435834,44.152432],[-122.430867,44.152424],[-122.430926,44.148835],[-122.425867,44.148832],[-122.425977,44.145269],[-122.420947,44.145232],[-122.418432,44.145213],[-122.415917,44.145193],[-122.410923,44.145155],[-122.410941,44.141562],[-122.411018,44.13778],[-122.406067,44.137674],[-122.40598,44.141506],[-122.405902,44.145117],[-122.405824,44.148728],[-122.405822,44.152335],[-122.400872,44.152317],[-122.400892,44.148721],[-122.395894,44.148714],[-122.395892,44.150118],[-122.395889,44.152299],[-122.385761,44.152261],[-122.385799,44.155824],[-122.385173,44.159161],[-122.38454,44.162561],[-122.38454,44.162561],[-122.383906,44.165961],[-122.383272,44.169361],[-122.383226,44.172915],[-122.383226,44.172916],[-122.383226,44.172983],[-122.383226,44.172983],[-122.383182,44.176472],[-122.383182,44.176472],[-122.383182,44.176607],[-122.383182,44.176607],[-122.38314,44.18003],[-122.38314,44.180031],[-122.38314,44.180233],[-122.383099,44.183591],[-122.3831,44.183862],[-122.383108,44.187198],[-122.383109,44.18747],[-122.383118,44.190805],[-122.383119,44.191078],[-122.383134,44.194404]],[[-122.407792,44.139566],[-122.407487,44.139571],[-122.407481,44.139351],[-122.407785,44.139346],[-122.407792,44.139566]]]}},{"type":"Feature","properties":{"MAPTAXLOT":"1635000001905","MAPNUMBER":"16350000","TAXLOT":"1905","ACCTNO":"0082790","MAPACRES":424.24576169},"geometry":{"type":"Polygon","coordinates":[[[-122.466192,44.180871],[-122.471176,44.180862],[-122.47616,44.180853],[-122.481145,44.180844],[-122.481072,44.177297],[-122.486032,44.177293],[-122.485933,44.173752],[-122.485835,44.170211],[-122.480927,44.170205],[-122.476018,44.170199],[-122.471109,44.170193],[-122.4662,44.170186],[-122.466199,44.171485],[-122.466197,44.173748],[-122.466194,44.177309],[-122.466192,44.180871]]]}},{"type":"Feature","properties":{"MAPTAXLOT":"1635000001906","MAPNUMBER":"16350000","TAXLOT":"1906","ACCTNO":"0082816","MAPACRES":38.23886405},"geometry":{"type":"Polygon","coordinates":[[[-122.485933,44.173752],[-122.490859,44.173723],[-122.490752,44.170188],[-122.485835,44.170211],[-122.485933,44.173752]]]}},{"type":"Feature","properties":{"MAPTAXLOT":"1635000001907","MAPNUMBER":"16350000","TAXLOT":"1907","ACCTNO":"0082832","MAPACRES":38.40298995},"geometry":{"type":"Polygon","coordinates":[[[-122.485835,44.170211],[-122.490752,44.170188],[-122.490673,44.166609],[-122.485834,44.16662],[-122.485835,44.170211]]]}},{"type":"Feature","properties":{"MAPTAXLOT":"1635000001909","MAPNUMBER":"16350000","TAXLOT":"1909","ACCTNO":"0082873","MAPACRES":622.85656166},"geometry":{"type":"Polygon","coordinates":[[[-122.480927,44.170205],[-122.485835,44.170211],[-122.485834,44.16662],[-122.485833,44.163029],[-122.485831,44.159438],[-122.48583,44.155847],[-122.465809,44.155947],[-122.466004,44.163067],[-122.4662,44.170186],[-122.471109,44.170193],[-122.476018,44.170199],[-122.480927,44.170205]]]}},{"type":"Feature","properties":{"MAPTAXLOT":"1635000001922","MAPNUMBER":"16350000","TAXLOT":"1922","ACCTNO":"1839115","MAPACRES":140.99367172},"geometry":{"type":"Polygon","coordinates":[[[-122.4662,44.170186],[-122.446358,44.1704],[-122.446309,44.173982],[-122.446287,44.175628],[-122.446456,44.175451],[-122.446664,44.175278],[-122.446907,44.175062],[-122.447141,44.174868],[-122.447881,44.174438],[-122.448132,44.174349],[-122.448421,44.174269],[-122.448521,44.174252],[-122.448834,44.174253],[-122.449021,44.174272],[-122.449146,44.174309],[-122.449308,44.174382],[-122.449445,44.174463],[-122.449556,44.174563],[-122.449718,44.174726],[-122.449916,44.174871],[-122.449991,44.174898],[-122.450041,44.174907],[-122.450179,44.174917],[-122.450254,44.17489],[-122.450367,44.174828],[-122.450418,44.174774],[-122.450557,44.174604],[-122.450645,44.174532],[-122.450834,44.174434],[-122.451034,44.174363],[-122.45116,44.174328],[-122.451348,44.174302],[-122.451798,44.174259],[-122.452964,44.174066],[-122.453402,44.174005],[-122.453728,44.173971],[-122.453953,44.173954],[-122.454316,44.173947],[-122.455742,44.173971],[-122.456055,44.173937],[-122.456655,44.173922],[-122.457006,44.173869],[-122.457144,44.173843],[-122.457319,44.173799],[-122.458198,44.173524],[-122.458849,44.173374],[-122.459364,44.173223],[-122.459916,44.172983],[-122.460708,44.172545],[-122.460784,44.17251],[-122.460872,44.172483],[-122.461047,44.172457],[-122.461235,44.172458],[-122.461409,44.172477],[-122.461734,44.172523],[-122.461872,44.172533],[-122.461997,44.172543],[-122.462122,44.172516],[-122.462585,44.1725],[-122.462811,44.172474],[-122.462986,44.172448],[-122.463111,44.172413],[-122.463362,44.172315],[-122.463588,44.172208],[-122.463739,44.172128],[-122.464067,44.171895],[-122.464217,44.171824],[-122.464355,44.171788],[-122.464443,44.171771],[-122.464668,44.171754],[-122.465357,44.17173],[-122.46562,44.171704],[-122.46572,44.171687],[-122.465795,44.17166],[-122.465833,44.171642],[-122.465971,44.171553],[-122.466097,44.171499],[-122.466199,44.171485],[-122.4662,44.170186]]]}},{"type":"Feature","properties":{"MAPTAXLOT":"1635000002000","MAPNUMBER":"16350000","TAXLOT":"2000","ACCTNO":"0082931","MAPACRES":194.55656627},"geometry":{"type":"Polygon","coordinates":[[[-122.481218,44.18439],[-122.486227,44.184375],[-122.486129,44.180834],[-122.486032,44.177293],[-122.481072,44.177297],[-122.481145,44.180844],[-122.47616,44.180853],[-122.471176,44.180862],[-122.466192,44.180871],[-122.466189,44.184433],[-122.471199,44.184419],[-122.476208,44.184405],[-122.481218,44.18439]]]}},{"type":"Feature","properties":{"MAPTAXLOT":"1635000002100","MAPNUMBER":"16350000","TAXLOT":"2100","ACCTNO":"0082956","MAPACRES":312.73464082},"geometry":{"type":"Polygon","coordinates":[[[-122.493998,44.180786],[-122.49602,44.180774],[-122.495903,44.177233],[-122.500884,44.177203],[-122.500761,44.173663],[-122.504405,44.173641],[-122.506331,44.173629],[-122.506332,44.172822],[-122.506334,44.170089],[-122.503486,44.170109],[-122.500638,44.170129],[-122.495668,44.170165],[-122.490752,44.170188],[-122.490859,44.173723],[-122.485933,44.173752],[-122.486032,44.177293],[-122.486129,44.180834],[-122.491075,44.180804],[-122.493998,44.180786]]]}},{"type":"Feature","properties":{"MAPTAXLOT":"1635000002200","MAPNUMBER":"16350000","TAXLOT":"2200","ACCTNO":"0082964","MAPACRES":38.75325078},"geometry":{"type":"Polygon","coordinates":[[[-122.49602,44.180774],[-122.501007,44.180743],[-122.500966,44.179543],[-122.500884,44.177203],[-122.495903,44.177233],[-122.49602,44.180774]]]}},{"type":"Feature","properties":{"MAPTAXLOT":"1635000002300","MAPNUMBER":"16350000","TAXLOT":"2300","ACCTNO":"0082972","MAPACRES":201.28675015},"geometry":{"type":"Polygon","coordinates":[[[-122.50113,44.184278],[-122.506396,44.18425],[-122.506363,44.180901],[-122.506363,44.180709],[-122.506327,44.177296],[-122.506329,44.177169],[-122.506331,44.173692],[-122.506331,44.173629],[-122.504405,44.173641],[-122.504379,44.173665],[-122.504359,44.173691],[-122.504344,44.173719],[-122.504334,44.173748],[-122.504331,44.173778],[-122.504334,44.174159],[-122.504331,44.174211],[-122.504321,44.174262],[-122.504303,44.174313],[-122.504279,44.174362],[-122.504247,44.174409],[-122.50421,44.174454],[-122.504166,44.174495],[-122.503729,44.174867],[-122.5037,44.174895],[-122.503674,44.174925],[-122.503653,44.174956],[-122.503637,44.174989],[-122.503625,44.175023],[-122.503622,44.175071],[-122.503616,44.175103],[-122.503604,44.175134],[-122.503585,44.175163],[-122.50356,44.17519],[-122.50353,44.175214],[-122.503496,44.175234],[-122.503457,44.17525],[-122.503415,44.175262],[-122.50251,44.175485],[-122.502431,44.175507],[-122.502356,44.175534],[-122.502284,44.175565],[-122.502216,44.175601],[-122.502153,44.175641],[-122.502094,44.175684],[-122.502042,44.175731],[-122.501995,44.175782],[-122.501954,44.175834],[-122.501923,44.175884],[-122.501899,44.175935],[-122.501881,44.175988],[-122.50187,44.176042],[-122.501846,44.176185],[-122.501933,44.176929],[-122.501937,44.176989],[-122.501934,44.17705],[-122.501925,44.17711],[-122.50191,44.17717],[-122.501889,44.177228],[-122.501861,44.177285],[-122.501828,44.177341],[-122.501515,44.177761],[-122.501477,44.177818],[-122.501443,44.177875],[-122.501415,44.177934],[-122.501392,44.177995],[-122.501374,44.178056],[-122.501362,44.178118],[-122.501347,44.17837],[-122.501339,44.178467],[-122.501329,44.178563],[-122.501167,44.179352],[-122.501156,44.179387],[-122.501138,44.17942],[-122.501114,44.179451],[-122.501084,44.17948],[-122.501049,44.179505],[-122.501009,44.179526],[-122.500966,44.179543],[-122.501007,44.180743],[-122.49602,44.180774],[-122.493998,44.180786],[-122.49381,44.180884],[-122.493619,44.180978],[-122.493424,44.181069],[-122.493226,44.181156],[-122.493067,44.181212],[-122.492968,44.181245],[-122.492868,44.181273],[-122.492765,44.181297],[-122.49266,44.181317],[-122.492554,44.181333],[-122.492447,44.181344],[-122.492339,44.181351],[-122.492231,44.181354],[-122.492123,44.181352],[-122.491772,44.181354],[-122.491665,44.181357],[-122.491558,44.181366],[-122.491452,44.181379],[-122.491348,44.181398],[-122.491245,44.181421],[-122.491145,44.18145],[-122.491048,44.181483],[-122.490955,44.181521],[-122.490865,44.181564],[-122.490639,44.181683],[-122.490575,44.181714],[-122.490509,44.181741],[-122.49044,44.181764],[-122.490368,44.181783],[-122.490294,44.181798],[-122.490219,44.181808],[-122.489916,44.181859],[-122.489847,44.181873],[-122.48978,44.181891],[-122.489715,44.181913],[-122.489654,44.18194],[-122.489595,44.18197],[-122.489541,44.182004],[-122.489491,44.182041],[-122.489446,44.182081],[-122.489278,44.182196],[-122.489205,44.182242],[-122.489128,44.182285],[-122.489047,44.182323],[-122.488962,44.182358],[-122.488875,44.182389],[-122.488785,44.182415],[-122.488392,44.182537],[-122.488314,44.182559],[-122.488235,44.182578],[-122.488154,44.182592],[-122.488072,44.182603],[-122.487989,44.182609],[-122.487906,44.182612],[-122.487573,44.18265],[-122.487499,44.182662],[-122.487426,44.182678],[-122.487357,44.182699],[-122.48729,44.182726],[-122.487227,44.182756],[-122.487168,44.182791],[-122.487115,44.18283],[-122.487066,44.182872],[-122.487024,44.182918],[-122.486988,44.182966],[-122.486959,44.183016],[-122.486808,44.183368],[-122.486783,44.183432],[-122.486765,44.183497],[-122.486752,44.183562],[-122.486746,44.183629],[-122.486746,44.183695],[-122.486751,44.183761],[-122.486749,44.184034],[-122.486745,44.184085],[-122.486736,44.184136],[-122.486722,44.184186],[-122.486701,44.184235],[-122.486676,44.184282],[-122.486645,44.184328],[-122.486609,44.184373],[-122.491182,44.18434],[-122.496137,44.184305],[-122.50113,44.184278]]]}},{"type":"Feature","properties":{"MAPTAXLOT":"1635000002301","MAPNUMBER":"16350000","TAXLOT":"2301","ACCTNO":"1682200","MAPACRES":40.45237022},"geometry":{"type":"MultiPolygon","coordinates":[[[[-122.486227,44.184375],[-122.486228,44.184547],[-122.486291,44.184534],[-122.486353,44.184517],[-122.486411,44.184496],[-122.486467,44.18447],[-122.486518,44.184441],[-122.486566,44.184408],[-122.486609,44.184373],[-122.486645,44.184328],[-122.486676,44.184282],[-122.486701,44.184235],[-122.486722,44.184186],[-122.486736,44.184136],[-122.486745,44.184085],[-122.486749,44.184034],[-122.486751,44.183761],[-122.486746,44.183695],[-122.486746,44.183629],[-122.486752,44.183562],[-122.486765,44.183497],[-122.486783,44.183432],[-122.486808,44.183368],[-122.486959,44.183016],[-122.486988,44.182966],[-122.487024,44.182918],[-122.487066,44.182872],[-122.487115,44.18283],[-122.487168,44.182791],[-122.487227,44.182756],[-122.48729,44.182726],[-122.487357,44.182699],[-122.487426,44.182678],[-122.487499,44.182662],[-122.487573,44.18265],[-122.487906,44.182612],[-122.487989,44.182609],[-122.488072,44.182603],[-122.488154,44.182592],[-122.488235,44.182578],[-122.488314,44.182559],[-122.488392,44.182537],[-122.488785,44.182415],[-122.488875,44.182389],[-122.488962,44.182358],[-122.489047,44.182323],[-122.489128,44.182285],[-122.489205,44.182242],[-122.489278,44.182196],[-122.489446,44.182081],[-122.489491,44.182041],[-122.489541,44.182004],[-122.489595,44.18197],[-122.489654,44.18194],[-122.489715,44.181913],[-122.48978,44.181891],[-122.489847,44.181873],[-122.489916,44.181859],[-122.490219,44.181808],[-122.490294,44.181798],[-122.490368,44.181783],[-122.49044,44.181764],[-122.490509,44.181741],[-122.490575,44.181714],[-122.490639,44.181683],[-122.490865,44.181564],[-122.490955,44.181521],[-122.491048,44.181483],[-122.491145,44.18145],[-122.491245,44.181421],[-122.491348,44.181398],[-122.491452,44.181379],[-122.491558,44.181366],[-122.491665,44.181357],[-122.491772,44.181354],[-122.492123,44.181352],[-122.492231,44.181354],[-122.492339,44.181351],[-122.492447,44.181344],[-122.492554,44.181333],[-122.49266,44.181317],[-122.492765,44.181297],[-122.492868,44.181273],[-122.492968,44.181245],[-122.493067,44.181212],[-122.493226,44.181156],[-122.493424,44.181069],[-122.493619,44.180978],[-122.49381,44.180884],[-122.493998,44.180786],[-122.491075,44.180804],[-122.486129,44.180834],[-122.486227,44.184375]]],[[[-122.500884,44.177203],[-122.500966,44.179543],[-122.501009,44.179526],[-122.501049,44.179505],[-122.501084,44.17948],[-122.501114,44.179451],[-122.501138,44.17942],[-122.501156,44.179387],[-122.501167,44.179352],[-122.501329,44.178563],[-122.501339,44.178467],[-122.501347,44.17837],[-122.501362,44.178118],[-122.501374,44.178056],[-122.501392,44.177995],[-122.501415,44.177934],[-122.501443,44.177875],[-122.501477,44.177818],[-122.501515,44.177761],[-122.501828,44.177341],[-122.501861,44.177285],[-122.501889,44.177228],[-122.50191,44.17717],[-122.501925,44.17711],[-122.501934,44.17705],[-122.501937,44.176989],[-122.501933,44.176929],[-122.501846,44.176185],[-122.50187,44.176042],[-122.501881,44.175988],[-122.501899,44.175935],[-122.501923,44.175884],[-122.501954,44.175834],[-122.501995,44.175782],[-122.502042,44.175731],[-122.502094,44.175684],[-122.502153,44.175641],[-122.502216,44.175601],[-122.502284,44.175565],[-122.502356,44.175534],[-122.502431,44.175507],[-122.50251,44.175485],[-122.503415,44.175262],[-122.503457,44.17525],[-122.503496,44.175234],[-122.50353,44.175214],[-122.50356,44.17519],[-122.503585,44.175163],[-122.503604,44.175134],[-122.503616,44.175103],[-122.503622,44.175071],[-122.503625,44.175023],[-122.503637,44.174989],[-122.503653,44.174956],[-122.503674,44.174925],[-122.5037,44.174895],[-122.503729,44.174867],[-122.504166,44.174495],[-122.50421,44.174454],[-122.504247,44.174409],[-122.504279,44.174362],[-122.504303,44.174313],[-122.504321,44.174262],[-122.504331,44.174211],[-122.504334,44.174159],[-122.504331,44.173778],[-122.504334,44.173748],[-122.504344,44.173719],[-122.504359,44.173691],[-122.504379,44.173665],[-122.504405,44.173641],[-122.500761,44.173663],[-122.500884,44.177203]]]]}},{"type":"Feature","properties":{"MAPTAXLOT":"1635000002400","MAPNUMBER":"16350000","TAXLOT":"2400","ACCTNO":"0082980","MAPACRES":341.42891535},"geometry":{"type":"Polygon","coordinates":[[[-122.485834,44.16662],[-122.490673,44.166609],[-122.490752,44.170188],[-122.495668,44.170165],[-122.500638,44.170129],[-122.503486,44.170109],[-122.506334,44.170089],[-122.506363,44.168331],[-122.506362,44.168331],[-122.503532,44.168344],[-122.503578,44.16658],[-122.503624,44.164811],[-122.506419,44.164805],[-122.50642,44.164805],[-122.506449,44.163057],[-122.50645,44.162973],[-122.50645,44.162937],[-122.50645,44.162926],[-122.506451,44.162775],[-122.506466,44.161294],[-122.506465,44.161294],[-122.500461,44.161272],[-122.495279,44.161258],[-122.495201,44.159475],[-122.492858,44.159466],[-122.490515,44.159456],[-122.490594,44.163036],[-122.485833,44.163029],[-122.485834,44.16662]]]}}]}