{"type":"FeatureCollection","features":[{"type":"Feature","properties":{"MAPTAXLOT":"1507000000100","MAPNUMBER":"15070000","TAXLOT":"100","ACCTNO":"0022473","MAPACRES":72.00620413},"geometry":{"type":"Polygon","coordinates":[[[-123.583921,44.278589],[-123.583963,44.282213],[-123.588751,44.282047],[-123.593251,44.28189],[-123.593268,44.280358],[-123.593288,44.278471],[-123.583921,44.278589]]]}},{"type":"Feature","properties":{"MAPTAXLOT":"1507000000200","MAPNUMBER":"15070000","TAXLOT":"200","ACCTNO":"0022481","MAPACRES":72.35279516},"geometry":{"type":"Polygon","coordinates":[[[-123.583921,44.278589],[-123.593288,44.278471],[-123.593286,44.27667],[-123.593298,44.275065],[-123.588735,44.275017],[-123.58388,44.274966],[-123.583921,44.278589]]]}},{"type":"Feature","properties":{"MAPTAXLOT":"1507000000300","MAPNUMBER":"15070000","TAXLOT":"300","ACCTNO":"0022499","MAPACRES":84.31844991},"geometry":{"type":"Polygon","coordinates":[[[-123.57358,44.278781],[-123.573567,44.282576],[-123.583963,44.282213],[-123.583921,44.278589],[-123.57358,44.278781]]]}},{"type":"Feature","properties":{"MAPTAXLOT":"1507000000400","MAPNUMBER":"15070000","TAXLOT":"400","ACCTNO":"0022507","MAPACRES":83.88284326},"geometry":{"type":"Polygon","coordinates":[[[-123.57358,44.278781],[-123.583921,44.278589],[-123.58388,44.274966],[-123.578736,44.274976],[-123.573592,44.274987],[-123.57358,44.278781]]]}},{"type":"Feature","properties":{"MAPTAXLOT":"1507000000500","MAPNUMBER":"15070000","TAXLOT":"500","ACCTNO":"0022515","MAPACRES":2875.84470334},"geometry":{"type":"Polygon","coordinates":[[[-123.564914,44.282022],[-123.569241,44.282299],[-123.573567,44.282576],[-123.57358,44.278781],[-123.573592,44.274987],[-123.573636,44.271305],[-123.57368,44.267623],[-123.573728,44.260186],[-123.573722,44.256402],[-123.573717,44.252618],[-123.57374,44.245061],[-123.573787,44.23744],[-123.573865,44.229828],[-123.568573,44.229828],[-123.563282,44.229828],[-123.552689,44.22984],[-123.552751,44.237277],[-123.552783,44.244579],[-123.542466,44.244674],[-123.532146,44.244802],[-123.532225,44.25219],[-123.532106,44.259461],[-123.542281,44.25935],[-123.555876,44.260078],[-123.55615,44.266189],[-123.55615,44.266189],[-123.556067,44.27391],[-123.555989,44.281397],[-123.560452,44.28171],[-123.560059,44.278077],[-123.564091,44.278501],[-123.564914,44.282022]]]}},{"type":"Feature","properties":{"MAPTAXLOT":"1507000001500","MAPNUMBER":"15070000","TAXLOT":"1500","ACCTNO":"0022648","MAPACRES":157.7855433},"geometry":{"type":"Polygon","coordinates":[[[-123.573592,44.274987],[-123.578736,44.274976],[-123.58388,44.274966],[-123.588735,44.275017],[-123.593298,44.275065],[-123.593311,44.272927],[-123.593321,44.271377],[-123.578819,44.271324],[-123.573636,44.271305],[-123.573592,44.274987]]]}},{"type":"Feature","properties":{"MAPTAXLOT":"1507000001600","MAPNUMBER":"15070000","TAXLOT":"1600","ACCTNO":"0022663","MAPACRES":331.06317362},"geometry":{"type":"Polygon","coordinates":[[[-123.57368,44.267623],[-123.573636,44.271305],[-123.578819,44.271324],[-123.593321,44.271377],[-123.593334,44.269183],[-123.593376,44.267689],[-123.584125,44.267658],[-123.584375,44.260216],[-123.573728,44.260186],[-123.57368,44.267623]]]}},{"type":"Feature","properties":{"MAPTAXLOT":"1507000001700","MAPNUMBER":"15070000","TAXLOT":"1700","ACCTNO":"0022671","MAPACRES":149.86171846},"geometry":{"type":"Polygon","coordinates":[[[-123.584125,44.267658],[-123.593376,44.267689],[-123.593433,44.265563],[-123.593476,44.264],[-123.593531,44.261942],[-123.593541,44.260312],[-123.589088,44.260265],[-123.584375,44.260216],[-123.584125,44.267658]]]}},{"type":"Feature","properties":{"MAPTAXLOT":"1507000001800","MAPNUMBER":"15070000","TAXLOT":"1800","ACCTNO":"0022689","MAPACRES":655.86891613},"geometry":{"type":"Polygon","coordinates":[[[-123.573717,44.252618],[-123.573722,44.256402],[-123.573728,44.260186],[-123.584375,44.260216],[-123.589088,44.260265],[-123.593541,44.260312],[-123.59355,44.258373],[-123.593559,44.256527],[-123.593567,44.254801],[-123.593573,44.252741],[-123.593578,44.251201],[-123.593583,44.248955],[-123.593589,44.2476],[-123.593673,44.245169],[-123.589013,44.245195],[-123.584195,44.245221],[-123.57374,44.245061],[-123.573717,44.252618]]]}},{"type":"Feature","properties":{"MAPTAXLOT":"1507000003100","MAPNUMBER":"15070000","TAXLOT":"3100","ACCTNO":"0022820","MAPACRES":674.58009778},"geometry":{"type":"Polygon","coordinates":[[[-123.589013,44.245195],[-123.593673,44.245169],[-123.593718,44.243956],[-123.593805,44.241348],[-123.593844,44.240312],[-123.593879,44.237525],[-123.593892,44.236739],[-123.593928,44.233702],[-123.593937,44.233165],[-123.593946,44.229877],[-123.589962,44.229859],[-123.584593,44.229833],[-123.573865,44.229828],[-123.573787,44.23744],[-123.57374,44.245061],[-123.584195,44.245221],[-123.589013,44.245195]]]}},{"type":"Feature","properties":{"MAPTAXLOT":"1508000000400","MAPNUMBER":"15080000","TAXLOT":"400","ACCTNO":"0023612","MAPACRES":40.34005423},"geometry":{"type":"Polygon","coordinates":[[[-123.608763,44.276871],[-123.613922,44.276938],[-123.613958,44.273398],[-123.608796,44.273281],[-123.608763,44.276871]]]}},{"type":"Feature","properties":{"MAPTAXLOT":"1508000000500","MAPNUMBER":"15080000","TAXLOT":"500","ACCTNO":"0023620","MAPACRES":124.47201966},"geometry":{"type":"Polygon","coordinates":[[[-123.593286,44.27667],[-123.608763,44.276871],[-123.608796,44.273281],[-123.593311,44.272927],[-123.593298,44.275065],[-123.593286,44.27667]]]}},{"type":"Feature","properties":{"MAPTAXLOT":"1508000000600","MAPNUMBER":"15080000","TAXLOT":"600","ACCTNO":"0023638","MAPACRES":163.61869481},"geometry":{"type":"Polygon","coordinates":[[[-123.608796,44.273281],[-123.613958,44.273398],[-123.613994,44.269859],[-123.603411,44.269571],[-123.593334,44.269183],[-123.593321,44.271377],[-123.593311,44.272927],[-123.608796,44.273281]]]}},{"type":"Feature","properties":{"MAPTAXLOT":"1508000000700","MAPNUMBER":"15080000","TAXLOT":"700","ACCTNO":"0023646","MAPACRES":120.67121028},"geometry":{"type":"Polygon","coordinates":[[[-123.59355,44.258373],[-123.603709,44.258725],[-123.603807,44.255145],[-123.598687,44.254973],[-123.598747,44.251372],[-123.593578,44.251201],[-123.593573,44.252741],[-123.593567,44.254801],[-123.593559,44.256527],[-123.59355,44.258373]]]}},{"type":"Feature","properties":{"MAPTAXLOT":"1508000000800","MAPNUMBER":"15080000","TAXLOT":"800","ACCTNO":"0023653","MAPACRES":5607.93064894},"geometry":{"type":"Polygon","coordinates":[[[-123.613922,44.276938],[-123.634901,44.277986],[-123.634729,44.274391],[-123.634557,44.270796],[-123.634663,44.256302],[-123.65532,44.25706],[-123.655222,44.249774],[-123.655123,44.242487],[-123.655026,44.235221],[-123.654928,44.227954],[-123.634751,44.227369],[-123.634754,44.225551],[-123.624517,44.225179],[-123.624533,44.21606],[-123.61437,44.215749],[-123.604276,44.215442],[-123.604113,44.22631],[-123.59395,44.225984],[-123.593949,44.226064],[-123.593949,44.229573],[-123.593946,44.229877],[-123.593937,44.233165],[-123.593928,44.233702],[-123.593892,44.236739],[-123.593879,44.237525],[-123.593844,44.240312],[-123.593805,44.241348],[-123.593718,44.243956],[-123.593673,44.245169],[-123.593589,44.2476],[-123.593583,44.248955],[-123.593578,44.251201],[-123.598747,44.251372],[-123.598687,44.254973],[-123.603807,44.255145],[-123.603709,44.258725],[-123.59355,44.258373],[-123.593541,44.260312],[-123.593531,44.261942],[-123.593476,44.264],[-123.593433,44.265563],[-123.593376,44.267689],[-123.593334,44.269183],[-123.603411,44.269571],[-123.613994,44.269859],[-123.613958,44.273398],[-123.613922,44.276938]],[[-123.624514,44.227002],[-123.624475,44.234217],[-123.61423,44.233841],[-123.614277,44.226634],[-123.624514,44.227002]],[[-123.629526,44.251575],[-123.629523,44.25248],[-123.614083,44.251879],[-123.614116,44.248269],[-123.634676,44.249058],[-123.634671,44.251775],[-123.629526,44.251575]]]}},{"type":"Feature","properties":{"MAPTAXLOT":"1508000001300","MAPNUMBER":"15080000","TAXLOT":"1300","ACCTNO":"0023729","MAPACRES":152.99984594},"geometry":{"type":"Polygon","coordinates":[[[-123.614083,44.251879],[-123.629523,44.25248],[-123.629526,44.251575],[-123.634671,44.251775],[-123.634676,44.249058],[-123.614116,44.248269],[-123.614083,44.251879]]]}},{"type":"Feature","properties":{"MAPTAXLOT":"1508100000100","MAPNUMBER":"15081000","TAXLOT":"100","ACCTNO":"0023927","MAPACRES":124.28496856},"geometry":{"type":"Polygon","coordinates":[[[-123.634901,44.277986],[-123.645132,44.278498],[-123.645321,44.271228],[-123.639939,44.271012],[-123.639978,44.274641],[-123.634729,44.274391],[-123.634901,44.277986]]]}},{"type":"Feature","properties":{"MAPTAXLOT":"1508100000300","MAPNUMBER":"15081000","TAXLOT":"300","ACCTNO":"0023950","MAPACRES":42.0414643},"geometry":{"type":"Polygon","coordinates":[[[-123.634729,44.274391],[-123.639978,44.274641],[-123.639939,44.271012],[-123.634557,44.270796],[-123.634729,44.274391]]]}},{"type":"Feature","properties":{"MAPTAXLOT":"1508150000100","MAPNUMBER":"15081500","TAXLOT":"100","ACCTNO":"0023968","MAPACRES":623.46014059},"geometry":{"type":"Polygon","coordinates":[[[-123.645321,44.271228],[-123.6504,44.271481],[-123.650339,44.267841],[-123.651966,44.26791],[-123.652312,44.267925],[-123.65254,44.267935],[-123.65383,44.267989],[-123.654874,44.268034],[-123.654937,44.267943],[-123.654969,44.267879],[-123.654991,44.267811],[-123.654995,44.267729],[-123.65499,44.267634],[-123.65499,44.267633],[-123.654983,44.267535],[-123.654958,44.267469],[-123.654916,44.267395],[-123.654818,44.267267],[-123.654674,44.267105],[-123.654866,44.267016],[-123.655015,44.267183],[-123.655123,44.267324],[-123.655175,44.267415],[-123.65521,44.267508],[-123.655219,44.267625],[-123.655219,44.267627],[-123.655225,44.267729],[-123.655219,44.267833],[-123.655189,44.267925],[-123.655149,44.268007],[-123.655123,44.268044],[-123.65548,44.268059],[-123.655481,44.264386],[-123.65532,44.25706],[-123.634663,44.256302],[-123.634557,44.270796],[-123.639939,44.271012],[-123.645321,44.271228]]]}}]}