{"type":"FeatureCollection","features":[{"type":"Feature","properties":{"MAPTAXLOT":"1506000000100","MAPNUMBER":"15060000","TAXLOT":"100","ACCTNO":"0021426","MAPACRES":333.21665551},"geometry":{"type":"Polygon","coordinates":[[[-123.451277,44.280485],[-123.456488,44.2808],[-123.461579,44.280901],[-123.466782,44.281028],[-123.471998,44.281184],[-123.472004,44.277658],[-123.472004,44.277524],[-123.472011,44.273863],[-123.466727,44.273647],[-123.461549,44.273438],[-123.451359,44.273436],[-123.451277,44.280485]]]}},{"type":"Feature","properties":{"MAPTAXLOT":"1506000000200","MAPNUMBER":"15060000","TAXLOT":"200","ACCTNO":"0021434","MAPACRES":154.32773018},"geometry":{"type":"Polygon","coordinates":[[[-123.441511,44.277119],[-123.441558,44.280772],[-123.451277,44.280485],[-123.451359,44.273436],[-123.441463,44.273467],[-123.441511,44.277119]]]}},{"type":"Feature","properties":{"MAPTAXLOT":"1506000000300","MAPNUMBER":"15060000","TAXLOT":"300","ACCTNO":"0021442","MAPACRES":79.12333203},"geometry":{"type":"Polygon","coordinates":[[[-123.431721,44.280842],[-123.441558,44.280772],[-123.441511,44.277119],[-123.431644,44.277169],[-123.431721,44.280842]]]}},{"type":"Feature","properties":{"MAPTAXLOT":"1506000000400","MAPNUMBER":"15060000","TAXLOT":"400","ACCTNO":"0021459","MAPACRES":79.36170119},"geometry":{"type":"Polygon","coordinates":[[[-123.431644,44.277169],[-123.441511,44.277119],[-123.441463,44.273467],[-123.431567,44.273496],[-123.431644,44.277169]]]}},{"type":"Feature","properties":{"MAPTAXLOT":"1506000000500","MAPNUMBER":"15060000","TAXLOT":"500","ACCTNO":"0021467","MAPACRES":318.00334354},"geometry":{"type":"Polygon","coordinates":[[[-123.411767,44.280905],[-123.431721,44.280842],[-123.431644,44.277169],[-123.431567,44.273496],[-123.421645,44.273586],[-123.416685,44.273629],[-123.411724,44.273672],[-123.411735,44.275482],[-123.411745,44.277289],[-123.411767,44.280905]]]}},{"type":"Feature","properties":{"MAPTAXLOT":"1506000001300","MAPNUMBER":"15060000","TAXLOT":"1300","ACCTNO":"0021541","MAPACRES":319.00092513},"geometry":{"type":"Polygon","coordinates":[[[-123.421645,44.273586],[-123.431567,44.273496],[-123.431726,44.262491],[-123.426727,44.262574],[-123.426686,44.26623],[-123.41171,44.266396],[-123.411717,44.270034],[-123.416699,44.269985],[-123.416685,44.273629],[-123.421645,44.273586]]]}},{"type":"Feature","properties":{"MAPTAXLOT":"1506000001400","MAPNUMBER":"15060000","TAXLOT":"1400","ACCTNO":"0021558","MAPACRES":278.80554947},"geometry":{"type":"Polygon","coordinates":[[[-123.41171,44.266396],[-123.426686,44.26623],[-123.426727,44.262574],[-123.431726,44.262491],[-123.431779,44.258823],[-123.41173,44.259203],[-123.41171,44.266396]]]}},{"type":"Feature","properties":{"MAPTAXLOT":"1506000001500","MAPNUMBER":"15060000","TAXLOT":"1500","ACCTNO":"0021566","MAPACRES":643.67566342},"geometry":{"type":"Polygon","coordinates":[[[-123.441463,44.273467],[-123.451359,44.273436],[-123.45164,44.26607],[-123.45192,44.258703],[-123.44185,44.258763],[-123.431779,44.258823],[-123.431726,44.262491],[-123.431567,44.273496],[-123.441463,44.273467]]]}},{"type":"Feature","properties":{"MAPTAXLOT":"1506000001600","MAPNUMBER":"15060000","TAXLOT":"1600","ACCTNO":"0021574","MAPACRES":326.52795034},"geometry":{"type":"Polygon","coordinates":[[[-123.466727,44.273647],[-123.472011,44.273863],[-123.472025,44.270189],[-123.472025,44.270189],[-123.472026,44.269981],[-123.472039,44.266514],[-123.461682,44.266289],[-123.45164,44.26607],[-123.451359,44.273436],[-123.461549,44.273438],[-123.466727,44.273647]]]}},{"type":"Feature","properties":{"MAPTAXLOT":"1506000001700","MAPNUMBER":"15060000","TAXLOT":"1700","ACCTNO":"0021582","MAPACRES":167.38649914},"geometry":{"type":"Polygon","coordinates":[[[-123.461682,44.266289],[-123.472039,44.266514],[-123.472037,44.266099],[-123.472037,44.266099],[-123.472023,44.262862],[-123.472023,44.262862],[-123.47202,44.262218],[-123.47202,44.262218],[-123.472007,44.259211],[-123.466865,44.258967],[-123.461823,44.258733],[-123.461753,44.262511],[-123.461682,44.266289]]]}},{"type":"Feature","properties":{"MAPTAXLOT":"1506000001800","MAPNUMBER":"15060000","TAXLOT":"1800","ACCTNO":"0021590","MAPACRES":122.01147834},"geometry":{"type":"Polygon","coordinates":[[[-123.45164,44.26607],[-123.461682,44.266289],[-123.461753,44.262511],[-123.456764,44.262504],[-123.456872,44.258718],[-123.45192,44.258703],[-123.45164,44.26607]]]}},{"type":"Feature","properties":{"MAPTAXLOT":"1506000001900","MAPNUMBER":"15060000","TAXLOT":"1900","ACCTNO":"0021608","MAPACRES":41.22057252},"geometry":{"type":"Polygon","coordinates":[[[-123.456764,44.262504],[-123.461753,44.262511],[-123.461823,44.258733],[-123.456872,44.258718],[-123.456764,44.262504]]]}},{"type":"Feature","properties":{"MAPTAXLOT":"1506000002000","MAPNUMBER":"15060000","TAXLOT":"2000","ACCTNO":"0021616","MAPACRES":638.46557683},"geometry":{"type":"Polygon","coordinates":[[[-123.461823,44.258733],[-123.466865,44.258967],[-123.472007,44.259211],[-123.472009,44.258336],[-123.472017,44.25557],[-123.472017,44.25557],[-123.472019,44.254927],[-123.472028,44.25193],[-123.472028,44.25193],[-123.472028,44.251517],[-123.472028,44.251517],[-123.472032,44.248314],[-123.472032,44.248314],[-123.472031,44.248108],[-123.472031,44.248108],[-123.47203,44.244698],[-123.466835,44.24461],[-123.461766,44.244526],[-123.456665,44.244367],[-123.451564,44.244207],[-123.451742,44.251455],[-123.451831,44.255079],[-123.45192,44.258703],[-123.456872,44.258718],[-123.461823,44.258733]]]}},{"type":"Feature","properties":{"MAPTAXLOT":"1506000002100","MAPNUMBER":"15060000","TAXLOT":"2100","ACCTNO":"0021624","MAPACRES":79.73159937},"geometry":{"type":"Polygon","coordinates":[[[-123.44185,44.258763],[-123.45192,44.258703],[-123.451831,44.255079],[-123.44181,44.25515],[-123.44185,44.258763]]]}},{"type":"Feature","properties":{"MAPTAXLOT":"1506000002200","MAPNUMBER":"15060000","TAXLOT":"2200","ACCTNO":"0021632","MAPACRES":237.12942069},"geometry":{"type":"Polygon","coordinates":[[[-123.44181,44.25515],[-123.451831,44.255079],[-123.451742,44.251455],[-123.451564,44.244207],[-123.441689,44.244289],[-123.44181,44.25515]]]}},{"type":"Feature","properties":{"MAPTAXLOT":"1506000002201","MAPNUMBER":"15060000","TAXLOT":"2201","ACCTNO":"1432093","MAPACRES":316.38193541},"geometry":{"type":"Polygon","coordinates":[[[-123.431779,44.258823],[-123.44185,44.258763],[-123.44181,44.25515],[-123.441689,44.244289],[-123.431815,44.244369],[-123.431779,44.258823]]]}},{"type":"Feature","properties":{"MAPTAXLOT":"1506000002300","MAPNUMBER":"15060000","TAXLOT":"2300","ACCTNO":"0021640","MAPACRES":638.14322697},"geometry":{"type":"Polygon","coordinates":[[[-123.41173,44.259203],[-123.431779,44.258823],[-123.431815,44.244369],[-123.421829,44.244473],[-123.411842,44.244575],[-123.41173,44.259203]]]}},{"type":"Feature","properties":{"MAPTAXLOT":"1506000002600","MAPNUMBER":"15060000","TAXLOT":"2600","ACCTNO":"0021673","MAPACRES":79.83519556},"geometry":{"type":"Polygon","coordinates":[[[-123.421829,44.244473],[-123.431815,44.244369],[-123.431892,44.240777],[-123.421855,44.240794],[-123.421829,44.244473]]]}},{"type":"Feature","properties":{"MAPTAXLOT":"1506000002700","MAPNUMBER":"15060000","TAXLOT":"2700","ACCTNO":"0021681","MAPACRES":240.90340716},"geometry":{"type":"Polygon","coordinates":[[[-123.421855,44.240794],[-123.431892,44.240777],[-123.431968,44.237184],[-123.432122,44.229998],[-123.421932,44.229859],[-123.421855,44.240794]]]}},{"type":"Feature","properties":{"MAPTAXLOT":"1506000002800","MAPNUMBER":"15060000","TAXLOT":"2800","ACCTNO":"0021699","MAPACRES":628.7009292},"geometry":{"type":"Polygon","coordinates":[[[-123.441689,44.244289],[-123.451564,44.244207],[-123.45186,44.23704],[-123.452157,44.229872],[-123.442226,44.229822],[-123.432122,44.229998],[-123.431968,44.237184],[-123.431892,44.240777],[-123.431815,44.244369],[-123.441689,44.244289]]]}},{"type":"Feature","properties":{"MAPTAXLOT":"1506000002900","MAPNUMBER":"15060000","TAXLOT":"2900","ACCTNO":"0021707","MAPACRES":215.72374367},"geometry":{"type":"Polygon","coordinates":[[[-123.456706,44.240744],[-123.461807,44.240867],[-123.461928,44.230023],[-123.452157,44.229872],[-123.45186,44.23704],[-123.454358,44.237084],[-123.454209,44.240684],[-123.456706,44.240744]]]}},{"type":"Feature","properties":{"MAPTAXLOT":"1506000002901","MAPNUMBER":"15060000","TAXLOT":"2901","ACCTNO":"0021715","MAPACRES":59.61863794},"geometry":{"type":"Polygon","coordinates":[[[-123.451564,44.244207],[-123.456665,44.244367],[-123.456706,44.240744],[-123.454209,44.240684],[-123.454358,44.237084],[-123.45186,44.23704],[-123.451564,44.244207]]]}},{"type":"Feature","properties":{"MAPTAXLOT":"1506000003000","MAPNUMBER":"15060000","TAXLOT":"3000","ACCTNO":"0021723","MAPACRES":362.79022818},"geometry":{"type":"Polygon","coordinates":[[[-123.456665,44.244367],[-123.461766,44.244526],[-123.466835,44.24461],[-123.47203,44.244698],[-123.47203,44.244698],[-123.471976,44.241045],[-123.471976,44.241045],[-123.471921,44.237392],[-123.471897,44.233746],[-123.471897,44.233746],[-123.471897,44.233746],[-123.471872,44.2301],[-123.466888,44.230061],[-123.461928,44.230023],[-123.461807,44.240867],[-123.456706,44.240744],[-123.456665,44.244367]]]}},{"type":"Feature","properties":{"MAPTAXLOT":"1507000000800","MAPNUMBER":"15070000","TAXLOT":"800","ACCTNO":"0022556","MAPACRES":338.26797636},"geometry":{"type":"Polygon","coordinates":[[[-123.501888,44.28134],[-123.51287,44.281413],[-123.511778,44.27389],[-123.501397,44.273852],[-123.491627,44.273848],[-123.491757,44.281271],[-123.501888,44.28134]]]}},{"type":"Feature","properties":{"MAPTAXLOT":"1507000000900","MAPNUMBER":"15070000","TAXLOT":"900","ACCTNO":"0022564","MAPACRES":165.47055943},"geometry":{"type":"Polygon","coordinates":[[[-123.481878,44.281362],[-123.491757,44.281271],[-123.491627,44.273848],[-123.481196,44.273927],[-123.481878,44.281362]]]}},{"type":"Feature","properties":{"MAPTAXLOT":"1507000001000","MAPNUMBER":"15070000","TAXLOT":"1000","ACCTNO":"0022572","MAPACRES":156.99343542},"geometry":{"type":"Polygon","coordinates":[[[-123.472004,44.277524],[-123.472004,44.277658],[-123.471998,44.281184],[-123.471998,44.281452],[-123.476938,44.281407],[-123.481878,44.281362],[-123.481196,44.273927],[-123.476156,44.273892],[-123.472011,44.273863],[-123.472004,44.277524]]]}},{"type":"Feature","properties":{"MAPTAXLOT":"1507000001100","MAPNUMBER":"15070000","TAXLOT":"1100","ACCTNO":"0022598","MAPACRES":140.25695753},"geometry":{"type":"Polygon","coordinates":[[[-123.476156,44.273892],[-123.476145,44.258422],[-123.472009,44.258336],[-123.472007,44.259211],[-123.47202,44.262218],[-123.47202,44.262218],[-123.472023,44.262862],[-123.472023,44.262862],[-123.472037,44.266099],[-123.472037,44.266099],[-123.472039,44.266514],[-123.472026,44.269981],[-123.472025,44.270189],[-123.472025,44.270189],[-123.472011,44.273863],[-123.476156,44.273892]]]}},{"type":"Feature","properties":{"MAPTAXLOT":"1507000002100","MAPNUMBER":"15070000","TAXLOT":"2100","ACCTNO":"0022721","MAPACRES":322.18983334},"geometry":{"type":"Polygon","coordinates":[[[-123.491557,44.259049],[-123.501679,44.259115],[-123.501589,44.244438],[-123.49659,44.24448],[-123.492841,44.244511],[-123.491591,44.244521],[-123.491574,44.251823],[-123.491565,44.255436],[-123.491557,44.259049]]]}},{"type":"Feature","properties":{"MAPTAXLOT":"1507000002600","MAPNUMBER":"15070000","TAXLOT":"2600","ACCTNO":"0022770","MAPACRES":38.46604335},"geometry":{"type":"Polygon","coordinates":[[[-123.471976,44.241045],[-123.476757,44.240967],[-123.476758,44.237329],[-123.471921,44.237392],[-123.471976,44.241045]]]}},{"type":"Feature","properties":{"MAPTAXLOT":"1507000002700","MAPNUMBER":"15070000","TAXLOT":"2700","ACCTNO":"0022788","MAPACRES":590.34362739},"geometry":{"type":"Polygon","coordinates":[[[-123.476755,44.244606],[-123.481516,44.244514],[-123.491591,44.244521],[-123.491585,44.243598],[-123.491573,44.241751],[-123.491567,44.240827],[-123.491542,44.237134],[-123.49145,44.229886],[-123.48165,44.229876],[-123.476761,44.229988],[-123.471872,44.2301],[-123.471897,44.233746],[-123.471897,44.233746],[-123.471897,44.233746],[-123.471921,44.237392],[-123.476758,44.237329],[-123.476757,44.240967],[-123.471976,44.241045],[-123.471976,44.241045],[-123.47203,44.244698],[-123.47203,44.244698],[-123.476755,44.244606]]]}},{"type":"Feature","properties":{"MAPTAXLOT":"1507000003700","MAPNUMBER":"15070000","TAXLOT":"3700","ACCTNO":"1914346","MAPACRES":4964.15586456},"geometry":{"type":"Polygon","coordinates":[[[-123.51287,44.281413],[-123.534535,44.281526],[-123.534177,44.273919],[-123.545346,44.273903],[-123.556067,44.27391],[-123.55615,44.266189],[-123.55615,44.266189],[-123.555876,44.260078],[-123.542281,44.25935],[-123.532106,44.259461],[-123.532225,44.25219],[-123.532146,44.244802],[-123.521906,44.244632],[-123.512111,44.244679],[-123.511848,44.241474],[-123.511837,44.241337],[-123.511516,44.23743],[-123.511629,44.229913],[-123.501526,44.2299],[-123.49145,44.229886],[-123.491542,44.237134],[-123.496539,44.237208],[-123.496494,44.233584],[-123.501542,44.233591],[-123.501547,44.23482],[-123.50155,44.235437],[-123.501558,44.237283],[-123.501589,44.244438],[-123.501679,44.259115],[-123.491557,44.259049],[-123.491565,44.255436],[-123.491574,44.251823],[-123.491591,44.244521],[-123.481516,44.244514],[-123.476755,44.244606],[-123.47203,44.244698],[-123.472031,44.248108],[-123.472031,44.248108],[-123.472032,44.248314],[-123.472032,44.248314],[-123.472028,44.251517],[-123.472028,44.251517],[-123.472028,44.25193],[-123.472028,44.25193],[-123.472019,44.254927],[-123.472017,44.25557],[-123.472017,44.25557],[-123.472009,44.258336],[-123.476145,44.258422],[-123.476156,44.273892],[-123.481196,44.273927],[-123.491627,44.273848],[-123.501397,44.273852],[-123.511778,44.27389],[-123.51287,44.281413]]]}},{"type":"Feature","properties":{"MAPTAXLOT":"1507260000101","MAPNUMBER":"15072600","TAXLOT":"101","ACCTNO":"0022903","MAPACRES":37.59382189},"geometry":{"type":"Polygon","coordinates":[[[-123.491585,44.243598],[-123.492834,44.243593],[-123.492841,44.244511],[-123.49659,44.24448],[-123.496583,44.243581],[-123.495334,44.243585],[-123.495315,44.24087],[-123.496565,44.240884],[-123.496558,44.239965],[-123.496555,44.239504],[-123.494056,44.239474],[-123.494059,44.239935],[-123.49281,44.239919],[-123.492816,44.240842],[-123.492822,44.241759],[-123.491573,44.241751],[-123.491585,44.243598]]]}},{"type":"Feature","properties":{"MAPTAXLOT":"1507260000102","MAPNUMBER":"15072600","TAXLOT":"102","ACCTNO":"0022911","MAPACRES":2.52310538},"geometry":{"type":"Polygon","coordinates":[[[-123.491591,44.244521],[-123.492841,44.244511],[-123.492834,44.243593],[-123.491585,44.243598],[-123.491591,44.244521]]]}},{"type":"Feature","properties":{"MAPTAXLOT":"1507260000200","MAPNUMBER":"15072600","TAXLOT":"200","ACCTNO":"0022945","MAPACRES":139.71136881},"geometry":{"type":"Polygon","coordinates":[[[-123.491542,44.237134],[-123.491567,44.240827],[-123.491573,44.241751],[-123.492822,44.241759],[-123.492816,44.240842],[-123.49281,44.239919],[-123.494059,44.239935],[-123.494056,44.239474],[-123.496555,44.239504],[-123.496558,44.239965],[-123.496565,44.240884],[-123.495315,44.24087],[-123.495334,44.243585],[-123.496583,44.243581],[-123.49659,44.24448],[-123.501589,44.244438],[-123.501558,44.237283],[-123.500303,44.237264],[-123.500308,44.238167],[-123.497798,44.238129],[-123.497793,44.237227],[-123.497783,44.235394],[-123.50155,44.235437],[-123.501547,44.23482],[-123.501542,44.233591],[-123.496494,44.233584],[-123.496539,44.237208],[-123.491542,44.237134]]]}}]}