{"type":"FeatureCollection","features":[{"type":"Feature","properties":{"MAPTAXLOT":"1901000000102","MAPNUMBER":"19010000","TAXLOT":"102","ACCTNO":"0810273","MAPACRES":5.28927661},"geometry":{"type":"Polygon","coordinates":[[[-122.745395,43.884266],[-122.745665,43.88427],[-122.745665,43.884244],[-122.745664,43.883659],[-122.745729,43.883361],[-122.745742,43.883214],[-122.745798,43.882983],[-122.745946,43.882464],[-122.745994,43.882275],[-122.746037,43.882003],[-122.746168,43.881381],[-122.74503,43.881384],[-122.745032,43.882463],[-122.744778,43.882696],[-122.744717,43.882891],[-122.744799,43.883],[-122.744832,43.883247],[-122.745034,43.883494],[-122.745282,43.883798],[-122.745316,43.883844],[-122.745344,43.883892],[-122.745367,43.883941],[-122.745382,43.883992],[-122.745392,43.884043],[-122.745395,43.884095],[-122.745395,43.884266]]]}},{"type":"Feature","properties":{"MAPTAXLOT":"1901000000104","MAPNUMBER":"19010000","TAXLOT":"104","ACCTNO":"1433596","MAPACRES":1.63137673},"geometry":{"type":"Polygon","coordinates":[[[-122.745798,43.882983],[-122.745742,43.883214],[-122.745729,43.883361],[-122.745664,43.883659],[-122.745665,43.884244],[-122.74583,43.884176],[-122.745967,43.884103],[-122.746075,43.884026],[-122.746172,43.883946],[-122.746337,43.88384],[-122.746451,43.883801],[-122.746328,43.882943],[-122.745798,43.882983]]]}},{"type":"Feature","properties":{"MAPTAXLOT":"1901000000105","MAPNUMBER":"19010000","TAXLOT":"105","ACCTNO":"1546751","MAPACRES":11.74114564},"geometry":{"type":"Polygon","coordinates":[[[-122.74501,43.884275],[-122.745036,43.884516],[-122.745371,43.884548],[-122.745709,43.884544],[-122.746563,43.884535],[-122.746556,43.886214],[-122.747314,43.886214],[-122.747311,43.884588],[-122.747309,43.883545],[-122.747306,43.881377],[-122.746168,43.881381],[-122.746037,43.882003],[-122.745994,43.882275],[-122.745946,43.882464],[-122.745798,43.882983],[-122.746328,43.882943],[-122.746451,43.883801],[-122.746337,43.88384],[-122.746172,43.883946],[-122.746075,43.884026],[-122.745967,43.884103],[-122.74583,43.884176],[-122.745665,43.884244],[-122.745665,43.88427],[-122.745395,43.884266],[-122.74537,43.884263],[-122.74501,43.88423],[-122.74501,43.884275]]]}},{"type":"Feature","properties":{"MAPTAXLOT":"1901000000200","MAPNUMBER":"19010000","TAXLOT":"200","ACCTNO":"0810281","MAPACRES":563.89251698},"geometry":{"type":"Polygon","coordinates":[[[-122.760204,43.895557],[-122.765267,43.895582],[-122.765297,43.892016],[-122.765326,43.888449],[-122.765356,43.884883],[-122.765386,43.881318],[-122.760296,43.881334],[-122.755207,43.88135],[-122.750119,43.881368],[-122.747306,43.881377],[-122.747309,43.883545],[-122.747311,43.884588],[-122.747314,43.886214],[-122.747325,43.892102],[-122.747289,43.89549],[-122.750077,43.895504],[-122.755141,43.895531],[-122.760204,43.895557]]]}},{"type":"Feature","properties":{"MAPTAXLOT":"1901000000300","MAPNUMBER":"19010000","TAXLOT":"300","ACCTNO":"0810299","MAPACRES":607.01158253},"geometry":{"type":"Polygon","coordinates":[[[-122.780699,43.895575],[-122.785842,43.895571],[-122.78586,43.891985],[-122.785878,43.888399],[-122.785894,43.884812],[-122.780753,43.88483],[-122.78077,43.881272],[-122.775629,43.881318],[-122.765386,43.881318],[-122.765356,43.884883],[-122.765326,43.888449],[-122.765297,43.892016],[-122.765267,43.895582],[-122.770412,43.89558],[-122.775556,43.895578],[-122.780699,43.895575]]]}},{"type":"Feature","properties":{"MAPTAXLOT":"1901000000400","MAPNUMBER":"19010000","TAXLOT":"400","ACCTNO":"0810307","MAPACRES":40.5264673},"geometry":{"type":"Polygon","coordinates":[[[-122.780753,43.88483],[-122.785894,43.884812],[-122.785912,43.881225],[-122.78077,43.881272],[-122.780753,43.88483]]]}},{"type":"Feature","properties":{"MAPTAXLOT":"1901000000500","MAPNUMBER":"19010000","TAXLOT":"500","ACCTNO":"0810315","MAPACRES":560.15832063},"geometry":{"type":"Polygon","coordinates":[[[-122.785894,43.884812],[-122.785878,43.888399],[-122.78586,43.891985],[-122.785842,43.895571],[-122.796069,43.895028],[-122.798754,43.895033],[-122.798756,43.893579],[-122.79876,43.889972],[-122.80601,43.890025],[-122.806008,43.88778],[-122.806007,43.887656],[-122.806004,43.884147],[-122.806004,43.883864],[-122.806,43.880513],[-122.800957,43.880562],[-122.795914,43.88061],[-122.790913,43.880918],[-122.785912,43.881225],[-122.785894,43.884812]]]}},{"type":"Feature","properties":{"MAPTAXLOT":"1901000000701","MAPNUMBER":"19010000","TAXLOT":"701","ACCTNO":"0810364","MAPACRES":83.28919227},"geometry":{"type":"Polygon","coordinates":[[[-122.810023,43.894903],[-122.810441,43.895062],[-122.809628,43.894171],[-122.808623,43.892936],[-122.807962,43.892595],[-122.807363,43.891316],[-122.806821,43.890637],[-122.80602,43.890418],[-122.80601,43.89003],[-122.80601,43.89003],[-122.80601,43.890026],[-122.80601,43.890025],[-122.79876,43.889972],[-122.798756,43.893579],[-122.804354,43.893577],[-122.804352,43.894649],[-122.80604,43.894758],[-122.807918,43.894878],[-122.808862,43.894621],[-122.808883,43.894563],[-122.8089,43.894563],[-122.808976,43.894566],[-122.809051,43.894574],[-122.809125,43.894585],[-122.809198,43.8946],[-122.809269,43.89462],[-122.809338,43.894643],[-122.810023,43.894903]]]}},{"type":"Feature","properties":{"MAPTAXLOT":"1901000001500","MAPNUMBER":"19010000","TAXLOT":"1500","ACCTNO":"0810471","MAPACRES":314.55910957},"geometry":{"type":"Polygon","coordinates":[[[-122.78579,43.877734],[-122.785912,43.881225],[-122.790913,43.880918],[-122.795914,43.88061],[-122.800957,43.880562],[-122.806,43.880513],[-122.805897,43.876945],[-122.805834,43.874724],[-122.805795,43.873377],[-122.80071,43.873445],[-122.795559,43.873514],[-122.790677,43.873873],[-122.785668,43.874242],[-122.78579,43.877734]]]}},{"type":"Feature","properties":{"MAPTAXLOT":"1901000001800","MAPNUMBER":"19010000","TAXLOT":"1800","ACCTNO":"0810513","MAPACRES":242.64823665},"geometry":{"type":"Polygon","coordinates":[[[-122.78565,43.866476],[-122.785659,43.870359],[-122.785668,43.874242],[-122.790677,43.873873],[-122.795559,43.873514],[-122.80071,43.873445],[-122.800586,43.869856],[-122.800461,43.866267],[-122.797344,43.86632],[-122.795203,43.866357],[-122.790427,43.866416],[-122.790426,43.866416],[-122.78565,43.866476]]]}},{"type":"Feature","properties":{"MAPTAXLOT":"1901000001900","MAPNUMBER":"19010000","TAXLOT":"1900","ACCTNO":"0810521","MAPACRES":253.83922692},"geometry":{"type":"Polygon","coordinates":[[[-122.765306,43.870335],[-122.775549,43.870351],[-122.775567,43.874116],[-122.785668,43.874242],[-122.785659,43.870359],[-122.78565,43.866476],[-122.780589,43.866531],[-122.775531,43.866587],[-122.775529,43.866587],[-122.775389,43.866588],[-122.770472,43.866639],[-122.766482,43.866679],[-122.765415,43.86669],[-122.765306,43.870335]]]}},{"type":"Feature","properties":{"MAPTAXLOT":"1901000002000","MAPNUMBER":"19010000","TAXLOT":"2000","ACCTNO":"0810539","MAPACRES":409.07106429},"geometry":{"type":"Polygon","coordinates":[[[-122.78077,43.881272],[-122.785912,43.881225],[-122.78579,43.877734],[-122.785668,43.874242],[-122.775567,43.874116],[-122.775549,43.870351],[-122.765306,43.870335],[-122.765197,43.873979],[-122.765386,43.881318],[-122.775629,43.881318],[-122.78077,43.881272]]]}},{"type":"Feature","properties":{"MAPTAXLOT":"1901000002100","MAPNUMBER":"19010000","TAXLOT":"2100","ACCTNO":"0810547","MAPACRES":652.80112536},"geometry":{"type":"Polygon","coordinates":[[[-122.747306,43.881377],[-122.750119,43.881368],[-122.755207,43.88135],[-122.760296,43.881334],[-122.765386,43.881318],[-122.765197,43.873979],[-122.765306,43.870335],[-122.765415,43.86669],[-122.765415,43.86669],[-122.760411,43.866701],[-122.76041,43.866701],[-122.755406,43.866712],[-122.750355,43.866612],[-122.745305,43.866512],[-122.745236,43.870229],[-122.745236,43.87023],[-122.745168,43.873948],[-122.745099,43.877666],[-122.745047,43.880479],[-122.74503,43.881384],[-122.746168,43.881381],[-122.747306,43.881377]]]}},{"type":"Feature","properties":{"MAPTAXLOT":"1915300000077","MAPNUMBER":"19153000","TAXLOT":"77","ACCTNO":"000None","MAPACRES":46.8202153},"geometry":{"type":"Polygon","coordinates":[[[-122.738192,43.895476],[-122.739233,43.895473],[-122.739225,43.895466],[-122.7392,43.895443],[-122.738932,43.895201],[-122.738996,43.895165],[-122.73823,43.894457],[-122.737531,43.893783],[-122.737405,43.893661],[-122.737255,43.893745],[-122.736326,43.892877],[-122.736327,43.892593],[-122.736327,43.892552],[-122.736329,43.892086],[-122.737605,43.891473],[-122.737928,43.891319],[-122.737929,43.890496],[-122.73782,43.890495],[-122.737281,43.890492],[-122.735741,43.890482],[-122.735604,43.890478],[-122.735304,43.890222],[-122.734988,43.889989],[-122.734549,43.889947],[-122.733996,43.89012],[-122.733808,43.890142],[-122.733622,43.890043],[-122.733431,43.889949],[-122.733237,43.889859],[-122.733039,43.889773],[-122.732838,43.889691],[-122.732633,43.889614],[-122.732426,43.88954],[-122.732215,43.889472],[-122.732002,43.889408],[-122.731787,43.889348],[-122.731569,43.889293],[-122.731348,43.889243],[-122.731239,43.889505],[-122.731074,43.889471],[-122.730908,43.889439],[-122.730712,43.889406],[-122.730515,43.889376],[-122.730318,43.88935],[-122.730119,43.889328],[-122.729758,43.889305],[-122.729397,43.889287],[-122.729036,43.889274],[-122.728674,43.889267],[-122.728312,43.889264],[-122.728312,43.888341],[-122.728312,43.88757],[-122.726131,43.887559],[-122.726155,43.888328],[-122.726155,43.888329],[-122.726155,43.888337],[-122.726207,43.890036],[-122.726458,43.890049],[-122.726709,43.890058],[-122.726961,43.890062],[-122.728404,43.890051],[-122.728641,43.890052],[-122.728879,43.890058],[-122.729116,43.890069],[-122.729352,43.890085],[-122.729588,43.890106],[-122.729823,43.890133],[-122.730056,43.890164],[-122.730288,43.8902],[-122.730525,43.890242],[-122.73076,43.89029],[-122.730993,43.890343],[-122.731223,43.890401],[-122.731451,43.890464],[-122.731676,43.890532],[-122.731898,43.890604],[-122.732117,43.890682],[-122.732333,43.890765],[-122.732545,43.890852],[-122.732753,43.890944],[-122.732957,43.89104],[-122.73315,43.891137],[-122.73334,43.891239],[-122.733525,43.891344],[-122.733706,43.891454],[-122.733882,43.891567],[-122.734054,43.891684],[-122.73422,43.891804],[-122.734382,43.891928],[-122.734539,43.892056],[-122.73469,43.892186],[-122.734836,43.89232],[-122.735661,43.89309],[-122.738192,43.895476]]]}},{"type":"Feature","properties":{"MAPTAXLOT":"1915300000100","MAPNUMBER":"19153000","TAXLOT":"100","ACCTNO":"1174711","MAPACRES":15.22154641},"geometry":{"type":"Polygon","coordinates":[[[-122.730908,43.889439],[-122.731074,43.889471],[-122.731239,43.889505],[-122.731348,43.889243],[-122.731569,43.889293],[-122.731787,43.889348],[-122.732002,43.889408],[-122.732215,43.889472],[-122.732426,43.88954],[-122.732633,43.889614],[-122.732838,43.889691],[-122.733039,43.889773],[-122.733237,43.889859],[-122.733431,43.889949],[-122.733622,43.890043],[-122.733808,43.890142],[-122.733996,43.89012],[-122.734549,43.889947],[-122.734988,43.889989],[-122.735304,43.890222],[-122.735604,43.890478],[-122.735741,43.890482],[-122.735686,43.889009],[-122.735668,43.888544],[-122.735662,43.888379],[-122.730877,43.888354],[-122.730877,43.888355],[-122.730908,43.889439]]]}},{"type":"Feature","properties":{"MAPTAXLOT":"1915300000101","MAPNUMBER":"19153000","TAXLOT":"101","ACCTNO":"1174729","MAPACRES":5.4989322},"geometry":{"type":"Polygon","coordinates":[[[-122.728312,43.888341],[-122.728312,43.889264],[-122.728674,43.889267],[-122.729036,43.889274],[-122.729397,43.889287],[-122.729758,43.889305],[-122.730119,43.889328],[-122.730318,43.88935],[-122.730515,43.889376],[-122.730712,43.889406],[-122.730908,43.889439],[-122.730877,43.888355],[-122.730877,43.888354],[-122.728312,43.888341]]]}},{"type":"Feature","properties":{"MAPTAXLOT":"1915300000305","MAPNUMBER":"19153000","TAXLOT":"305","ACCTNO":"0876084","MAPACRES":6.46360557},"geometry":{"type":"Polygon","coordinates":[[[-122.738027,43.890496],[-122.73894,43.891172],[-122.740486,43.890474],[-122.740518,43.890459],[-122.739821,43.889227],[-122.739828,43.889094],[-122.739828,43.889094],[-122.739586,43.889214],[-122.739541,43.889256],[-122.739463,43.88933],[-122.739359,43.889348],[-122.739195,43.889377],[-122.73905,43.889461],[-122.738488,43.889553],[-122.738387,43.88967],[-122.738258,43.890014],[-122.738372,43.890157],[-122.738326,43.890247],[-122.738027,43.890496]]]}},{"type":"Feature","properties":{"MAPTAXLOT":"1915300000400","MAPNUMBER":"19153000","TAXLOT":"400","ACCTNO":"0876092","MAPACRES":1.49330966},"geometry":{"type":"Polygon","coordinates":[[[-122.741206,43.884231],[-122.741742,43.88501],[-122.741745,43.885009],[-122.742574,43.88475],[-122.742644,43.884473],[-122.741727,43.884214],[-122.741206,43.884231]]]}},{"type":"Feature","properties":{"MAPTAXLOT":"1915300000600","MAPNUMBER":"19153000","TAXLOT":"600","ACCTNO":"0876100","MAPACRES":9.97915632},"geometry":{"type":"Polygon","coordinates":[[[-122.742373,43.889219],[-122.744232,43.889213],[-122.743054,43.887048],[-122.7404,43.887054],[-122.740422,43.887741],[-122.740553,43.887741],[-122.741776,43.887738],[-122.74178,43.887903],[-122.741784,43.888084],[-122.741839,43.888026],[-122.741922,43.888167],[-122.742347,43.88889],[-122.742373,43.889219]]]}},{"type":"Feature","properties":{"MAPTAXLOT":"1915300000601","MAPNUMBER":"19153000","TAXLOT":"601","ACCTNO":"1761855","MAPACRES":3.60728455},"geometry":{"type":"Polygon","coordinates":[[[-122.739865,43.888405],[-122.739832,43.88903],[-122.739888,43.889003],[-122.74029,43.888927],[-122.740689,43.888797],[-122.740992,43.888748],[-122.741296,43.888591],[-122.741527,43.88835],[-122.741784,43.888084],[-122.74178,43.887903],[-122.741776,43.887738],[-122.740553,43.887741],[-122.740422,43.887741],[-122.740423,43.887776],[-122.740435,43.888146],[-122.739879,43.888145],[-122.73987,43.88832],[-122.739865,43.888405]]]}},{"type":"Feature","properties":{"MAPTAXLOT":"1915300000602","MAPNUMBER":"19153000","TAXLOT":"602","ACCTNO":"0810257","MAPACRES":81.64301323},"geometry":{"type":"Polygon","coordinates":[[[-122.745028,43.891956],[-122.747325,43.892102],[-122.747314,43.886214],[-122.746556,43.886214],[-122.746563,43.884535],[-122.745709,43.884544],[-122.745371,43.884548],[-122.745036,43.884516],[-122.74501,43.884275],[-122.744435,43.884255],[-122.744407,43.884254],[-122.74388,43.884523],[-122.743475,43.884547],[-122.743024,43.884574],[-122.743001,43.884575],[-122.742674,43.884481],[-122.742644,43.884473],[-122.742574,43.88475],[-122.741745,43.885009],[-122.741742,43.88501],[-122.741082,43.885236],[-122.741071,43.88524],[-122.740377,43.885144],[-122.74034,43.885139],[-122.740358,43.885718],[-122.7404,43.887054],[-122.743054,43.887048],[-122.744232,43.889213],[-122.742373,43.889219],[-122.742777,43.889498],[-122.743055,43.890153],[-122.741727,43.8911],[-122.741727,43.891101],[-122.741715,43.891627],[-122.741709,43.891902],[-122.741686,43.891902],[-122.741717,43.891902],[-122.744748,43.891952],[-122.745004,43.891956],[-122.745028,43.891956]]]}},{"type":"Feature","properties":{"MAPTAXLOT":"1915300000603","MAPNUMBER":"19153000","TAXLOT":"603","ACCTNO":"1846219","MAPACRES":3.90758345},"geometry":{"type":"Polygon","coordinates":[[[-122.742373,43.889219],[-122.740949,43.891091],[-122.740991,43.891092],[-122.741011,43.891092],[-122.741727,43.8911],[-122.743055,43.890153],[-122.742777,43.889498],[-122.742373,43.889219]]]}},{"type":"Feature","properties":{"MAPTAXLOT":"1915300000604","MAPNUMBER":"19153000","TAXLOT":"604","ACCTNO":"1846227","MAPACRES":9.09654923},"geometry":{"type":"Polygon","coordinates":[[[-122.740518,43.890459],[-122.740552,43.891553],[-122.740589,43.891525],[-122.740643,43.891487],[-122.740948,43.891147],[-122.740949,43.891091],[-122.742373,43.889219],[-122.742347,43.88889],[-122.741922,43.888167],[-122.741839,43.888026],[-122.741784,43.888084],[-122.741527,43.88835],[-122.741296,43.888591],[-122.740992,43.888748],[-122.740689,43.888797],[-122.74029,43.888927],[-122.739888,43.889003],[-122.739832,43.88903],[-122.73983,43.889054],[-122.739828,43.889094],[-122.739828,43.889094],[-122.739821,43.889227],[-122.740518,43.890459]]]}},{"type":"Feature","properties":{"MAPTAXLOT":"1915300000900","MAPNUMBER":"19153000","TAXLOT":"900","ACCTNO":"0876118","MAPACRES":10.00576121},"geometry":{"type":"Polygon","coordinates":[[[-122.735741,43.890482],[-122.737281,43.890492],[-122.737238,43.889334],[-122.739359,43.889348],[-122.739463,43.88933],[-122.739541,43.889256],[-122.739586,43.889214],[-122.739828,43.889094],[-122.73983,43.889054],[-122.739832,43.88903],[-122.739865,43.888405],[-122.73769,43.888391],[-122.73769,43.888391],[-122.737226,43.889019],[-122.735686,43.889009],[-122.735686,43.889009],[-122.735741,43.890482]]]}},{"type":"Feature","properties":{"MAPTAXLOT":"1915300000901","MAPNUMBER":"19153000","TAXLOT":"901","ACCTNO":"0876126","MAPACRES":2.97275617},"geometry":{"type":"Polygon","coordinates":[[[-122.737281,43.890492],[-122.73782,43.890495],[-122.737929,43.890496],[-122.738027,43.890496],[-122.738326,43.890247],[-122.738372,43.890157],[-122.738258,43.890014],[-122.738387,43.88967],[-122.738488,43.889553],[-122.73905,43.889461],[-122.739195,43.889377],[-122.739359,43.889348],[-122.737238,43.889334],[-122.737281,43.890492]]]}},{"type":"Feature","properties":{"MAPTAXLOT":"1915300001000","MAPNUMBER":"19153000","TAXLOT":"1000","ACCTNO":"0876134","MAPACRES":2.48206876},"geometry":{"type":"Polygon","coordinates":[[[-122.735955,43.888381],[-122.735662,43.888379],[-122.735668,43.888544],[-122.735686,43.889009],[-122.735686,43.889009],[-122.737226,43.889019],[-122.73769,43.888391],[-122.736419,43.888383],[-122.735955,43.888381]]]}},{"type":"Feature","properties":{"MAPTAXLOT":"1915300001001","MAPNUMBER":"19153000","TAXLOT":"1001","ACCTNO":"1584398","MAPACRES":2.82246957},"geometry":{"type":"Polygon","coordinates":[[[-122.735955,43.888381],[-122.736419,43.888383],[-122.736332,43.887097],[-122.736005,43.8871],[-122.73598,43.886196],[-122.735601,43.886202],[-122.735662,43.888379],[-122.735955,43.888381]]]}},{"type":"Feature","properties":{"MAPTAXLOT":"1915300001100","MAPNUMBER":"19153000","TAXLOT":"1100","ACCTNO":"0876142","MAPACRES":29.52049052},"geometry":{"type":"Polygon","coordinates":[[[-122.740358,43.885718],[-122.740358,43.885718],[-122.739151,43.885714],[-122.73929,43.884708],[-122.7393,43.884639],[-122.739048,43.884722],[-122.738155,43.885018],[-122.737509,43.885086],[-122.736771,43.885098],[-122.73616,43.885512],[-122.735598,43.886116],[-122.735601,43.886202],[-122.73598,43.886196],[-122.736005,43.8871],[-122.736332,43.887097],[-122.736419,43.888383],[-122.73769,43.888391],[-122.73769,43.888391],[-122.739865,43.888405],[-122.73987,43.88832],[-122.739879,43.888145],[-122.740435,43.888146],[-122.740423,43.887776],[-122.740422,43.887741],[-122.7404,43.887054],[-122.740358,43.885718]]]}},{"type":"Feature","properties":{"MAPTAXLOT":"1915300001300","MAPNUMBER":"19153000","TAXLOT":"1300","ACCTNO":"0876159","MAPACRES":5.42275126},"geometry":{"type":"Polygon","coordinates":[[[-122.7393,43.884639],[-122.73929,43.884708],[-122.739151,43.885714],[-122.740358,43.885718],[-122.740358,43.885718],[-122.74034,43.885139],[-122.740377,43.885144],[-122.741071,43.88524],[-122.741082,43.885236],[-122.741742,43.88501],[-122.741206,43.884231],[-122.740631,43.88425],[-122.740308,43.884305],[-122.7393,43.884639]]]}},{"type":"Feature","properties":{"MAPTAXLOT":"1915300001400","MAPNUMBER":"19153000","TAXLOT":"1400","ACCTNO":"0876167","MAPACRES":10.31928233},"geometry":{"type":"Polygon","coordinates":[[[-122.74347,43.881369],[-122.74347,43.881386],[-122.743475,43.884547],[-122.74388,43.884523],[-122.744407,43.884254],[-122.744435,43.884255],[-122.74501,43.884275],[-122.74501,43.88423],[-122.74537,43.884263],[-122.745395,43.884266],[-122.745395,43.884095],[-122.745392,43.884043],[-122.745382,43.883992],[-122.745367,43.883941],[-122.745344,43.883892],[-122.745316,43.883844],[-122.745282,43.883798],[-122.745034,43.883494],[-122.744832,43.883247],[-122.744799,43.883],[-122.744717,43.882891],[-122.744778,43.882696],[-122.745032,43.882463],[-122.74503,43.881384],[-122.745005,43.881384],[-122.74347,43.881369]]]}},{"type":"Feature","properties":{"MAPTAXLOT":"1915300001500","MAPNUMBER":"19153000","TAXLOT":"1500","ACCTNO":"0876175","MAPACRES":21.13144041},"geometry":{"type":"Polygon","coordinates":[[[-122.743001,43.884575],[-122.743024,43.884574],[-122.743475,43.884547],[-122.74347,43.881386],[-122.74347,43.881369],[-122.740247,43.881336],[-122.740308,43.884305],[-122.740631,43.88425],[-122.741206,43.884231],[-122.741727,43.884214],[-122.742644,43.884473],[-122.742674,43.884481],[-122.743001,43.884575]]]}},{"type":"Feature","properties":{"MAPTAXLOT":"1915300001700","MAPNUMBER":"19153000","TAXLOT":"1700","ACCTNO":"0876191","MAPACRES":9.01015699},"geometry":{"type":"Polygon","coordinates":[[[-122.738953,43.881323],[-122.739048,43.884722],[-122.7393,43.884639],[-122.740308,43.884305],[-122.740247,43.881336],[-122.738953,43.881323]]]}},{"type":"Feature","properties":{"MAPTAXLOT":"1915300001702","MAPNUMBER":"19153000","TAXLOT":"1702","ACCTNO":"0876209","MAPACRES":20.769149},"geometry":{"type":"Polygon","coordinates":[[[-122.736771,43.885098],[-122.737509,43.885086],[-122.738155,43.885018],[-122.739048,43.884722],[-122.738953,43.881323],[-122.736395,43.881297],[-122.736494,43.88484],[-122.736771,43.885098]]]}},{"type":"Feature","properties":{"MAPTAXLOT":"1915300001800","MAPNUMBER":"19153000","TAXLOT":"1800","ACCTNO":"0876217","MAPACRES":9.09368584},"geometry":{"type":"Polygon","coordinates":[[[-122.735463,43.881287],[-122.735598,43.886116],[-122.73616,43.885512],[-122.736771,43.885098],[-122.736494,43.88484],[-122.736395,43.881297],[-122.735463,43.881287]]]}},{"type":"Feature","properties":{"MAPTAXLOT":"1915300001900","MAPNUMBER":"19153000","TAXLOT":"1900","ACCTNO":"0876225","MAPACRES":145.66411845},"geometry":{"type":"Polygon","coordinates":[[[-122.730877,43.888354],[-122.735662,43.888379],[-122.735601,43.886202],[-122.735598,43.886116],[-122.735463,43.881287],[-122.734956,43.881282],[-122.729593,43.881228],[-122.725938,43.88119],[-122.726131,43.887559],[-122.728312,43.88757],[-122.728312,43.888341],[-122.730877,43.888354]]]}},{"type":"Feature","properties":{"MAPTAXLOT":"1915310000100","MAPNUMBER":"19153100","TAXLOT":"100","ACCTNO":"1495579","MAPACRES":420.41636065},"geometry":{"type":"MultiPolygon","coordinates":[[[[-122.725938,43.88119],[-122.729593,43.881228],[-122.729577,43.88119],[-122.728927,43.879687],[-122.728307,43.878978],[-122.728001,43.878409],[-122.729191,43.878598],[-122.7317,43.87753],[-122.731952,43.876906],[-122.732242,43.87661],[-122.733591,43.876149],[-122.735027,43.876065],[-122.735812,43.876199],[-122.736884,43.877048],[-122.738012,43.877371],[-122.738596,43.87718],[-122.739115,43.877359],[-122.739394,43.877559],[-122.739981,43.877348],[-122.740174,43.87694],[-122.739868,43.876357],[-122.739887,43.875335],[-122.740423,43.87479],[-122.740553,43.873583],[-122.740584,43.872978],[-122.740562,43.870388],[-122.745236,43.87023],[-122.745236,43.870229],[-122.745305,43.866512],[-122.737393,43.866863],[-122.727304,43.866875],[-122.726625,43.873994],[-122.726286,43.877542],[-122.725938,43.88119]]],[[[-122.740467,43.878238],[-122.737918,43.87886],[-122.736937,43.879528],[-122.736636,43.879787],[-122.73619,43.880171],[-122.73537,43.880625],[-122.734971,43.881258],[-122.734956,43.881282],[-122.735463,43.881287],[-122.736395,43.881297],[-122.738953,43.881323],[-122.740247,43.881336],[-122.74347,43.881369],[-122.745005,43.881384],[-122.74503,43.881384],[-122.745047,43.880479],[-122.744947,43.880386],[-122.744483,43.879928],[-122.744088,43.879637],[-122.743274,43.878966],[-122.742569,43.878485],[-122.741569,43.878055],[-122.740467,43.878238]]]]}},{"type":"Feature","properties":{"MAPTAXLOT":"1915310000200","MAPNUMBER":"19153100","TAXLOT":"200","ACCTNO":"1495587","MAPACRES":172.88851307},"geometry":{"type":"Polygon","coordinates":[[[-122.729593,43.881228],[-122.734956,43.881282],[-122.734971,43.881258],[-122.73537,43.880625],[-122.73619,43.880171],[-122.736636,43.879787],[-122.736937,43.879528],[-122.737918,43.87886],[-122.740467,43.878238],[-122.741569,43.878055],[-122.742569,43.878485],[-122.743274,43.878966],[-122.744088,43.879637],[-122.744483,43.879928],[-122.744947,43.880386],[-122.745047,43.880479],[-122.745099,43.877666],[-122.745168,43.873948],[-122.745236,43.87023],[-122.740562,43.870388],[-122.740584,43.872978],[-122.740553,43.873583],[-122.740423,43.87479],[-122.739887,43.875335],[-122.739868,43.876357],[-122.740174,43.87694],[-122.739981,43.877348],[-122.739394,43.877559],[-122.739115,43.877359],[-122.738596,43.87718],[-122.738012,43.877371],[-122.736884,43.877048],[-122.735812,43.876199],[-122.735027,43.876065],[-122.733591,43.876149],[-122.732242,43.87661],[-122.731952,43.876906],[-122.7317,43.87753],[-122.729191,43.878598],[-122.728001,43.878409],[-122.728307,43.878978],[-122.728927,43.879687],[-122.729577,43.88119],[-122.729593,43.881228]]]}},{"type":"Feature","properties":{"MAPTAXLOT":"2001000000100","MAPNUMBER":"20010000","TAXLOT":"100","ACCTNO":"0876969","MAPACRES":42.01729997},"geometry":{"type":"Polygon","coordinates":[[[-122.745305,43.866512],[-122.750355,43.866612],[-122.750355,43.866612],[-122.75031,43.862827],[-122.745219,43.862794],[-122.745217,43.862794],[-122.745214,43.862794],[-122.745214,43.862794],[-122.745236,43.863901],[-122.745236,43.863901],[-122.745236,43.863902],[-122.745303,43.866453],[-122.745305,43.866512],[-122.745305,43.866512]]]}},{"type":"Feature","properties":{"MAPTAXLOT":"2001000000200","MAPNUMBER":"20010000","TAXLOT":"200","ACCTNO":"0876977","MAPACRES":637.32521851},"geometry":{"type":"Polygon","coordinates":[[[-122.744981,43.852713],[-122.745046,43.855356],[-122.745066,43.856442],[-122.74513,43.859076],[-122.74515,43.860172],[-122.745214,43.862794],[-122.745214,43.862794],[-122.745217,43.862794],[-122.745219,43.862794],[-122.75031,43.862827],[-122.750355,43.866612],[-122.750355,43.866612],[-122.755406,43.866712],[-122.76041,43.866701],[-122.760411,43.866701],[-122.765415,43.86669],[-122.765415,43.86669],[-122.765497,43.862924],[-122.765578,43.859157],[-122.765661,43.855391],[-122.76574,43.851858],[-122.76574,43.851853],[-122.765745,43.851624],[-122.760559,43.851583],[-122.755387,43.851594],[-122.750175,43.851615],[-122.744961,43.851637],[-122.744981,43.852713]]]}},{"type":"Feature","properties":{"MAPTAXLOT":"2001000002200","MAPNUMBER":"20010000","TAXLOT":"2200","ACCTNO":"0877173","MAPACRES":119.79869744},"geometry":{"type":"Polygon","coordinates":[[[-122.760232,43.848064],[-122.765364,43.848077],[-122.764981,43.844529],[-122.764614,43.840983],[-122.764246,43.837437],[-122.759231,43.837252],[-122.759571,43.840923],[-122.759901,43.844494],[-122.760232,43.848064]]]}},{"type":"Feature","properties":{"MAPTAXLOT":"2001000002300","MAPNUMBER":"20010000","TAXLOT":"2300","ACCTNO":"0877181","MAPACRES":283.55268833},"geometry":{"type":"Polygon","coordinates":[[[-122.750175,43.851615],[-122.755387,43.851594],[-122.755103,43.848052],[-122.760232,43.848064],[-122.759901,43.844494],[-122.759571,43.840923],[-122.75453,43.840864],[-122.749455,43.840803],[-122.749696,43.844427],[-122.744737,43.844397],[-122.744736,43.844397],[-122.744784,43.845557],[-122.744893,43.848026],[-122.744851,43.849134],[-122.744961,43.851637],[-122.750175,43.851615]]]}},{"type":"Feature","properties":{"MAPTAXLOT":"2001000002400","MAPNUMBER":"20010000","TAXLOT":"2400","ACCTNO":"0877199","MAPACRES":163.4964218},"geometry":{"type":"Polygon","coordinates":[[[-122.744736,43.844397],[-122.744737,43.844397],[-122.749696,43.844427],[-122.749455,43.840803],[-122.75453,43.840864],[-122.759571,43.840923],[-122.759231,43.837252],[-122.754229,43.83708],[-122.749209,43.837086],[-122.744196,43.837091],[-122.744196,43.837092],[-122.744307,43.83838],[-122.744474,43.840744],[-122.744565,43.841958],[-122.744565,43.841959],[-122.744736,43.844397]]]}},{"type":"Feature","properties":{"MAPTAXLOT":"2001000002600","MAPNUMBER":"20010000","TAXLOT":"2600","ACCTNO":"0877207","MAPACRES":632.12751934},"geometry":{"type":"Polygon","coordinates":[[[-122.759231,43.837252],[-122.764246,43.837437],[-122.764144,43.833918],[-122.764042,43.830398],[-122.763952,43.826693],[-122.763862,43.822989],[-122.753884,43.822883],[-122.743945,43.822721],[-122.743945,43.822721],[-122.743945,43.822722],[-122.743973,43.823988],[-122.743973,43.824108],[-122.743973,43.826315],[-122.743972,43.827522],[-122.743971,43.827591],[-122.743972,43.829907],[-122.74399,43.831193],[-122.743991,43.831199],[-122.743991,43.831199],[-122.744084,43.8335],[-122.744103,43.834786],[-122.744196,43.837091],[-122.749209,43.837086],[-122.754229,43.83708],[-122.759231,43.837252]]]}},{"type":"Feature","properties":{"MAPTAXLOT":"2001000002700","MAPNUMBER":"20010000","TAXLOT":"2700","ACCTNO":"0877215","MAPACRES":640.66133636},"geometry":{"type":"Polygon","coordinates":[[[-122.799481,43.837815],[-122.804433,43.837888],[-122.804979,43.823614],[-122.78436,43.82319],[-122.784409,43.826741],[-122.784457,43.830291],[-122.784541,43.833942],[-122.784625,43.837594],[-122.789578,43.837667],[-122.794529,43.837741],[-122.799481,43.837815]]]}},{"type":"Feature","properties":{"MAPTAXLOT":"2001000003600","MAPNUMBER":"20010000","TAXLOT":"3600","ACCTNO":"0877314","MAPACRES":648.88856836},"geometry":{"type":"Polygon","coordinates":[[[-122.78436,43.82319],[-122.804979,43.823614],[-122.804965,43.809071],[-122.784541,43.809104],[-122.78436,43.82319]]]}},{"type":"Feature","properties":{"MAPTAXLOT":"2001000003700","MAPNUMBER":"20010000","TAXLOT":"3700","ACCTNO":"0877322","MAPACRES":648.94177833},"geometry":{"type":"Polygon","coordinates":[[[-122.779237,43.823141],[-122.78436,43.82319],[-122.784541,43.809104],[-122.764067,43.808454],[-122.763886,43.815823],[-122.763862,43.822989],[-122.768987,43.82304],[-122.774112,43.82309],[-122.779237,43.823141]]]}},{"type":"Feature","properties":{"MAPTAXLOT":"2001000003800","MAPNUMBER":"20010000","TAXLOT":"3800","ACCTNO":"0877330","MAPACRES":480.32507623},"geometry":{"type":"Polygon","coordinates":[[[-122.753884,43.822883],[-122.763862,43.822989],[-122.763886,43.815823],[-122.764067,43.808454],[-122.754119,43.808376],[-122.744226,43.808252],[-122.744226,43.808252],[-122.744226,43.808252],[-122.744225,43.808309],[-122.744225,43.808309],[-122.744196,43.809758],[-122.74414,43.811888],[-122.744138,43.811956],[-122.744137,43.812007],[-122.744109,43.813349],[-122.744048,43.815618],[-122.744047,43.81566],[-122.744047,43.81566],[-122.753991,43.815745],[-122.753884,43.822883]]]}},{"type":"Feature","properties":{"MAPTAXLOT":"2001000003900","MAPNUMBER":"20010000","TAXLOT":"3900","ACCTNO":"0877348","MAPACRES":155.92772679},"geometry":{"type":"Polygon","coordinates":[[[-122.743945,43.822721],[-122.743945,43.822721],[-122.753884,43.822883],[-122.753991,43.815745],[-122.744047,43.81566],[-122.744047,43.81566],[-122.744047,43.81566],[-122.744042,43.815995],[-122.744028,43.816939],[-122.744004,43.818643],[-122.743996,43.819191],[-122.743977,43.820464],[-122.743957,43.821895],[-122.743945,43.822721]]]}},{"type":"Feature","properties":{"MAPTAXLOT":"2001020000100","MAPNUMBER":"20010200","TAXLOT":"100","ACCTNO":"0877587","MAPACRES":502.84061904},"geometry":{"type":"Polygon","coordinates":[[[-122.765497,43.862924],[-122.765415,43.86669],[-122.766482,43.866679],[-122.770472,43.866639],[-122.775389,43.866588],[-122.775529,43.866587],[-122.775531,43.866587],[-122.780589,43.866531],[-122.78565,43.866476],[-122.785724,43.862699],[-122.780667,43.862755],[-122.775606,43.862812],[-122.775682,43.859074],[-122.780743,43.859035],[-122.780819,43.855318],[-122.780895,43.851589],[-122.775833,43.851589],[-122.770789,43.851607],[-122.765745,43.851624],[-122.76574,43.851853],[-122.76574,43.851858],[-122.765661,43.855391],[-122.765578,43.859157],[-122.765497,43.862924]]]}},{"type":"Feature","properties":{"MAPTAXLOT":"2001020000200","MAPNUMBER":"20010200","TAXLOT":"200","ACCTNO":"0877595","MAPACRES":124.45705231},"geometry":{"type":"Polygon","coordinates":[[[-122.780667,43.862755],[-122.785724,43.862699],[-122.785797,43.858996],[-122.785877,43.855293],[-122.784624,43.855299],[-122.780819,43.855318],[-122.780743,43.859035],[-122.775682,43.859074],[-122.775606,43.862812],[-122.780667,43.862755]]]}},{"type":"Feature","properties":{"MAPTAXLOT":"2001020000300","MAPNUMBER":"20010200","TAXLOT":"300","ACCTNO":"0877603","MAPACRES":10.25644487},"geometry":{"type":"Polygon","coordinates":[[[-122.784624,43.855299],[-122.785877,43.855293],[-122.785879,43.85521],[-122.785958,43.851589],[-122.784704,43.851589],[-122.784624,43.855299]]]}},{"type":"Feature","properties":{"MAPTAXLOT":"2001030000077","MAPNUMBER":"20010300","TAXLOT":"77","ACCTNO":"000None","MAPACRES":4.43755357},"geometry":{"type":"MultiPolygon","coordinates":[[[[-122.793796,43.851646],[-122.793868,43.85168],[-122.793936,43.851718],[-122.793999,43.851761],[-122.794056,43.851807],[-122.794108,43.851856],[-122.794154,43.851909],[-122.794194,43.851964],[-122.794227,43.852021],[-122.794253,43.852081],[-122.794272,43.852141],[-122.794283,43.852203],[-122.7945,43.853865],[-122.794689,43.855307],[-122.794918,43.855307],[-122.794838,43.854702],[-122.794516,43.852236],[-122.79451,43.852187],[-122.794497,43.852118],[-122.794477,43.85205],[-122.794449,43.851983],[-122.794414,43.851918],[-122.794373,43.851854],[-122.794324,43.851794],[-122.794269,43.851736],[-122.794209,43.851682],[-122.794142,43.851632],[-122.79407,43.851585],[-122.793994,43.851542],[-122.793913,43.851504],[-122.792936,43.851084],[-122.792926,43.851078],[-122.792918,43.851071],[-122.792911,43.851062],[-122.792907,43.851053],[-122.792904,43.851044],[-122.792904,43.851035],[-122.792907,43.851025],[-122.792911,43.851016],[-122.792918,43.851008],[-122.792926,43.851001],[-122.792936,43.850994],[-122.792624,43.851148],[-122.793276,43.851422],[-122.793276,43.851422],[-122.793796,43.851646]]],[[[-122.8043,43.858965],[-122.804368,43.859052],[-122.80443,43.859141],[-122.804486,43.859233],[-122.804534,43.859326],[-122.804576,43.859422],[-122.804862,43.860144],[-122.804915,43.860266],[-122.804974,43.860387],[-122.805039,43.860506],[-122.805111,43.860624],[-122.805301,43.860916],[-122.805369,43.861021],[-122.805415,43.861096],[-122.805455,43.861172],[-122.80549,43.86125],[-122.805518,43.861329],[-122.805541,43.86141],[-122.805557,43.861491],[-122.805568,43.861572],[-122.805572,43.861654],[-122.805571,43.861903],[-122.80557,43.862347],[-122.80557,43.862399],[-122.805572,43.862451],[-122.805577,43.862502],[-122.805586,43.862554],[-122.805589,43.86257],[-122.80561,43.862645],[-122.805637,43.862719],[-122.805672,43.862792],[-122.805714,43.862862],[-122.805763,43.86293],[-122.805765,43.862932],[-122.80582,43.862569],[-122.805807,43.862513],[-122.8058,43.862456],[-122.805798,43.862399],[-122.805798,43.862171],[-122.805798,43.86217],[-122.805798,43.862078],[-122.805799,43.861653],[-122.805794,43.861559],[-122.805782,43.861466],[-122.805764,43.861377],[-122.805739,43.861289],[-122.805707,43.861202],[-122.805669,43.861116],[-122.805625,43.861032],[-122.805574,43.86095],[-122.805491,43.860823],[-122.805317,43.860554],[-122.805249,43.860443],[-122.805186,43.860329],[-122.80513,43.860215],[-122.805081,43.860098],[-122.804795,43.859378],[-122.804794,43.859376],[-122.804757,43.85929],[-122.804715,43.859205],[-122.804668,43.859121],[-122.804615,43.859039],[-122.804558,43.858959],[-122.804295,43.858959],[-122.8043,43.858965]]]]}},{"type":"Feature","properties":{"MAPTAXLOT":"2001030000100","MAPNUMBER":"20010300","TAXLOT":"100","ACCTNO":"0877611","MAPACRES":240.96984031},"geometry":{"type":"Polygon","coordinates":[[[-122.78565,43.866476],[-122.790426,43.866416],[-122.790427,43.866416],[-122.795203,43.866357],[-122.797344,43.86632],[-122.800461,43.866267],[-122.800461,43.866267],[-122.800484,43.865539],[-122.800488,43.865258],[-122.800488,43.865258],[-122.800577,43.862603],[-122.795387,43.862637],[-122.795568,43.858977],[-122.795568,43.858976],[-122.790871,43.858986],[-122.790683,43.858986],[-122.790697,43.858582],[-122.790811,43.855301],[-122.785877,43.855293],[-122.785797,43.858996],[-122.785724,43.862699],[-122.78565,43.866476]]]}},{"type":"Feature","properties":{"MAPTAXLOT":"2001030000800","MAPNUMBER":"20010300","TAXLOT":"800","ACCTNO":"0877744","MAPACRES":41.52047587},"geometry":{"type":"Polygon","coordinates":[[[-122.795387,43.862637],[-122.800577,43.862603],[-122.800622,43.861195],[-122.800689,43.85908],[-122.800692,43.858967],[-122.795568,43.858976],[-122.795568,43.858977],[-122.795387,43.862637]]]}},{"type":"Feature","properties":{"MAPTAXLOT":"2001030000900","MAPNUMBER":"20010300","TAXLOT":"900","ACCTNO":"1299070","MAPACRES":39.84515279},"geometry":{"type":"Polygon","coordinates":[[[-122.790697,43.858582],[-122.790683,43.858986],[-122.790871,43.858986],[-122.795568,43.858976],[-122.795747,43.855315],[-122.794918,43.855307],[-122.794689,43.855307],[-122.792919,43.855304],[-122.791714,43.855302],[-122.790811,43.855301],[-122.790811,43.855301],[-122.790697,43.858582]]]}},{"type":"Feature","properties":{"MAPTAXLOT":"2001030001000","MAPNUMBER":"20010300","TAXLOT":"1000","ACCTNO":"0877785","MAPACRES":5.33270014},"geometry":{"type":"Polygon","coordinates":[[[-122.792936,43.850994],[-122.792926,43.851001],[-122.792918,43.851008],[-122.792911,43.851016],[-122.792907,43.851025],[-122.792904,43.851035],[-122.792904,43.851044],[-122.792907,43.851053],[-122.792911,43.851062],[-122.792918,43.851071],[-122.792926,43.851078],[-122.792936,43.851084],[-122.793913,43.851504],[-122.793994,43.851542],[-122.79407,43.851585],[-122.794142,43.851632],[-122.794209,43.851682],[-122.794269,43.851736],[-122.794324,43.851794],[-122.794373,43.851854],[-122.794414,43.851918],[-122.794449,43.851983],[-122.794477,43.85205],[-122.794497,43.852118],[-122.79451,43.852187],[-122.794516,43.852236],[-122.796237,43.852118],[-122.796257,43.85204],[-122.796032,43.851898],[-122.795734,43.851653],[-122.795665,43.851596],[-122.795511,43.851354],[-122.795552,43.851126],[-122.795269,43.85105],[-122.795122,43.851013],[-122.794973,43.85098],[-122.794822,43.850953],[-122.79467,43.85093],[-122.794083,43.850852],[-122.793976,43.850841],[-122.793869,43.850834],[-122.793761,43.850833],[-122.793653,43.850836],[-122.793546,43.850844],[-122.79344,43.850857],[-122.793335,43.850875],[-122.793232,43.850898],[-122.793131,43.850925],[-122.793033,43.850957],[-122.792938,43.850994],[-122.792937,43.850994],[-122.792936,43.850994],[-122.792936,43.850994]]]}},{"type":"Feature","properties":{"MAPTAXLOT":"2001030001001","MAPNUMBER":"20010300","TAXLOT":"1001","ACCTNO":"1109683","MAPACRES":11.57507605},"geometry":{"type":"Polygon","coordinates":[[[-122.791714,43.855302],[-122.792919,43.855304],[-122.792965,43.85397],[-122.792996,43.853066],[-122.793219,43.853067],[-122.793276,43.851422],[-122.792624,43.851148],[-122.79257,43.851173],[-122.792512,43.851201],[-122.792451,43.851227],[-122.792371,43.851257],[-122.792288,43.851284],[-122.792203,43.851307],[-122.792116,43.851326],[-122.792028,43.851342],[-122.791939,43.851353],[-122.791849,43.85136],[-122.791714,43.855302]]]}},{"type":"Feature","properties":{"MAPTAXLOT":"2001030001002","MAPNUMBER":"20010300","TAXLOT":"1002","ACCTNO":"1448974","MAPACRES":7.94450792},"geometry":{"type":"Polygon","coordinates":[[[-122.790811,43.855301],[-122.790811,43.855301],[-122.791714,43.855302],[-122.791849,43.85136],[-122.791753,43.851364],[-122.791656,43.851362],[-122.791561,43.851357],[-122.791465,43.851347],[-122.791371,43.851332],[-122.791279,43.851313],[-122.791221,43.851299],[-122.7909,43.851225],[-122.7909,43.851229],[-122.790939,43.851623],[-122.790811,43.855301]]]}},{"type":"Feature","properties":{"MAPTAXLOT":"2001030001003","MAPNUMBER":"20010300","TAXLOT":"1003","ACCTNO":"1276581","MAPACRES":5.05169232},"geometry":{"type":"Polygon","coordinates":[[[-122.795747,43.855315],[-122.798181,43.855314],[-122.797943,43.85459],[-122.797911,43.854492],[-122.797791,43.8545],[-122.794838,43.854702],[-122.794918,43.855307],[-122.795747,43.855315]]]}},{"type":"Feature","properties":{"MAPTAXLOT":"2001030001004","MAPNUMBER":"20010300","TAXLOT":"1004","ACCTNO":"1296464","MAPACRES":10.0696402},"geometry":{"type":"Polygon","coordinates":[[[-122.794516,43.852236],[-122.794838,43.854702],[-122.797791,43.8545],[-122.797911,43.854492],[-122.797841,43.85428],[-122.797222,43.853683],[-122.797133,43.85373],[-122.797106,43.853918],[-122.796914,43.854033],[-122.796714,43.854021],[-122.796569,43.853959],[-122.79638,43.853811],[-122.796333,43.853721],[-122.796065,43.853385],[-122.79598,43.853162],[-122.796012,43.852962],[-122.795863,43.852438],[-122.796114,43.852279],[-122.796221,43.852177],[-122.796237,43.852118],[-122.794516,43.852236]]]}},{"type":"Feature","properties":{"MAPTAXLOT":"2001030001005","MAPNUMBER":"20010300","TAXLOT":"1005","ACCTNO":"1364742","MAPACRES":5.07167069},"geometry":{"type":"Polygon","coordinates":[[[-122.792919,43.855304],[-122.794689,43.855307],[-122.7945,43.853865],[-122.792965,43.85397],[-122.792919,43.855304]]]}},{"type":"Feature","properties":{"MAPTAXLOT":"2001030001006","MAPNUMBER":"20010300","TAXLOT":"1006","ACCTNO":"0877769","MAPACRES":6.0680831},"geometry":{"type":"Polygon","coordinates":[[[-122.793276,43.851422],[-122.793219,43.853067],[-122.792996,43.853066],[-122.792965,43.85397],[-122.7945,43.853865],[-122.794283,43.852203],[-122.794272,43.852141],[-122.794253,43.852081],[-122.794227,43.852021],[-122.794194,43.851964],[-122.794154,43.851909],[-122.794108,43.851856],[-122.794056,43.851807],[-122.793999,43.851761],[-122.793936,43.851718],[-122.793868,43.85168],[-122.793796,43.851646],[-122.793276,43.851422],[-122.793276,43.851422]]]}},{"type":"Feature","properties":{"MAPTAXLOT":"2001030001100","MAPNUMBER":"20010300","TAXLOT":"1100","ACCTNO":"0877793","MAPACRES":0.75000744},"geometry":{"type":"Polygon","coordinates":[[[-122.785879,43.85521],[-122.786067,43.855212],[-122.785958,43.851589],[-122.785879,43.85521]]]}},{"type":"Feature","properties":{"MAPTAXLOT":"2001033000077","MAPNUMBER":"20010330","TAXLOT":"77","ACCTNO":"000None","MAPACRES":5.87915676},"geometry":{"type":"Polygon","coordinates":[[[-122.804295,43.858959],[-122.804558,43.858959],[-122.804494,43.858879],[-122.803842,43.8581],[-122.803838,43.858062],[-122.80384,43.858024],[-122.803849,43.857987],[-122.803863,43.85795],[-122.803998,43.85766],[-122.804147,43.857316],[-122.804224,43.857138],[-122.804498,43.856632],[-122.80468,43.856398],[-122.804884,43.85617],[-122.805323,43.855728],[-122.805571,43.855528],[-122.805849,43.855343],[-122.80585,43.855195],[-122.805745,43.855263],[-122.805576,43.855376],[-122.805463,43.855451],[-122.805251,43.855622],[-122.805205,43.855659],[-122.804759,43.856108],[-122.804551,43.856341],[-122.804361,43.856585],[-122.804277,43.85674],[-122.804081,43.857101],[-122.803977,43.857342],[-122.803838,43.85766],[-122.803707,43.85794],[-122.80367,43.857896],[-122.803595,43.857812],[-122.803515,43.85773],[-122.803429,43.857651],[-122.803338,43.857576],[-122.803243,43.857503],[-122.803161,43.857447],[-122.803077,43.857393],[-122.80299,43.857342],[-122.8029,43.857294],[-122.802627,43.857152],[-122.801897,43.856774],[-122.80138,43.856505],[-122.800775,43.856191],[-122.799977,43.855777],[-122.799181,43.855364],[-122.799136,43.855339],[-122.799091,43.855314],[-122.799009,43.855262],[-122.798932,43.855206],[-122.798861,43.855147],[-122.798807,43.855097],[-122.798757,43.855046],[-122.798711,43.854992],[-122.798668,43.854937],[-122.798484,43.854683],[-122.797979,43.853987],[-122.797997,43.853983],[-122.797632,43.853479],[-122.797575,43.853395],[-122.797524,43.85331],[-122.797479,43.853222],[-122.79744,43.853134],[-122.79743,43.853109],[-122.797408,43.853051],[-122.797388,43.853051],[-122.797073,43.852226],[-122.796904,43.851786],[-122.796844,43.851659],[-122.796593,43.851658],[-122.796629,43.851714],[-122.79666,43.851771],[-122.796685,43.85183],[-122.797192,43.853156],[-122.797227,43.85324],[-122.797266,43.853322],[-122.797311,43.853404],[-122.79736,43.853483],[-122.797414,43.853562],[-122.798159,43.85459],[-122.798467,43.855014],[-122.798516,43.855078],[-122.798571,43.85514],[-122.798629,43.8552],[-122.798692,43.855258],[-122.79876,43.855313],[-122.798826,43.855362],[-122.798895,43.855409],[-122.798968,43.855453],[-122.799043,43.855495],[-122.799049,43.855498],[-122.800564,43.856284],[-122.800769,43.856391],[-122.802727,43.857407],[-122.802767,43.857427],[-122.802866,43.857482],[-122.802962,43.857539],[-122.803053,43.8576],[-122.803141,43.857663],[-122.803224,43.85773],[-122.803303,43.857799],[-122.803376,43.857872],[-122.803446,43.857946],[-122.80345,43.857952],[-122.803452,43.857953],[-122.803476,43.857981],[-122.803638,43.858174],[-122.804295,43.858959]]]}},{"type":"Feature","properties":{"MAPTAXLOT":"2001033000100","MAPNUMBER":"20010330","TAXLOT":"100","ACCTNO":"0877827","MAPACRES":36.52257306},"geometry":{"type":"Polygon","coordinates":[[[-122.795568,43.858976],[-122.800692,43.858967],[-122.800708,43.858453],[-122.800739,43.857405],[-122.800762,43.856634],[-122.800769,43.856391],[-122.800564,43.856284],[-122.800287,43.856403],[-122.799929,43.85631],[-122.799605,43.856236],[-122.799281,43.856163],[-122.798945,43.85605],[-122.798685,43.855856],[-122.798683,43.855855],[-122.798465,43.855651],[-122.798304,43.855502],[-122.798181,43.855314],[-122.795747,43.855315],[-122.795568,43.858976]]]}},{"type":"Feature","properties":{"MAPTAXLOT":"2001033000200","MAPNUMBER":"20010330","TAXLOT":"200","ACCTNO":"0877835","MAPACRES":0.55853187},"geometry":{"type":"Polygon","coordinates":[[[-122.798181,43.855314],[-122.798304,43.855502],[-122.798465,43.855651],[-122.798683,43.855855],[-122.798685,43.855856],[-122.799043,43.855495],[-122.798968,43.855453],[-122.798895,43.855409],[-122.798826,43.855362],[-122.79876,43.855313],[-122.798181,43.855314]]]}},{"type":"Feature","properties":{"MAPTAXLOT":"2001033000300","MAPNUMBER":"20010330","TAXLOT":"300","ACCTNO":"0877843","MAPACRES":1.5098571},"geometry":{"type":"Polygon","coordinates":[[[-122.798685,43.855856],[-122.798945,43.85605],[-122.799281,43.856163],[-122.799605,43.856236],[-122.799929,43.85631],[-122.800287,43.856403],[-122.800564,43.856284],[-122.799049,43.855498],[-122.799043,43.855495],[-122.798685,43.855856]]]}},{"type":"Feature","properties":{"MAPTAXLOT":"2001033000400","MAPNUMBER":"20010330","TAXLOT":"400","ACCTNO":"0877850","MAPACRES":0.58030046},"geometry":{"type":"Polygon","coordinates":[[[-122.799181,43.855364],[-122.799977,43.855777],[-122.80012,43.855642],[-122.800123,43.855315],[-122.799614,43.855314],[-122.799091,43.855314],[-122.799136,43.855339],[-122.799181,43.855364]]]}},{"type":"Feature","properties":{"MAPTAXLOT":"2001033000401","MAPNUMBER":"20010330","TAXLOT":"401","ACCTNO":"1250032","MAPACRES":1.07712032},"geometry":{"type":"Polygon","coordinates":[[[-122.799977,43.855777],[-122.800775,43.856191],[-122.800801,43.855316],[-122.800176,43.855315],[-122.800123,43.855315],[-122.80012,43.855642],[-122.799977,43.855777]]]}},{"type":"Feature","properties":{"MAPTAXLOT":"2001033002200","MAPNUMBER":"20010330","TAXLOT":"2200","ACCTNO":"0878080","MAPACRES":5.01694368},"geometry":{"type":"Polygon","coordinates":[[[-122.79744,43.853134],[-122.797479,43.853222],[-122.797524,43.85331],[-122.797575,43.853395],[-122.797632,43.853479],[-122.797997,43.853983],[-122.798721,43.85385],[-122.800846,43.853799],[-122.800866,43.85314],[-122.799207,43.853145],[-122.79744,43.853134],[-122.79744,43.853134]]]}},{"type":"Feature","properties":{"MAPTAXLOT":"2001033002201","MAPNUMBER":"20010330","TAXLOT":"2201","ACCTNO":"1024254","MAPACRES":2.20518129},"geometry":{"type":"Polygon","coordinates":[[[-122.796844,43.851659],[-122.796904,43.851786],[-122.797073,43.852226],[-122.798627,43.852236],[-122.798817,43.852237],[-122.798645,43.851671],[-122.798645,43.85167],[-122.796844,43.851659]]]}},{"type":"Feature","properties":{"MAPTAXLOT":"2001033002202","MAPNUMBER":"20010330","TAXLOT":"2202","ACCTNO":"1024247","MAPACRES":2.51404849},"geometry":{"type":"Polygon","coordinates":[[[-122.797388,43.853051],[-122.797408,43.853051],[-122.798601,43.853058],[-122.798627,43.852236],[-122.797073,43.852226],[-122.797388,43.853051]]]}},{"type":"Feature","properties":{"MAPTAXLOT":"2001033002203","MAPNUMBER":"20010330","TAXLOT":"2203","ACCTNO":"1296571","MAPACRES":0.61996302},"geometry":{"type":"Polygon","coordinates":[[[-122.798601,43.853058],[-122.799094,43.853061],[-122.798817,43.852237],[-122.798627,43.852236],[-122.798601,43.853058]]]}},{"type":"Feature","properties":{"MAPTAXLOT":"2001033002204","MAPNUMBER":"20010330","TAXLOT":"2204","ACCTNO":"1394525","MAPACRES":6.2670367},"geometry":{"type":"Polygon","coordinates":[[[-122.79743,43.853109],[-122.79744,43.853134],[-122.79744,43.853134],[-122.799207,43.853145],[-122.800866,43.85314],[-122.800911,43.851685],[-122.798645,43.85167],[-122.798645,43.851671],[-122.799101,43.852238],[-122.799208,43.853062],[-122.799094,43.853061],[-122.798601,43.853058],[-122.797408,43.853051],[-122.79743,43.853109]]]}},{"type":"Feature","properties":{"MAPTAXLOT":"2001033002205","MAPNUMBER":"20010330","TAXLOT":"2205","ACCTNO":"1424082","MAPACRES":0.17730857},"geometry":{"type":"Polygon","coordinates":[[[-122.798817,43.852237],[-122.799101,43.852238],[-122.798645,43.851671],[-122.798817,43.852237]]]}},{"type":"Feature","properties":{"MAPTAXLOT":"2001033002206","MAPNUMBER":"20010330","TAXLOT":"2206","ACCTNO":"1905676","MAPACRES":0.36157843},"geometry":{"type":"Polygon","coordinates":[[[-122.799101,43.852238],[-122.798817,43.852237],[-122.799094,43.853061],[-122.799208,43.853062],[-122.799101,43.852238]]]}},{"type":"Feature","properties":{"MAPTAXLOT":"2001033002300","MAPNUMBER":"20010330","TAXLOT":"2300","ACCTNO":"0878114","MAPACRES":5.5158114},"geometry":{"type":"Polygon","coordinates":[[[-122.800123,43.855315],[-122.800176,43.855315],[-122.800203,43.854401],[-122.800828,43.854411],[-122.800846,43.853799],[-122.798721,43.85385],[-122.797997,43.853983],[-122.797979,43.853987],[-122.798484,43.854683],[-122.799236,43.854695],[-122.799515,43.855051],[-122.799614,43.855314],[-122.800123,43.855315]]]}},{"type":"Feature","properties":{"MAPTAXLOT":"2001033002500","MAPNUMBER":"20010330","TAXLOT":"2500","ACCTNO":"0878148","MAPACRES":0.29904714},"geometry":{"type":"Polygon","coordinates":[[[-122.799091,43.855314],[-122.799614,43.855314],[-122.799515,43.855051],[-122.798861,43.855147],[-122.798932,43.855206],[-122.799009,43.855262],[-122.799091,43.855314]]]}},{"type":"Feature","properties":{"MAPTAXLOT":"2001033002600","MAPNUMBER":"20010330","TAXLOT":"2600","ACCTNO":"0878155","MAPACRES":0.68106778},"geometry":{"type":"Polygon","coordinates":[[[-122.798668,43.854937],[-122.798711,43.854992],[-122.798757,43.855046],[-122.798807,43.855097],[-122.798861,43.855147],[-122.799515,43.855051],[-122.799236,43.854695],[-122.798484,43.854683],[-122.798668,43.854937]]]}},{"type":"Feature","properties":{"MAPTAXLOT":"2001033002700","MAPNUMBER":"20010330","TAXLOT":"2700","ACCTNO":"0878163","MAPACRES":0.59115132},"geometry":{"type":"Polygon","coordinates":[[[-122.798181,43.855314],[-122.79876,43.855313],[-122.798692,43.855258],[-122.798629,43.8552],[-122.798571,43.85514],[-122.798516,43.855078],[-122.798467,43.855014],[-122.798159,43.85459],[-122.797943,43.85459],[-122.798181,43.855314]]]}},{"type":"Feature","properties":{"MAPTAXLOT":"2001033002800","MAPNUMBER":"20010330","TAXLOT":"2800","ACCTNO":"0878171","MAPACRES":5.22783894},"geometry":{"type":"Polygon","coordinates":[[[-122.797943,43.85459],[-122.798159,43.85459],[-122.797414,43.853562],[-122.79736,43.853483],[-122.797311,43.853404],[-122.797266,43.853322],[-122.797227,43.85324],[-122.797192,43.853156],[-122.796685,43.85183],[-122.79666,43.851771],[-122.796629,43.851714],[-122.796593,43.851658],[-122.796117,43.851655],[-122.795928,43.851654],[-122.795926,43.851654],[-122.795734,43.851653],[-122.796032,43.851898],[-122.796257,43.85204],[-122.796237,43.852118],[-122.796221,43.852177],[-122.796114,43.852279],[-122.795863,43.852438],[-122.796012,43.852962],[-122.79598,43.853162],[-122.796065,43.853385],[-122.796333,43.853721],[-122.79638,43.853811],[-122.796569,43.853959],[-122.796714,43.854021],[-122.796914,43.854033],[-122.797106,43.853918],[-122.797133,43.85373],[-122.797222,43.853683],[-122.797841,43.85428],[-122.797911,43.854492],[-122.797943,43.85459]]]}},{"type":"Feature","properties":{"MAPTAXLOT":"2001100000077","MAPNUMBER":"20011000","TAXLOT":"77","ACCTNO":"000None","MAPACRES":4.91721999},"geometry":{"type":"Polygon","coordinates":[[[-122.796593,43.851658],[-122.796844,43.851659],[-122.796801,43.851591],[-122.796751,43.851525],[-122.796694,43.851461],[-122.796632,43.851401],[-122.796563,43.851344],[-122.79649,43.851291],[-122.796411,43.851241],[-122.796328,43.851196],[-122.79624,43.851155],[-122.796149,43.851119],[-122.796054,43.851087],[-122.796003,43.851073],[-122.795858,43.851034],[-122.795628,43.850971],[-122.795348,43.850896],[-122.795192,43.850856],[-122.795033,43.850822],[-122.794873,43.850792],[-122.794711,43.850768],[-122.794343,43.850719],[-122.794124,43.850691],[-122.794014,43.850678],[-122.793903,43.850671],[-122.793792,43.850668],[-122.793681,43.85067],[-122.793592,43.850674],[-122.793503,43.850682],[-122.793415,43.850693],[-122.793323,43.850707],[-122.793233,43.850725],[-122.793123,43.850751],[-122.793016,43.850782],[-122.79299,43.85079],[-122.792908,43.850818],[-122.792827,43.85085],[-122.792748,43.850884],[-122.792672,43.850921],[-122.79267,43.850922],[-122.792664,43.850925],[-122.79244,43.851038],[-122.79236,43.851075],[-122.792276,43.851108],[-122.792189,43.851135],[-122.792099,43.851158],[-122.792007,43.851176],[-122.791913,43.851189],[-122.791819,43.851197],[-122.791724,43.851199],[-122.791628,43.851196],[-122.791534,43.851188],[-122.79144,43.851175],[-122.791349,43.851156],[-122.790746,43.851016],[-122.790702,43.851005],[-122.790588,43.850974],[-122.790477,43.850938],[-122.790369,43.850897],[-122.790264,43.850851],[-122.790164,43.850802],[-122.790067,43.850747],[-122.789976,43.850689],[-122.789648,43.850469],[-122.789535,43.850396],[-122.789417,43.850326],[-122.789296,43.85026],[-122.789171,43.850198],[-122.789043,43.850139],[-122.788482,43.849893],[-122.78843,43.849871],[-122.788373,43.849848],[-122.788314,43.849826],[-122.788223,43.849799],[-122.788131,43.849775],[-122.788037,43.849757],[-122.787941,43.849743],[-122.787844,43.849734],[-122.787746,43.84973],[-122.787648,43.84973],[-122.787417,43.849737],[-122.787383,43.849765],[-122.786914,43.849793],[-122.786764,43.849801],[-122.786546,43.849842],[-122.78622,43.849903],[-122.786099,43.849878],[-122.786162,43.849724],[-122.786237,43.84954],[-122.786286,43.849323],[-122.786309,43.849066],[-122.786114,43.848634],[-122.786005,43.848069],[-122.785662,43.847601],[-122.785681,43.847861],[-122.785858,43.848103],[-122.785965,43.848658],[-122.786155,43.84908],[-122.786135,43.84931],[-122.786089,43.849515],[-122.786039,43.849636],[-122.78591,43.849952],[-122.786217,43.850017],[-122.786789,43.84991],[-122.787242,43.849884],[-122.787213,43.849908],[-122.787658,43.849895],[-122.787744,43.849894],[-122.787829,43.849898],[-122.787914,43.849907],[-122.787998,43.84992],[-122.788081,43.849937],[-122.788162,43.849958],[-122.78824,43.849983],[-122.788316,43.850013],[-122.788925,43.850279],[-122.789046,43.850335],[-122.789163,43.850394],[-122.789277,43.850456],[-122.789387,43.850521],[-122.789494,43.85059],[-122.789821,43.85081],[-122.789915,43.85087],[-122.790013,43.850926],[-122.790115,43.850978],[-122.790221,43.851025],[-122.790331,43.851069],[-122.790444,43.851108],[-122.790559,43.851143],[-122.790677,43.851173],[-122.7909,43.851225],[-122.791221,43.851299],[-122.791279,43.851313],[-122.791371,43.851332],[-122.791465,43.851347],[-122.791561,43.851357],[-122.791656,43.851362],[-122.791753,43.851364],[-122.791849,43.85136],[-122.791939,43.851353],[-122.792028,43.851342],[-122.792116,43.851326],[-122.792203,43.851307],[-122.792288,43.851284],[-122.792371,43.851257],[-122.792451,43.851227],[-122.792512,43.851201],[-122.79257,43.851173],[-122.792624,43.851148],[-122.792936,43.850994],[-122.792936,43.850994],[-122.792937,43.850994],[-122.792938,43.850994],[-122.793033,43.850957],[-122.793131,43.850925],[-122.793232,43.850898],[-122.793335,43.850875],[-122.79344,43.850857],[-122.793546,43.850844],[-122.793653,43.850836],[-122.793761,43.850833],[-122.793869,43.850834],[-122.793976,43.850841],[-122.794083,43.850852],[-122.79467,43.85093],[-122.794822,43.850953],[-122.794973,43.85098],[-122.795122,43.851013],[-122.795269,43.85105],[-122.795552,43.851126],[-122.795878,43.851215],[-122.795879,43.851215],[-122.795923,43.851227],[-122.796,43.85125],[-122.796075,43.851277],[-122.796156,43.851311],[-122.796233,43.85135],[-122.796306,43.851392],[-122.796374,43.851439],[-122.796437,43.851489],[-122.796495,43.851542],[-122.796547,43.851599],[-122.796593,43.851658]]]}},{"type":"Feature","properties":{"MAPTAXLOT":"2001100000100","MAPNUMBER":"20011000","TAXLOT":"100","ACCTNO":"1106150","MAPACRES":52.4088275},"geometry":{"type":"Polygon","coordinates":[[[-122.785877,43.855293],[-122.790811,43.855301],[-122.790939,43.851623],[-122.7909,43.851229],[-122.7909,43.851225],[-122.790677,43.851173],[-122.790559,43.851143],[-122.790444,43.851108],[-122.790331,43.851069],[-122.790221,43.851025],[-122.790115,43.850978],[-122.790013,43.850926],[-122.789915,43.85087],[-122.789821,43.85081],[-122.789494,43.85059],[-122.789387,43.850521],[-122.789277,43.850456],[-122.789163,43.850394],[-122.789046,43.850335],[-122.788925,43.850279],[-122.788316,43.850013],[-122.78824,43.849983],[-122.788162,43.849958],[-122.788081,43.849937],[-122.787998,43.84992],[-122.787914,43.849907],[-122.787829,43.849898],[-122.787744,43.849894],[-122.787658,43.849895],[-122.787213,43.849908],[-122.786221,43.850738],[-122.786162,43.850791],[-122.78611,43.850847],[-122.786064,43.850906],[-122.786025,43.850968],[-122.785993,43.851031],[-122.785967,43.851097],[-122.78595,43.851163],[-122.785939,43.85123],[-122.785936,43.851298],[-122.785958,43.851589],[-122.786067,43.855212],[-122.785879,43.85521],[-122.785877,43.855293]]]}},{"type":"Feature","properties":{"MAPTAXLOT":"2001100000200","MAPNUMBER":"20011000","TAXLOT":"200","ACCTNO":"0878692","MAPACRES":1.79452446},"geometry":{"type":"MultiPolygon","coordinates":[[[[-122.785936,43.851298],[-122.785939,43.85123],[-122.78595,43.851163],[-122.785967,43.851097],[-122.785993,43.851031],[-122.786025,43.850968],[-122.786064,43.850906],[-122.78611,43.850847],[-122.786162,43.850791],[-122.786221,43.850738],[-122.787213,43.849908],[-122.787242,43.849884],[-122.786789,43.84991],[-122.786217,43.850017],[-122.78591,43.849952],[-122.786039,43.849636],[-122.785921,43.849552],[-122.785863,43.849514],[-122.785801,43.849479],[-122.785936,43.851298]]],[[[-122.786099,43.849878],[-122.78622,43.849903],[-122.786546,43.849842],[-122.78646,43.84984],[-122.786414,43.849836],[-122.786369,43.849828],[-122.786325,43.849816],[-122.786284,43.849801],[-122.786246,43.849782],[-122.786211,43.84976],[-122.786162,43.849724],[-122.786099,43.849878]]]]}},{"type":"Feature","properties":{"MAPTAXLOT":"2001100000300","MAPNUMBER":"20011000","TAXLOT":"300","ACCTNO":"1106168","MAPACRES":4.24741323},"geometry":{"type":"MultiPolygon","coordinates":[[[[-122.786162,43.849724],[-122.786211,43.84976],[-122.786246,43.849782],[-122.786284,43.849801],[-122.786325,43.849816],[-122.786369,43.849828],[-122.786414,43.849836],[-122.78646,43.84984],[-122.786546,43.849842],[-122.786764,43.849801],[-122.786914,43.849793],[-122.787383,43.849765],[-122.787417,43.849737],[-122.787478,43.849686],[-122.787495,43.849684],[-122.787263,43.849468],[-122.787113,43.849552],[-122.786982,43.84943],[-122.786667,43.848886],[-122.786842,43.848833],[-122.786195,43.847718],[-122.785608,43.846872],[-122.785662,43.847601],[-122.786005,43.848069],[-122.786114,43.848634],[-122.786309,43.849066],[-122.786286,43.849323],[-122.786237,43.84954],[-122.786162,43.849724]]],[[[-122.78569,43.847979],[-122.78569,43.847988],[-122.785801,43.849479],[-122.785801,43.849479],[-122.785863,43.849514],[-122.785921,43.849552],[-122.786039,43.849636],[-122.786089,43.849515],[-122.786135,43.84931],[-122.786155,43.84908],[-122.785965,43.848658],[-122.785858,43.848103],[-122.785681,43.847861],[-122.78569,43.847979]]]]}},{"type":"Feature","properties":{"MAPTAXLOT":"2001100000301","MAPNUMBER":"20011000","TAXLOT":"301","ACCTNO":"1106176","MAPACRES":3.91048936},"geometry":{"type":"Polygon","coordinates":[[[-122.785577,43.846461],[-122.786401,43.84765],[-122.787345,43.849276],[-122.787813,43.849712],[-122.788192,43.849581],[-122.788368,43.84952],[-122.78829,43.849512],[-122.788238,43.849472],[-122.788213,43.849445],[-122.788145,43.849433],[-122.788089,43.849419],[-122.788009,43.849335],[-122.787956,43.849228],[-122.78793,43.849152],[-122.787851,43.849104],[-122.787773,43.84906],[-122.787723,43.84901],[-122.787649,43.848947],[-122.787565,43.848861],[-122.78749,43.848763],[-122.787465,43.848692],[-122.787432,43.848596],[-122.787415,43.848483],[-122.787405,43.84843],[-122.787396,43.848387],[-122.787383,43.848345],[-122.78736,43.848316],[-122.787328,43.848294],[-122.787235,43.848208],[-122.787175,43.848156],[-122.787144,43.848081],[-122.787121,43.848012],[-122.787115,43.847993],[-122.787059,43.847908],[-122.787024,43.847828],[-122.78699,43.847762],[-122.786969,43.847672],[-122.78696,43.847606],[-122.786967,43.84756],[-122.786977,43.847496],[-122.786962,43.847446],[-122.786923,43.847375],[-122.786869,43.847305],[-122.786831,43.847231],[-122.786789,43.847175],[-122.786727,43.847125],[-122.786672,43.847097],[-122.786597,43.847064],[-122.786529,43.847019],[-122.786467,43.846951],[-122.786353,43.846886],[-122.786291,43.846852],[-122.786229,43.846762],[-122.786166,43.846659],[-122.786086,43.846602],[-122.785992,43.846561],[-122.785875,43.846485],[-122.785806,43.846428],[-122.785745,43.846395],[-122.785676,43.846352],[-122.785625,43.84632],[-122.785565,43.846289],[-122.785577,43.846461]]]}},{"type":"Feature","properties":{"MAPTAXLOT":"2001100000400","MAPNUMBER":"20011000","TAXLOT":"400","ACCTNO":"0878734","MAPACRES":2.2710862},"geometry":{"type":"Polygon","coordinates":[[[-122.787648,43.84973],[-122.787746,43.84973],[-122.787844,43.849734],[-122.787941,43.849743],[-122.788037,43.849757],[-122.788131,43.849775],[-122.788223,43.849799],[-122.788314,43.849826],[-122.788373,43.849848],[-122.78843,43.849871],[-122.788482,43.849893],[-122.788383,43.849571],[-122.788368,43.84952],[-122.788192,43.849581],[-122.787813,43.849712],[-122.787345,43.849276],[-122.786401,43.84765],[-122.785577,43.846461],[-122.785608,43.846872],[-122.786195,43.847718],[-122.786842,43.848833],[-122.786667,43.848886],[-122.786982,43.84943],[-122.787113,43.849552],[-122.787263,43.849468],[-122.787495,43.849684],[-122.787478,43.849686],[-122.787417,43.849737],[-122.787648,43.84973]]]}},{"type":"Feature","properties":{"MAPTAXLOT":"2001100000501","MAPNUMBER":"20011000","TAXLOT":"501","ACCTNO":"1845443","MAPACRES":2.86619806},"geometry":{"type":"Polygon","coordinates":[[[-122.790702,43.851005],[-122.790746,43.851016],[-122.791349,43.851156],[-122.79144,43.851175],[-122.791534,43.851188],[-122.791628,43.851196],[-122.791724,43.851199],[-122.791819,43.851197],[-122.791913,43.851189],[-122.792007,43.851176],[-122.792099,43.851158],[-122.792189,43.851135],[-122.792276,43.851108],[-122.79236,43.851075],[-122.79244,43.851038],[-122.792664,43.850925],[-122.79267,43.850922],[-122.791321,43.849959],[-122.790702,43.851005]]]}},{"type":"Feature","properties":{"MAPTAXLOT":"2001100000502","MAPNUMBER":"20011000","TAXLOT":"502","ACCTNO":"1845450","MAPACRES":5.90481443},"geometry":{"type":"Polygon","coordinates":[[[-122.788482,43.849893],[-122.789043,43.850139],[-122.789171,43.850198],[-122.789296,43.85026],[-122.789417,43.850326],[-122.789535,43.850396],[-122.789648,43.850469],[-122.789976,43.850689],[-122.790067,43.850747],[-122.790164,43.850802],[-122.790264,43.850851],[-122.790369,43.850897],[-122.790477,43.850938],[-122.790588,43.850974],[-122.790702,43.851005],[-122.791321,43.849959],[-122.790538,43.8494],[-122.790403,43.849304],[-122.790361,43.849325],[-122.78997,43.849522],[-122.789735,43.849522],[-122.789572,43.849486],[-122.789421,43.849403],[-122.789347,43.849389],[-122.789271,43.84945],[-122.789242,43.849535],[-122.789133,43.849559],[-122.78883,43.849474],[-122.788736,43.849484],[-122.78871,43.849486],[-122.788368,43.84952],[-122.788383,43.849571],[-122.788482,43.849893]]]}},{"type":"Feature","properties":{"MAPTAXLOT":"2001100000600","MAPNUMBER":"20011000","TAXLOT":"600","ACCTNO":"0878767","MAPACRES":1.77381158},"geometry":{"type":"Polygon","coordinates":[[[-122.791321,43.849959],[-122.79267,43.850922],[-122.792672,43.850921],[-122.792748,43.850884],[-122.792827,43.85085],[-122.792908,43.850818],[-122.79299,43.85079],[-122.793016,43.850782],[-122.790849,43.849275],[-122.790726,43.84929],[-122.790711,43.849286],[-122.790403,43.849304],[-122.790538,43.8494],[-122.791321,43.849959]]]}},{"type":"Feature","properties":{"MAPTAXLOT":"2001100000700","MAPNUMBER":"20011000","TAXLOT":"700","ACCTNO":"1106192","MAPACRES":1.89027905},"geometry":{"type":"Polygon","coordinates":[[[-122.793681,43.85067],[-122.793792,43.850668],[-122.793903,43.850671],[-122.794014,43.850678],[-122.794124,43.850691],[-122.794343,43.850719],[-122.794711,43.850768],[-122.794873,43.850792],[-122.795033,43.850822],[-122.795192,43.850856],[-122.795348,43.850896],[-122.795628,43.850971],[-122.795551,43.850849],[-122.795303,43.850657],[-122.795016,43.850579],[-122.794776,43.850599],[-122.794429,43.850575],[-122.79423,43.850493],[-122.793923,43.850368],[-122.793681,43.850263],[-122.793407,43.85001],[-122.792691,43.850331],[-122.793192,43.850695],[-122.793233,43.850725],[-122.793323,43.850707],[-122.793415,43.850693],[-122.793503,43.850682],[-122.793592,43.850674],[-122.793681,43.85067]]]}},{"type":"Feature","properties":{"MAPTAXLOT":"2001100000701","MAPNUMBER":"20011000","TAXLOT":"701","ACCTNO":"1644952","MAPACRES":3.31915248},"geometry":{"type":"Polygon","coordinates":[[[-122.790849,43.849275],[-122.793016,43.850782],[-122.793123,43.850751],[-122.793233,43.850725],[-122.793192,43.850695],[-122.792691,43.850331],[-122.793407,43.85001],[-122.793341,43.849958],[-122.793297,43.84982],[-122.793267,43.84965],[-122.793241,43.849576],[-122.793098,43.849553],[-122.79272,43.849516],[-122.792331,43.84948],[-122.791901,43.849422],[-122.791601,43.849295],[-122.791206,43.84923],[-122.790849,43.849275]]]}},{"type":"Feature","properties":{"MAPTAXLOT":"2001100000800","MAPNUMBER":"20011000","TAXLOT":"800","ACCTNO":"0878791","MAPACRES":57.10800011},"geometry":{"type":"MultiPolygon","coordinates":[[[[-122.796054,43.851087],[-122.796149,43.851119],[-122.79624,43.851155],[-122.796328,43.851196],[-122.796411,43.851241],[-122.79649,43.851291],[-122.796563,43.851344],[-122.796632,43.851401],[-122.796694,43.851461],[-122.796751,43.851525],[-122.796801,43.851591],[-122.796844,43.851659],[-122.798645,43.85167],[-122.800911,43.851685],[-122.800554,43.848228],[-122.79573,43.848151],[-122.796054,43.851087]]],[[[-122.795303,43.850657],[-122.795551,43.850849],[-122.795628,43.850971],[-122.795858,43.851034],[-122.795539,43.848148],[-122.795539,43.848148],[-122.790592,43.848068],[-122.79071,43.84928],[-122.790711,43.849286],[-122.790726,43.84929],[-122.790849,43.849275],[-122.791206,43.84923],[-122.791601,43.849295],[-122.791901,43.849422],[-122.792331,43.84948],[-122.79272,43.849516],[-122.793098,43.849553],[-122.793241,43.849576],[-122.793267,43.84965],[-122.793297,43.84982],[-122.793341,43.849958],[-122.793407,43.85001],[-122.793681,43.850263],[-122.793923,43.850368],[-122.79423,43.850493],[-122.794429,43.850575],[-122.794776,43.850599],[-122.795016,43.850579],[-122.795303,43.850657]]],[[[-122.795511,43.851354],[-122.795665,43.851596],[-122.795734,43.851653],[-122.795926,43.851654],[-122.795878,43.851215],[-122.795552,43.851126],[-122.795511,43.851354]]],[[[-122.796115,43.851643],[-122.796117,43.851655],[-122.796593,43.851658],[-122.796547,43.851599],[-122.796495,43.851542],[-122.796437,43.851489],[-122.796374,43.851439],[-122.796306,43.851392],[-122.796233,43.85135],[-122.796156,43.851311],[-122.796075,43.851277],[-122.796115,43.851643]]]]}},{"type":"Feature","properties":{"MAPTAXLOT":"2001100000801","MAPNUMBER":"20011000","TAXLOT":"801","ACCTNO":"0878809","MAPACRES":9.62322711},"geometry":{"type":"Polygon","coordinates":[[[-122.788368,43.84952],[-122.78871,43.849486],[-122.788736,43.849484],[-122.78883,43.849474],[-122.789133,43.849559],[-122.789242,43.849535],[-122.789271,43.84945],[-122.789347,43.849389],[-122.789421,43.849403],[-122.789572,43.849486],[-122.789735,43.849522],[-122.78997,43.849522],[-122.790361,43.849325],[-122.790403,43.849304],[-122.790711,43.849286],[-122.79071,43.84928],[-122.790592,43.848068],[-122.787121,43.848012],[-122.787144,43.848081],[-122.787175,43.848156],[-122.787235,43.848208],[-122.787328,43.848294],[-122.78736,43.848316],[-122.787383,43.848345],[-122.787396,43.848387],[-122.787405,43.84843],[-122.787415,43.848483],[-122.787432,43.848596],[-122.787465,43.848692],[-122.78749,43.848763],[-122.787565,43.848861],[-122.787649,43.848947],[-122.787723,43.84901],[-122.787773,43.84906],[-122.787851,43.849104],[-122.78793,43.849152],[-122.787956,43.849228],[-122.788009,43.849335],[-122.788089,43.849419],[-122.788145,43.849433],[-122.788213,43.849445],[-122.788238,43.849472],[-122.78829,43.849512],[-122.788368,43.84952]]]}},{"type":"Feature","properties":{"MAPTAXLOT":"2001100001000","MAPNUMBER":"20011000","TAXLOT":"1000","ACCTNO":"0878817","MAPACRES":454.19828432},"geometry":{"type":"MultiPolygon","coordinates":[[[[-122.800554,43.848228],[-122.800911,43.851685],[-122.805892,43.851715],[-122.805555,43.848309],[-122.805213,43.844855],[-122.804822,43.841372],[-122.804433,43.837888],[-122.799481,43.837815],[-122.794529,43.837741],[-122.789578,43.837667],[-122.784625,43.837594],[-122.785022,43.840944],[-122.785417,43.844295],[-122.79024,43.844456],[-122.790592,43.848068],[-122.795539,43.848148],[-122.795539,43.848148],[-122.795858,43.851034],[-122.796003,43.851073],[-122.796054,43.851087],[-122.79573,43.848151],[-122.800554,43.848228]]],[[[-122.795926,43.851654],[-122.795928,43.851654],[-122.796117,43.851655],[-122.796115,43.851643],[-122.796075,43.851277],[-122.796,43.85125],[-122.795923,43.851227],[-122.795879,43.851215],[-122.795878,43.851215],[-122.795926,43.851654]]]]}},{"type":"Feature","properties":{"MAPTAXLOT":"2001100001100","MAPNUMBER":"20011000","TAXLOT":"1100","ACCTNO":"0878825","MAPACRES":35.58834392},"geometry":{"type":"Polygon","coordinates":[[[-122.787121,43.848012],[-122.790592,43.848068],[-122.79024,43.844456],[-122.785417,43.844295],[-122.785565,43.846289],[-122.785625,43.84632],[-122.785676,43.846352],[-122.785745,43.846395],[-122.785806,43.846428],[-122.785875,43.846485],[-122.785992,43.846561],[-122.786086,43.846602],[-122.786166,43.846659],[-122.786229,43.846762],[-122.786291,43.846852],[-122.786353,43.846886],[-122.786467,43.846951],[-122.786529,43.847019],[-122.786597,43.847064],[-122.786672,43.847097],[-122.786727,43.847125],[-122.786789,43.847175],[-122.786831,43.847231],[-122.786869,43.847305],[-122.786923,43.847375],[-122.786962,43.847446],[-122.786977,43.847496],[-122.786967,43.84756],[-122.78696,43.847606],[-122.786969,43.847672],[-122.78699,43.847762],[-122.787024,43.847828],[-122.787059,43.847908],[-122.787115,43.847993],[-122.787121,43.848012]]]}},{"type":"Feature","properties":{"MAPTAXLOT":"2001110000100","MAPNUMBER":"20011100","TAXLOT":"100","ACCTNO":"0878833","MAPACRES":468.6435942},"geometry":{"type":"Polygon","coordinates":[[[-122.770789,43.851607],[-122.775833,43.851589],[-122.775458,43.848033],[-122.775076,43.844396],[-122.780192,43.844345],[-122.783832,43.84431],[-122.784085,43.844308],[-122.785417,43.844295],[-122.785022,43.840944],[-122.784625,43.837594],[-122.779535,43.837578],[-122.774445,43.837562],[-122.769346,43.837499],[-122.764246,43.837437],[-122.764614,43.840983],[-122.764981,43.844529],[-122.765364,43.848077],[-122.765745,43.851624],[-122.770789,43.851607]]]}},{"type":"Feature","properties":{"MAPTAXLOT":"2001110000200","MAPNUMBER":"20011100","TAXLOT":"200","ACCTNO":"0878841","MAPACRES":40.32498309},"geometry":{"type":"Polygon","coordinates":[[[-122.780819,43.855318],[-122.784624,43.855299],[-122.784704,43.851589],[-122.785958,43.851589],[-122.785936,43.851298],[-122.785801,43.849479],[-122.7858,43.849479],[-122.783848,43.849491],[-122.784005,43.851589],[-122.780895,43.851589],[-122.780819,43.855318]]]}},{"type":"Feature","properties":{"MAPTAXLOT":"2001110000201","MAPNUMBER":"20011100","TAXLOT":"201","ACCTNO":"0878858","MAPACRES":153.3151918},"geometry":{"type":"MultiPolygon","coordinates":[[[[-122.775833,43.851589],[-122.780895,43.851589],[-122.784005,43.851589],[-122.783848,43.849491],[-122.7858,43.849479],[-122.785801,43.849479],[-122.785801,43.849479],[-122.78569,43.847988],[-122.78569,43.847979],[-122.785681,43.847861],[-122.785662,43.847601],[-122.785608,43.846872],[-122.783832,43.84431],[-122.780192,43.844345],[-122.775076,43.844396],[-122.775458,43.848033],[-122.775833,43.851589]]],[[[-122.785577,43.846461],[-122.785565,43.846289],[-122.785417,43.844295],[-122.784085,43.844308],[-122.785577,43.846461]]]]}},{"type":"Feature","properties":{"MAPTAXLOT":"2001110000300","MAPNUMBER":"20011100","TAXLOT":"300","ACCTNO":"0878866","MAPACRES":1.32467226},"geometry":{"type":"Polygon","coordinates":[[[-122.783832,43.84431],[-122.785608,43.846872],[-122.785577,43.846461],[-122.784085,43.844308],[-122.783832,43.84431]]]}},{"type":"Feature","properties":{"MAPTAXLOT":"2001122000100","MAPNUMBER":"20011220","TAXLOT":"100","ACCTNO":"1857075","MAPACRES":78.44201147},"geometry":{"type":"Polygon","coordinates":[[[-122.755387,43.851594],[-122.760559,43.851583],[-122.765745,43.851624],[-122.765364,43.848077],[-122.760232,43.848064],[-122.755103,43.848052],[-122.755387,43.851594]],[[-122.762869,43.849816],[-122.762942,43.849844],[-122.763012,43.849874],[-122.763079,43.849908],[-122.763144,43.849945],[-122.763547,43.850189],[-122.763907,43.850237],[-122.764001,43.850252],[-122.764094,43.850271],[-122.764184,43.850295],[-122.764272,43.850323],[-122.764357,43.850355],[-122.76444,43.850391],[-122.764518,43.850431],[-122.763829,43.850809],[-122.762705,43.850484],[-122.762869,43.849816]]]}},{"type":"Feature","properties":{"MAPTAXLOT":"2001122000101","MAPNUMBER":"20011220","TAXLOT":"101","ACCTNO":"1857083","MAPACRES":1.91617559},"geometry":{"type":"Polygon","coordinates":[[[-122.762705,43.850484],[-122.763829,43.850809],[-122.764518,43.850431],[-122.76444,43.850391],[-122.764357,43.850355],[-122.764272,43.850323],[-122.764184,43.850295],[-122.764094,43.850271],[-122.764001,43.850252],[-122.763907,43.850237],[-122.763547,43.850189],[-122.763144,43.849945],[-122.763079,43.849908],[-122.763012,43.849874],[-122.762942,43.849844],[-122.762869,43.849816],[-122.762705,43.850484]]]}},{"type":"Feature","properties":{"MAPTAXLOT":"2001140000100","MAPNUMBER":"20011400","TAXLOT":"100","ACCTNO":"0878874","MAPACRES":163.3706895},"geometry":{"type":"Polygon","coordinates":[[[-122.764246,43.837437],[-122.769346,43.837499],[-122.769257,43.833924],[-122.769168,43.830372],[-122.769111,43.828064],[-122.769077,43.826706],[-122.769054,43.825801],[-122.768987,43.82304],[-122.763862,43.822989],[-122.763952,43.826693],[-122.764042,43.830398],[-122.764144,43.833918],[-122.764246,43.837437]]]}},{"type":"Feature","properties":{"MAPTAXLOT":"2001140000200","MAPNUMBER":"20011400","TAXLOT":"200","ACCTNO":"0878882","MAPACRES":80.85299756},"geometry":{"type":"Polygon","coordinates":[[[-122.769346,43.837499],[-122.774445,43.837562],[-122.774362,43.833931],[-122.774281,43.830345],[-122.769168,43.830372],[-122.769257,43.833924],[-122.769346,43.837499]]]}},{"type":"Feature","properties":{"MAPTAXLOT":"2001140000300","MAPNUMBER":"20011400","TAXLOT":"300","ACCTNO":"0878890","MAPACRES":356.05034615},"geometry":{"type":"Polygon","coordinates":[[[-122.779535,43.837578],[-122.784625,43.837594],[-122.784541,43.833942],[-122.784457,43.830291],[-122.784409,43.826741],[-122.78436,43.82319],[-122.779237,43.823141],[-122.774112,43.82309],[-122.768987,43.82304],[-122.769054,43.825801],[-122.774173,43.825813],[-122.774195,43.826718],[-122.774227,43.828076],[-122.774281,43.830345],[-122.774362,43.833931],[-122.774445,43.837562],[-122.779535,43.837578]]]}},{"type":"Feature","properties":{"MAPTAXLOT":"2001140000400","MAPNUMBER":"20011400","TAXLOT":"400","ACCTNO":"0878908","MAPACRES":25.84550128},"geometry":{"type":"Polygon","coordinates":[[[-122.769168,43.830372],[-122.774281,43.830345],[-122.774227,43.828076],[-122.769111,43.828064],[-122.769168,43.830372]]]}},{"type":"Feature","properties":{"MAPTAXLOT":"2001140000401","MAPNUMBER":"20011400","TAXLOT":"401","ACCTNO":"0878916","MAPACRES":25.58081169},"geometry":{"type":"Polygon","coordinates":[[[-122.769111,43.828064],[-122.774227,43.828076],[-122.774195,43.826718],[-122.774173,43.825813],[-122.769054,43.825801],[-122.769077,43.826706],[-122.769111,43.828064]]]}},{"type":"Feature","properties":{"MAPTAXLOT":"2015000000100","MAPNUMBER":"20150000","TAXLOT":"100","ACCTNO":"0926335","MAPACRES":11492.43194972},"geometry":{"type":"Polygon","coordinates":[[[-122.722466,43.863312],[-122.722254,43.866899],[-122.727304,43.866875],[-122.737393,43.866863],[-122.745305,43.866512],[-122.745305,43.866512],[-122.745303,43.866453],[-122.745236,43.863902],[-122.745236,43.863901],[-122.745236,43.863901],[-122.745214,43.862794],[-122.745214,43.862794],[-122.745214,43.862794],[-122.74515,43.860172],[-122.74513,43.859076],[-122.745066,43.856442],[-122.745046,43.855356],[-122.744981,43.852713],[-122.744961,43.851637],[-122.744851,43.849134],[-122.744893,43.848026],[-122.744784,43.845557],[-122.744736,43.844397],[-122.744565,43.841959],[-122.744565,43.841958],[-122.744474,43.840744],[-122.744307,43.83838],[-122.744196,43.837092],[-122.744196,43.837091],[-122.744103,43.834786],[-122.744084,43.8335],[-122.743991,43.831199],[-122.743991,43.831199],[-122.74399,43.831193],[-122.743972,43.829907],[-122.743971,43.827591],[-122.743972,43.827522],[-122.743973,43.826315],[-122.743973,43.824108],[-122.743973,43.823988],[-122.743965,43.823988],[-122.736889,43.823999],[-122.726951,43.824021],[-122.726932,43.816791],[-122.717128,43.816773],[-122.717087,43.813174],[-122.707152,43.813275],[-122.707125,43.809673],[-122.70716,43.795387],[-122.727031,43.795437],[-122.727024,43.791847],[-122.732019,43.791862],[-122.73201,43.788286],[-122.736996,43.788314],[-122.736981,43.784482],[-122.740835,43.784613],[-122.740858,43.779822],[-122.736965,43.779878],[-122.736962,43.779878],[-122.736485,43.779885],[-122.736482,43.779886],[-122.727028,43.780018],[-122.727021,43.780018],[-122.726541,43.780023],[-122.726534,43.780023],[-122.717092,43.780117],[-122.717082,43.780117],[-122.716582,43.780122],[-122.716573,43.780122],[-122.707156,43.780216],[-122.707143,43.780216],[-122.706624,43.780221],[-122.706612,43.780221],[-122.697288,43.780356],[-122.696748,43.780361],[-122.696737,43.780362],[-122.687433,43.780497],[-122.686862,43.78051],[-122.677501,43.780737],[-122.677104,43.780746],[-122.66747,43.780967],[-122.667452,43.788294],[-122.667435,43.795504],[-122.667401,43.809836],[-122.667284,43.824196],[-122.667229,43.831327],[-122.667173,43.838475],[-122.66717,43.842049],[-122.667167,43.845625],[-122.667165,43.846189],[-122.667154,43.848456],[-122.667135,43.852775],[-122.677227,43.852745],[-122.687322,43.852715],[-122.686997,43.85996],[-122.692065,43.859962],[-122.692098,43.866938],[-122.692098,43.866938],[-122.697146,43.866943],[-122.697495,43.866944],[-122.7071,43.866972],[-122.717203,43.866923],[-122.717426,43.863337],[-122.722466,43.863312]],[[-122.707808,43.848927],[-122.712858,43.848982],[-122.712826,43.852628],[-122.712732,43.856205],[-122.707605,43.856184],[-122.702353,43.856237],[-122.702327,43.852591],[-122.702334,43.848986],[-122.707808,43.848927]],[[-122.712282,43.827671],[-122.712336,43.831222],[-122.712392,43.834771],[-122.707444,43.834765],[-122.707429,43.831211],[-122.70735,43.827655],[-122.712282,43.827671]]]}},{"type":"Feature","properties":{"MAPTAXLOT":"2015000000800","MAPNUMBER":"20150000","TAXLOT":"800","ACCTNO":"0926400","MAPACRES":537.9920103},"geometry":{"type":"Polygon","coordinates":[[[-122.726932,43.816791],[-122.726951,43.824021],[-122.736889,43.823999],[-122.743965,43.823988],[-122.743973,43.823988],[-122.743945,43.822722],[-122.743945,43.822721],[-122.743957,43.821895],[-122.743977,43.820464],[-122.743996,43.819191],[-122.744004,43.818643],[-122.744028,43.816939],[-122.744042,43.815995],[-122.744047,43.81566],[-122.744047,43.81566],[-122.744048,43.815618],[-122.744109,43.813349],[-122.744137,43.812007],[-122.744138,43.811956],[-122.74414,43.811888],[-122.744196,43.809758],[-122.744191,43.809758],[-122.744187,43.809758],[-122.736846,43.809787],[-122.73153,43.809746],[-122.726966,43.809705],[-122.726932,43.816791]]]}}]}