{"type":"FeatureCollection","features":[{"type":"Feature","properties":{"MAPTAXLOT":"1515000002200","MAPNUMBER":"15150000","TAXLOT":"2200","ACCTNO":"0026854","MAPACRES":201.24659677},"geometry":{"type":"Polygon","coordinates":[[[-122.623634,44.228908],[-122.623656,44.236221],[-122.633821,44.236319],[-122.636224,44.236339],[-122.636269,44.229088],[-122.633912,44.229063],[-122.623634,44.228908]]]}},{"type":"Feature","properties":{"MAPTAXLOT":"1515000002400","MAPNUMBER":"15150000","TAXLOT":"2400","ACCTNO":"0026862","MAPACRES":12.13582395},"geometry":{"type":"Polygon","coordinates":[[[-122.636224,44.236339],[-122.636987,44.236346],[-122.637032,44.229097],[-122.636269,44.229088],[-122.636224,44.236339]]]}},{"type":"Feature","properties":{"MAPTAXLOT":"1515000002500","MAPNUMBER":"15150000","TAXLOT":"2500","ACCTNO":"0026870","MAPACRES":428.18377774},"geometry":{"type":"Polygon","coordinates":[[[-122.633739,44.243368],[-122.643902,44.24341],[-122.644045,44.236406],[-122.644042,44.229172],[-122.638977,44.229118],[-122.637032,44.229097],[-122.636987,44.236346],[-122.636224,44.236339],[-122.633821,44.236319],[-122.623656,44.236221],[-122.623656,44.236222],[-122.623682,44.243536],[-122.633739,44.243368]]]}},{"type":"Feature","properties":{"MAPTAXLOT":"1515000002600","MAPNUMBER":"15150000","TAXLOT":"2600","ACCTNO":"0026888","MAPACRES":630.57178654},"geometry":{"type":"Polygon","coordinates":[[[-122.643902,44.24341],[-122.663933,44.243176],[-122.664177,44.228731],[-122.654109,44.228952],[-122.644042,44.229172],[-122.644045,44.236406],[-122.643902,44.24341]]]}},{"type":"Feature","properties":{"MAPTAXLOT":"1515000004300","MAPNUMBER":"15150000","TAXLOT":"4300","ACCTNO":"0027050","MAPACRES":565.19652045},"geometry":{"type":"Polygon","coordinates":[[[-122.644116,44.221801],[-122.644042,44.229172],[-122.654109,44.228952],[-122.664177,44.228731],[-122.664249,44.221457],[-122.66425,44.214216],[-122.66425,44.214216],[-122.659235,44.214269],[-122.659207,44.221544],[-122.654165,44.22163],[-122.65422,44.214323],[-122.64419,44.214429],[-122.644116,44.221801]]]}},{"type":"Feature","properties":{"MAPTAXLOT":"1515000004301","MAPNUMBER":"15150000","TAXLOT":"4301","ACCTNO":"1411113","MAPACRES":80.44653128},"geometry":{"type":"Polygon","coordinates":[[[-122.654165,44.22163],[-122.659207,44.221544],[-122.659235,44.214269],[-122.659146,44.21427],[-122.65422,44.214323],[-122.654165,44.22163]]]}},{"type":"Feature","properties":{"MAPTAXLOT":"1515000004400","MAPNUMBER":"15150000","TAXLOT":"4400","ACCTNO":"0027068","MAPACRES":326.84862131},"geometry":{"type":"Polygon","coordinates":[[[-122.638977,44.229118],[-122.644042,44.229172],[-122.644116,44.221801],[-122.623726,44.221697],[-122.623634,44.228908],[-122.633912,44.229063],[-122.636269,44.229088],[-122.637032,44.229097],[-122.638977,44.229118]]]}},{"type":"Feature","properties":{"MAPTAXLOT":"1515000004401","MAPNUMBER":"15150000","TAXLOT":"4401","ACCTNO":"1411048","MAPACRES":326.0987748},"geometry":{"type":"Polygon","coordinates":[[[-122.623726,44.221697],[-122.644116,44.221801],[-122.64419,44.214429],[-122.623817,44.214486],[-122.623726,44.221697]]]}},{"type":"Feature","properties":{"MAPTAXLOT":"1525000000700","MAPNUMBER":"15250000","TAXLOT":"700","ACCTNO":"0027134","MAPACRES":610.4545711},"geometry":{"type":"Polygon","coordinates":[[[-122.595554,44.244379],[-122.596824,44.244558],[-122.597929,44.244247],[-122.601654,44.244262],[-122.60384,44.24399],[-122.60384,44.243266],[-122.60381,44.228873],[-122.59377,44.22891],[-122.583687,44.228851],[-122.58366,44.238497],[-122.586565,44.23971],[-122.589081,44.241128],[-122.589395,44.241746],[-122.592936,44.243227],[-122.593366,44.244374],[-122.595554,44.244379]]]}},{"type":"Feature","properties":{"MAPTAXLOT":"1525000000800","MAPNUMBER":"15250000","TAXLOT":"800","ACCTNO":"0027142","MAPACRES":631.62841583},"geometry":{"type":"Polygon","coordinates":[[[-122.608841,44.243309],[-122.613828,44.243355],[-122.618892,44.243447],[-122.623682,44.243537],[-122.623682,44.243537],[-122.623682,44.243536],[-122.623656,44.236222],[-122.623656,44.236221],[-122.623634,44.228908],[-122.613773,44.228839],[-122.612309,44.228828],[-122.608059,44.228844],[-122.60381,44.228873],[-122.60384,44.243266],[-122.608841,44.243309]]]}},{"type":"Feature","properties":{"MAPTAXLOT":"1525000001000","MAPNUMBER":"15250000","TAXLOT":"1000","ACCTNO":"0027167","MAPACRES":626.88991351},"geometry":{"type":"Polygon","coordinates":[[[-122.613773,44.228839],[-122.623634,44.228908],[-122.623726,44.221697],[-122.623817,44.214486],[-122.620817,44.214497],[-122.618938,44.214505],[-122.615733,44.214516],[-122.613881,44.214523],[-122.610648,44.214515],[-122.608811,44.214511],[-122.605741,44.214504],[-122.605738,44.214504],[-122.605567,44.214503],[-122.603737,44.214501],[-122.603864,44.221721],[-122.60381,44.228873],[-122.608059,44.228844],[-122.612309,44.228828],[-122.613773,44.228839]]]}},{"type":"Feature","properties":{"MAPTAXLOT":"1525000001100","MAPNUMBER":"15250000","TAXLOT":"1100","ACCTNO":"0027175","MAPACRES":598.29342383},"geometry":{"type":"Polygon","coordinates":[[[-122.59377,44.22891],[-122.60381,44.228873],[-122.603864,44.221721],[-122.603737,44.214501],[-122.600818,44.214485],[-122.59867,44.214473],[-122.596045,44.214458],[-122.593655,44.214443],[-122.591297,44.21445],[-122.588632,44.214458],[-122.588656,44.218095],[-122.583619,44.218097],[-122.583634,44.220809],[-122.583642,44.221667],[-122.583663,44.223956],[-122.583687,44.228851],[-122.59377,44.22891]]]}},{"type":"Feature","properties":{"MAPTAXLOT":"1615000000100","MAPNUMBER":"16150000","TAXLOT":"100","ACCTNO":"0076511","MAPACRES":283.02420546},"geometry":{"type":"Polygon","coordinates":[[[-122.626985,44.200563],[-122.627044,44.20418],[-122.627103,44.207797],[-122.644554,44.207216],[-122.645274,44.2],[-122.63613,44.200282],[-122.626985,44.200563]]]}},{"type":"Feature","properties":{"MAPTAXLOT":"1615000000101","MAPNUMBER":"16150000","TAXLOT":"101","ACCTNO":"1411030","MAPACRES":287.24204125},"geometry":{"type":"Polygon","coordinates":[[[-122.623817,44.214486],[-122.64419,44.214429],[-122.644371,44.210828],[-122.644554,44.207216],[-122.627103,44.207797],[-122.625328,44.211413],[-122.623817,44.214486]]]}},{"type":"Feature","properties":{"MAPTAXLOT":"1615000000300","MAPNUMBER":"16150000","TAXLOT":"300","ACCTNO":"0076529","MAPACRES":630.83291926},"geometry":{"type":"Polygon","coordinates":[[[-122.659235,44.214269],[-122.66425,44.214216],[-122.664377,44.210663],[-122.66451,44.207039],[-122.665003,44.199777],[-122.655139,44.199889],[-122.645274,44.2],[-122.644554,44.207216],[-122.644371,44.210828],[-122.64419,44.214429],[-122.65422,44.214323],[-122.659146,44.21427],[-122.659235,44.214269]]]}},{"type":"Feature","properties":{"MAPTAXLOT":"1615000001300","MAPNUMBER":"16150000","TAXLOT":"1300","ACCTNO":"0076628","MAPACRES":476.80409165},"geometry":{"type":"Polygon","coordinates":[[[-122.655139,44.199889],[-122.665003,44.199777],[-122.665782,44.192519],[-122.666561,44.185262],[-122.656671,44.18519],[-122.655905,44.192539],[-122.646028,44.192558],[-122.645274,44.2],[-122.655139,44.199889]]]}},{"type":"Feature","properties":{"MAPTAXLOT":"1615000001301","MAPNUMBER":"16150000","TAXLOT":"1301","ACCTNO":"1411089","MAPACRES":160.51866255},"geometry":{"type":"Polygon","coordinates":[[[-122.646028,44.192558],[-122.655905,44.192539],[-122.656671,44.18519],[-122.646782,44.185116],[-122.646028,44.192558]]]}},{"type":"Feature","properties":{"MAPTAXLOT":"1615000001400","MAPNUMBER":"16150000","TAXLOT":"1400","ACCTNO":"0076636","MAPACRES":460.62080062},"geometry":{"type":"Polygon","coordinates":[[[-122.626999,44.196938],[-122.626985,44.200563],[-122.63613,44.200282],[-122.645274,44.2],[-122.646028,44.192558],[-122.63644,44.192939],[-122.636769,44.185151],[-122.63176,44.185609],[-122.626751,44.186066],[-122.626882,44.18969],[-122.627014,44.193314],[-122.626999,44.196938]]]}},{"type":"Feature","properties":{"MAPTAXLOT":"1615000001401","MAPNUMBER":"16150000","TAXLOT":"1401","ACCTNO":"1411097","MAPACRES":163.59760741},"geometry":{"type":"Polygon","coordinates":[[[-122.636769,44.185151],[-122.63644,44.192939],[-122.646028,44.192558],[-122.646782,44.185116],[-122.641775,44.185134],[-122.636769,44.185151]]]}},{"type":"Feature","properties":{"MAPTAXLOT":"1615000001500","MAPNUMBER":"16150000","TAXLOT":"1500","ACCTNO":"0076644","MAPACRES":167.74766943},"geometry":{"type":"Polygon","coordinates":[[[-122.625744,44.178488],[-122.626247,44.182277],[-122.626247,44.182277],[-122.626247,44.182277],[-122.626751,44.186066],[-122.63176,44.185609],[-122.636769,44.185151],[-122.636657,44.181854],[-122.63653,44.178117],[-122.631167,44.178302],[-122.625744,44.178488]]]}},{"type":"Feature","properties":{"MAPTAXLOT":"1615000001600","MAPNUMBER":"16150000","TAXLOT":"1600","ACCTNO":"0076651","MAPACRES":227.33592421},"geometry":{"type":"Polygon","coordinates":[[[-122.625295,44.17471],[-122.625744,44.178488],[-122.631167,44.178302],[-122.63653,44.178117],[-122.636405,44.174441],[-122.641943,44.174307],[-122.642,44.170681],[-122.63628,44.170766],[-122.630563,44.170849],[-122.624845,44.170932],[-122.625295,44.17471]]]}},{"type":"Feature","properties":{"MAPTAXLOT":"1615000001700","MAPNUMBER":"16150000","TAXLOT":"1700","ACCTNO":"0076669","MAPACRES":295.23692779},"geometry":{"type":"Polygon","coordinates":[[[-122.641775,44.185134],[-122.646782,44.185116],[-122.647019,44.181432],[-122.647257,44.177748],[-122.64749,44.174172],[-122.647724,44.170596],[-122.642,44.170681],[-122.641943,44.174307],[-122.636405,44.174441],[-122.63653,44.178117],[-122.636657,44.181854],[-122.636769,44.185151],[-122.641775,44.185134]]]}},{"type":"Feature","properties":{"MAPTAXLOT":"1615000001800","MAPNUMBER":"16150000","TAXLOT":"1800","ACCTNO":"0076677","MAPACRES":634.34791349},"geometry":{"type":"Polygon","coordinates":[[[-122.656671,44.18519],[-122.666561,44.185262],[-122.66792,44.170905],[-122.657822,44.170751],[-122.652773,44.170674],[-122.647724,44.170596],[-122.64749,44.174172],[-122.647257,44.177748],[-122.647019,44.181432],[-122.646782,44.185116],[-122.656671,44.18519]]]}},{"type":"Feature","properties":{"MAPTAXLOT":"1615000003100","MAPNUMBER":"16150000","TAXLOT":"3100","ACCTNO":"0076842","MAPACRES":319.99803008},"geometry":{"type":"Polygon","coordinates":[[[-122.657822,44.170751],[-122.66792,44.170905],[-122.667933,44.163599],[-122.667939,44.159945],[-122.658056,44.159836],[-122.657978,44.163475],[-122.653011,44.163414],[-122.652773,44.170674],[-122.657822,44.170751]]]}},{"type":"Feature","properties":{"MAPTAXLOT":"1615000003200","MAPNUMBER":"16150000","TAXLOT":"3200","ACCTNO":"0076859","MAPACRES":79.81250622},"geometry":{"type":"Polygon","coordinates":[[[-122.647724,44.170596],[-122.652773,44.170674],[-122.653011,44.163414],[-122.648044,44.163351],[-122.647724,44.170596]]]}},{"type":"Feature","properties":{"MAPTAXLOT":"1615000003400","MAPNUMBER":"16150000","TAXLOT":"3400","ACCTNO":"0076875","MAPACRES":272.259576},"geometry":{"type":"Polygon","coordinates":[[[-122.642,44.170681],[-122.647724,44.170596],[-122.648044,44.163351],[-122.648183,44.159725],[-122.636388,44.160295],[-122.636352,44.163778],[-122.63628,44.170766],[-122.642,44.170681]]]}},{"type":"Feature","properties":{"MAPTAXLOT":"1615000003500","MAPNUMBER":"16150000","TAXLOT":"3500","ACCTNO":"0076883","MAPACRES":175.38500496},"geometry":{"type":"Polygon","coordinates":[[[-122.630563,44.170849],[-122.63628,44.170766],[-122.636352,44.163778],[-122.624501,44.164209],[-122.624673,44.16757],[-122.624845,44.170932],[-122.630563,44.170849]]]}},{"type":"Feature","properties":{"MAPTAXLOT":"1625000000500","MAPNUMBER":"16250000","TAXLOT":"500","ACCTNO":"0077147","MAPACRES":506.52201667},"geometry":{"type":"Polygon","coordinates":[[[-122.593655,44.214443],[-122.596045,44.214458],[-122.596079,44.210293],[-122.600853,44.210263],[-122.600883,44.20662],[-122.60566,44.206574],[-122.605732,44.199391],[-122.596156,44.199375],[-122.586421,44.199474],[-122.586554,44.206769],[-122.586502,44.214464],[-122.588632,44.214458],[-122.591297,44.21445],[-122.593655,44.214443]]]}},{"type":"Feature","properties":{"MAPTAXLOT":"1625000000600","MAPNUMBER":"16250000","TAXLOT":"600","ACCTNO":"0077154","MAPACRES":126.49927531},"geometry":{"type":"Polygon","coordinates":[[[-122.603737,44.214501],[-122.605567,44.214503],[-122.605616,44.210227],[-122.60566,44.206574],[-122.600883,44.20662],[-122.600853,44.210263],[-122.596079,44.210293],[-122.596045,44.214458],[-122.59867,44.214473],[-122.600818,44.214485],[-122.603737,44.214501]]]}},{"type":"Feature","properties":{"MAPTAXLOT":"1625000000700","MAPNUMBER":"16250000","TAXLOT":"700","ACCTNO":"0077162","MAPACRES":663.67169733},"geometry":{"type":"Polygon","coordinates":[[[-122.620817,44.214497],[-122.623817,44.214486],[-122.625328,44.211413],[-122.627103,44.207797],[-122.627044,44.20418],[-122.626985,44.200563],[-122.620886,44.200115],[-122.615804,44.199742],[-122.605732,44.199391],[-122.60566,44.206574],[-122.605616,44.210227],[-122.605567,44.214503],[-122.605738,44.214504],[-122.605741,44.214504],[-122.608811,44.214511],[-122.610648,44.214515],[-122.613881,44.214523],[-122.615733,44.214516],[-122.618938,44.214505],[-122.620817,44.214497]]]}},{"type":"Feature","properties":{"MAPTAXLOT":"1625000000800","MAPNUMBER":"16250000","TAXLOT":"800","ACCTNO":"0077170","MAPACRES":231.66119151},"geometry":{"type":"Polygon","coordinates":[[[-122.620886,44.200115],[-122.626985,44.200563],[-122.626999,44.196938],[-122.627014,44.193314],[-122.626882,44.18969],[-122.626751,44.186066],[-122.62087,44.185726],[-122.620882,44.196538],[-122.615822,44.196218],[-122.615804,44.199742],[-122.620886,44.200115]]]}},{"type":"Feature","properties":{"MAPTAXLOT":"1625000000900","MAPNUMBER":"16250000","TAXLOT":"900","ACCTNO":"0077188","MAPACRES":434.92029496},"geometry":{"type":"Polygon","coordinates":[[[-122.605732,44.199391],[-122.615804,44.199742],[-122.615822,44.196218],[-122.620882,44.196538],[-122.62087,44.185726],[-122.615874,44.185437],[-122.605861,44.184955],[-122.605873,44.192188],[-122.605732,44.199391]]]}},{"type":"Feature","properties":{"MAPTAXLOT":"1625000001000","MAPNUMBER":"16250000","TAXLOT":"1000","ACCTNO":"0077196","MAPACRES":615.09933364},"geometry":{"type":"Polygon","coordinates":[[[-122.596156,44.199375],[-122.605732,44.199391],[-122.605873,44.192188],[-122.605861,44.184955],[-122.595965,44.184939],[-122.591221,44.184946],[-122.586476,44.184954],[-122.58646,44.192224],[-122.586421,44.199474],[-122.596156,44.199375]]]}},{"type":"Feature","properties":{"MAPTAXLOT":"1625000002400","MAPNUMBER":"16250000","TAXLOT":"2400","ACCTNO":"0077337","MAPACRES":111.80475251},"geometry":{"type":"Polygon","coordinates":[[[-122.591221,44.184946],[-122.595965,44.184939],[-122.595796,44.181333],[-122.591153,44.181309],[-122.591086,44.177672],[-122.586543,44.177617],[-122.58651,44.181285],[-122.586476,44.184954],[-122.591221,44.184946]]]}},{"type":"Feature","properties":{"MAPTAXLOT":"1625000002500","MAPNUMBER":"16250000","TAXLOT":"2500","ACCTNO":"0077345","MAPACRES":491.43547879},"geometry":{"type":"Polygon","coordinates":[[[-122.595965,44.184939],[-122.605861,44.184955],[-122.605383,44.17784],[-122.604802,44.170699],[-122.602433,44.170647],[-122.600049,44.170595],[-122.595262,44.170489],[-122.590497,44.170408],[-122.585732,44.170327],[-122.586543,44.177617],[-122.591086,44.177672],[-122.591153,44.181309],[-122.595796,44.181333],[-122.595965,44.184939]]]}},{"type":"Feature","properties":{"MAPTAXLOT":"1625000002600","MAPNUMBER":"16250000","TAXLOT":"2600","ACCTNO":"0077352","MAPACRES":653.82854096},"geometry":{"type":"Polygon","coordinates":[[[-122.605383,44.17784],[-122.605861,44.184955],[-122.615874,44.185437],[-122.62087,44.185726],[-122.626751,44.186066],[-122.626247,44.182277],[-122.626247,44.182277],[-122.626247,44.182277],[-122.625744,44.178488],[-122.625295,44.17471],[-122.624845,44.170932],[-122.619872,44.170909],[-122.614813,44.170887],[-122.604802,44.170699],[-122.605383,44.17784]]]}},{"type":"Feature","properties":{"MAPTAXLOT":"1625000003000","MAPNUMBER":"16250000","TAXLOT":"3000","ACCTNO":"0077394","MAPACRES":529.74564588},"geometry":{"type":"Polygon","coordinates":[[[-122.619872,44.170909],[-122.624845,44.170932],[-122.624673,44.16757],[-122.624501,44.164209],[-122.624512,44.160867],[-122.624523,44.157524],[-122.619784,44.15708],[-122.619544,44.157057],[-122.619242,44.157029],[-122.614989,44.156631],[-122.610173,44.156172],[-122.605344,44.155712],[-122.60521,44.159459],[-122.605076,44.163205],[-122.605007,44.16508],[-122.604938,44.166952],[-122.614858,44.167264],[-122.614813,44.170887],[-122.619872,44.170909]]]}},{"type":"Feature","properties":{"MAPTAXLOT":"1625000003100","MAPNUMBER":"16250000","TAXLOT":"3100","ACCTNO":"0077402","MAPACRES":80.70559946},"geometry":{"type":"Polygon","coordinates":[[[-122.604802,44.170699],[-122.614813,44.170887],[-122.614858,44.167264],[-122.604938,44.166952],[-122.604802,44.170699]]]}},{"type":"Feature","properties":{"MAPTAXLOT":"1625000003200","MAPNUMBER":"16250000","TAXLOT":"3200","ACCTNO":"0077410","MAPACRES":39.37031241},"geometry":{"type":"Polygon","coordinates":[[[-122.602433,44.170647],[-122.604802,44.170699],[-122.604938,44.166952],[-122.605007,44.16508],[-122.600162,44.165027],[-122.600125,44.166883],[-122.602537,44.166918],[-122.602433,44.170647]]]}},{"type":"Feature","properties":{"MAPTAXLOT":"1625000003300","MAPNUMBER":"16250000","TAXLOT":"3300","ACCTNO":"0077428","MAPACRES":58.65767698},"geometry":{"type":"Polygon","coordinates":[[[-122.600049,44.170595],[-122.602433,44.170647],[-122.602537,44.166918],[-122.600125,44.166883],[-122.595287,44.166813],[-122.595262,44.170489],[-122.600049,44.170595]]]}},{"type":"Feature","properties":{"MAPTAXLOT":"1625000003800","MAPNUMBER":"16250000","TAXLOT":"3800","ACCTNO":"0077477","MAPACRES":115.43909349},"geometry":{"type":"Polygon","coordinates":[[[-122.590497,44.170408],[-122.595262,44.170489],[-122.595287,44.166813],[-122.590499,44.166747],[-122.590475,44.163097],[-122.585639,44.163059],[-122.585685,44.166693],[-122.585732,44.170327],[-122.590497,44.170408]]]}}]}