{"type":"FeatureCollection","features":[{"type":"Feature","properties":{"MAPTAXLOT":"1685000000066","MAPNUMBER":"16850000","TAXLOT":"66","ACCTNO":"000None","MAPACRES":57.12148722},"geometry":{"type":"Polygon","coordinates":[[[-121.892835,44.168776],[-121.892819,44.168933],[-121.892724,44.169076],[-121.892588,44.169177],[-121.89247,44.169207],[-121.892531,44.169278],[-121.892671,44.169347],[-121.89291,44.169444],[-121.893109,44.169513],[-121.893309,44.16961],[-121.893467,44.169608],[-121.893606,44.169635],[-121.893804,44.169646],[-121.894003,44.169715],[-121.894181,44.169713],[-121.89434,44.169754],[-121.894457,44.16971],[-121.894654,44.169665],[-121.894833,44.169719],[-121.894973,44.169775],[-121.895131,44.169773],[-121.895309,44.169785],[-121.895546,44.169796],[-121.895644,44.169752],[-121.895724,44.169794],[-121.895864,44.169864],[-121.896061,44.169861],[-121.896221,44.16993],[-121.896401,44.169999],[-121.89658,44.170054],[-121.896678,44.170024],[-121.896798,44.170108],[-121.896899,44.170207],[-121.897099,44.170304],[-121.897277,44.170302],[-121.897437,44.170399],[-121.897638,44.170539],[-121.897736,44.17051],[-121.897695,44.170439],[-121.897616,44.17044],[-121.897554,44.170327],[-121.897492,44.170185],[-121.897311,44.170074],[-121.89725,44.169989],[-121.89713,44.169919],[-121.896991,44.169907],[-121.896813,44.169881],[-121.896653,44.169826],[-121.896514,44.16977],[-121.896374,44.169687],[-121.896234,44.169632],[-121.896073,44.16952],[-121.895932,44.169393],[-121.895811,44.169267],[-121.895768,44.169139],[-121.895783,44.16894],[-121.895761,44.168812],[-121.895797,44.168684],[-121.895794,44.16857],[-121.895832,44.16847],[-121.895888,44.168356],[-121.895925,44.168241],[-121.895923,44.168156],[-121.896,44.168041],[-121.896076,44.167913],[-121.896112,44.16777],[-121.896129,44.16767],[-121.896165,44.167513],[-121.896202,44.167399],[-121.896219,44.167271],[-121.896335,44.167156],[-121.896452,44.167083],[-121.896588,44.16701],[-121.896705,44.166938],[-121.896862,44.166893],[-121.89698,44.166863],[-121.897118,44.166848],[-121.897098,44.166819],[-121.897038,44.166792],[-121.896918,44.166765],[-121.896838,44.166709],[-121.896797,44.166624],[-121.896815,44.166553],[-121.896832,44.166467],[-121.89693,44.166395],[-121.897107,44.166378],[-121.897285,44.166405],[-121.897483,44.166388],[-121.897661,44.1664],[-121.897719,44.166357],[-121.897897,44.166355],[-121.897995,44.166325],[-121.898153,44.166337],[-121.898311,44.166321],[-121.898428,44.166249],[-121.898504,44.166134],[-121.89862,44.166005],[-121.898755,44.165861],[-121.89891,44.165745],[-121.899124,44.165615],[-121.89934,44.165541],[-121.899037,44.165514],[-121.898869,44.165468],[-121.898518,44.165424],[-121.898201,44.16544],[-121.897966,44.165383],[-121.897749,44.165385],[-121.897416,44.165401],[-121.897149,44.165417],[-121.896831,44.165372],[-121.896613,44.165315],[-121.896378,44.16527],[-121.896077,44.165249],[-121.89581,44.16524],[-121.895609,44.165207],[-121.895307,44.165138],[-121.89514,44.165128],[-121.894923,44.165131],[-121.894689,44.16511],[-121.894422,44.165089],[-121.89417,44.16502],[-121.893902,44.164987],[-121.893668,44.164966],[-121.893451,44.164944],[-121.89325,44.164911],[-121.893099,44.164889],[-121.892932,44.164891],[-121.892833,44.164928],[-121.892869,44.165035],[-121.892785,44.165024],[-121.892654,44.16511],[-121.892521,44.16516],[-121.892389,44.165209],[-121.892273,44.165223],[-121.892191,44.165296],[-121.892108,44.165309],[-121.891941,44.165311],[-121.89186,44.165408],[-121.891744,44.165469],[-121.891627,44.165447],[-121.891494,44.165472],[-121.891362,44.165534],[-121.891162,44.165548],[-121.891013,44.16561],[-121.890813,44.165589],[-121.890645,44.165543],[-121.890594,44.165495],[-121.890477,44.165484],[-121.890293,44.165499],[-121.890045,44.165574],[-121.889863,44.16566],[-121.889723,44.165784],[-121.889608,44.165942],[-121.889551,44.166042],[-121.889515,44.166185],[-121.889597,44.166326],[-121.889679,44.166439],[-121.889818,44.16648],[-121.889958,44.166521],[-121.88992,44.166607],[-121.889922,44.166706],[-121.889966,44.166876],[-121.890007,44.166908],[-121.890055,44.166923],[-121.890027,44.166947],[-121.889968,44.166976],[-121.889911,44.167076],[-121.889875,44.167205],[-121.889898,44.167375],[-121.890022,44.167601],[-121.890085,44.167742],[-121.890245,44.16784],[-121.890425,44.167923],[-121.890622,44.167907],[-121.89082,44.167919],[-121.891056,44.167887],[-121.891214,44.167871],[-121.891294,44.167941],[-121.891392,44.167898],[-121.891411,44.16784],[-121.891449,44.167769],[-121.891487,44.16774],[-121.891547,44.167739],[-121.891567,44.167782],[-121.891647,44.167823],[-121.891665,44.167738],[-121.891723,44.167666],[-121.89188,44.167636],[-121.892039,44.167676],[-121.89212,44.167747],[-121.892279,44.167773],[-121.892321,44.167915],[-121.892305,44.168043],[-121.892287,44.168157],[-121.892231,44.168286],[-121.892312,44.168356],[-121.89247,44.168354],[-121.892571,44.168438],[-121.892494,44.168539],[-121.892535,44.168595],[-121.892633,44.168565],[-121.892772,44.168606],[-121.892852,44.168662],[-121.892835,44.168776]]]}},{"type":"Feature","properties":{"MAPTAXLOT":"1685000000100","MAPNUMBER":"16850000","TAXLOT":"100","ACCTNO":"1857349","MAPACRES":11363.77174164},"geometry":{"type":"MultiPolygon","coordinates":[[[[-121.833028,44.211578],[-121.836673,44.211578],[-121.838062,44.211578],[-121.841707,44.211578],[-121.843095,44.211578],[-121.84674,44.211578],[-121.848128,44.211578],[-121.851773,44.211578],[-121.856806,44.211578],[-121.859735,44.211257],[-121.864759,44.211263],[-121.869783,44.211268],[-121.874814,44.211269],[-121.876208,44.211269],[-121.875934,44.210625],[-121.875743,44.210105],[-121.875657,44.209784],[-121.8755,44.209502],[-121.874996,44.208217],[-121.874947,44.208013],[-121.874886,44.207703],[-121.874818,44.207485],[-121.874787,44.20731],[-121.874756,44.207159],[-121.874752,44.206988],[-121.87474,44.20678],[-121.874716,44.206577],[-121.874719,44.206285],[-121.874723,44.206037],[-121.874754,44.205839],[-121.874802,44.205614],[-121.87485,44.205343],[-121.874926,44.205068],[-121.875054,44.204737],[-121.875192,44.204457],[-121.875363,44.204141],[-121.87601,44.202925],[-121.876286,44.202376],[-121.876445,44.202165],[-121.876546,44.20202],[-121.87674,44.201701],[-121.877239,44.200745],[-121.877807,44.199153],[-121.877873,44.199011],[-121.877886,44.198923],[-121.877884,44.198839],[-121.87785,44.198714],[-121.877801,44.198648],[-121.877704,44.198506],[-121.877639,44.198436],[-121.877572,44.198336],[-121.87752,44.198259],[-121.87748,44.198155],[-121.877448,44.198054],[-121.877453,44.197899],[-121.877493,44.197793],[-121.877568,44.197672],[-121.877687,44.19754],[-121.87785,44.197441],[-121.879813,44.196237],[-121.882516,44.194622],[-121.883831,44.193825],[-121.88398,44.193688],[-121.884132,44.193551],[-121.884209,44.193454],[-121.884282,44.193293],[-121.884344,44.193169],[-121.88435,44.193056],[-121.884346,44.192899],[-121.884261,44.192561],[-121.883748,44.191191],[-121.883697,44.190965],[-121.88366,44.190838],[-121.883617,44.190656],[-121.883625,44.190517],[-121.88368,44.190359],[-121.883739,44.190255],[-121.883804,44.190184],[-121.883887,44.190096],[-121.88396,44.190034],[-121.884132,44.189938],[-121.884222,44.189847],[-121.884256,44.189804],[-121.884288,44.189769],[-121.8843,44.189747],[-121.8843,44.189718],[-121.884281,44.189676],[-121.884241,44.18963],[-121.884093,44.189528],[-121.884057,44.189499],[-121.884001,44.189486],[-121.883929,44.189464],[-121.883863,44.189457],[-121.883815,44.189468],[-121.883703,44.189519],[-121.883559,44.189561],[-121.883422,44.189563],[-121.883199,44.189536],[-121.883055,44.189487],[-121.882917,44.189372],[-121.882904,44.189282],[-121.882869,44.189224],[-121.882836,44.189189],[-121.882762,44.189142],[-121.882654,44.189084],[-121.882563,44.189047],[-121.882464,44.188993],[-121.88235,44.188888],[-121.882267,44.188829],[-121.882212,44.188729],[-121.88221,44.188634],[-121.882239,44.188536],[-121.882296,44.188423],[-121.882366,44.188325],[-121.882524,44.188194],[-121.882653,44.188092],[-121.882768,44.188021],[-121.882885,44.187963],[-121.883001,44.187919],[-121.883135,44.187879],[-121.883262,44.187834],[-121.883438,44.187817],[-121.883869,44.187819],[-121.88419,44.187834],[-121.88444,44.187812],[-121.885003,44.187774],[-121.885358,44.187724],[-121.885493,44.18773],[-121.885567,44.187747],[-121.885636,44.18777],[-121.885683,44.187814],[-121.885726,44.187864],[-121.885746,44.187949],[-121.885816,44.18804],[-121.885931,44.188159],[-121.886054,44.188303],[-121.886134,44.188355],[-121.886245,44.188369],[-121.886431,44.188417],[-121.886529,44.188515],[-121.886681,44.188627],[-121.886812,44.18875],[-121.887005,44.188915],[-121.887149,44.189016],[-121.88731,44.189041],[-121.887471,44.189039],[-121.887682,44.189031],[-121.887853,44.189022],[-121.888006,44.189001],[-121.88813,44.189],[-121.8883,44.188998],[-121.888428,44.189041],[-121.88851,44.189091],[-121.888585,44.18916],[-121.888688,44.189201],[-121.888799,44.189239],[-121.888916,44.189259],[-121.88904,44.189257],[-121.889162,44.18925],[-121.889184,44.189244],[-121.889244,44.189182],[-121.889394,44.189103],[-121.889549,44.189053],[-121.889715,44.189051],[-121.890571,44.189137],[-121.890715,44.189135],[-121.890829,44.189112],[-121.89094,44.189082],[-121.891048,44.189036],[-121.89124,44.188931],[-121.891511,44.188813],[-121.891862,44.188719],[-121.892147,44.188702],[-121.892353,44.1887],[-121.892469,44.188732],[-121.892559,44.188767],[-121.892811,44.188994],[-121.892997,44.189105],[-121.893136,44.189274],[-121.89319,44.18944],[-121.893204,44.189651],[-121.893227,44.189865],[-121.893221,44.190046],[-121.893225,44.190218],[-121.893164,44.190353],[-121.893157,44.190391],[-121.893191,44.190417],[-121.893236,44.190448],[-121.89328,44.190454],[-121.8933,44.190454],[-121.893382,44.190419],[-121.893423,44.190384],[-121.893443,44.190336],[-121.893439,44.19016],[-121.893354,44.189535],[-121.89335,44.189339],[-121.893292,44.189214],[-121.893098,44.188878],[-121.89293,44.188538],[-121.892879,44.18845],[-121.892796,44.188347],[-121.892666,44.188239],[-121.892592,44.188176],[-121.892479,44.188113],[-121.892364,44.18808],[-121.892291,44.188081],[-121.892102,44.188046],[-121.891968,44.187995],[-121.891914,44.187872],[-121.891999,44.187709],[-121.892173,44.187606],[-121.892378,44.187595],[-121.892549,44.187627],[-121.892594,44.187631],[-121.892853,44.187591],[-121.89311,44.18756],[-121.893285,44.187593],[-121.893364,44.187641],[-121.893489,44.187708],[-121.893617,44.187778],[-121.893719,44.187872],[-121.893939,44.188285],[-121.89396,44.188328],[-121.894004,44.188364],[-121.894109,44.188475],[-121.894927,44.189285],[-121.894995,44.189361],[-121.895101,44.189401],[-121.895253,44.189428],[-121.895426,44.18945],[-121.895583,44.189448],[-121.895709,44.189446],[-121.895951,44.189391],[-121.896237,44.189293],[-121.896625,44.18917],[-121.896904,44.189029],[-121.896974,44.189015],[-121.897141,44.188932],[-121.897304,44.188843],[-121.89743,44.188765],[-121.897621,44.188635],[-121.897744,44.188506],[-121.897869,44.188376],[-121.897948,44.188258],[-121.898015,44.188098],[-121.898061,44.188028],[-121.898068,44.187971],[-121.898083,44.187877],[-121.898231,44.187345],[-121.898246,44.187242],[-121.898257,44.187201],[-121.898598,44.186457],[-121.898673,44.186292],[-121.89871,44.18619],[-121.898708,44.186122],[-121.898715,44.186017],[-121.898688,44.185924],[-121.898666,44.185827],[-121.898627,44.185661],[-121.898622,44.185447],[-121.89869,44.185362],[-121.898746,44.185295],[-121.898784,44.185233],[-121.898863,44.185158],[-121.899095,44.184965],[-121.899283,44.184832],[-121.899356,44.184783],[-121.899392,44.184728],[-121.899438,44.184677],[-121.899463,44.184607],[-121.899521,44.184539],[-121.899535,44.184468],[-121.899594,44.184374],[-121.899664,44.184321],[-121.899723,44.184267],[-121.89974,44.184241],[-121.899739,44.184212],[-121.899727,44.18418],[-121.899698,44.18414],[-121.899678,44.184117],[-121.899644,44.184089],[-121.899608,44.184111],[-121.899382,44.184223],[-121.89927,44.184331],[-121.899112,44.184419],[-121.898939,44.184396],[-121.898845,44.18433],[-121.898742,44.184267],[-121.898692,44.184152],[-121.898739,44.184069],[-121.898774,44.183997],[-121.898895,44.183794],[-121.89898,44.183661],[-121.899041,44.183533],[-121.899156,44.18341],[-121.89932,44.183316],[-121.899525,44.183205],[-121.899727,44.18314],[-121.899871,44.183104],[-121.899944,44.183118],[-121.899944,44.183016],[-121.899943,44.182313],[-121.900024,44.167957],[-121.900024,44.164337],[-121.900024,44.160716],[-121.900024,44.157096],[-121.900024,44.153475],[-121.900024,44.149855],[-121.900024,44.146234],[-121.900024,44.142614],[-121.900024,44.138993],[-121.898373,44.138993],[-121.893346,44.138993],[-121.888319,44.138993],[-121.883292,44.138993],[-121.878265,44.138993],[-121.873238,44.138993],[-121.868211,44.138993],[-121.863184,44.138993],[-121.858157,44.138993],[-121.85313,44.138993],[-121.848103,44.138993],[-121.843076,44.138993],[-121.838049,44.138993],[-121.833022,44.138993],[-121.827995,44.138993],[-121.827995,44.142613],[-121.827995,44.146234],[-121.827995,44.149854],[-121.827995,44.153474],[-121.827995,44.157094],[-121.827995,44.160715],[-121.827995,44.164335],[-121.827995,44.167955],[-121.827995,44.171575],[-121.827995,44.175195],[-121.827995,44.178815],[-121.827995,44.182436],[-121.827995,44.186056],[-121.827995,44.189676],[-121.827995,44.193296],[-121.827995,44.196916],[-121.827995,44.200536],[-121.827995,44.204156],[-121.827995,44.207776],[-121.827995,44.211396],[-121.827995,44.211579],[-121.83164,44.211578],[-121.833028,44.211578]],[[-121.897736,44.17051],[-121.897638,44.170539],[-121.897437,44.170399],[-121.897277,44.170302],[-121.897099,44.170304],[-121.896899,44.170207],[-121.896798,44.170108],[-121.896678,44.170024],[-121.89658,44.170054],[-121.896401,44.169999],[-121.896221,44.16993],[-121.896061,44.169861],[-121.895864,44.169864],[-121.895724,44.169794],[-121.895644,44.169752],[-121.895546,44.169796],[-121.895309,44.169785],[-121.895131,44.169773],[-121.894973,44.169775],[-121.894833,44.169719],[-121.894654,44.169665],[-121.894457,44.16971],[-121.89434,44.169754],[-121.894181,44.169713],[-121.894003,44.169715],[-121.893804,44.169646],[-121.893606,44.169635],[-121.893467,44.169608],[-121.893309,44.16961],[-121.893109,44.169513],[-121.89291,44.169444],[-121.892671,44.169347],[-121.892531,44.169278],[-121.89247,44.169207],[-121.892588,44.169177],[-121.892724,44.169076],[-121.892819,44.168933],[-121.892835,44.168776],[-121.892852,44.168662],[-121.892772,44.168606],[-121.892633,44.168565],[-121.892535,44.168595],[-121.892494,44.168539],[-121.892571,44.168438],[-121.89247,44.168354],[-121.892312,44.168356],[-121.892231,44.168286],[-121.892287,44.168157],[-121.892305,44.168043],[-121.892321,44.167915],[-121.892279,44.167773],[-121.89212,44.167747],[-121.892039,44.167676],[-121.89188,44.167636],[-121.891723,44.167666],[-121.891665,44.167738],[-121.891647,44.167823],[-121.891567,44.167782],[-121.891547,44.167739],[-121.891487,44.16774],[-121.891449,44.167769],[-121.891411,44.16784],[-121.891392,44.167898],[-121.891294,44.167941],[-121.891214,44.167871],[-121.891056,44.167887],[-121.89082,44.167919],[-121.890622,44.167907],[-121.890425,44.167923],[-121.890245,44.16784],[-121.890085,44.167742],[-121.890022,44.167601],[-121.889898,44.167375],[-121.889875,44.167205],[-121.889911,44.167076],[-121.889968,44.166976],[-121.890027,44.166947],[-121.890055,44.166923],[-121.890007,44.166908],[-121.889966,44.166876],[-121.889922,44.166706],[-121.88992,44.166607],[-121.889958,44.166521],[-121.889818,44.16648],[-121.889679,44.166439],[-121.889597,44.166326],[-121.889515,44.166185],[-121.889551,44.166042],[-121.889608,44.165942],[-121.889723,44.165784],[-121.889863,44.16566],[-121.890045,44.165574],[-121.890293,44.165499],[-121.890477,44.165484],[-121.890594,44.165495],[-121.890645,44.165543],[-121.890813,44.165589],[-121.891013,44.16561],[-121.891162,44.165548],[-121.891362,44.165534],[-121.891494,44.165472],[-121.891627,44.165447],[-121.891744,44.165469],[-121.89186,44.165408],[-121.891941,44.165311],[-121.892108,44.165309],[-121.892191,44.165296],[-121.892273,44.165223],[-121.892389,44.165209],[-121.892521,44.16516],[-121.892654,44.16511],[-121.892785,44.165024],[-121.892869,44.165035],[-121.892833,44.164928],[-121.892932,44.164891],[-121.893099,44.164889],[-121.89325,44.164911],[-121.893451,44.164944],[-121.893668,44.164966],[-121.893902,44.164987],[-121.89417,44.16502],[-121.894422,44.165089],[-121.894689,44.16511],[-121.894923,44.165131],[-121.89514,44.165128],[-121.895307,44.165138],[-121.895609,44.165207],[-121.89581,44.16524],[-121.896077,44.165249],[-121.896378,44.16527],[-121.896613,44.165315],[-121.896831,44.165372],[-121.897149,44.165417],[-121.897416,44.165401],[-121.897749,44.165385],[-121.897966,44.165383],[-121.898201,44.16544],[-121.898518,44.165424],[-121.898869,44.165468],[-121.899037,44.165514],[-121.89934,44.165541],[-121.899124,44.165615],[-121.89891,44.165745],[-121.898755,44.165861],[-121.89862,44.166005],[-121.898504,44.166134],[-121.898428,44.166249],[-121.898311,44.166321],[-121.898153,44.166337],[-121.897995,44.166325],[-121.897897,44.166355],[-121.897719,44.166357],[-121.897661,44.1664],[-121.897483,44.166388],[-121.897285,44.166405],[-121.897107,44.166378],[-121.89693,44.166395],[-121.896832,44.166467],[-121.896815,44.166553],[-121.896797,44.166624],[-121.896838,44.166709],[-121.896918,44.166765],[-121.897038,44.166792],[-121.897098,44.166819],[-121.897118,44.166848],[-121.89698,44.166863],[-121.896862,44.166893],[-121.896705,44.166938],[-121.896588,44.16701],[-121.896452,44.167083],[-121.896335,44.167156],[-121.896219,44.167271],[-121.896202,44.167399],[-121.896165,44.167513],[-121.896129,44.16767],[-121.896112,44.16777],[-121.896076,44.167913],[-121.896,44.168041],[-121.895923,44.168156],[-121.895925,44.168241],[-121.895888,44.168356],[-121.895832,44.16847],[-121.895794,44.16857],[-121.895797,44.168684],[-121.895761,44.168812],[-121.895783,44.16894],[-121.895768,44.169139],[-121.895811,44.169267],[-121.895932,44.169393],[-121.896073,44.16952],[-121.896234,44.169632],[-121.896374,44.169687],[-121.896514,44.16977],[-121.896653,44.169826],[-121.896813,44.169881],[-121.896991,44.169907],[-121.89713,44.169919],[-121.89725,44.169989],[-121.897311,44.170074],[-121.897492,44.170185],[-121.897554,44.170327],[-121.897616,44.17044],[-121.897695,44.170439],[-121.897736,44.17051]]],[[[-121.883885,44.190807],[-121.883922,44.190935],[-121.883972,44.191156],[-121.884484,44.192525],[-121.884575,44.192882],[-121.884579,44.193058],[-121.884571,44.193201],[-121.884498,44.193347],[-121.884419,44.193521],[-121.884322,44.193643],[-121.88416,44.193791],[-121.883996,44.19394],[-121.882663,44.194748],[-121.87996,44.196363],[-121.877998,44.197566],[-121.87786,44.19765],[-121.87777,44.197751],[-121.877709,44.197849],[-121.877681,44.197923],[-121.877677,44.198037],[-121.877702,44.198114],[-121.877735,44.198201],[-121.877778,44.198264],[-121.877838,44.198355],[-121.877902,44.198424],[-121.878005,44.198573],[-121.878068,44.198659],[-121.878112,44.198822],[-121.878115,44.19893],[-121.878098,44.199046],[-121.878026,44.1992],[-121.877458,44.200795],[-121.876952,44.201763],[-121.876753,44.20209],[-121.876647,44.202241],[-121.876495,44.202443],[-121.876224,44.202982],[-121.875577,44.2042],[-121.875407,44.204514],[-121.875272,44.204787],[-121.875148,44.205106],[-121.875076,44.20537],[-121.875029,44.205637],[-121.874981,44.205861],[-121.874952,44.206047],[-121.874948,44.206286],[-121.874945,44.20657],[-121.874968,44.206769],[-121.874981,44.206983],[-121.874985,44.207145],[-121.875014,44.207288],[-121.875044,44.207457],[-121.875112,44.207673],[-121.875173,44.207988],[-121.87522,44.20818],[-121.875717,44.209449],[-121.875878,44.209738],[-121.875966,44.210068],[-121.876154,44.21058],[-121.876437,44.211245],[-121.876447,44.211269],[-121.876936,44.211269],[-121.879846,44.211269],[-121.884881,44.211274],[-121.889916,44.211279],[-121.894952,44.211284],[-121.897068,44.211286],[-121.899987,44.211289],[-121.89998,44.207668],[-121.899972,44.204047],[-121.899965,44.200426],[-121.899957,44.196805],[-121.899954,44.193182],[-121.89995,44.189559],[-121.899947,44.185936],[-121.899945,44.184313],[-121.899919,44.184353],[-121.899837,44.184429],[-121.899787,44.184467],[-121.899757,44.184514],[-121.899741,44.184597],[-121.899676,44.184672],[-121.899651,44.184743],[-121.899593,44.184808],[-121.899544,44.184882],[-121.899441,44.184951],[-121.899262,44.185078],[-121.899041,44.185262],[-121.898982,44.185317],[-121.89895,44.18537],[-121.898887,44.185445],[-121.898852,44.18549],[-121.898855,44.185646],[-121.898892,44.1858],[-121.898913,44.185894],[-121.898944,44.186004],[-121.898937,44.186124],[-121.898939,44.186209],[-121.898893,44.186338],[-121.898816,44.186508],[-121.898479,44.187243],[-121.898472,44.187267],[-121.898457,44.187369],[-121.898309,44.187903],[-121.898295,44.187988],[-121.898286,44.188072],[-121.898229,44.188157],[-121.898162,44.188318],[-121.898068,44.188459],[-121.897932,44.1886],[-121.897795,44.188743],[-121.897584,44.188887],[-121.897448,44.188971],[-121.897275,44.189065],[-121.897072,44.189166],[-121.897002,44.18918],[-121.896738,44.189314],[-121.896332,44.189443],[-121.896035,44.189544],[-121.895746,44.18961],[-121.895587,44.189612],[-121.895408,44.189615],[-121.895206,44.189589],[-121.895018,44.189556],[-121.894835,44.189485],[-121.894738,44.189378],[-121.893922,44.188569],[-121.893823,44.188465],[-121.893759,44.188413],[-121.893724,44.188342],[-121.893517,44.187954],[-121.893455,44.187896],[-121.893352,44.18784],[-121.893222,44.18777],[-121.893177,44.187743],[-121.8931,44.187728],[-121.892896,44.187753],[-121.892605,44.187797],[-121.892508,44.187789],[-121.892357,44.187761],[-121.892262,44.187766],[-121.892191,44.187808],[-121.892156,44.187876],[-121.892158,44.187881],[-121.892186,44.187892],[-121.892318,44.187916],[-121.892406,44.187915],[-121.892593,44.187969],[-121.892751,44.188056],[-121.89284,44.188132],[-121.892983,44.188251],[-121.893084,44.188376],[-121.893144,44.188479],[-121.893312,44.188819],[-121.893507,44.189157],[-121.893578,44.189311],[-121.893583,44.189525],[-121.893668,44.190151],[-121.893673,44.190359],[-121.893628,44.190465],[-121.893531,44.190547],[-121.893364,44.190618],[-121.893261,44.190619],[-121.893126,44.190601],[-121.893028,44.190532],[-121.892914,44.190445],[-121.892941,44.190316],[-121.892996,44.190193],[-121.892993,44.190046],[-121.892998,44.189869],[-121.892976,44.189661],[-121.892962,44.189463],[-121.892921,44.189336],[-121.892821,44.189213],[-121.892647,44.189111],[-121.892409,44.188896],[-121.892372,44.188882],[-121.892312,44.188865],[-121.892159,44.188866],[-121.891912,44.188881],[-121.891611,44.188962],[-121.891368,44.189067],[-121.891176,44.189172],[-121.891039,44.189231],[-121.8909,44.189268],[-121.890749,44.189299],[-121.890557,44.189302],[-121.889701,44.189216],[-121.8896,44.189217],[-121.889509,44.189246],[-121.88941,44.189299],[-121.889332,44.189379],[-121.889214,44.189413],[-121.889051,44.189422],[-121.888892,44.189424],[-121.888723,44.189396],[-121.888584,44.189347],[-121.888433,44.189289],[-121.888344,44.189206],[-121.888303,44.189181],[-121.88825,44.189163],[-121.888134,44.189164],[-121.88803,44.189165],[-121.887882,44.189186],[-121.887696,44.189195],[-121.88748,44.189204],[-121.887286,44.189206],[-121.887037,44.189166],[-121.886837,44.189028],[-121.886633,44.188853],[-121.886507,44.188735],[-121.886353,44.188621],[-121.886287,44.188555],[-121.886185,44.188529],[-121.886029,44.188508],[-121.885876,44.188409],[-121.88574,44.188249],[-121.885621,44.188127],[-121.885526,44.188003],[-121.885508,44.187923],[-121.885496,44.187909],[-121.885489,44.187902],[-121.885484,44.187901],[-121.885451,44.187893],[-121.885373,44.187889],[-121.885036,44.187937],[-121.884464,44.187976],[-121.884197,44.187999],[-121.883861,44.187983],[-121.883453,44.187982],[-121.883329,44.187994],[-121.883229,44.188029],[-121.883098,44.188069],[-121.883003,44.188104],[-121.882908,44.188151],[-121.882813,44.188211],[-121.882695,44.188303],[-121.882557,44.188419],[-121.882506,44.188489],[-121.88246,44.188581],[-121.882439,44.18865],[-121.88244,44.188697],[-121.882462,44.188736],[-121.882522,44.188778],[-121.882626,44.188875],[-121.882689,44.188909],[-121.882779,44.188946],[-121.882906,44.189014],[-121.88301,44.18908],[-121.883071,44.189145],[-121.883128,44.18924],[-121.883137,44.189303],[-121.883197,44.189353],[-121.883268,44.189378],[-121.883439,44.189398],[-121.883512,44.189397],[-121.883599,44.189372],[-121.883717,44.189318],[-121.883844,44.189289],[-121.883992,44.189304],[-121.884081,44.189332],[-121.884186,44.189356],[-121.884258,44.189414],[-121.88442,44.189526],[-121.88449,44.189607],[-121.884528,44.189692],[-121.88453,44.189778],[-121.884491,44.189846],[-121.884452,44.189889],[-121.884416,44.189936],[-121.884298,44.190053],[-121.884119,44.190153],[-121.884069,44.190195],[-121.883995,44.190275],[-121.883942,44.190333],[-121.883898,44.19041],[-121.883853,44.190541],[-121.883847,44.190645],[-121.883885,44.190807]]],[[[-121.898987,44.184057],[-121.898953,44.184127],[-121.898935,44.184159],[-121.89894,44.184172],[-121.899,44.184209],[-121.899049,44.184244],[-121.899052,44.184244],[-121.899105,44.184215],[-121.899221,44.184103],[-121.89947,44.183979],[-121.899606,44.183898],[-121.899716,44.183929],[-121.899778,44.18395],[-121.899862,44.184018],[-121.899896,44.184058],[-121.899942,44.18412],[-121.899945,44.184128],[-121.899944,44.183387],[-121.899944,44.183287],[-121.899924,44.183284],[-121.899911,44.183282],[-121.899879,44.183276],[-121.899812,44.183293],[-121.899642,44.183348],[-121.89946,44.183446],[-121.899326,44.183523],[-121.899248,44.183607],[-121.899193,44.183723],[-121.899104,44.183861],[-121.898987,44.184057]]]]}},{"type":"Feature","properties":{"MAPTAXLOT":"1686000000100","MAPNUMBER":"16860000","TAXLOT":"100","ACCTNO":"1857356","MAPACRES":8602.59997975},"geometry":{"type":"Polygon","coordinates":[[[-121.777808,44.21895],[-121.782346,44.21895],[-121.78738,44.21895],[-121.792414,44.21895],[-121.796233,44.21895],[-121.797448,44.21895],[-121.802482,44.21895],[-121.807516,44.21895],[-121.807516,44.21895],[-121.81255,44.21895],[-121.816369,44.21895],[-121.817584,44.21895],[-121.822618,44.21895],[-121.827995,44.21895],[-121.827995,44.21895],[-121.827995,44.215329],[-121.827995,44.211578],[-121.827995,44.211579],[-121.827995,44.211396],[-121.827995,44.207776],[-121.827995,44.204156],[-121.827995,44.200536],[-121.827995,44.196916],[-121.827995,44.193296],[-121.827995,44.189676],[-121.827995,44.186056],[-121.827995,44.182436],[-121.827995,44.178815],[-121.827995,44.175195],[-121.827995,44.171575],[-121.827995,44.167955],[-121.827995,44.164335],[-121.827995,44.160715],[-121.827995,44.157094],[-121.827995,44.153474],[-121.827995,44.149854],[-121.827995,44.146234],[-121.827995,44.142613],[-121.827995,44.138993],[-121.822488,44.138993],[-121.817461,44.138993],[-121.812434,44.138993],[-121.807407,44.138993],[-121.80238,44.138993],[-121.797353,44.138993],[-121.792325,44.138993],[-121.787298,44.138993],[-121.782271,44.138993],[-121.777244,44.138993],[-121.772681,44.138993],[-121.772543,44.139554],[-121.772891,44.140127],[-121.774128,44.140928],[-121.77895,44.144958],[-121.77987,44.145347],[-121.7826,44.146242],[-121.783869,44.14734],[-121.784154,44.14821],[-121.783739,44.149353],[-121.783674,44.150291],[-121.783356,44.150885],[-121.783037,44.151731],[-121.783099,44.152463],[-121.783289,44.152966],[-121.783828,44.15363],[-121.783827,44.154064],[-121.783604,44.154384],[-121.783192,44.154407],[-121.781475,44.155046],[-121.78103,44.155457],[-121.780807,44.155823],[-121.780997,44.15612],[-121.780996,44.156989],[-121.780962,44.158087],[-121.781247,44.158705],[-121.781723,44.159071],[-121.782008,44.15962],[-121.781913,44.159849],[-121.781499,44.160146],[-121.780132,44.160602],[-121.779116,44.16067],[-121.777941,44.16044],[-121.776766,44.160119],[-121.776225,44.160096],[-121.775971,44.16021],[-121.772885,44.162883],[-121.772471,44.163523],[-121.77247,44.163843],[-121.772818,44.164941],[-121.772785,44.165559],[-121.772435,44.166245],[-121.771861,44.166953],[-121.771829,44.167342],[-121.771955,44.167754],[-121.772463,44.168166],[-121.772843,44.16915],[-121.773477,44.169768],[-121.774652,44.170569],[-121.776398,44.17128],[-121.777509,44.171898],[-121.778302,44.172631],[-121.779063,44.174164],[-121.779506,44.175422],[-121.779504,44.176268],[-121.779409,44.176588],[-121.778485,44.177548],[-121.777466,44.179285],[-121.776891,44.180726],[-121.77479,44.183194],[-121.773866,44.184657],[-121.773578,44.185343],[-121.773514,44.1858],[-121.773736,44.18612],[-121.774466,44.186807],[-121.774401,44.187859],[-121.774015,44.190283],[-121.77411,44.190558],[-121.774332,44.19081],[-121.776365,44.191703],[-121.777635,44.192665],[-121.778491,44.193924],[-121.778936,44.194267],[-121.779254,44.194359],[-121.78078,44.194154],[-121.781193,44.194178],[-121.781701,44.194361],[-121.781796,44.194773],[-121.781541,44.195093],[-121.780523,44.195481],[-121.780237,44.195732],[-121.780236,44.195983],[-121.781379,44.197014],[-121.782077,44.197815],[-121.782236,44.198226],[-121.782108,44.198775],[-121.780929,44.200146],[-121.780578,44.200878],[-121.780418,44.201564],[-121.780609,44.201907],[-121.781053,44.202228],[-121.782102,44.202549],[-121.782356,44.202892],[-121.781336,44.204378],[-121.781176,44.204881],[-121.781494,44.205316],[-121.781939,44.205408],[-121.783814,44.205432],[-121.784036,44.205981],[-121.784735,44.206188],[-121.784894,44.206302],[-121.78483,44.206942],[-121.785115,44.207194],[-121.785718,44.208109],[-121.785717,44.20859],[-121.785303,44.209184],[-121.784826,44.209252],[-121.7833,44.20916],[-121.783141,44.209251],[-121.783109,44.209411],[-121.783267,44.209708],[-121.783871,44.210143],[-121.784569,44.211288],[-121.785361,44.213118],[-121.785232,44.214582],[-121.784563,44.215359],[-121.78329,44.215906],[-121.778772,44.217206],[-121.77788,44.218372],[-121.777808,44.21895]]]}},{"type":"Feature","properties":{"MAPTAXLOT":"1775000000100","MAPNUMBER":"17750000","TAXLOT":"100","ACCTNO":"1857406","MAPACRES":23101.32091609},"geometry":{"type":"Polygon","coordinates":[[[-121.829641,44.052442],[-121.827641,44.052439],[-121.827991,44.066484],[-121.827992,44.080967],[-121.827994,44.09545],[-121.827994,44.09907],[-121.827994,44.10269],[-121.827994,44.106311],[-121.827994,44.109931],[-121.827994,44.113551],[-121.827995,44.117171],[-121.827995,44.120791],[-121.827995,44.124412],[-121.827995,44.128032],[-121.827995,44.131652],[-121.827995,44.135272],[-121.827995,44.138993],[-121.833022,44.138993],[-121.838049,44.138993],[-121.843076,44.138993],[-121.848103,44.138993],[-121.85313,44.138993],[-121.858157,44.138993],[-121.863184,44.138993],[-121.868211,44.138993],[-121.873238,44.138993],[-121.878265,44.138993],[-121.883292,44.138993],[-121.888319,44.138993],[-121.893346,44.138993],[-121.898373,44.138993],[-121.900024,44.138993],[-121.9034,44.138993],[-121.908427,44.138993],[-121.913454,44.138994],[-121.918481,44.138994],[-121.920132,44.138994],[-121.923508,44.138994],[-121.928535,44.138994],[-121.933562,44.138994],[-121.938589,44.138994],[-121.94024,44.138994],[-121.943616,44.138994],[-121.949763,44.138994],[-121.949763,44.135373],[-121.949763,44.135273],[-121.949763,44.131752],[-121.949763,44.131652],[-121.949763,44.128132],[-121.949763,44.128032],[-121.949763,44.127034],[-121.949763,44.125394],[-121.949763,44.124411],[-121.949763,44.120791],[-121.949763,44.117171],[-121.949763,44.114534],[-121.949763,44.113551],[-121.949763,44.113551],[-121.949763,44.10993],[-121.949763,44.10631],[-121.949763,44.10269],[-121.949763,44.100053],[-121.949763,44.09907],[-121.949763,44.09545],[-121.949763,44.091829],[-121.949763,44.088209],[-121.949763,44.085572],[-121.949763,44.084589],[-121.949763,44.080969],[-121.949763,44.077348],[-121.949763,44.073728],[-121.949763,44.071091],[-121.949763,44.070108],[-121.949763,44.066488],[-121.949762,44.056609],[-121.94964,44.053041],[-121.94964,44.05304],[-121.945121,44.05302],[-121.9401,44.052994],[-121.93508,44.052968],[-121.930059,44.052942],[-121.92839,44.052934],[-121.925038,44.052916],[-121.920017,44.05289],[-121.914996,44.052865],[-121.909976,44.052839],[-121.908312,44.05283],[-121.904955,44.052813],[-121.899934,44.052787],[-121.894913,44.052761],[-121.889893,44.052735],[-121.888228,44.052727],[-121.884872,44.052709],[-121.879851,44.052684],[-121.87483,44.052658],[-121.86981,44.052632],[-121.86815,44.052623],[-121.864789,44.052606],[-121.859768,44.05258],[-121.854747,44.052554],[-121.849727,44.052528],[-121.848071,44.05252],[-121.844706,44.052502],[-121.839685,44.052477],[-121.834664,44.052451],[-121.829641,44.052442]]]}},{"type":"Feature","properties":{"MAPTAXLOT":"1785000000100","MAPNUMBER":"17850000","TAXLOT":"100","ACCTNO":"1857414","MAPACRES":9326.53456193},"geometry":{"type":"Polygon","coordinates":[[[-121.822488,44.138993],[-121.827995,44.138993],[-121.827995,44.135272],[-121.827995,44.131652],[-121.827995,44.128032],[-121.827995,44.124412],[-121.827995,44.120791],[-121.827995,44.117171],[-121.827994,44.113551],[-121.827994,44.109931],[-121.827994,44.106311],[-121.827994,44.10269],[-121.827994,44.09907],[-121.827994,44.09545],[-121.827992,44.080967],[-121.827991,44.066484],[-121.827641,44.052439],[-121.823035,44.052407],[-121.818014,44.052369],[-121.814825,44.052344],[-121.814736,44.052423],[-121.813848,44.052834],[-121.813214,44.052994],[-121.812389,44.053016],[-121.809631,44.052626],[-121.806562,44.052281],[-121.802953,44.052253],[-121.80283,44.052252],[-121.802432,44.052462],[-121.801988,44.052919],[-121.80205,44.053765],[-121.801763,44.055617],[-121.801413,44.056418],[-121.800715,44.056806],[-121.80046,44.057126],[-121.800079,44.058018],[-121.799983,44.058864],[-121.799601,44.059847],[-121.799188,44.060327],[-121.79849,44.060624],[-121.797316,44.060989],[-121.796427,44.061538],[-121.795569,44.062863],[-121.794456,44.065584],[-121.793882,44.067505],[-121.793564,44.068214],[-121.79277,44.069174],[-121.790293,44.071596],[-121.789435,44.072739],[-121.789369,44.074409],[-121.789051,44.074797],[-121.787622,44.076031],[-121.786987,44.07642],[-121.78559,44.076762],[-121.784701,44.077241],[-121.783589,44.078292],[-121.780796,44.079479],[-121.77997,44.079959],[-121.779334,44.080782],[-121.779396,44.082017],[-121.779173,44.082772],[-121.777775,44.084005],[-121.777234,44.084966],[-121.777074,44.085469],[-121.777232,44.086361],[-121.777135,44.087504],[-121.776943,44.088007],[-121.776403,44.088441],[-121.773863,44.089308],[-121.773165,44.089788],[-121.772528,44.090816],[-121.772015,44.093995],[-121.772299,44.094956],[-121.772073,44.09754],[-121.771817,44.098729],[-121.771371,44.099506],[-121.770768,44.100009],[-121.769084,44.100991],[-121.768829,44.101334],[-121.768953,44.103118],[-121.769365,44.103598],[-121.769491,44.104262],[-121.769203,44.105657],[-121.769202,44.106],[-121.769519,44.106617],[-121.77012,44.107373],[-121.770436,44.108494],[-121.770308,44.109226],[-121.770021,44.109934],[-121.768907,44.111603],[-121.768205,44.113821],[-121.768267,44.114713],[-121.769246,44.117618],[-121.769591,44.119745],[-121.769876,44.120478],[-121.771143,44.122286],[-121.771332,44.12288],[-121.771332,44.123269],[-121.77079,44.124618],[-121.770788,44.125396],[-121.771708,44.126289],[-121.771961,44.126883],[-121.771991,44.127387],[-121.771895,44.128141],[-121.771288,44.130153],[-121.771097,44.130565],[-121.772301,44.131892],[-121.772935,44.132945],[-121.772551,44.134317],[-121.772518,44.135072],[-121.772835,44.135507],[-121.773373,44.136651],[-121.772831,44.138388],[-121.772681,44.138993],[-121.777244,44.138993],[-121.782271,44.138993],[-121.787298,44.138993],[-121.792325,44.138993],[-121.797353,44.138993],[-121.80238,44.138993],[-121.807407,44.138993],[-121.812434,44.138993],[-121.817461,44.138993],[-121.822488,44.138993]]]}}]}