{"type":"FeatureCollection","features":[{"type":"Feature","properties":{"MAPTAXLOT":"1501000002800","MAPNUMBER":"15010000","TAXLOT":"2800","ACCTNO":"0000263","MAPACRES":402.6824749},"geometry":{"type":"Polygon","coordinates":[[[-122.759388,44.243778],[-122.76447,44.243865],[-122.764499,44.236684],[-122.7646,44.229334],[-122.754485,44.229184],[-122.754394,44.236478],[-122.75435,44.240085],[-122.744225,44.239885],[-122.744225,44.239886],[-122.744168,44.243497],[-122.754306,44.243691],[-122.759388,44.243778]]]}},{"type":"Feature","properties":{"MAPTAXLOT":"1501000002801","MAPNUMBER":"15010000","TAXLOT":"2801","ACCTNO":"0000271","MAPACRES":241.48679152},"geometry":{"type":"Polygon","coordinates":[[[-122.744225,44.239885],[-122.75435,44.240085],[-122.754394,44.236478],[-122.754485,44.229184],[-122.744369,44.229029],[-122.744369,44.229029],[-122.744282,44.236274],[-122.744282,44.236274],[-122.744225,44.239885]]]}},{"type":"Feature","properties":{"MAPTAXLOT":"1501000002900","MAPNUMBER":"15010000","TAXLOT":"2900","ACCTNO":"0000289","MAPACRES":323.32338157},"geometry":{"type":"Polygon","coordinates":[[[-122.782057,44.243902],[-122.784663,44.243904],[-122.784881,44.236569],[-122.779766,44.236596],[-122.774651,44.236624],[-122.764499,44.236684],[-122.76447,44.243865],[-122.774565,44.243895],[-122.77961,44.243902],[-122.77961,44.2439],[-122.780474,44.2439],[-122.782057,44.243902]]]}},{"type":"Feature","properties":{"MAPTAXLOT":"1501000003000","MAPNUMBER":"15010000","TAXLOT":"3000","ACCTNO":"0000297","MAPACRES":40.28751722},"geometry":{"type":"Polygon","coordinates":[[[-122.779766,44.236596],[-122.784881,44.236569],[-122.784873,44.23298],[-122.779783,44.232987],[-122.779766,44.236596]]]}},{"type":"Feature","properties":{"MAPTAXLOT":"1501000003100","MAPNUMBER":"15010000","TAXLOT":"3100","ACCTNO":"0000305","MAPACRES":283.49978811},"geometry":{"type":"Polygon","coordinates":[[[-122.774651,44.236624],[-122.779766,44.236596],[-122.779783,44.232987],[-122.784873,44.23298],[-122.784865,44.229392],[-122.7798,44.229378],[-122.774731,44.229364],[-122.7646,44.229334],[-122.764499,44.236684],[-122.774651,44.236624]]]}},{"type":"Feature","properties":{"MAPTAXLOT":"1501000003200","MAPNUMBER":"15010000","TAXLOT":"3200","ACCTNO":"0000313","MAPACRES":359.23206397},"geometry":{"type":"Polygon","coordinates":[[[-122.794823,44.229512],[-122.799793,44.229565],[-122.799776,44.225917],[-122.794792,44.225869],[-122.79476,44.222225],[-122.794697,44.214939],[-122.789671,44.2149],[-122.784645,44.214862],[-122.784865,44.229392],[-122.789844,44.229452],[-122.794823,44.229512]]]}},{"type":"Feature","properties":{"MAPTAXLOT":"1501000003300","MAPNUMBER":"15010000","TAXLOT":"3300","ACCTNO":"0000321","MAPACRES":240.41357499},"geometry":{"type":"Polygon","coordinates":[[[-122.799776,44.225917],[-122.804757,44.225965],[-122.804752,44.222312],[-122.804756,44.215005],[-122.799727,44.214972],[-122.794697,44.214939],[-122.79476,44.222225],[-122.794792,44.225869],[-122.799776,44.225917]]]}},{"type":"Feature","properties":{"MAPTAXLOT":"1501000003400","MAPNUMBER":"15010000","TAXLOT":"3400","ACCTNO":"0000339","MAPACRES":648.29048728},"geometry":{"type":"Polygon","coordinates":[[[-122.7798,44.229378],[-122.784865,44.229392],[-122.784645,44.214862],[-122.779646,44.214796],[-122.774647,44.214731],[-122.769648,44.214666],[-122.769648,44.214666],[-122.769648,44.214666],[-122.764649,44.2146],[-122.764503,44.221986],[-122.7646,44.229334],[-122.774731,44.229364],[-122.7798,44.229378]]]}},{"type":"Feature","properties":{"MAPTAXLOT":"1501000003500","MAPNUMBER":"15010000","TAXLOT":"3500","ACCTNO":"0000347","MAPACRES":649.21642596},"geometry":{"type":"Polygon","coordinates":[[[-122.754485,44.229184],[-122.7646,44.229334],[-122.764503,44.221986],[-122.764649,44.2146],[-122.759586,44.214562],[-122.759585,44.214562],[-122.759585,44.214562],[-122.754521,44.214524],[-122.749458,44.214485],[-122.744394,44.214447],[-122.744369,44.229029],[-122.754485,44.229184]]]}},{"type":"Feature","properties":{"MAPTAXLOT":"1501270000077","MAPNUMBER":"15012700","TAXLOT":"77","ACCTNO":"000None","MAPACRES":9.06374699},"geometry":{"type":"Polygon","coordinates":[[[-122.79468,44.241957],[-122.794339,44.242022],[-122.793629,44.242598],[-122.793743,44.242671],[-122.79336,44.243179],[-122.793091,44.243705],[-122.792882,44.24402],[-122.793244,44.243979],[-122.793245,44.243977],[-122.793248,44.243973],[-122.793271,44.243942],[-122.793351,44.243835],[-122.793433,44.243728],[-122.793524,44.243621],[-122.793619,44.243517],[-122.793719,44.243414],[-122.793872,44.243271],[-122.79403,44.243129],[-122.794191,44.24299],[-122.794725,44.242533],[-122.794879,44.242401],[-122.795041,44.242262],[-122.795207,44.242126],[-122.795377,44.241993],[-122.795501,44.241904],[-122.795628,44.241819],[-122.795818,44.2417],[-122.796012,44.241585],[-122.796209,44.241473],[-122.798085,44.240409],[-122.798173,44.240359],[-122.798369,44.240247],[-122.798561,44.240132],[-122.798751,44.240015],[-122.79888,44.239929],[-122.799006,44.23984],[-122.799127,44.239748],[-122.799296,44.239609],[-122.799461,44.239467],[-122.799621,44.239322],[-122.799709,44.239243],[-122.799861,44.239099],[-122.800018,44.238957],[-122.800179,44.238817],[-122.80021,44.238792],[-122.800242,44.238768],[-122.800273,44.238743],[-122.800305,44.238719],[-122.800337,44.238694],[-122.800369,44.23867],[-122.800401,44.238646],[-122.800434,44.238622],[-122.800467,44.238599],[-122.8005,44.238575],[-122.800659,44.238466],[-122.800822,44.23836],[-122.80099,44.238258],[-122.801162,44.23816],[-122.801339,44.238066],[-122.801519,44.237975],[-122.801703,44.237889],[-122.801891,44.237806],[-122.802082,44.237728],[-122.802276,44.237654],[-122.802473,44.237585],[-122.802515,44.23757],[-122.802558,44.237556],[-122.8026,44.237543],[-122.802642,44.237529],[-122.802685,44.237516],[-122.802728,44.237503],[-122.802771,44.23749],[-122.802814,44.237477],[-122.802857,44.237464],[-122.8029,44.237452],[-122.803136,44.237388],[-122.803374,44.237326],[-122.803613,44.237268],[-122.804792,44.236979],[-122.804833,44.236796],[-122.80483,44.235559],[-122.80483,44.235526],[-122.804828,44.235011],[-122.804828,44.234978],[-122.804826,44.234251],[-122.80478,44.234066],[-122.804597,44.234173],[-122.804604,44.236851],[-122.803539,44.237112],[-122.803297,44.237171],[-122.803056,44.237234],[-122.802816,44.237299],[-122.802603,44.237362],[-122.802393,44.23743],[-122.802186,44.237502],[-122.801982,44.23758],[-122.801782,44.237661],[-122.801585,44.237748],[-122.801392,44.237838],[-122.801203,44.237933],[-122.801019,44.238032],[-122.800838,44.238135],[-122.800663,44.238242],[-122.800492,44.238353],[-122.800326,44.238468],[-122.800164,44.238586],[-122.800009,44.238708],[-122.799845,44.23885],[-122.799685,44.238994],[-122.799529,44.23914],[-122.799442,44.23922],[-122.799285,44.239361],[-122.799124,44.2395],[-122.798959,44.239637],[-122.798843,44.239725],[-122.798722,44.23981],[-122.798598,44.239892],[-122.798412,44.240007],[-122.798223,44.24012],[-122.798031,44.240229],[-122.79778,44.240372],[-122.797721,44.240371],[-122.797665,44.240402],[-122.796044,44.241322],[-122.795842,44.241437],[-122.795643,44.241555],[-122.795448,44.241677],[-122.795315,44.241767],[-122.795185,44.24186],[-122.79473,44.241947],[-122.79468,44.241957]]]}},{"type":"Feature","properties":{"MAPTAXLOT":"1501270000100","MAPNUMBER":"15012700","TAXLOT":"100","ACCTNO":"1695921","MAPACRES":42.40546858},"geometry":{"type":"MultiPolygon","coordinates":[[[[-122.797665,44.240402],[-122.797721,44.240371],[-122.79778,44.240372],[-122.798031,44.240229],[-122.798223,44.24012],[-122.798412,44.240007],[-122.798598,44.239892],[-122.798722,44.23981],[-122.798843,44.239725],[-122.798959,44.239637],[-122.799124,44.2395],[-122.799285,44.239361],[-122.799442,44.23922],[-122.799529,44.23914],[-122.799685,44.238994],[-122.799845,44.23885],[-122.800009,44.238708],[-122.800164,44.238586],[-122.800326,44.238468],[-122.800492,44.238353],[-122.800663,44.238242],[-122.800838,44.238135],[-122.801019,44.238032],[-122.801203,44.237933],[-122.801392,44.237838],[-122.801585,44.237748],[-122.801782,44.237661],[-122.801982,44.23758],[-122.802186,44.237502],[-122.802393,44.23743],[-122.802603,44.237362],[-122.802816,44.237299],[-122.803056,44.237234],[-122.803297,44.237171],[-122.803539,44.237112],[-122.804604,44.236851],[-122.804597,44.234173],[-122.80478,44.234066],[-122.804779,44.233828],[-122.804735,44.233835],[-122.804596,44.233922],[-122.804439,44.233963],[-122.80423,44.234044],[-122.804021,44.234124],[-122.803761,44.234243],[-122.803661,44.234397],[-122.803558,44.234476],[-122.80351,44.234629],[-122.803306,44.234823],[-122.80315,44.234902],[-122.803103,44.235055],[-122.802791,44.235214],[-122.802529,44.235295],[-122.80232,44.235375],[-122.801997,44.235427],[-122.801735,44.235508],[-122.801475,44.235627],[-122.801216,44.235784],[-122.801008,44.235903],[-122.800854,44.23602],[-122.800751,44.236098],[-122.800545,44.236254],[-122.800233,44.236413],[-122.799971,44.236494],[-122.799659,44.236652],[-122.799314,44.236777],[-122.799021,44.236996],[-122.798829,44.237163],[-122.798496,44.237373],[-122.798332,44.23754],[-122.798085,44.237769],[-122.797867,44.238018],[-122.797736,44.238306],[-122.797658,44.238576],[-122.797297,44.238748],[-122.797045,44.238834],[-122.796879,44.238939],[-122.796656,44.239066],[-122.796552,44.239224],[-122.796298,44.239361],[-122.796165,44.239484],[-122.796017,44.239607],[-122.795998,44.239691],[-122.795944,44.239753],[-122.795861,44.239816],[-122.795809,44.23994],[-122.795812,44.240021],[-122.795787,44.240103],[-122.795761,44.240165],[-122.79562,44.240209],[-122.795464,44.240298],[-122.795437,44.240368],[-122.797665,44.240402]]],[[[-122.799631,44.239688],[-122.799512,44.239791],[-122.799389,44.239892],[-122.799261,44.239989],[-122.799129,44.240084],[-122.798992,44.240175],[-122.798852,44.240263],[-122.798707,44.240348],[-122.798583,44.240416],[-122.798586,44.240416],[-122.799777,44.240435],[-122.799778,44.239555],[-122.799631,44.239688]]]]}},{"type":"Feature","properties":{"MAPTAXLOT":"1501270000101","MAPNUMBER":"15012700","TAXLOT":"101","ACCTNO":"1177250","MAPACRES":237.89875924},"geometry":{"type":"Polygon","coordinates":[[[-122.784663,44.243904],[-122.787067,44.243925],[-122.787093,44.243913],[-122.787117,44.243902],[-122.787141,44.243891],[-122.787164,44.24388],[-122.787187,44.243869],[-122.78721,44.243858],[-122.787234,44.243846],[-122.787258,44.243834],[-122.787283,44.243821],[-122.787308,44.243808],[-122.787334,44.243795],[-122.78736,44.243781],[-122.787385,44.243768],[-122.78741,44.243756],[-122.787434,44.243743],[-122.787457,44.243732],[-122.78748,44.24372],[-122.787502,44.24371],[-122.787525,44.243699],[-122.787548,44.243689],[-122.787571,44.243679],[-122.787595,44.243669],[-122.78762,44.243658],[-122.787646,44.243648],[-122.787674,44.243637],[-122.787701,44.243626],[-122.787729,44.243616],[-122.787756,44.243605],[-122.787781,44.243596],[-122.787805,44.243587],[-122.787827,44.243578],[-122.787846,44.243571],[-122.787864,44.243564],[-122.787879,44.243558],[-122.787895,44.243552],[-122.78791,44.243546],[-122.787926,44.243539],[-122.787944,44.243533],[-122.787963,44.243526],[-122.787985,44.243518],[-122.78801,44.243509],[-122.788036,44.2435],[-122.788064,44.24349],[-122.788092,44.24348],[-122.788121,44.243471],[-122.788149,44.243461],[-122.788177,44.243452],[-122.788204,44.243444],[-122.788229,44.243436],[-122.788255,44.243428],[-122.78828,44.243421],[-122.788305,44.243413],[-122.78833,44.243405],[-122.788357,44.243397],[-122.788384,44.243389],[-122.788414,44.24338],[-122.788444,44.243371],[-122.788476,44.243361],[-122.78851,44.243351],[-122.788545,44.243341],[-122.788581,44.243332],[-122.788618,44.243323],[-122.788656,44.243314],[-122.788696,44.243306],[-122.788736,44.243298],[-122.788776,44.243292],[-122.788815,44.243285],[-122.788853,44.24328],[-122.78889,44.243275],[-122.788924,44.243271],[-122.788956,44.243268],[-122.788984,44.243265],[-122.789009,44.243264],[-122.789032,44.243262],[-122.789053,44.243262],[-122.789073,44.243261],[-122.789092,44.243261],[-122.78911,44.243261],[-122.789128,44.243262],[-122.789147,44.243262],[-122.789166,44.243262],[-122.789186,44.243262],[-122.789207,44.243262],[-122.789228,44.243263],[-122.78925,44.243263],[-122.789274,44.243262],[-122.789298,44.243262],[-122.789323,44.243262],[-122.789349,44.243261],[-122.789376,44.243261],[-122.789403,44.24326],[-122.78943,44.24326],[-122.789456,44.243259],[-122.789481,44.243259],[-122.789506,44.24326],[-122.789529,44.24326],[-122.789551,44.243261],[-122.789572,44.243262],[-122.789592,44.243264],[-122.78961,44.243265],[-122.789628,44.243267],[-122.789646,44.243268],[-122.789663,44.24327],[-122.789679,44.243272],[-122.789695,44.243273],[-122.789701,44.243274],[-122.789757,44.240297],[-122.794742,44.240357],[-122.795437,44.240368],[-122.795464,44.240298],[-122.79562,44.240209],[-122.795761,44.240165],[-122.795787,44.240103],[-122.795812,44.240021],[-122.795809,44.23994],[-122.795861,44.239816],[-122.795944,44.239753],[-122.795998,44.239691],[-122.796017,44.239607],[-122.796165,44.239484],[-122.796298,44.239361],[-122.796552,44.239224],[-122.796656,44.239066],[-122.796879,44.238939],[-122.797045,44.238834],[-122.797297,44.238748],[-122.797658,44.238576],[-122.797736,44.238306],[-122.797867,44.238018],[-122.798085,44.237769],[-122.798332,44.23754],[-122.798496,44.237373],[-122.798829,44.237163],[-122.799021,44.236996],[-122.799314,44.236777],[-122.799659,44.236652],[-122.799971,44.236494],[-122.800233,44.236413],[-122.800545,44.236254],[-122.800751,44.236098],[-122.800854,44.23602],[-122.801008,44.235903],[-122.801216,44.235784],[-122.801475,44.235627],[-122.801735,44.235508],[-122.801997,44.235427],[-122.80232,44.235375],[-122.802529,44.235295],[-122.802791,44.235214],[-122.803103,44.235055],[-122.80315,44.234902],[-122.803306,44.234823],[-122.80351,44.234629],[-122.803558,44.234476],[-122.803661,44.234397],[-122.803761,44.234243],[-122.804021,44.234124],[-122.80423,44.234044],[-122.804439,44.233963],[-122.804596,44.233922],[-122.804735,44.233835],[-122.804779,44.233828],[-122.804779,44.233707],[-122.804697,44.233735],[-122.804463,44.233755],[-122.804398,44.233761],[-122.804396,44.233251],[-122.804396,44.233245],[-122.799787,44.233184],[-122.794797,44.233118],[-122.789835,44.233049],[-122.789826,44.236647],[-122.784881,44.236569],[-122.784663,44.243904]]]}},{"type":"Feature","properties":{"MAPTAXLOT":"1501270000104","MAPNUMBER":"15012700","TAXLOT":"104","ACCTNO":"1695939","MAPACRES":26.38779964},"geometry":{"type":"Polygon","coordinates":[[[-122.799777,44.240435],[-122.804807,44.240513],[-122.804804,44.239824],[-122.804793,44.237229],[-122.803436,44.237554],[-122.803224,44.237608],[-122.803015,44.237667],[-122.802808,44.237731],[-122.802604,44.2378],[-122.802403,44.237873],[-122.802206,44.237951],[-122.802012,44.238033],[-122.801822,44.23812],[-122.801636,44.238211],[-122.801453,44.238306],[-122.801276,44.238405],[-122.801102,44.238508],[-122.800933,44.238615],[-122.800769,44.238726],[-122.800611,44.238841],[-122.800457,44.238959],[-122.800308,44.239081],[-122.800165,44.239206],[-122.799778,44.239555],[-122.799777,44.240435]]]}},{"type":"Feature","properties":{"MAPTAXLOT":"1501270000401","MAPNUMBER":"15012700","TAXLOT":"401","ACCTNO":"0001402","MAPACRES":4.20735771},"geometry":{"type":"Polygon","coordinates":[[[-122.798085,44.240409],[-122.798583,44.240416],[-122.798707,44.240348],[-122.798852,44.240263],[-122.798992,44.240175],[-122.799129,44.240084],[-122.799261,44.239989],[-122.799389,44.239892],[-122.799512,44.239791],[-122.799631,44.239688],[-122.799778,44.239555],[-122.800165,44.239206],[-122.800308,44.239081],[-122.800457,44.238959],[-122.800611,44.238841],[-122.800769,44.238726],[-122.800933,44.238615],[-122.801102,44.238508],[-122.801276,44.238405],[-122.801453,44.238306],[-122.801636,44.238211],[-122.801822,44.23812],[-122.802012,44.238033],[-122.802206,44.237951],[-122.802403,44.237873],[-122.802604,44.2378],[-122.802808,44.237731],[-122.803015,44.237667],[-122.803224,44.237608],[-122.803436,44.237554],[-122.804793,44.237229],[-122.804792,44.236979],[-122.803613,44.237268],[-122.803374,44.237326],[-122.803136,44.237388],[-122.8029,44.237452],[-122.802857,44.237464],[-122.802814,44.237477],[-122.802771,44.23749],[-122.802728,44.237503],[-122.802685,44.237516],[-122.802642,44.237529],[-122.8026,44.237543],[-122.802558,44.237556],[-122.802515,44.23757],[-122.802473,44.237585],[-122.802276,44.237654],[-122.802082,44.237728],[-122.801891,44.237806],[-122.801703,44.237889],[-122.801519,44.237975],[-122.801339,44.238066],[-122.801162,44.23816],[-122.80099,44.238258],[-122.800822,44.23836],[-122.800659,44.238466],[-122.8005,44.238575],[-122.800467,44.238599],[-122.800434,44.238622],[-122.800401,44.238646],[-122.800369,44.23867],[-122.800337,44.238694],[-122.800305,44.238719],[-122.800273,44.238743],[-122.800242,44.238768],[-122.80021,44.238792],[-122.800179,44.238817],[-122.800018,44.238957],[-122.799861,44.239099],[-122.799709,44.239243],[-122.799621,44.239322],[-122.799461,44.239467],[-122.799296,44.239609],[-122.799127,44.239748],[-122.799006,44.23984],[-122.79888,44.239929],[-122.798751,44.240015],[-122.798561,44.240132],[-122.798369,44.240247],[-122.798173,44.240359],[-122.798085,44.240409]]]}},{"type":"Feature","properties":{"MAPTAXLOT":"1501270000500","MAPNUMBER":"15012700","TAXLOT":"500","ACCTNO":"0001410","MAPACRES":156.98337193},"geometry":{"type":"Polygon","coordinates":[[[-122.784881,44.236569],[-122.789826,44.236647],[-122.789835,44.233049],[-122.794797,44.233118],[-122.799787,44.233184],[-122.799793,44.229565],[-122.794823,44.229512],[-122.789844,44.229452],[-122.784865,44.229392],[-122.784873,44.23298],[-122.784881,44.236569]]]}},{"type":"Feature","properties":{"MAPTAXLOT":"1501280001000","MAPNUMBER":"15012800","TAXLOT":"1000","ACCTNO":"1178290","MAPACRES":176.1002332},"geometry":{"type":"Polygon","coordinates":[[[-122.804779,44.233828],[-122.804822,44.233821],[-122.805069,44.233799],[-122.805189,44.23374],[-122.805276,44.23368],[-122.805412,44.233633],[-122.805551,44.233549],[-122.805634,44.233506],[-122.805802,44.233442],[-122.805904,44.233349],[-122.806074,44.233244],[-122.806209,44.233146],[-122.806367,44.233034],[-122.806523,44.232911],[-122.80664,44.232778],[-122.806757,44.232654],[-122.806837,44.23256],[-122.806966,44.232459],[-122.807111,44.232369],[-122.807323,44.2323],[-122.807546,44.232249],[-122.807756,44.23225],[-122.807951,44.232318],[-122.808152,44.232375],[-122.808324,44.232412],[-122.808552,44.232448],[-122.808666,44.232446],[-122.808752,44.232485],[-122.808969,44.232536],[-122.809014,44.232576],[-122.809101,44.232597],[-122.809499,44.232695],[-122.809701,44.232772],[-122.809927,44.232747],[-122.810041,44.232745],[-122.810181,44.232702],[-122.810377,44.232616],[-122.810513,44.232471],[-122.810566,44.232368],[-122.810476,44.232247],[-122.810349,44.232089],[-122.810352,44.231984],[-122.810234,44.231864],[-122.810172,44.231723],[-122.81011,44.231581],[-122.810077,44.23148],[-122.809813,44.231416],[-122.809492,44.230728],[-122.809833,44.230552],[-122.80983,44.229629],[-122.811297,44.229632],[-122.811425,44.228385],[-122.811512,44.228188],[-122.812203,44.227614],[-122.812262,44.227578],[-122.812753,44.227312],[-122.813209,44.226812],[-122.813395,44.226431],[-122.813502,44.226167],[-122.813698,44.226007],[-122.813698,44.226007],[-122.809824,44.225989],[-122.804757,44.225965],[-122.799776,44.225917],[-122.799793,44.229565],[-122.799787,44.233184],[-122.804396,44.233245],[-122.804396,44.233251],[-122.804398,44.233761],[-122.804463,44.233755],[-122.804697,44.233735],[-122.804779,44.233707],[-122.804779,44.233828]]]}},{"type":"Feature","properties":{"MAPTAXLOT":"1515000003700","MAPNUMBER":"15150000","TAXLOT":"3700","ACCTNO":"0026995","MAPACRES":649.83385799},"geometry":{"type":"Polygon","coordinates":[[[-122.73401,44.243397],[-122.744168,44.243497],[-122.744168,44.243497],[-122.744225,44.239886],[-122.744225,44.239885],[-122.744282,44.236274],[-122.744282,44.236274],[-122.744369,44.229029],[-122.734322,44.228683],[-122.724265,44.228336],[-122.72404,44.243301],[-122.73401,44.243397]]]}},{"type":"Feature","properties":{"MAPTAXLOT":"1515000003800","MAPNUMBER":"15150000","TAXLOT":"3800","ACCTNO":"0027001","MAPACRES":634.91195168},"geometry":{"type":"Polygon","coordinates":[[[-122.734322,44.228683],[-122.744369,44.229029],[-122.744369,44.229029],[-122.744394,44.214447],[-122.739369,44.214369],[-122.734343,44.21429],[-122.729318,44.214212],[-122.724292,44.214133],[-122.724265,44.228336],[-122.734322,44.228683]]]}},{"type":"Feature","properties":{"MAPTAXLOT":"1601000000100","MAPNUMBER":"16010000","TAXLOT":"100","ACCTNO":"0027506","MAPACRES":626.96851256},"geometry":{"type":"Polygon","coordinates":[[[-122.744394,44.214447],[-122.749458,44.214485],[-122.754521,44.214524],[-122.759585,44.214562],[-122.759585,44.214562],[-122.759586,44.214562],[-122.764649,44.2146],[-122.764366,44.210892],[-122.764088,44.207275],[-122.763531,44.200042],[-122.744468,44.199939],[-122.744468,44.199939],[-122.744449,44.203566],[-122.744431,44.207193],[-122.744412,44.21082],[-122.744394,44.214447]]]}},{"type":"Feature","properties":{"MAPTAXLOT":"1601000000200","MAPNUMBER":"16010000","TAXLOT":"200","ACCTNO":"0027514","MAPACRES":616.47923959},"geometry":{"type":"Polygon","coordinates":[[[-122.764649,44.2146],[-122.769648,44.214666],[-122.769648,44.214666],[-122.769648,44.214666],[-122.774647,44.214731],[-122.779646,44.214796],[-122.784645,44.214862],[-122.784414,44.211339],[-122.784187,44.207859],[-122.783734,44.2009],[-122.773058,44.200956],[-122.773046,44.200955],[-122.763531,44.200042],[-122.764088,44.207275],[-122.764366,44.210892],[-122.764649,44.2146]]]}},{"type":"Feature","properties":{"MAPTAXLOT":"1601000000300","MAPNUMBER":"16010000","TAXLOT":"300","ACCTNO":"0027522","MAPACRES":622.53648424},"geometry":{"type":"Polygon","coordinates":[[[-122.799727,44.214972],[-122.804756,44.215005],[-122.804527,44.211401],[-122.804527,44.211401],[-122.804302,44.207868],[-122.804302,44.207867],[-122.803852,44.2008],[-122.803851,44.2008],[-122.793886,44.200818],[-122.783734,44.2009],[-122.784187,44.207859],[-122.784414,44.211339],[-122.784645,44.214862],[-122.789671,44.2149],[-122.794697,44.214939],[-122.799727,44.214972]]]}},{"type":"Feature","properties":{"MAPTAXLOT":"1601000000400","MAPNUMBER":"16010000","TAXLOT":"400","ACCTNO":"0027530","MAPACRES":544.31232203},"geometry":{"type":"Polygon","coordinates":[[[-122.744316,44.185473],[-122.76386,44.185571],[-122.763852,44.17472],[-122.763847,44.17472],[-122.758936,44.174695],[-122.754025,44.174671],[-122.754007,44.171067],[-122.754007,44.171066],[-122.744175,44.171029],[-122.744216,44.174617],[-122.744216,44.174618],[-122.744256,44.178206],[-122.744256,44.178207],[-122.744286,44.181839],[-122.744286,44.18184],[-122.744316,44.185473]]]}},{"type":"Feature","properties":{"MAPTAXLOT":"1601000000500","MAPNUMBER":"16010000","TAXLOT":"500","ACCTNO":"0027548","MAPACRES":77.98778705},"geometry":{"type":"Polygon","coordinates":[[[-122.758936,44.174695],[-122.763847,44.17472],[-122.763852,44.17472],[-122.76385,44.171103],[-122.754007,44.171066],[-122.754007,44.171067],[-122.754025,44.174671],[-122.758936,44.174695]]]}},{"type":"Feature","properties":{"MAPTAXLOT":"1601000000600","MAPNUMBER":"16010000","TAXLOT":"600","ACCTNO":"0027555","MAPACRES":616.7120905},"geometry":{"type":"Polygon","coordinates":[[[-122.778586,44.18623],[-122.783498,44.186448],[-122.783492,44.182808],[-122.783485,44.179167],[-122.783556,44.171936],[-122.778607,44.171926],[-122.773663,44.171914],[-122.773659,44.171914],[-122.76385,44.171103],[-122.763852,44.17472],[-122.76386,44.185571],[-122.768763,44.185789],[-122.768769,44.18579],[-122.773678,44.186009],[-122.778581,44.18623],[-122.778586,44.18623]]]}},{"type":"Feature","properties":{"MAPTAXLOT":"1601000000700","MAPNUMBER":"16010000","TAXLOT":"700","ACCTNO":"0027563","MAPACRES":120.67022227},"geometry":{"type":"Polygon","coordinates":[[[-122.793524,44.186401],[-122.798694,44.186379],[-122.798694,44.186379],[-122.798706,44.18279],[-122.793537,44.182795],[-122.783492,44.182808],[-122.783498,44.186448],[-122.793305,44.186402],[-122.793524,44.186401]]]}},{"type":"Feature","properties":{"MAPTAXLOT":"1601000000800","MAPNUMBER":"16010000","TAXLOT":"800","ACCTNO":"0027571","MAPACRES":442.91906123},"geometry":{"type":"Polygon","coordinates":[[[-122.803867,44.186356],[-122.803868,44.186356],[-122.803877,44.182785],[-122.803877,44.182784],[-122.803886,44.179213],[-122.803802,44.175563],[-122.8038,44.175563],[-122.793572,44.175598],[-122.793589,44.172008],[-122.783556,44.171936],[-122.783485,44.179167],[-122.783492,44.182808],[-122.793537,44.182795],[-122.798706,44.18279],[-122.798694,44.186379],[-122.798694,44.186379],[-122.799386,44.186376],[-122.801225,44.186368],[-122.801731,44.186366],[-122.803867,44.186356]]]}},{"type":"Feature","properties":{"MAPTAXLOT":"1601000000900","MAPNUMBER":"16010000","TAXLOT":"900","ACCTNO":"0027589","MAPACRES":731.52686678},"geometry":{"type":"Polygon","coordinates":[[[-122.8038,44.175563],[-122.803802,44.175563],[-122.803718,44.171914],[-122.803743,44.168264],[-122.803768,44.164616],[-122.803831,44.157317],[-122.80383,44.157317],[-122.783586,44.15728],[-122.78358,44.164607],[-122.783568,44.168271],[-122.783556,44.171936],[-122.793589,44.172008],[-122.793572,44.175598],[-122.8038,44.175563]]]}},{"type":"Feature","properties":{"MAPTAXLOT":"1601000001000","MAPNUMBER":"16010000","TAXLOT":"1000","ACCTNO":"0027597","MAPACRES":358.60249074},"geometry":{"type":"Polygon","coordinates":[[[-122.778607,44.171926],[-122.783556,44.171936],[-122.783568,44.168271],[-122.78358,44.164607],[-122.783586,44.15728],[-122.763875,44.156637],[-122.763868,44.160251],[-122.773711,44.160595],[-122.773694,44.164235],[-122.778635,44.16442],[-122.77862,44.168171],[-122.773676,44.168074],[-122.773659,44.171912],[-122.773659,44.171914],[-122.773663,44.171914],[-122.778607,44.171926]]]}},{"type":"Feature","properties":{"MAPTAXLOT":"1601000001100","MAPNUMBER":"16010000","TAXLOT":"1100","ACCTNO":"0027605","MAPACRES":280.46710101},"geometry":{"type":"Polygon","coordinates":[[[-122.76385,44.171103],[-122.773659,44.171914],[-122.773659,44.171912],[-122.773676,44.168074],[-122.77862,44.168171],[-122.778635,44.16442],[-122.773694,44.164235],[-122.773711,44.160595],[-122.763868,44.160251],[-122.763862,44.163868],[-122.76385,44.171103]]]}},{"type":"Feature","properties":{"MAPTAXLOT":"1601000001200","MAPNUMBER":"16010000","TAXLOT":"1200","ACCTNO":"0027613","MAPACRES":430.8187996},"geometry":{"type":"Polygon","coordinates":[[[-122.744175,44.171029],[-122.754007,44.171066],[-122.76385,44.171103],[-122.763862,44.163868],[-122.763858,44.163868],[-122.758922,44.163852],[-122.758924,44.167468],[-122.753997,44.167451],[-122.753976,44.160219],[-122.753966,44.156604],[-122.744063,44.156571],[-122.744091,44.160185],[-122.744119,44.1638],[-122.744147,44.167414],[-122.744175,44.171029]]]}},{"type":"Feature","properties":{"MAPTAXLOT":"1601100000088","MAPNUMBER":"16011000","TAXLOT":"88","ACCTNO":"000None","MAPACRES":4.65366293},"geometry":{"type":"Polygon","coordinates":[[[-122.795333,44.194044],[-122.795355,44.194044],[-122.79548,44.194041],[-122.795605,44.194034],[-122.795729,44.194022],[-122.795852,44.194004],[-122.795973,44.193982],[-122.796093,44.193955],[-122.79621,44.193924],[-122.798176,44.193348],[-122.798265,44.19332],[-122.798351,44.193286],[-122.798432,44.193248],[-122.79851,44.193205],[-122.798583,44.193159],[-122.798651,44.193108],[-122.798713,44.193055],[-122.798769,44.192997],[-122.79877,44.192997],[-122.798801,44.192961],[-122.798842,44.192908],[-122.798878,44.192852],[-122.798908,44.192795],[-122.798915,44.19278],[-122.79894,44.192718],[-122.79896,44.192655],[-122.798973,44.192591],[-122.798979,44.192527],[-122.79898,44.192462],[-122.79897,44.192215],[-122.798961,44.191983],[-122.79895,44.191797],[-122.798934,44.191612],[-122.798911,44.191427],[-122.798894,44.191304],[-122.798932,44.191302],[-122.798926,44.191257],[-122.798923,44.191233],[-122.798908,44.191127],[-122.798904,44.191069],[-122.798906,44.191011],[-122.798914,44.190954],[-122.798929,44.190897],[-122.798951,44.190841],[-122.798979,44.190786],[-122.799013,44.190734],[-122.799053,44.190683],[-122.799099,44.190636],[-122.79915,44.190591],[-122.799206,44.190549],[-122.799266,44.19051],[-122.799331,44.190476],[-122.7994,44.190445],[-122.80056,44.189973],[-122.80201,44.189382],[-122.802149,44.189328],[-122.802291,44.189279],[-122.802436,44.189234],[-122.802584,44.189195],[-122.802734,44.189159],[-122.802886,44.189129],[-122.80304,44.189104],[-122.803195,44.189084],[-122.803451,44.189052],[-122.803706,44.189016],[-122.803707,44.189016],[-122.803868,44.188991],[-122.803876,44.18899],[-122.803875,44.188821],[-122.803637,44.188859],[-122.803399,44.188892],[-122.803159,44.188921],[-122.802994,44.188943],[-122.80283,44.18897],[-122.802668,44.189002],[-122.802508,44.189039],[-122.802351,44.189082],[-122.802196,44.189129],[-122.802045,44.189181],[-122.801897,44.189239],[-122.801534,44.189387],[-122.800647,44.189748],[-122.800156,44.189948],[-122.799631,44.190162],[-122.799287,44.190302],[-122.799211,44.190336],[-122.799139,44.190373],[-122.799071,44.190414],[-122.799051,44.190427],[-122.798998,44.190466],[-122.798948,44.190507],[-122.798902,44.19055],[-122.798887,44.190566],[-122.798837,44.190623],[-122.798793,44.190682],[-122.798782,44.1907],[-122.798766,44.190726],[-122.798764,44.190729],[-122.798735,44.190786],[-122.798712,44.190844],[-122.798694,44.190903],[-122.798682,44.190962],[-122.798676,44.191023],[-122.798675,44.191083],[-122.798681,44.191143],[-122.798699,44.191276],[-122.798705,44.191318],[-122.798743,44.191315],[-122.79876,44.191438],[-122.798782,44.19162],[-122.798798,44.191803],[-122.798808,44.191986],[-122.798827,44.192465],[-122.798826,44.192531],[-122.798818,44.192597],[-122.798802,44.192662],[-122.798779,44.192727],[-122.798749,44.192789],[-122.798711,44.19285],[-122.798667,44.192908],[-122.798617,44.192963],[-122.798561,44.193015],[-122.798499,44.193064],[-122.798432,44.193109],[-122.798359,44.193151],[-122.798283,44.193187],[-122.798203,44.193219],[-122.798119,44.193247],[-122.796152,44.193822],[-122.796043,44.193852],[-122.795932,44.193877],[-122.795819,44.193897],[-122.795704,44.193913],[-122.795589,44.193925],[-122.795472,44.193932],[-122.795356,44.193934],[-122.793946,44.193933],[-122.793912,44.19393],[-122.793878,44.193924],[-122.793847,44.193914],[-122.793819,44.193899],[-122.793794,44.193882],[-122.793775,44.193861],[-122.79376,44.193839],[-122.793751,44.193815],[-122.793748,44.19379],[-122.79375,44.192602],[-122.793677,44.192602],[-122.793598,44.192602],[-122.793595,44.19379],[-122.793596,44.193792],[-122.793596,44.193795],[-122.793596,44.193797],[-122.793596,44.193802],[-122.7936,44.193833],[-122.79361,44.193863],[-122.793625,44.193892],[-122.793645,44.193919],[-122.793669,44.193945],[-122.793698,44.193968],[-122.7937,44.193969],[-122.793703,44.193972],[-122.793712,44.193978],[-122.793712,44.193978],[-122.793713,44.193978],[-122.793749,44.193999],[-122.79379,44.194016],[-122.793832,44.194029],[-122.793877,44.194037],[-122.793911,44.194041],[-122.793946,44.194042],[-122.794856,44.194043],[-122.795333,44.194044]]]}},{"type":"Feature","properties":{"MAPTAXLOT":"1601100000300","MAPNUMBER":"16011000","TAXLOT":"300","ACCTNO":"0029189","MAPACRES":0.51671666},"geometry":{"type":"Polygon","coordinates":[[[-122.794856,44.194071],[-122.794868,44.194537],[-122.795345,44.194537],[-122.795333,44.194071],[-122.795333,44.194044],[-122.794856,44.194043],[-122.794856,44.194071]]]}},{"type":"Feature","properties":{"MAPTAXLOT":"1601100000500","MAPNUMBER":"16011000","TAXLOT":"500","ACCTNO":"0029197","MAPACRES":318.93496283},"geometry":{"type":"Polygon","coordinates":[[[-122.783734,44.2009],[-122.793886,44.200818],[-122.793712,44.194014],[-122.793712,44.193978],[-122.793703,44.193972],[-122.7937,44.193969],[-122.793698,44.193968],[-122.793669,44.193945],[-122.793645,44.193919],[-122.793625,44.193892],[-122.79361,44.193863],[-122.7936,44.193833],[-122.793596,44.193802],[-122.793596,44.193797],[-122.793596,44.193795],[-122.793596,44.193792],[-122.793595,44.19379],[-122.793598,44.192602],[-122.793677,44.192602],[-122.793654,44.191665],[-122.793653,44.191626],[-122.793524,44.186401],[-122.793305,44.186402],[-122.783498,44.186448],[-122.783498,44.18645],[-122.783572,44.190056],[-122.783591,44.190949],[-122.783593,44.191075],[-122.783647,44.193659],[-122.783647,44.193662],[-122.783734,44.2009]]]}},{"type":"Feature","properties":{"MAPTAXLOT":"1601100000600","MAPNUMBER":"16011000","TAXLOT":"600","ACCTNO":"1431301","MAPACRES":238.1438165},"geometry":{"type":"MultiPolygon","coordinates":[[[[-122.793886,44.200818],[-122.803851,44.2008],[-122.803852,44.2008],[-122.803859,44.193577],[-122.803859,44.193577],[-122.803858,44.193577],[-122.79881,44.193546],[-122.798801,44.193012],[-122.798801,44.192961],[-122.79877,44.192997],[-122.798769,44.192997],[-122.798713,44.193055],[-122.798651,44.193108],[-122.798583,44.193159],[-122.79851,44.193205],[-122.798432,44.193248],[-122.798351,44.193286],[-122.798265,44.19332],[-122.798176,44.193348],[-122.79621,44.193924],[-122.796093,44.193955],[-122.795973,44.193982],[-122.795852,44.194004],[-122.795729,44.194022],[-122.795605,44.194034],[-122.79548,44.194041],[-122.795355,44.194044],[-122.795333,44.194044],[-122.795333,44.194071],[-122.795345,44.194537],[-122.794868,44.194537],[-122.794856,44.194071],[-122.794856,44.194043],[-122.793946,44.194042],[-122.793911,44.194041],[-122.793877,44.194037],[-122.793832,44.194029],[-122.79379,44.194016],[-122.793749,44.193999],[-122.793713,44.193978],[-122.793712,44.193978],[-122.793712,44.193978],[-122.793712,44.194014],[-122.793886,44.200818]]],[[[-122.793653,44.191626],[-122.793654,44.191665],[-122.793677,44.192602],[-122.79375,44.192602],[-122.793748,44.19379],[-122.793751,44.193815],[-122.79376,44.193839],[-122.793775,44.193861],[-122.793794,44.193882],[-122.793819,44.193899],[-122.793847,44.193914],[-122.793878,44.193924],[-122.793912,44.19393],[-122.793946,44.193933],[-122.795356,44.193934],[-122.795472,44.193932],[-122.795589,44.193925],[-122.795704,44.193913],[-122.795819,44.193897],[-122.795932,44.193877],[-122.796043,44.193852],[-122.796152,44.193822],[-122.798119,44.193247],[-122.798203,44.193219],[-122.798283,44.193187],[-122.798359,44.193151],[-122.798432,44.193109],[-122.798499,44.193064],[-122.798561,44.193015],[-122.798617,44.192963],[-122.798667,44.192908],[-122.798711,44.19285],[-122.798749,44.192789],[-122.798779,44.192727],[-122.798802,44.192662],[-122.798818,44.192597],[-122.798826,44.192531],[-122.798827,44.192465],[-122.798808,44.191986],[-122.798798,44.191803],[-122.798782,44.19162],[-122.79876,44.191438],[-122.798743,44.191315],[-122.798705,44.191318],[-122.798699,44.191276],[-122.798681,44.191143],[-122.798675,44.191083],[-122.798676,44.191023],[-122.798682,44.190962],[-122.798694,44.190903],[-122.798712,44.190844],[-122.798735,44.190786],[-122.798764,44.190729],[-122.798758,44.190309],[-122.79871,44.190297],[-122.79868,44.190287],[-122.79865,44.190276],[-122.798622,44.190263],[-122.798609,44.190256],[-122.798579,44.190239],[-122.798552,44.19022],[-122.79854,44.190212],[-122.798509,44.190184],[-122.798481,44.190154],[-122.798473,44.190143],[-122.798452,44.190111],[-122.798117,44.189516],[-122.798743,44.189368],[-122.798737,44.189014],[-122.798732,44.18874],[-122.798704,44.186982],[-122.798694,44.186379],[-122.793524,44.186401],[-122.793653,44.191626]]]]}},{"type":"Feature","properties":{"MAPTAXLOT":"1601103000101","MAPNUMBER":"16011030","TAXLOT":"101","ACCTNO":"1232451","MAPACRES":0.23041341},"geometry":{"type":"Polygon","coordinates":[[[-122.798737,44.189014],[-122.798738,44.189014],[-122.799119,44.189011],[-122.799115,44.188737],[-122.798734,44.18874],[-122.798732,44.18874],[-122.798737,44.189014]]]}},{"type":"Feature","properties":{"MAPTAXLOT":"1601103000102","MAPNUMBER":"16011030","TAXLOT":"102","ACCTNO":"1232469","MAPACRES":2.42867587},"geometry":{"type":"Polygon","coordinates":[[[-122.798743,44.189368],[-122.798117,44.189516],[-122.798452,44.190111],[-122.798473,44.190143],[-122.798481,44.190154],[-122.798509,44.190184],[-122.79854,44.190212],[-122.798552,44.19022],[-122.798579,44.190239],[-122.798609,44.190256],[-122.798622,44.190263],[-122.79865,44.190276],[-122.79868,44.190287],[-122.79871,44.190297],[-122.798758,44.190309],[-122.798764,44.190729],[-122.798766,44.190726],[-122.798782,44.1907],[-122.798793,44.190682],[-122.798837,44.190623],[-122.798887,44.190566],[-122.798902,44.19055],[-122.798948,44.190507],[-122.798998,44.190466],[-122.799051,44.190427],[-122.799071,44.190414],[-122.799139,44.190373],[-122.799211,44.190336],[-122.799287,44.190302],[-122.799631,44.190162],[-122.799594,44.190123],[-122.799278,44.18979],[-122.799277,44.189668],[-122.799352,44.189581],[-122.799497,44.189413],[-122.79949,44.189369],[-122.799341,44.189303],[-122.799241,44.189311],[-122.799113,44.189285],[-122.799113,44.189285],[-122.798743,44.189368],[-122.798743,44.189368]]]}},{"type":"Feature","properties":{"MAPTAXLOT":"1601103000103","MAPNUMBER":"16011030","TAXLOT":"103","ACCTNO":"1232477","MAPACRES":3.74948749},"geometry":{"type":"Polygon","coordinates":[[[-122.80056,44.189973],[-122.7994,44.190445],[-122.799331,44.190476],[-122.799266,44.19051],[-122.799206,44.190549],[-122.79915,44.190591],[-122.799099,44.190636],[-122.799053,44.190683],[-122.799013,44.190734],[-122.798979,44.190786],[-122.798951,44.190841],[-122.798929,44.190897],[-122.798914,44.190954],[-122.798906,44.191011],[-122.798904,44.191069],[-122.798908,44.191127],[-122.798923,44.191233],[-122.798926,44.191257],[-122.799095,44.191196],[-122.79977,44.19095],[-122.800092,44.190833],[-122.801191,44.190433],[-122.802035,44.190125],[-122.802355,44.190009],[-122.802553,44.189963],[-122.80056,44.189973]]]}},{"type":"Feature","properties":{"MAPTAXLOT":"1601103000200","MAPNUMBER":"16011030","TAXLOT":"200","ACCTNO":"0029205","MAPACRES":9.13814251},"geometry":{"type":"Polygon","coordinates":[[[-122.798801,44.192961],[-122.798801,44.193012],[-122.79881,44.193546],[-122.803858,44.193577],[-122.803859,44.193577],[-122.803862,44.192998],[-122.803856,44.192998],[-122.803138,44.192782],[-122.800063,44.192631],[-122.798951,44.192789],[-122.798908,44.192795],[-122.798878,44.192852],[-122.798842,44.192908],[-122.798801,44.192961]]]}},{"type":"Feature","properties":{"MAPTAXLOT":"1601103000201","MAPNUMBER":"16011030","TAXLOT":"201","ACCTNO":"0029213","MAPACRES":6.30740495},"geometry":{"type":"Polygon","coordinates":[[[-122.798908,44.192795],[-122.798951,44.192789],[-122.800063,44.192631],[-122.803138,44.192782],[-122.803856,44.192998],[-122.803862,44.192998],[-122.803867,44.192081],[-122.803867,44.192081],[-122.799008,44.192214],[-122.79897,44.192215],[-122.79898,44.192462],[-122.798979,44.192527],[-122.798973,44.192591],[-122.79896,44.192655],[-122.79894,44.192718],[-122.798915,44.19278],[-122.798908,44.192795]]]}},{"type":"Feature","properties":{"MAPTAXLOT":"1601103000300","MAPNUMBER":"16011030","TAXLOT":"300","ACCTNO":"1178969","MAPACRES":15.92545927},"geometry":{"type":"Polygon","coordinates":[[[-122.798926,44.191257],[-122.798932,44.191302],[-122.798894,44.191304],[-122.798911,44.191427],[-122.798934,44.191612],[-122.79895,44.191797],[-122.798961,44.191983],[-122.79897,44.192215],[-122.799008,44.192214],[-122.803867,44.192081],[-122.803867,44.192081],[-122.803875,44.190779],[-122.80235,44.190782],[-122.802354,44.190172],[-122.802354,44.19008],[-122.802354,44.190069],[-122.802355,44.190009],[-122.802035,44.190125],[-122.801191,44.190433],[-122.800092,44.190833],[-122.79977,44.19095],[-122.799095,44.191196],[-122.798926,44.191257]]]}},{"type":"Feature","properties":{"MAPTAXLOT":"1601103001000","MAPNUMBER":"16011030","TAXLOT":"1000","ACCTNO":"0029304","MAPACRES":9.15266784},"geometry":{"type":"Polygon","coordinates":[[[-122.800432,44.18899],[-122.80137,44.188779],[-122.801225,44.186368],[-122.799386,44.186376],[-122.799581,44.188446],[-122.799588,44.188517],[-122.799897,44.188447],[-122.800316,44.188353],[-122.800432,44.18899]]]}},{"type":"Feature","properties":{"MAPTAXLOT":"1601103001100","MAPNUMBER":"16011030","TAXLOT":"1100","ACCTNO":"0029312","MAPACRES":0.60880886},"geometry":{"type":"Polygon","coordinates":[[[-122.799949,44.18873],[-122.800013,44.189084],[-122.800329,44.189013],[-122.800432,44.18899],[-122.800316,44.188353],[-122.799897,44.188447],[-122.799949,44.18873]]]}},{"type":"Feature","properties":{"MAPTAXLOT":"1601103001200","MAPNUMBER":"16011030","TAXLOT":"1200","ACCTNO":"0029320","MAPACRES":0.91447874},"geometry":{"type":"Polygon","coordinates":[[[-122.798704,44.186982],[-122.799396,44.186976],[-122.799386,44.186376],[-122.798694,44.186379],[-122.798704,44.186982]]]}},{"type":"Feature","properties":{"MAPTAXLOT":"1601103001201","MAPNUMBER":"16011030","TAXLOT":"1201","ACCTNO":"0029338","MAPACRES":0.25000342},"geometry":{"type":"Polygon","coordinates":[[[-122.799639,44.188799],[-122.799704,44.189153],[-122.800013,44.189084],[-122.799949,44.18873],[-122.799639,44.188799]]]}},{"type":"Feature","properties":{"MAPTAXLOT":"1601103001202","MAPNUMBER":"16011030","TAXLOT":"1202","ACCTNO":"0029346","MAPACRES":0.39289559},"geometry":{"type":"Polygon","coordinates":[[[-122.799358,44.18863],[-122.799399,44.188853],[-122.799639,44.188799],[-122.799949,44.18873],[-122.799897,44.188447],[-122.799588,44.188517],[-122.799581,44.188446],[-122.799345,44.188499],[-122.799348,44.18857],[-122.799358,44.18863]]]}},{"type":"Feature","properties":{"MAPTAXLOT":"1601103001203","MAPNUMBER":"16011030","TAXLOT":"1203","ACCTNO":"0029353","MAPACRES":2.97909857},"geometry":{"type":"Polygon","coordinates":[[[-122.798732,44.18874],[-122.798734,44.18874],[-122.799115,44.188737],[-122.799358,44.18863],[-122.799348,44.18857],[-122.799345,44.188499],[-122.799581,44.188446],[-122.799386,44.186376],[-122.799396,44.186976],[-122.798704,44.186982],[-122.798732,44.18874]]]}},{"type":"Feature","properties":{"MAPTAXLOT":"1601103001204","MAPNUMBER":"16011030","TAXLOT":"1204","ACCTNO":"0029361","MAPACRES":0.19411994},"geometry":{"type":"Polygon","coordinates":[[[-122.799399,44.188853],[-122.799464,44.189207],[-122.799704,44.189153],[-122.799639,44.188799],[-122.799399,44.188853]]]}},{"type":"Feature","properties":{"MAPTAXLOT":"1601103001300","MAPNUMBER":"16011030","TAXLOT":"1300","ACCTNO":"0029379","MAPACRES":0.63376409},"geometry":{"type":"Polygon","coordinates":[[[-122.798737,44.189014],[-122.798743,44.189368],[-122.798743,44.189368],[-122.798743,44.189368],[-122.799113,44.189285],[-122.799464,44.189207],[-122.799399,44.188853],[-122.799358,44.18863],[-122.799115,44.188737],[-122.799119,44.189011],[-122.798738,44.189014],[-122.798737,44.189014]]]}},{"type":"Feature","properties":{"MAPTAXLOT":"1601103001501","MAPNUMBER":"16011030","TAXLOT":"1501","ACCTNO":"1854866","MAPACRES":2.23166991},"geometry":{"type":"Polygon","coordinates":[[[-122.79949,44.189369],[-122.799497,44.189413],[-122.799352,44.189581],[-122.799277,44.189668],[-122.799278,44.18979],[-122.799594,44.190123],[-122.799631,44.190162],[-122.800156,44.189948],[-122.800647,44.189748],[-122.800467,44.189331],[-122.800329,44.189013],[-122.800013,44.189084],[-122.799704,44.189153],[-122.799464,44.189207],[-122.799113,44.189285],[-122.799113,44.189285],[-122.799241,44.189311],[-122.799341,44.189303],[-122.79949,44.189369]]]}},{"type":"Feature","properties":{"MAPTAXLOT":"1601110000100","MAPNUMBER":"16011100","TAXLOT":"100","ACCTNO":"0029395","MAPACRES":393.77148062},"geometry":{"type":"Polygon","coordinates":[[[-122.763531,44.200042],[-122.773046,44.200955],[-122.773371,44.193224],[-122.783641,44.193661],[-122.783647,44.193662],[-122.783647,44.193659],[-122.783593,44.191075],[-122.783591,44.190949],[-122.783572,44.190056],[-122.783567,44.190055],[-122.778544,44.189837],[-122.778581,44.186232],[-122.778581,44.18623],[-122.773678,44.186009],[-122.768769,44.18579],[-122.768763,44.185789],[-122.768763,44.185792],[-122.768646,44.189405],[-122.763778,44.189192],[-122.763754,44.190253],[-122.763752,44.190369],[-122.763531,44.200042]]]}},{"type":"Feature","properties":{"MAPTAXLOT":"1601110000200","MAPNUMBER":"16011100","TAXLOT":"200","ACCTNO":"0029403","MAPACRES":172.28193449},"geometry":{"type":"Polygon","coordinates":[[[-122.773058,44.200956],[-122.783734,44.2009],[-122.783647,44.193662],[-122.783641,44.193661],[-122.773371,44.193224],[-122.773046,44.200955],[-122.773058,44.200956]]]}},{"type":"Feature","properties":{"MAPTAXLOT":"1601110000300","MAPNUMBER":"16011100","TAXLOT":"300","ACCTNO":"0029411","MAPACRES":39.37735201},"geometry":{"type":"Polygon","coordinates":[[[-122.778544,44.189837],[-122.783567,44.190055],[-122.783572,44.190056],[-122.783498,44.18645],[-122.783498,44.186448],[-122.778586,44.18623],[-122.778581,44.18623],[-122.778581,44.186232],[-122.778544,44.189837]]]}},{"type":"Feature","properties":{"MAPTAXLOT":"1601110000400","MAPNUMBER":"16011100","TAXLOT":"400","ACCTNO":"0029429","MAPACRES":38.85397372},"geometry":{"type":"Polygon","coordinates":[[[-122.763778,44.189192],[-122.768646,44.189405],[-122.768763,44.185792],[-122.768763,44.185789],[-122.76386,44.185571],[-122.763778,44.189192]]]}},{"type":"Feature","properties":{"MAPTAXLOT":"1601120000100","MAPNUMBER":"16011200","TAXLOT":"100","ACCTNO":"0029437","MAPACRES":613.11366238},"geometry":{"type":"Polygon","coordinates":[[[-122.744468,44.199939],[-122.763531,44.200042],[-122.763752,44.190369],[-122.763754,44.190253],[-122.763778,44.189192],[-122.76386,44.185571],[-122.744316,44.185473],[-122.744316,44.185473],[-122.744356,44.18909],[-122.744372,44.190566],[-122.744372,44.190566],[-122.744375,44.190791],[-122.744396,44.192707],[-122.744432,44.196323],[-122.744468,44.199939]]]}},{"type":"Feature","properties":{"MAPTAXLOT":"1615000000700","MAPNUMBER":"16150000","TAXLOT":"700","ACCTNO":"0076560","MAPACRES":637.00295803},"geometry":{"type":"Polygon","coordinates":[[[-122.739369,44.214369],[-122.744394,44.214447],[-122.744412,44.21082],[-122.744431,44.207193],[-122.744449,44.203566],[-122.744468,44.199939],[-122.739117,44.200006],[-122.733767,44.200073],[-122.724073,44.199728],[-122.724179,44.206896],[-122.724235,44.210478],[-122.724292,44.214133],[-122.729318,44.214212],[-122.734343,44.21429],[-122.739369,44.214369]]]}},{"type":"Feature","properties":{"MAPTAXLOT":"1615000000800","MAPNUMBER":"16150000","TAXLOT":"800","ACCTNO":"0076578","MAPACRES":594.96100008},"geometry":{"type":"Polygon","coordinates":[[[-122.739117,44.200006],[-122.744468,44.199939],[-122.744468,44.199939],[-122.744432,44.196323],[-122.744396,44.192707],[-122.744375,44.190791],[-122.744372,44.190566],[-122.744372,44.190566],[-122.744356,44.18909],[-122.739385,44.189065],[-122.739473,44.185444],[-122.734605,44.185415],[-122.724975,44.185411],[-122.72475,44.18899],[-122.724524,44.192569],[-122.724073,44.199728],[-122.733767,44.200073],[-122.739117,44.200006]]]}},{"type":"Feature","properties":{"MAPTAXLOT":"1615000000900","MAPNUMBER":"16150000","TAXLOT":"900","ACCTNO":"0076586","MAPACRES":38.9895416},"geometry":{"type":"Polygon","coordinates":[[[-122.739385,44.189065],[-122.744356,44.18909],[-122.744316,44.185473],[-122.739473,44.185444],[-122.739385,44.189065]]]}},{"type":"Feature","properties":{"MAPTAXLOT":"1615000002500","MAPNUMBER":"16150000","TAXLOT":"2500","ACCTNO":"0076743","MAPACRES":301.47708019},"geometry":{"type":"Polygon","coordinates":[[[-122.739473,44.185444],[-122.744316,44.185473],[-122.744316,44.185473],[-122.744286,44.18184],[-122.744286,44.181839],[-122.744256,44.178207],[-122.725202,44.178345],[-122.724975,44.185411],[-122.734605,44.185415],[-122.739473,44.185444]]]}},{"type":"Feature","properties":{"MAPTAXLOT":"1615000002501","MAPNUMBER":"16150000","TAXLOT":"2501","ACCTNO":"1406774","MAPACRES":295.61018645},"geometry":{"type":"Polygon","coordinates":[[[-122.725202,44.178345],[-122.744256,44.178207],[-122.744256,44.178206],[-122.744216,44.174618],[-122.744216,44.174617],[-122.744175,44.171029],[-122.739366,44.171092],[-122.734721,44.171153],[-122.725429,44.17128],[-122.725202,44.178345]]]}},{"type":"Feature","properties":{"MAPTAXLOT":"1615000002601","MAPNUMBER":"16150000","TAXLOT":"2601","ACCTNO":"1406782","MAPACRES":278.62561958},"geometry":{"type":"Polygon","coordinates":[[[-122.739366,44.171092],[-122.744175,44.171029],[-122.744147,44.167414],[-122.744119,44.1638],[-122.727271,44.164216],[-122.725429,44.17128],[-122.734721,44.171153],[-122.739366,44.171092]]]}}]}