{"type":"FeatureCollection","features":[{"type":"Feature","properties":{"MAPTAXLOT":"2425000000100","MAPNUMBER":"24250000","TAXLOT":"100","ACCTNO":"0976207","MAPACRES":22100.89018319},"geometry":{"type":"Polygon","coordinates":[[[-122.618003,43.527489],[-122.622896,43.527485],[-122.622885,43.525002],[-122.622889,43.523485],[-122.622904,43.519861],[-122.622911,43.517708],[-122.622909,43.516239],[-122.62291,43.512615],[-122.622909,43.510424],[-122.622921,43.508991],[-122.622955,43.505367],[-122.622975,43.503155],[-122.622968,43.501744],[-122.622953,43.498119],[-122.622945,43.495927],[-122.622936,43.494494],[-122.622918,43.490868],[-122.622905,43.488658],[-122.622903,43.487243],[-122.622904,43.483617],[-122.622902,43.481521],[-122.62286,43.479989],[-122.622764,43.476362],[-122.622713,43.474459],[-122.622709,43.472737],[-122.622702,43.46911],[-122.622698,43.467274],[-122.622707,43.465483],[-122.622723,43.461857],[-122.622732,43.460108],[-122.622736,43.458232],[-122.622741,43.454605],[-122.622746,43.452781],[-122.62275,43.45098],[-122.622758,43.447355],[-122.622763,43.445378],[-122.622783,43.44373],[-122.622829,43.440105],[-122.618281,43.44011],[-122.608331,43.440135],[-122.588402,43.440219],[-122.56847,43.440305],[-122.548539,43.440351],[-122.528613,43.440401],[-122.508694,43.440457],[-122.508693,43.441499],[-122.508693,43.447705],[-122.508693,43.448746],[-122.508693,43.454953],[-122.508692,43.455994],[-122.508678,43.462203],[-122.508678,43.463245],[-122.508665,43.469453],[-122.508663,43.470495],[-122.508671,43.476707],[-122.508671,43.477749],[-122.508678,43.483721],[-122.508678,43.483961],[-122.508741,43.491096],[-122.508741,43.491216],[-122.508806,43.498471],[-122.508811,43.505716],[-122.508812,43.505845],[-122.508863,43.509454],[-122.508912,43.512962],[-122.508912,43.513063],[-122.508771,43.520223],[-122.50877,43.520308],[-122.508774,43.527527],[-122.508853,43.527527],[-122.513734,43.527531],[-122.518695,43.527535],[-122.523655,43.52754],[-122.528616,43.527544],[-122.533582,43.527539],[-122.538548,43.527534],[-122.543514,43.527529],[-122.54848,43.527525],[-122.553448,43.527519],[-122.558415,43.527513],[-122.563383,43.527508],[-122.56835,43.527502],[-122.573316,43.527506],[-122.57332,43.527506],[-122.578282,43.52751],[-122.583248,43.527514],[-122.588214,43.527518],[-122.593179,43.527513],[-122.598144,43.527508],[-122.60311,43.527503],[-122.608075,43.527498],[-122.613039,43.527494],[-122.618003,43.527489]]]}},{"type":"Feature","properties":{"MAPTAXLOT":"2435000000500","MAPNUMBER":"24350000","TAXLOT":"500","ACCTNO":"0976256","MAPACRES":14415.10225603},"geometry":{"type":"MultiPolygon","coordinates":[[[[-122.469606,43.491284],[-122.479565,43.491173],[-122.479556,43.498464],[-122.469587,43.498527],[-122.469383,43.513048],[-122.474321,43.513015],[-122.474319,43.516646],[-122.484194,43.516581],[-122.484196,43.512954],[-122.489133,43.512923],[-122.489522,43.498398],[-122.499426,43.498421],[-122.499116,43.509361],[-122.508863,43.509454],[-122.508812,43.505845],[-122.508811,43.505716],[-122.508806,43.498471],[-122.508741,43.491216],[-122.508741,43.491096],[-122.508678,43.483961],[-122.508678,43.483721],[-122.508671,43.477749],[-122.508671,43.476707],[-122.508663,43.470495],[-122.508665,43.469453],[-122.508678,43.463245],[-122.508678,43.462203],[-122.508692,43.455994],[-122.508693,43.454953],[-122.508693,43.448746],[-122.508693,43.447705],[-122.508693,43.441499],[-122.50475,43.441498],[-122.499778,43.441496],[-122.489828,43.441491],[-122.469895,43.441448],[-122.449965,43.441389],[-122.430023,43.441329],[-122.425059,43.441322],[-122.420099,43.441316],[-122.415133,43.441309],[-122.410169,43.441303],[-122.405265,43.441296],[-122.400362,43.441289],[-122.395458,43.441282],[-122.390554,43.441275],[-122.390551,43.444908],[-122.390551,43.445384],[-122.390499,43.448529],[-122.390492,43.44901],[-122.390442,43.452149],[-122.390434,43.452634],[-122.390384,43.45577],[-122.395385,43.455784],[-122.395361,43.459403],[-122.400345,43.459416],[-122.400321,43.463033],[-122.400298,43.466646],[-122.395319,43.466638],[-122.395299,43.470256],[-122.390338,43.470251],[-122.390338,43.47074],[-122.390321,43.474168],[-122.390321,43.474218],[-122.390303,43.477697],[-122.390308,43.481311],[-122.390312,43.484551],[-122.390313,43.484925],[-122.395284,43.484899],[-122.400257,43.484861],[-122.405229,43.484821],[-122.410164,43.48478],[-122.4102,43.484779],[-122.41019,43.488377],[-122.410181,43.491974],[-122.41017,43.495571],[-122.410159,43.498709],[-122.410158,43.499172],[-122.414977,43.499183],[-122.415067,43.499183],[-122.419978,43.499193],[-122.424891,43.499199],[-122.429661,43.499198],[-122.429808,43.499198],[-122.42981,43.498803],[-122.429852,43.491944],[-122.429977,43.484714],[-122.439909,43.484751],[-122.449792,43.484788],[-122.449839,43.484789],[-122.449832,43.491256],[-122.449822,43.498026],[-122.449821,43.498531],[-122.46952,43.498527],[-122.469587,43.498527],[-122.469606,43.491284]]],[[[-122.39534,43.463022],[-122.390357,43.46301],[-122.390357,43.463499],[-122.390348,43.466631],[-122.395319,43.466638],[-122.39534,43.463022]]]]}}]}