{"type":"FeatureCollection","features":[{"type":"Feature","properties":{"MAPTAXLOT":"2202000004900","MAPNUMBER":"22020000","TAXLOT":"4900","ACCTNO":"0968782","MAPACRES":523.99879449},"geometry":{"type":"Polygon","coordinates":[[[-122.969599,43.614648],[-122.969818,43.618214],[-122.981575,43.616281],[-122.986569,43.616328],[-122.991626,43.616375],[-122.991592,43.616245],[-122.990929,43.613671],[-122.990674,43.612683],[-122.990232,43.610968],[-122.989756,43.609122],[-122.989534,43.608264],[-122.988837,43.605561],[-122.986922,43.605543],[-122.985222,43.605528],[-122.983724,43.605516],[-122.980433,43.605486],[-122.978936,43.605473],[-122.975645,43.60544],[-122.974123,43.605425],[-122.970857,43.605391],[-122.96931,43.605375],[-122.969345,43.608228],[-122.969381,43.611082],[-122.969599,43.614648]]]}},{"type":"Feature","properties":{"MAPTAXLOT":"2202000005000","MAPNUMBER":"22020000","TAXLOT":"5000","ACCTNO":"0968790","MAPACRES":200.93210798},"geometry":{"type":"Polygon","coordinates":[[[-122.964913,43.618284],[-122.967365,43.618249],[-122.967195,43.614699],[-122.964791,43.61475],[-122.964671,43.611258],[-122.964569,43.608308],[-122.959715,43.608388],[-122.959805,43.611439],[-122.954913,43.611622],[-122.955008,43.614956],[-122.955104,43.618334],[-122.960008,43.618354],[-122.964913,43.618284]]]}},{"type":"Feature","properties":{"MAPTAXLOT":"2202000005001","MAPNUMBER":"22020000","TAXLOT":"5001","ACCTNO":"1141637","MAPACRES":240.40024475},"geometry":{"type":"Polygon","coordinates":[[[-122.950199,43.618314],[-122.955104,43.618334],[-122.955008,43.614956],[-122.954913,43.611622],[-122.959805,43.611439],[-122.959715,43.608388],[-122.964569,43.608308],[-122.964468,43.605367],[-122.961471,43.605362],[-122.959626,43.60536],[-122.95678,43.605341],[-122.954735,43.605327],[-122.952088,43.60531],[-122.949843,43.605294],[-122.949932,43.608549],[-122.950021,43.611804],[-122.95011,43.615059],[-122.950199,43.618314]]]}},{"type":"Feature","properties":{"MAPTAXLOT":"2202000005100","MAPNUMBER":"22020000","TAXLOT":"5100","ACCTNO":"0968808","MAPACRES":61.39794449},"geometry":{"type":"Polygon","coordinates":[[[-122.964569,43.608308],[-122.964671,43.611258],[-122.969381,43.611082],[-122.969345,43.608228],[-122.96931,43.605375],[-122.966164,43.60537],[-122.964468,43.605367],[-122.964569,43.608308]]]}},{"type":"Feature","properties":{"MAPTAXLOT":"2202000005200","MAPNUMBER":"22020000","TAXLOT":"5200","ACCTNO":"0968816","MAPACRES":544.68270129},"geometry":{"type":"Polygon","coordinates":[[[-122.940531,43.618291],[-122.950199,43.618314],[-122.95011,43.615059],[-122.950021,43.611804],[-122.949932,43.608549],[-122.949843,43.605294],[-122.947499,43.60528],[-122.945405,43.605268],[-122.942645,43.605251],[-122.940702,43.605239],[-122.93779,43.605222],[-122.935993,43.605211],[-122.932935,43.605193],[-122.931285,43.605181],[-122.931243,43.608456],[-122.931201,43.611732],[-122.931146,43.615007],[-122.931091,43.618282],[-122.935811,43.618287],[-122.940531,43.618291]]]}},{"type":"Feature","properties":{"MAPTAXLOT":"2203000003900","MAPNUMBER":"22030000","TAXLOT":"3900","ACCTNO":"0969285","MAPACRES":649.84500719},"geometry":{"type":"Polygon","coordinates":[[[-123.006467,43.620175],[-123.011531,43.620183],[-123.016594,43.620191],[-123.021658,43.620198],[-123.026721,43.620206],[-123.026773,43.613085],[-123.026787,43.609505],[-123.026802,43.605771],[-123.023074,43.605777],[-123.021703,43.605783],[-123.019978,43.605783],[-123.01997,43.605783],[-123.018125,43.605786],[-123.01659,43.605785],[-123.013178,43.605782],[-123.011484,43.605781],[-123.008524,43.605779],[-123.008231,43.605775],[-123.006377,43.605749],[-123.006397,43.609504],[-123.006415,43.612904],[-123.006441,43.61654],[-123.006467,43.620175]]]}},{"type":"Feature","properties":{"MAPTAXLOT":"2203000004000","MAPNUMBER":"22030000","TAXLOT":"4000","ACCTNO":"0969293","MAPACRES":503.4477284},"geometry":{"type":"Polygon","coordinates":[[[-122.997528,43.61994],[-123.006467,43.620175],[-123.006441,43.61654],[-123.006415,43.612904],[-123.006397,43.609504],[-123.006377,43.605749],[-123.002903,43.605701],[-123.001335,43.60568],[-122.998585,43.605641],[-122.997575,43.605633],[-122.996294,43.605621],[-122.992249,43.60559],[-122.991254,43.605581],[-122.988863,43.605561],[-122.988837,43.605561],[-122.989534,43.608264],[-122.989756,43.609122],[-122.990232,43.610968],[-122.990674,43.612683],[-122.990929,43.613671],[-122.991592,43.616245],[-122.991626,43.616375],[-122.991595,43.619866],[-122.99162,43.619866],[-122.992595,43.619869],[-122.997528,43.61994]]]}},{"type":"Feature","properties":{"MAPTAXLOT":"2302000000500","MAPNUMBER":"23020000","TAXLOT":"500","ACCTNO":"0973477","MAPACRES":563.93319314},"geometry":{"type":"Polygon","coordinates":[[[-122.949843,43.605294],[-122.952088,43.60531],[-122.952055,43.604185],[-122.951947,43.600082],[-122.951763,43.591877],[-122.941975,43.591984],[-122.932544,43.59191],[-122.932875,43.598797],[-122.932924,43.603895],[-122.932935,43.605193],[-122.935993,43.605211],[-122.93779,43.605222],[-122.940702,43.605239],[-122.942645,43.605251],[-122.945405,43.605268],[-122.947499,43.60528],[-122.949843,43.605294]]]}},{"type":"Feature","properties":{"MAPTAXLOT":"2302000000600","MAPNUMBER":"23020000","TAXLOT":"600","ACCTNO":"0973485","MAPACRES":579.01548222},"geometry":{"type":"Polygon","coordinates":[[[-122.96931,43.605375],[-122.970857,43.605391],[-122.97089,43.604084],[-122.97092,43.60289],[-122.971031,43.598715],[-122.971077,43.59512],[-122.971123,43.591526],[-122.966283,43.591587],[-122.961444,43.591648],[-122.956603,43.591763],[-122.951763,43.591877],[-122.951947,43.600082],[-122.952055,43.604185],[-122.952088,43.60531],[-122.954735,43.605327],[-122.95678,43.605341],[-122.959626,43.60536],[-122.961471,43.605362],[-122.964468,43.605367],[-122.966164,43.60537],[-122.96931,43.605375]]]}},{"type":"Feature","properties":{"MAPTAXLOT":"2302000000700","MAPNUMBER":"23020000","TAXLOT":"700","ACCTNO":"0973493","MAPACRES":37.81286455},"geometry":{"type":"Polygon","coordinates":[[[-122.971077,43.59512],[-122.975725,43.595409],[-122.975754,43.591653],[-122.971123,43.591526],[-122.971077,43.59512]]]}},{"type":"Feature","properties":{"MAPTAXLOT":"2302000000800","MAPNUMBER":"23020000","TAXLOT":"800","ACCTNO":"0973501","MAPACRES":443.67928867},"geometry":{"type":"Polygon","coordinates":[[[-122.985222,43.605528],[-122.986922,43.605543],[-122.986906,43.604366],[-122.986875,43.601878],[-122.986854,43.600231],[-122.986829,43.598266],[-122.986802,43.596095],[-122.98678,43.59444],[-122.986749,43.591958],[-122.985019,43.59191],[-122.980386,43.591782],[-122.975754,43.591653],[-122.975725,43.595409],[-122.971077,43.59512],[-122.971031,43.598715],[-122.97092,43.60289],[-122.97089,43.604084],[-122.970857,43.605391],[-122.974123,43.605425],[-122.975645,43.60544],[-122.978936,43.605473],[-122.980433,43.605486],[-122.983724,43.605516],[-122.985222,43.605528]]]}},{"type":"Feature","properties":{"MAPTAXLOT":"2302000000900","MAPNUMBER":"23020000","TAXLOT":"900","ACCTNO":"0973519","MAPACRES":510.41210933},"geometry":{"type":"Polygon","coordinates":[[[-122.985019,43.59191],[-122.986749,43.591958],[-122.986733,43.590613],[-122.986851,43.588311],[-122.98689,43.587003],[-122.987015,43.584635],[-122.98705,43.583394],[-122.987182,43.580959],[-122.987222,43.579636],[-122.987345,43.577283],[-122.985502,43.57728],[-122.980741,43.577223],[-122.975875,43.577299],[-122.97101,43.577375],[-122.971114,43.584377],[-122.971123,43.591526],[-122.975754,43.591653],[-122.980386,43.591782],[-122.985019,43.59191]]]}},{"type":"Feature","properties":{"MAPTAXLOT":"2302000001000","MAPNUMBER":"23020000","TAXLOT":"1000","ACCTNO":"0973527","MAPACRES":609.32477159},"geometry":{"type":"Polygon","coordinates":[[[-122.966283,43.591587],[-122.971123,43.591526],[-122.971114,43.584377],[-122.97101,43.577375],[-122.951924,43.577584],[-122.951613,43.584827],[-122.951763,43.591877],[-122.956603,43.591763],[-122.961444,43.591648],[-122.966283,43.591587]]]}},{"type":"Feature","properties":{"MAPTAXLOT":"2302000001100","MAPNUMBER":"23020000","TAXLOT":"1100","ACCTNO":"0973535","MAPACRES":607.45880943},"geometry":{"type":"Polygon","coordinates":[[[-122.941975,43.591984],[-122.951763,43.591877],[-122.951613,43.584827],[-122.951924,43.577584],[-122.942186,43.577686],[-122.932599,43.577683],[-122.932552,43.581139],[-122.932505,43.584594],[-122.932524,43.588252],[-122.932544,43.59191],[-122.941975,43.591984]]]}},{"type":"Feature","properties":{"MAPTAXLOT":"2302000002500","MAPNUMBER":"23020000","TAXLOT":"2500","ACCTNO":"0973709","MAPACRES":580.86647873},"geometry":{"type":"Polygon","coordinates":[[[-122.942186,43.577686],[-122.951924,43.577584],[-122.951678,43.563536],[-122.931795,43.565102],[-122.932599,43.577683],[-122.942186,43.577686]]]}},{"type":"Feature","properties":{"MAPTAXLOT":"2302000002600","MAPNUMBER":"23020000","TAXLOT":"2600","ACCTNO":"0973717","MAPACRES":604.65891837},"geometry":{"type":"Polygon","coordinates":[[[-122.951924,43.577584],[-122.97101,43.577375],[-122.971012,43.573768],[-122.971013,43.57016],[-122.970876,43.566553],[-122.970738,43.562946],[-122.965973,43.563094],[-122.961208,43.563242],[-122.956443,43.563389],[-122.951678,43.563536],[-122.951924,43.577584]]]}},{"type":"Feature","properties":{"MAPTAXLOT":"2302000002700","MAPNUMBER":"23020000","TAXLOT":"2700","ACCTNO":"0973725","MAPACRES":205.05632479},"geometry":{"type":"Polygon","coordinates":[[[-122.985502,43.57728],[-122.987345,43.577283],[-122.987253,43.57591],[-122.987246,43.57369],[-122.985461,43.573699],[-122.980675,43.573722],[-122.980607,43.570123],[-122.97574,43.570142],[-122.971013,43.57016],[-122.971012,43.573768],[-122.97101,43.577375],[-122.975875,43.577299],[-122.980741,43.577223],[-122.985502,43.57728]]]}},{"type":"Feature","properties":{"MAPTAXLOT":"2302000002800","MAPNUMBER":"23020000","TAXLOT":"2800","ACCTNO":"0973733","MAPACRES":313.86757049},"geometry":{"type":"Polygon","coordinates":[[[-122.970876,43.566553],[-122.971013,43.57016],[-122.97574,43.570142],[-122.980607,43.570123],[-122.980675,43.573722],[-122.985461,43.573699],[-122.987246,43.57369],[-122.987239,43.572292],[-122.987231,43.570097],[-122.987238,43.568673],[-122.987258,43.566499],[-122.987267,43.565009],[-122.987287,43.562902],[-122.985339,43.562917],[-122.980471,43.562945],[-122.975605,43.562946],[-122.970738,43.562946],[-122.970876,43.566553]]]}},{"type":"Feature","properties":{"MAPTAXLOT":"2302000002900","MAPNUMBER":"23020000","TAXLOT":"2900","ACCTNO":"0973741","MAPACRES":544.06997283},"geometry":{"type":"Polygon","coordinates":[[[-122.985339,43.562917],[-122.987287,43.562902],[-122.987309,43.561345],[-122.987412,43.559244],[-122.98749,43.557682],[-122.987593,43.555587],[-122.987653,43.554018],[-122.987767,43.551929],[-122.987855,43.550332],[-122.987967,43.548272],[-122.985887,43.548281],[-122.980866,43.548327],[-122.970778,43.548498],[-122.970768,43.55211],[-122.970758,43.555722],[-122.970748,43.559334],[-122.970738,43.562946],[-122.975605,43.562946],[-122.980471,43.562945],[-122.985339,43.562917]]]}},{"type":"Feature","properties":{"MAPTAXLOT":"2302000003000","MAPNUMBER":"23020000","TAXLOT":"3000","ACCTNO":"0973758","MAPACRES":297.79736246},"geometry":{"type":"Polygon","coordinates":[[[-122.956424,43.559879],[-122.956443,43.563389],[-122.961208,43.563242],[-122.965973,43.563094],[-122.970738,43.562946],[-122.970748,43.559334],[-122.970758,43.555722],[-122.965957,43.55594],[-122.961156,43.556157],[-122.961131,43.552741],[-122.956387,43.553051],[-122.956405,43.556372],[-122.951775,43.556582],[-122.95173,43.560057],[-122.956424,43.559879]]]}},{"type":"Feature","properties":{"MAPTAXLOT":"2302000003100","MAPNUMBER":"23020000","TAXLOT":"3100","ACCTNO":"0973766","MAPACRES":191.89576067},"geometry":{"type":"Polygon","coordinates":[[[-122.961131,43.552741],[-122.961156,43.556157],[-122.965957,43.55594],[-122.970758,43.555722],[-122.970768,43.55211],[-122.970778,43.548498],[-122.965941,43.548745],[-122.961104,43.548992],[-122.956369,43.549562],[-122.956387,43.553051],[-122.961131,43.552741]]]}},{"type":"Feature","properties":{"MAPTAXLOT":"2302000003200","MAPNUMBER":"23020000","TAXLOT":"3200","ACCTNO":"0973774","MAPACRES":36.655808},"geometry":{"type":"Polygon","coordinates":[[[-122.95173,43.560057],[-122.951678,43.563536],[-122.956443,43.563389],[-122.956424,43.559879],[-122.95173,43.560057]]]}},{"type":"Feature","properties":{"MAPTAXLOT":"2302000003300","MAPNUMBER":"23020000","TAXLOT":"3300","ACCTNO":"0973782","MAPACRES":68.94586801},"geometry":{"type":"Polygon","coordinates":[[[-122.951704,43.553357],[-122.951775,43.556582],[-122.956405,43.556372],[-122.956387,43.553051],[-122.956369,43.549562],[-122.951634,43.550131],[-122.951704,43.553357]]]}},{"type":"Feature","properties":{"MAPTAXLOT":"2302000003400","MAPNUMBER":"23020000","TAXLOT":"3400","ACCTNO":"0973790","MAPACRES":587.20825554},"geometry":{"type":"Polygon","coordinates":[[[-122.931823,43.561627],[-122.931795,43.565102],[-122.951678,43.563536],[-122.95173,43.560057],[-122.951775,43.556582],[-122.951704,43.553357],[-122.951634,43.550131],[-122.942062,43.550999],[-122.932372,43.551459],[-122.932111,43.554805],[-122.931851,43.558152],[-122.931823,43.561627]]]}},{"type":"Feature","properties":{"MAPTAXLOT":"2302000004500","MAPNUMBER":"23020000","TAXLOT":"4500","ACCTNO":"0973915","MAPACRES":305.75419603},"geometry":{"type":"Polygon","coordinates":[[[-122.932516,43.54436],[-122.932372,43.551459],[-122.942062,43.550999],[-122.951634,43.550131],[-122.951837,43.543125],[-122.932516,43.54436]]]}},{"type":"Feature","properties":{"MAPTAXLOT":"2302000004600","MAPNUMBER":"23020000","TAXLOT":"4600","ACCTNO":"0973923","MAPACRES":287.68781506},"geometry":{"type":"Polygon","coordinates":[[[-122.951837,43.543125],[-122.951634,43.550131],[-122.956369,43.549562],[-122.961104,43.548992],[-122.965941,43.548745],[-122.970778,43.548498],[-122.970759,43.54501],[-122.970741,43.541523],[-122.951837,43.543125]]]}},{"type":"Feature","properties":{"MAPTAXLOT":"2302000004700","MAPNUMBER":"23020000","TAXLOT":"4700","ACCTNO":"0973931","MAPACRES":266.24216676},"geometry":{"type":"Polygon","coordinates":[[[-122.970778,43.548498],[-122.980866,43.548327],[-122.985887,43.548281],[-122.987967,43.548272],[-122.988015,43.547403],[-122.988057,43.546657],[-122.987964,43.544746],[-122.987886,43.542961],[-122.987814,43.541245],[-122.987775,43.541245],[-122.98579,43.541278],[-122.980785,43.54136],[-122.970741,43.541523],[-122.970759,43.54501],[-122.970778,43.548498]]]}},{"type":"Feature","properties":{"MAPTAXLOT":"2303000000100","MAPNUMBER":"23030000","TAXLOT":"100","ACCTNO":"0973949","MAPACRES":673.36513729},"geometry":{"type":"Polygon","coordinates":[[[-123.006377,43.605749],[-123.008231,43.605775],[-123.007616,43.602006],[-123.007031,43.598328],[-123.007135,43.594716],[-123.007239,43.591104],[-123.002112,43.590982],[-122.996986,43.590859],[-122.99186,43.590736],[-122.986829,43.590615],[-122.986733,43.590613],[-122.986749,43.591958],[-122.98678,43.59444],[-122.986802,43.596095],[-122.986829,43.598266],[-122.986854,43.600231],[-122.986875,43.601878],[-122.986906,43.604366],[-122.986922,43.605543],[-122.988837,43.605561],[-122.988863,43.605561],[-122.991254,43.605581],[-122.992249,43.60559],[-122.996294,43.605621],[-122.997575,43.605633],[-122.998585,43.605641],[-123.001335,43.60568],[-123.002903,43.605701],[-123.006377,43.605749]]]}},{"type":"Feature","properties":{"MAPTAXLOT":"2303000000200","MAPNUMBER":"23030000","TAXLOT":"200","ACCTNO":"0973956","MAPACRES":576.84575827},"geometry":{"type":"Polygon","coordinates":[[[-123.026802,43.605771],[-123.028023,43.605768],[-123.028004,43.602219],[-123.027986,43.59867],[-123.028003,43.595135],[-123.028019,43.5916],[-123.022593,43.591463],[-123.017474,43.591332],[-123.017636,43.594927],[-123.01256,43.594825],[-123.007135,43.594716],[-123.007031,43.598328],[-123.007616,43.602006],[-123.008231,43.605775],[-123.008524,43.605779],[-123.011484,43.605781],[-123.013178,43.605782],[-123.01659,43.605785],[-123.018125,43.605786],[-123.01997,43.605783],[-123.019978,43.605783],[-123.021703,43.605783],[-123.023074,43.605777],[-123.026802,43.605771]]]}},{"type":"Feature","properties":{"MAPTAXLOT":"2303000000400","MAPNUMBER":"23030000","TAXLOT":"400","ACCTNO":"0973964","MAPACRES":82.80552854},"geometry":{"type":"Polygon","coordinates":[[[-123.01256,43.594825],[-123.017636,43.594927],[-123.017474,43.591332],[-123.012356,43.591218],[-123.007239,43.591104],[-123.007135,43.594716],[-123.01256,43.594825]]]}},{"type":"Feature","properties":{"MAPTAXLOT":"2303000000800","MAPNUMBER":"23030000","TAXLOT":"800","ACCTNO":"0974004","MAPACRES":660.03299695},"geometry":{"type":"Polygon","coordinates":[[[-123.002112,43.590982],[-123.007239,43.591104],[-123.006987,43.587362],[-123.006743,43.583756],[-123.006988,43.579823],[-123.007233,43.575891],[-122.997352,43.575939],[-122.987324,43.57591],[-122.987253,43.57591],[-122.987345,43.577283],[-122.987222,43.579636],[-122.987182,43.580959],[-122.98705,43.583394],[-122.987015,43.584635],[-122.98689,43.587003],[-122.986851,43.588311],[-122.986733,43.590613],[-122.986829,43.590615],[-122.99186,43.590736],[-122.996986,43.590859],[-123.002112,43.590982]]]}},{"type":"Feature","properties":{"MAPTAXLOT":"2303000000900","MAPNUMBER":"23030000","TAXLOT":"900","ACCTNO":"0974012","MAPACRES":650.09849103},"geometry":{"type":"Polygon","coordinates":[[[-122.987253,43.57591],[-122.987324,43.57591],[-122.997352,43.575939],[-123.007233,43.575891],[-123.007472,43.568624],[-123.007337,43.561357],[-122.987368,43.561345],[-122.987309,43.561345],[-122.987287,43.562902],[-122.987267,43.565009],[-122.987258,43.566499],[-122.987238,43.568673],[-122.987231,43.570097],[-122.987239,43.572292],[-122.987246,43.57369],[-122.987253,43.57591]]]}},{"type":"Feature","properties":{"MAPTAXLOT":"2303000001000","MAPNUMBER":"23030000","TAXLOT":"1000","ACCTNO":"0974020","MAPACRES":640.66297732},"geometry":{"type":"Polygon","coordinates":[[[-123.017429,43.575809],[-123.017576,43.57581],[-123.017577,43.57581],[-123.022433,43.575867],[-123.027346,43.575919],[-123.027307,43.568641],[-123.027268,43.561364],[-123.007337,43.561357],[-123.007472,43.568624],[-123.007233,43.575891],[-123.012402,43.575853],[-123.017429,43.575809]]]}},{"type":"Feature","properties":{"MAPTAXLOT":"2303000002200","MAPNUMBER":"23030000","TAXLOT":"2200","ACCTNO":"0974152","MAPACRES":638.72645672},"geometry":{"type":"Polygon","coordinates":[[[-123.007337,43.561357],[-123.027268,43.561364],[-123.027295,43.554054],[-123.027508,43.546845],[-123.017596,43.546836],[-123.007694,43.546827],[-123.007337,43.561357]]]}},{"type":"Feature","properties":{"MAPTAXLOT":"2303000002300","MAPNUMBER":"23030000","TAXLOT":"2300","ACCTNO":"0974160","MAPACRES":643.13191649},"geometry":{"type":"Polygon","coordinates":[[[-122.987309,43.561345],[-122.987368,43.561345],[-123.007337,43.561357],[-123.007694,43.546827],[-122.997873,43.546742],[-122.988065,43.546657],[-122.988057,43.546657],[-122.988057,43.546657],[-122.988015,43.547403],[-122.987967,43.548272],[-122.987855,43.550332],[-122.987767,43.551929],[-122.987653,43.554018],[-122.987593,43.555587],[-122.98749,43.557682],[-122.987412,43.559244],[-122.987309,43.561345]]]}},{"type":"Feature","properties":{"MAPTAXLOT":"2303000002400","MAPNUMBER":"23030000","TAXLOT":"2400","ACCTNO":"0974178","MAPACRES":321.3954654},"geometry":{"type":"Polygon","coordinates":[[[-122.988057,43.546657],[-122.988057,43.546657],[-122.988065,43.546657],[-122.997873,43.546742],[-123.007694,43.546827],[-123.007677,43.539578],[-122.987718,43.539266],[-122.987814,43.541237],[-122.987814,43.541245],[-122.987886,43.542961],[-122.987964,43.544746],[-122.988057,43.546657]]]}},{"type":"Feature","properties":{"MAPTAXLOT":"2303000002500","MAPNUMBER":"23030000","TAXLOT":"2500","ACCTNO":"0974186","MAPACRES":318.47754006},"geometry":{"type":"Polygon","coordinates":[[[-123.017596,43.546836],[-123.027508,43.546845],[-123.027538,43.543224],[-123.027569,43.539631],[-123.007677,43.539578],[-123.007694,43.546827],[-123.017596,43.546836]]]}},{"type":"Feature","properties":{"MAPTAXLOT":"2303110000100","MAPNUMBER":"23031100","TAXLOT":"100","ACCTNO":"0974756","MAPACRES":366.63686281},"geometry":{"type":"Polygon","coordinates":[[[-123.012379,43.583618],[-123.006743,43.583756],[-123.006987,43.587362],[-123.007239,43.591104],[-123.012356,43.591218],[-123.017474,43.591332],[-123.022593,43.591463],[-123.028019,43.5916],[-123.028069,43.587338],[-123.028117,43.58323],[-123.02279,43.58338],[-123.017523,43.583491],[-123.012379,43.583618]]]}},{"type":"Feature","properties":{"MAPTAXLOT":"2303110000200","MAPNUMBER":"23031100","TAXLOT":"200","ACCTNO":"0974764","MAPACRES":178.14483074},"geometry":{"type":"Polygon","coordinates":[[[-123.006743,43.583756],[-123.012379,43.583618],[-123.017523,43.583491],[-123.02279,43.58338],[-123.022542,43.579628],[-123.017452,43.579648],[-123.017429,43.575816],[-123.017429,43.575809],[-123.012402,43.575853],[-123.012391,43.579759],[-123.006988,43.579823],[-123.006743,43.583756]]]}},{"type":"Feature","properties":{"MAPTAXLOT":"2303110000400","MAPNUMBER":"23031100","TAXLOT":"400","ACCTNO":"0974780","MAPACRES":45.91599432},"geometry":{"type":"Polygon","coordinates":[[[-123.006988,43.579823],[-123.012391,43.579759],[-123.012402,43.575853],[-123.007233,43.575891],[-123.006988,43.579823]]]}}]}