{"type":"FeatureCollection","features":[{"type":"Feature","properties":{"MAPTAXLOT":"1525000000700","MAPNUMBER":"15250000","TAXLOT":"700","ACCTNO":"0027134","MAPACRES":610.4545711},"geometry":{"type":"Polygon","coordinates":[[[-122.595554,44.244379],[-122.596824,44.244558],[-122.597929,44.244247],[-122.601654,44.244262],[-122.60384,44.24399],[-122.60384,44.243266],[-122.60381,44.228873],[-122.59377,44.22891],[-122.583687,44.228851],[-122.58366,44.238497],[-122.586565,44.23971],[-122.589081,44.241128],[-122.589395,44.241746],[-122.592936,44.243227],[-122.593366,44.244374],[-122.595554,44.244379]]]}}]}