{"type":"FeatureCollection","features":[{"type":"Feature","properties":{"MAPTAXLOT":"1545000000100","MAPNUMBER":"15450000","TAXLOT":"100","ACCTNO":"0027365","MAPACRES":6738.10762701},"geometry":{"type":"MultiPolygon","coordinates":[[[[-122.263899,44.22377],[-122.263901,44.224878],[-122.263905,44.227388],[-122.26391,44.231006],[-122.263915,44.234624],[-122.263921,44.238241],[-122.263923,44.239359],[-122.263928,44.241863],[-122.263934,44.245485],[-122.263941,44.249107],[-122.263948,44.252729],[-122.284016,44.252768],[-122.304059,44.252776],[-122.32402,44.252776],[-122.327464,44.252768],[-122.328461,44.251775],[-122.328711,44.250737],[-122.330254,44.248617],[-122.330585,44.247667],[-122.331588,44.245979],[-122.331478,44.245103],[-122.331945,44.244156],[-122.332601,44.243515],[-122.332502,44.242636],[-122.331816,44.241294],[-122.330498,44.239611],[-122.328162,44.238265],[-122.326408,44.237246],[-122.328764,44.2347],[-122.327329,44.231202],[-122.330732,44.229424],[-122.331416,44.227695],[-122.336824,44.226851],[-122.339968,44.224618],[-122.340055,44.223744],[-122.340238,44.221897],[-122.344115,44.221518],[-122.344251,44.221521],[-122.344331,44.213467],[-122.344169,44.213366],[-122.343622,44.213026],[-122.343031,44.213673],[-122.338319,44.211398],[-122.338325,44.211391],[-122.339036,44.210615],[-122.339011,44.210603],[-122.336464,44.209382],[-122.334211,44.209367],[-122.334147,44.209366],[-122.324307,44.209298],[-122.32398,44.209297],[-122.31911,44.209297],[-122.31424,44.209297],[-122.309207,44.209297],[-122.304173,44.209297],[-122.303966,44.209294],[-122.299026,44.209293],[-122.294086,44.209292],[-122.289039,44.209291],[-122.283992,44.20929],[-122.264476,44.209287],[-122.264479,44.20929],[-122.26456,44.209431],[-122.264611,44.209616],[-122.264616,44.209802],[-122.264622,44.209998],[-122.26458,44.210141],[-122.26451,44.210317],[-122.264515,44.210514],[-122.264535,44.210677],[-122.2646,44.210807],[-122.264696,44.210959],[-122.264744,44.211057],[-122.264806,44.21111],[-122.264841,44.211263],[-122.264816,44.211449],[-122.26476,44.211603],[-122.264703,44.211746],[-122.264647,44.2119],[-122.264589,44.211977],[-122.264561,44.212087],[-122.264458,44.212187],[-122.264385,44.212275],[-122.264265,44.212343],[-122.264176,44.212421],[-122.264056,44.212488],[-122.263906,44.212534],[-122.263887,44.212548],[-122.263888,44.212907],[-122.263888,44.212999],[-122.26389,44.214789],[-122.263932,44.214982],[-122.264016,44.215243],[-122.264098,44.215461],[-122.26415,44.215679],[-122.2642,44.215842],[-122.264237,44.21606],[-122.264272,44.216223],[-122.264322,44.216376],[-122.26439,44.216626],[-122.26447,44.216756],[-122.26455,44.216886],[-122.2646,44.217038],[-122.264665,44.217168],[-122.264686,44.217376],[-122.264737,44.217561],[-122.264742,44.217736],[-122.264776,44.217866],[-122.264825,44.217975],[-122.264873,44.21804],[-122.264965,44.218093],[-122.264956,44.21829],[-122.265006,44.218442],[-122.265101,44.218583],[-122.265181,44.218713],[-122.265292,44.218875],[-122.265434,44.219048],[-122.265544,44.219177],[-122.265641,44.219362],[-122.265737,44.219524],[-122.265772,44.219698],[-122.265791,44.219807],[-122.265765,44.21995],[-122.265678,44.220093],[-122.26559,44.220204],[-122.265547,44.220303],[-122.265397,44.220382],[-122.265217,44.220461],[-122.265097,44.220518],[-122.26505,44.220541],[-122.265073,44.22059],[-122.265149,44.220791],[-122.265006,44.220926],[-122.264658,44.22114],[-122.264248,44.22133],[-122.263926,44.221448],[-122.263897,44.221462],[-122.263899,44.22377]]],[[[-122.263892,44.216528],[-122.263894,44.219005],[-122.263945,44.21908],[-122.26431,44.219503],[-122.26467,44.219907],[-122.264903,44.220225],[-122.26502,44.220477],[-122.26515,44.22042],[-122.26528,44.220336],[-122.265346,44.220287],[-122.265411,44.220266],[-122.265468,44.220258],[-122.265504,44.220176],[-122.265615,44.220065],[-122.265613,44.219989],[-122.265573,44.219922],[-122.265589,44.219819],[-122.265615,44.219729],[-122.265583,44.219627],[-122.265503,44.219485],[-122.265414,44.219377],[-122.265268,44.219263],[-122.265227,44.219181],[-122.265215,44.219072],[-122.265153,44.218916],[-122.265073,44.218773],[-122.264993,44.218651],[-122.264922,44.218509],[-122.264843,44.218394],[-122.264772,44.218251],[-122.264722,44.218163],[-122.264681,44.218061],[-122.264687,44.217931],[-122.264636,44.217822],[-122.264613,44.217699],[-122.264591,44.21757],[-122.264558,44.21742],[-122.264545,44.217317],[-122.264465,44.217189],[-122.264347,44.21704],[-122.264257,44.216911],[-122.264197,44.216796],[-122.264225,44.216782],[-122.264144,44.216612],[-122.264118,44.216387],[-122.264075,44.216196],[-122.264041,44.216018],[-122.263998,44.215862],[-122.263964,44.215678],[-122.263891,44.215446],[-122.263892,44.216528]]],[[[-122.263885,44.210394],[-122.263887,44.212327],[-122.264035,44.212236],[-122.264137,44.212152],[-122.26422,44.212055],[-122.264303,44.211965],[-122.264423,44.211861],[-122.264495,44.211709],[-122.264567,44.211578],[-122.264611,44.21144],[-122.264626,44.211324],[-122.264575,44.211188],[-122.264501,44.21095],[-122.264409,44.210732],[-122.264308,44.210535],[-122.264295,44.210419],[-122.264341,44.210343],[-122.264386,44.210267],[-122.264422,44.210198],[-122.26441,44.210116],[-122.26438,44.210069],[-122.264351,44.210042],[-122.264359,44.209994],[-122.264404,44.209891],[-122.264449,44.209801],[-122.264445,44.209685],[-122.264402,44.209494],[-122.26435,44.209372],[-122.264302,44.209287],[-122.263884,44.209287],[-122.263885,44.210394]]],[[[-122.263895,44.220149],[-122.263896,44.220781],[-122.264161,44.220771],[-122.264283,44.220714],[-122.264472,44.22067],[-122.264698,44.220598],[-122.264906,44.22054],[-122.264927,44.220535],[-122.264798,44.220258],[-122.264571,44.219948],[-122.264213,44.219547],[-122.263896,44.21918],[-122.263894,44.219178],[-122.263895,44.220149]]],[[[-122.264855,44.220623],[-122.264714,44.22068],[-122.264535,44.220738],[-122.264318,44.220802],[-122.264139,44.22086],[-122.263968,44.220862],[-122.263896,44.220875],[-122.263897,44.221366],[-122.264191,44.221258],[-122.264589,44.221074],[-122.264922,44.220869],[-122.265024,44.220773],[-122.264964,44.220614],[-122.264946,44.220576],[-122.264855,44.220623]]]]}},{"type":"Feature","properties":{"MAPTAXLOT":"1545310000100","MAPNUMBER":"15453100","TAXLOT":"100","ACCTNO":"0027373","MAPACRES":21.73757855},"geometry":{"type":"MultiPolygon","coordinates":[[[[-122.374486,44.210591],[-122.38035,44.209464],[-122.374083,44.209425],[-122.373959,44.209425],[-122.36834,44.209385],[-122.374486,44.210591]]],[[[-122.384566,44.211025],[-122.384566,44.211025],[-122.384569,44.209471],[-122.384569,44.209466],[-122.383849,44.209477],[-122.383546,44.210155],[-122.38354,44.210168],[-122.382422,44.20948],[-122.382413,44.209475],[-122.380613,44.209466],[-122.382077,44.210113],[-122.3824,44.210067],[-122.384566,44.211025]]],[[[-122.366242,44.209879],[-122.367402,44.209355],[-122.365806,44.209346],[-122.365801,44.209345],[-122.366242,44.209879]]]]}},{"type":"Feature","properties":{"MAPTAXLOT":"1545320000100","MAPNUMBER":"15453200","TAXLOT":"100","ACCTNO":"0027423","MAPACRES":128.47220385},"geometry":{"type":"MultiPolygon","coordinates":[[[[-122.344251,44.221521],[-122.346593,44.221577],[-122.350875,44.220869],[-122.350165,44.220678],[-122.350372,44.219074],[-122.35216,44.219565],[-122.350043,44.218123],[-122.349657,44.217771],[-122.349529,44.217807],[-122.349474,44.217604],[-122.349433,44.217566],[-122.345832,44.2144],[-122.344331,44.213467],[-122.344251,44.221521]]],[[[-122.357366,44.211613],[-122.356471,44.212075],[-122.357814,44.213595],[-122.35862,44.213072],[-122.358362,44.212726],[-122.357973,44.21226],[-122.35973,44.211215],[-122.360118,44.211682],[-122.360328,44.211966],[-122.360744,44.211697],[-122.363898,44.211911],[-122.363934,44.211602],[-122.3638,44.211508],[-122.360999,44.20967],[-122.360841,44.209447],[-122.360774,44.209353],[-122.360771,44.209353],[-122.355923,44.209378],[-122.357366,44.211613]]],[[[-122.353082,44.213233],[-122.353432,44.212499],[-122.351711,44.210707],[-122.351314,44.210079],[-122.347991,44.211687],[-122.34792,44.211721],[-122.349785,44.21146],[-122.350322,44.21299],[-122.350322,44.212991],[-122.350884,44.212868],[-122.352892,44.212635],[-122.353082,44.213233]]],[[[-122.35605,44.214408],[-122.35685,44.215029],[-122.357328,44.215399],[-122.357737,44.213884],[-122.35605,44.214408]]],[[[-122.347193,44.212061],[-122.347857,44.212518],[-122.34762,44.21185],[-122.347193,44.212061]]]]}},{"type":"Feature","properties":{"MAPTAXLOT":"1545320000101","MAPNUMBER":"15453200","TAXLOT":"101","ACCTNO":"0027431","MAPACRES":23.20830896},"geometry":{"type":"Polygon","coordinates":[[[-122.35216,44.219565],[-122.353089,44.219821],[-122.35543,44.218104],[-122.355433,44.217795],[-122.354181,44.216649],[-122.351932,44.216913],[-122.351646,44.215821],[-122.351378,44.215899],[-122.351306,44.21592],[-122.351556,44.216849],[-122.351792,44.217064],[-122.351639,44.217157],[-122.351652,44.217204],[-122.351653,44.217208],[-122.351529,44.217243],[-122.351467,44.217261],[-122.350105,44.218085],[-122.350043,44.218123],[-122.35216,44.219565]]]}},{"type":"Feature","properties":{"MAPTAXLOT":"1545320000102","MAPNUMBER":"15453200","TAXLOT":"102","ACCTNO":"1002656","MAPACRES":1.78678938},"geometry":{"type":"Polygon","coordinates":[[[-122.356046,44.216723],[-122.356095,44.216762],[-122.357202,44.215869],[-122.357328,44.215399],[-122.35685,44.215029],[-122.356046,44.216723]]]}},{"type":"Feature","properties":{"MAPTAXLOT":"1545320000200","MAPNUMBER":"15453200","TAXLOT":"200","ACCTNO":"0027449","MAPACRES":6.98400037},"geometry":{"type":"Polygon","coordinates":[[[-122.350165,44.220678],[-122.350875,44.220869],[-122.35188,44.220703],[-122.353089,44.219821],[-122.35216,44.219565],[-122.350372,44.219074],[-122.350165,44.220678]]]}},{"type":"Feature","properties":{"MAPTAXLOT":"1545320000300","MAPNUMBER":"15453200","TAXLOT":"300","ACCTNO":"0027456","MAPACRES":41.16022026},"geometry":{"type":"Polygon","coordinates":[[[-122.354181,44.216649],[-122.355433,44.217795],[-122.35544,44.21729],[-122.356095,44.216762],[-122.356046,44.216723],[-122.35685,44.215029],[-122.35605,44.214408],[-122.353482,44.212394],[-122.353432,44.212499],[-122.353082,44.213233],[-122.352892,44.212635],[-122.350884,44.212868],[-122.351644,44.215814],[-122.351646,44.215821],[-122.351932,44.216913],[-122.354181,44.216649]]]}},{"type":"Feature","properties":{"MAPTAXLOT":"1545320000400","MAPNUMBER":"15453200","TAXLOT":"400","ACCTNO":"0027464","MAPACRES":48.46249012},"geometry":{"type":"Polygon","coordinates":[[[-122.353482,44.212394],[-122.35605,44.214408],[-122.357737,44.213884],[-122.357814,44.213595],[-122.356471,44.212075],[-122.357366,44.211613],[-122.355923,44.209378],[-122.355922,44.209376],[-122.355911,44.20936],[-122.355276,44.208403],[-122.355276,44.208402],[-122.354942,44.207899],[-122.354911,44.207914],[-122.353602,44.208587],[-122.353054,44.208869],[-122.351474,44.209431],[-122.351298,44.209307],[-122.351244,44.209644],[-122.351071,44.209704],[-122.35107,44.209704],[-122.3513,44.210058],[-122.351314,44.210079],[-122.351711,44.210707],[-122.353432,44.212499],[-122.353482,44.212394]]]}},{"type":"Feature","properties":{"MAPTAXLOT":"1545320000500","MAPNUMBER":"15453200","TAXLOT":"500","ACCTNO":"0027472","MAPACRES":4.44313123},"geometry":{"type":"Polygon","coordinates":[[[-122.358362,44.212726],[-122.35862,44.213072],[-122.360328,44.211966],[-122.360118,44.211682],[-122.35973,44.211215],[-122.357973,44.21226],[-122.358362,44.212726]]]}},{"type":"Feature","properties":{"MAPTAXLOT":"1645000000066","MAPNUMBER":"16450000","TAXLOT":"66","ACCTNO":"000None","MAPACRES":469.78346293},"geometry":{"type":"MultiPolygon","coordinates":[[[[-122.283089,44.184606],[-122.283209,44.18501],[-122.283596,44.185352],[-122.283929,44.185537],[-122.284034,44.185596],[-122.284363,44.185813],[-122.284523,44.185862],[-122.284634,44.18586],[-122.284673,44.18583],[-122.284672,44.185772],[-122.284683,44.18572],[-122.284443,44.185367],[-122.284271,44.185012],[-122.28405,44.184832],[-122.284046,44.184687],[-122.284096,44.18458],[-122.284347,44.184431],[-122.284562,44.184418],[-122.284845,44.184452],[-122.285157,44.184533],[-122.28559,44.184642],[-122.286234,44.184602],[-122.286633,44.18447],[-122.28706,44.184357],[-122.287812,44.184344],[-122.288483,44.184304],[-122.289078,44.18441],[-122.28933,44.184356],[-122.289648,44.184234],[-122.290033,44.184064],[-122.290414,44.183777],[-122.290675,44.183521],[-122.290802,44.183277],[-122.291118,44.183088],[-122.291615,44.183061],[-122.292299,44.18303],[-122.292782,44.183002],[-122.293391,44.183117],[-122.293933,44.1832],[-122.294242,44.183248],[-122.294957,44.183342],[-122.295403,44.183431],[-122.296008,44.18342],[-122.296694,44.183428],[-122.297123,44.183401],[-122.297337,44.183368],[-122.297567,44.183432],[-122.297732,44.183526],[-122.297787,44.183564],[-122.297799,44.183544],[-122.297797,44.183476],[-122.29778,44.183351],[-122.29783,44.183225],[-122.298149,44.183113],[-122.29871,44.183006],[-122.299195,44.182761],[-122.299753,44.182539],[-122.300319,44.182161],[-122.300869,44.181698],[-122.300969,44.181445],[-122.301055,44.181182],[-122.301556,44.180883],[-122.301781,44.180773],[-122.30187,44.180607],[-122.301791,44.180222],[-122.301608,44.179974],[-122.301541,44.17955],[-122.301617,44.179374],[-122.301881,44.179234],[-122.302401,44.179109],[-122.302922,44.179003],[-122.303486,44.178974],[-122.303689,44.178929],[-122.304193,44.178817],[-122.304501,44.178782],[-122.304704,44.178607],[-122.304876,44.178508],[-122.305315,44.178374],[-122.30565,44.178349],[-122.305992,44.178111],[-122.306242,44.177913],[-122.307011,44.1776],[-122.307609,44.177368],[-122.308084,44.177089],[-122.30861,44.176722],[-122.308905,44.176591],[-122.30922,44.176451],[-122.309723,44.1762],[-122.310181,44.175815],[-122.310856,44.175475],[-122.310958,44.175377],[-122.311182,44.17516],[-122.311973,44.174663],[-122.312488,44.174354],[-122.313086,44.173895],[-122.31344,44.173608],[-122.313777,44.173477],[-122.31417,44.173325],[-122.314859,44.173013],[-122.315068,44.172807],[-122.315116,44.172632],[-122.315175,44.172389],[-122.315489,44.172123],[-122.315824,44.172088],[-122.316318,44.171983],[-122.316517,44.171883],[-122.31661,44.171822],[-122.316806,44.171694],[-122.316965,44.171614],[-122.317248,44.171648],[-122.317506,44.17173],[-122.317657,44.171834],[-122.31774,44.171891],[-122.318165,44.172145],[-122.318658,44.172446],[-122.318858,44.17281],[-122.319,44.17303],[-122.31915,44.173105],[-122.319325,44.173102],[-122.319594,44.173097],[-122.319972,44.173158],[-122.320124,44.173301],[-122.320357,44.173413],[-122.320613,44.173437],[-122.320899,44.173549],[-122.32112,44.173748],[-122.321165,44.173883],[-122.321327,44.173899],[-122.321499,44.173828],[-122.321796,44.173843],[-122.322132,44.173916],[-122.322387,44.173921],[-122.322643,44.173927],[-122.322741,44.174051],[-122.322957,44.174076],[-122.323223,44.173985],[-122.323544,44.173941],[-122.323778,44.173953],[-122.323787,44.171883],[-122.323699,44.171886],[-122.323638,44.171903],[-122.323393,44.171968],[-122.323048,44.172089],[-122.322793,44.172113],[-122.322304,44.171947],[-122.322181,44.171886],[-122.321867,44.171731],[-122.32154,44.171601],[-122.321133,44.171502],[-122.320851,44.171487],[-122.320428,44.171301],[-122.320236,44.171178],[-122.32012,44.170939],[-122.320165,44.170667],[-122.320149,44.170164],[-122.319897,44.169859],[-122.319604,44.169535],[-122.319422,44.169316],[-122.319074,44.169097],[-122.318704,44.168861],[-122.318484,44.168672],[-122.318321,44.168626],[-122.318148,44.168678],[-122.31799,44.168777],[-122.317844,44.168837],[-122.317629,44.168851],[-122.317413,44.168816],[-122.317194,44.168665],[-122.316999,44.168455],[-122.31675,44.168228],[-122.316612,44.168095],[-122.316503,44.168048],[-122.316343,44.16807],[-122.316244,44.168362],[-122.316227,44.168681],[-122.316195,44.168962],[-122.31608,44.169148],[-122.315975,44.169208],[-122.315666,44.169213],[-122.315436,44.169149],[-122.315112,44.169107],[-122.314925,44.169158],[-122.314958,44.169332],[-122.315125,44.169541],[-122.315159,44.169763],[-122.314964,44.16997],[-122.314698,44.170042],[-122.314364,44.170115],[-122.314101,44.170294],[-122.313942,44.170374],[-122.313674,44.170388],[-122.313432,44.170392],[-122.313232,44.170435],[-122.31302,44.170545],[-122.312849,44.170654],[-122.312694,44.17086],[-122.312473,44.171076],[-122.312301,44.171156],[-122.311979,44.171191],[-122.31179,44.171165],[-122.311706,44.17106],[-122.311516,44.170996],[-122.311371,44.171076],[-122.311363,44.171269],[-122.311206,44.171388],[-122.310984,44.171482],[-122.310675,44.171497],[-122.310257,44.171427],[-122.309958,44.171325],[-122.309713,44.171233],[-122.309633,44.171244],[-122.30965,44.171379],[-122.309709,44.171533],[-122.309578,44.171661],[-122.309205,44.171754],[-122.308605,44.171909],[-122.30826,44.172051],[-122.307985,44.172278],[-122.307532,44.172401],[-122.307196,44.172398],[-122.306937,44.172286],[-122.306899,44.172364],[-122.306863,44.17249],[-122.306694,44.172667],[-122.306373,44.172731],[-122.306212,44.172734],[-122.305868,44.172894],[-122.305672,44.173091],[-122.305533,44.173355],[-122.305528,44.173635],[-122.305576,44.173886],[-122.30557,44.174128],[-122.305441,44.174275],[-122.305093,44.174339],[-122.304608,44.174299],[-122.304119,44.174134],[-122.303818,44.173965],[-122.30361,44.173756],[-122.303646,44.173601],[-122.303614,44.173466],[-122.303489,44.173333],[-122.303481,44.173062],[-122.303525,44.172752],[-122.303443,44.172705],[-122.303229,44.172738],[-122.302857,44.17289],[-122.302647,44.173048],[-122.302355,44.173169],[-122.30202,44.173175],[-122.301613,44.173076],[-122.301341,44.172965],[-122.301075,44.172877],[-122.300937,44.172773],[-122.300818,44.172814],[-122.300903,44.172977],[-122.301155,44.173272],[-122.301285,44.173579],[-122.301158,44.173804],[-122.300839,44.173916],[-122.300531,44.173961],[-122.30009,44.174046],[-122.299528,44.174114],[-122.299232,44.17409],[-122.298932,44.174003],[-122.29892,44.173999],[-122.298744,44.173954],[-122.298611,44.174005],[-122.298579,44.174286],[-122.298655,44.174546],[-122.298932,44.174708],[-122.299024,44.174761],[-122.299446,44.174928],[-122.300017,44.175149],[-122.300143,44.175292],[-122.300121,44.175457],[-122.299721,44.175551],[-122.29956,44.175554],[-122.299147,44.175697],[-122.298933,44.175816],[-122.298844,44.175866],[-122.298769,44.176071],[-122.298631,44.176363],[-122.29856,44.176673],[-122.298684,44.176778],[-122.298934,44.176786],[-122.299074,44.17679],[-122.299548,44.176917],[-122.299933,44.17719],[-122.300088,44.177429],[-122.300089,44.177582],[-122.299823,44.177664],[-122.299542,44.177698],[-122.29922,44.177704],[-122.298935,44.177746],[-122.298925,44.177748],[-122.298663,44.177946],[-122.29848,44.178123],[-122.298146,44.178196],[-122.297852,44.17824],[-122.297641,44.178369],[-122.297476,44.178682],[-122.297529,44.179086],[-122.297565,44.179395],[-122.297591,44.179772],[-122.297615,44.180129],[-122.297623,44.180399],[-122.297374,44.180597],[-122.297055,44.180689],[-122.29688,44.180692],[-122.29654,44.180573],[-122.29619,44.18054],[-122.295895,44.180574],[-122.295466,44.180591],[-122.295006,44.180493],[-122.294787,44.180381],[-122.294514,44.180231],[-122.294197,44.179995],[-122.293951,44.179854],[-122.293528,44.179668],[-122.292814,44.179603],[-122.292064,44.179693],[-122.291338,44.179961],[-122.290913,44.180132],[-122.290596,44.180321],[-122.290429,44.180556],[-122.290168,44.180831],[-122.289689,44.180974],[-122.289032,44.181024],[-122.288594,44.181205],[-122.288163,44.181628],[-122.287891,44.181942],[-122.287602,44.18215],[-122.287294,44.182213],[-122.286931,44.18219],[-122.286496,44.182023],[-122.286059,44.181818],[-122.285538,44.181469],[-122.285138,44.181138],[-122.284781,44.180912],[-122.284275,44.18063],[-122.283948,44.18043],[-122.283919,44.182675],[-122.280423,44.182689],[-122.280478,44.182736],[-122.280885,44.182864],[-122.281441,44.18301],[-122.281784,44.183236],[-122.282129,44.18354],[-122.282595,44.183851],[-122.282875,44.184185],[-122.283089,44.184606]]],[[[-122.283997,44.174279],[-122.283961,44.178927],[-122.284068,44.178879],[-122.284693,44.178666],[-122.285131,44.178485],[-122.285641,44.178041],[-122.285882,44.177564],[-122.286055,44.177069],[-122.286072,44.176714],[-122.286141,44.176327],[-122.286198,44.175998],[-122.286388,44.175627],[-122.286505,44.175441],[-122.286542,44.175383],[-122.286549,44.17518],[-122.286342,44.17501],[-122.285622,44.174761],[-122.284508,44.174374],[-122.284049,44.174275],[-122.283997,44.174279]]],[[[-122.268539,44.183482],[-122.268193,44.184029],[-122.267925,44.184677],[-122.267726,44.18517],[-122.267567,44.185681],[-122.267267,44.185934],[-122.266806,44.186198],[-122.266592,44.186318],[-122.266094,44.186598],[-122.265418,44.186844],[-122.264755,44.187079],[-122.264108,44.187391],[-122.263773,44.18762],[-122.263791,44.193289],[-122.263791,44.193361],[-122.263801,44.193358],[-122.263849,44.193343],[-122.264139,44.193197],[-122.264201,44.193044],[-122.26427,44.192729],[-122.264463,44.19247],[-122.264799,44.192124],[-122.265095,44.19173],[-122.265444,44.191254],[-122.266007,44.190858],[-122.266662,44.190394],[-122.267106,44.190027],[-122.26767,44.189659],[-122.267809,44.1894],[-122.268121,44.18911],[-122.268403,44.188715],[-122.268692,44.188531],[-122.269155,44.188307],[-122.269641,44.187996],[-122.270005,44.187656],[-122.270401,44.187174],[-122.270565,44.186864],[-122.270976,44.186686],[-122.271289,44.186372],[-122.271363,44.186317],[-122.271552,44.186175],[-122.272029,44.185965],[-122.272672,44.185442],[-122.272933,44.185187],[-122.273296,44.184737],[-122.2735,44.184386],[-122.273763,44.184198],[-122.273819,44.184165],[-122.27412,44.183989],[-122.274545,44.183818],[-122.275398,44.183583],[-122.27625,44.183337],[-122.277029,44.183315],[-122.277701,44.183323],[-122.278291,44.183293],[-122.27857,44.183192],[-122.278707,44.183286],[-122.278856,44.183303],[-122.278869,44.183291],[-122.279013,44.183166],[-122.279181,44.18296],[-122.279593,44.182818],[-122.279657,44.182692],[-122.278874,44.182695],[-122.273803,44.182722],[-122.269385,44.182733],[-122.269298,44.182784],[-122.268864,44.1831],[-122.268784,44.183193],[-122.268539,44.183482]]],[[[-122.263883,44.209003],[-122.264028,44.209069],[-122.264125,44.209156],[-122.264252,44.209249],[-122.2643,44.209284],[-122.264302,44.209287],[-122.264476,44.209287],[-122.264417,44.209225],[-122.264354,44.20915],[-122.264197,44.208988],[-122.264025,44.208827],[-122.263881,44.208718],[-122.263883,44.209003]]]]}},{"type":"Feature","properties":{"MAPTAXLOT":"1645000001000","MAPNUMBER":"16450000","TAXLOT":"1000","ACCTNO":"0084101","MAPACRES":313.2130512},"geometry":{"type":"Polygon","coordinates":[[[-122.303942,44.204275],[-122.303966,44.209294],[-122.304173,44.209297],[-122.309207,44.209297],[-122.31424,44.209297],[-122.31424,44.209296],[-122.314064,44.204204],[-122.313941,44.200602],[-122.318881,44.200597],[-122.318795,44.196973],[-122.315517,44.196966],[-122.313824,44.196962],[-122.308849,44.196953],[-122.30387,44.196946],[-122.303909,44.200609],[-122.303942,44.204275]]]}},{"type":"Feature","properties":{"MAPTAXLOT":"1645000001100","MAPNUMBER":"16450000","TAXLOT":"1100","ACCTNO":"0084119","MAPACRES":93.63931454},"geometry":{"type":"Polygon","coordinates":[[[-122.314064,44.204204],[-122.31424,44.209296],[-122.31424,44.209297],[-122.31911,44.209297],[-122.31911,44.209296],[-122.318974,44.204167],[-122.318881,44.200597],[-122.313941,44.200602],[-122.314064,44.204204]]]}},{"type":"Feature","properties":{"MAPTAXLOT":"1645000001200","MAPNUMBER":"16450000","TAXLOT":"1200","ACCTNO":"0084127","MAPACRES":39.28051979},"geometry":{"type":"Polygon","coordinates":[[[-122.318881,44.200597],[-122.32381,44.200592],[-122.323762,44.196983],[-122.318795,44.196973],[-122.318881,44.200597]]]}},{"type":"Feature","properties":{"MAPTAXLOT":"1645000001300","MAPNUMBER":"16450000","TAXLOT":"1300","ACCTNO":"0084135","MAPACRES":1812.42046301},"geometry":{"type":"Polygon","coordinates":[[[-122.373959,44.209425],[-122.374083,44.209425],[-122.38035,44.209464],[-122.380613,44.209466],[-122.382413,44.209475],[-122.381048,44.208622],[-122.378921,44.207928],[-122.379437,44.206678],[-122.382177,44.207668],[-122.383128,44.208257],[-122.383133,44.20826],[-122.383137,44.205606],[-122.383137,44.205537],[-122.383137,44.205243],[-122.383142,44.201915],[-122.383143,44.201623],[-122.383147,44.198295],[-122.383151,44.198003],[-122.383135,44.194686],[-122.383134,44.194404],[-122.383119,44.191078],[-122.383118,44.190805],[-122.383109,44.18747],[-122.383108,44.187198],[-122.3831,44.183862],[-122.37879,44.183871],[-122.37448,44.18388],[-122.369521,44.183893],[-122.364562,44.183905],[-122.359627,44.183898],[-122.359636,44.187458],[-122.364538,44.187493],[-122.3695,44.187479],[-122.374462,44.187464],[-122.374444,44.19108],[-122.374427,44.19468],[-122.378782,44.194683],[-122.378778,44.198288],[-122.374408,44.19828],[-122.369436,44.198271],[-122.369457,44.194676],[-122.364489,44.194671],[-122.359657,44.194456],[-122.354824,44.19435],[-122.354781,44.190916],[-122.349778,44.190868],[-122.344775,44.19082],[-122.344777,44.189818],[-122.334282,44.189829],[-122.333979,44.1934],[-122.333677,44.19697],[-122.32872,44.196977],[-122.323762,44.196983],[-122.32381,44.200592],[-122.318881,44.200597],[-122.318974,44.204167],[-122.31911,44.209296],[-122.31911,44.209297],[-122.32398,44.209297],[-122.324307,44.209298],[-122.334147,44.209366],[-122.334211,44.209367],[-122.336464,44.209382],[-122.336463,44.209382],[-122.336387,44.209345],[-122.335912,44.209112],[-122.337649,44.208058],[-122.340025,44.209173],[-122.340622,44.208634],[-122.3409,44.20876],[-122.342092,44.207399],[-122.342429,44.207553],[-122.343661,44.206956],[-122.344285,44.20736],[-122.344392,44.207274],[-122.344734,44.203488],[-122.34527,44.197452],[-122.354867,44.197784],[-122.359665,44.19795],[-122.364464,44.198117],[-122.364464,44.198261],[-122.364308,44.204577],[-122.364135,44.208228],[-122.364517,44.207843],[-122.365801,44.209345],[-122.365806,44.209346],[-122.367402,44.209355],[-122.367458,44.209329],[-122.367638,44.209248],[-122.367643,44.209249],[-122.36834,44.209385],[-122.373959,44.209425]],[[-122.376607,44.207175],[-122.375539,44.207803],[-122.376216,44.208377],[-122.374589,44.209333],[-122.371147,44.206473],[-122.366667,44.20394],[-122.368372,44.202935],[-122.371672,44.204833],[-122.372478,44.20436],[-122.370307,44.203655],[-122.371483,44.202421],[-122.374666,44.204182],[-122.374019,44.204859],[-122.37379,44.204785],[-122.376607,44.207175]]]}},{"type":"Feature","properties":{"MAPTAXLOT":"1645000001600","MAPNUMBER":"16450000","TAXLOT":"1600","ACCTNO":"0084168","MAPACRES":230.67935181},"geometry":{"type":"Polygon","coordinates":[[[-122.374408,44.19828],[-122.378778,44.198288],[-122.378782,44.194683],[-122.374427,44.19468],[-122.374444,44.19108],[-122.374462,44.187464],[-122.3695,44.187479],[-122.364538,44.187493],[-122.364513,44.19101],[-122.364513,44.191082],[-122.364489,44.194671],[-122.369457,44.194676],[-122.369436,44.198271],[-122.374408,44.19828]]]}},{"type":"Feature","properties":{"MAPTAXLOT":"1645000001700","MAPNUMBER":"16450000","TAXLOT":"1700","ACCTNO":"0084176","MAPACRES":264.51675675},"geometry":{"type":"Polygon","coordinates":[[[-122.359657,44.194456],[-122.364489,44.194671],[-122.364513,44.191082],[-122.364513,44.19101],[-122.364538,44.187493],[-122.359636,44.187458],[-122.359627,44.183898],[-122.354693,44.183891],[-122.349759,44.183883],[-122.344823,44.183877],[-122.344796,44.187347],[-122.349767,44.187384],[-122.354737,44.187422],[-122.354781,44.190916],[-122.354824,44.19435],[-122.359657,44.194456]]]}},{"type":"Feature","properties":{"MAPTAXLOT":"1645000001800","MAPNUMBER":"16450000","TAXLOT":"1800","ACCTNO":"0084184","MAPACRES":76.29237045},"geometry":{"type":"Polygon","coordinates":[[[-122.349778,44.190868],[-122.354781,44.190916],[-122.354737,44.187422],[-122.349767,44.187384],[-122.344796,44.187347],[-122.344777,44.189818],[-122.344775,44.19082],[-122.349778,44.190868]]]}},{"type":"Feature","properties":{"MAPTAXLOT":"1645000001900","MAPNUMBER":"16450000","TAXLOT":"1900","ACCTNO":"0084192","MAPACRES":161.04550708},"geometry":{"type":"Polygon","coordinates":[[[-122.334282,44.189829],[-122.344777,44.189818],[-122.344796,44.187347],[-122.344823,44.183877],[-122.344833,44.182667],[-122.342358,44.18267],[-122.339858,44.182673],[-122.334885,44.182678],[-122.334432,44.182678],[-122.33482,44.183992],[-122.334765,44.184099],[-122.334282,44.189829]]]}},{"type":"Feature","properties":{"MAPTAXLOT":"1645000002000","MAPNUMBER":"16450000","TAXLOT":"2000","ACCTNO":"0084200","MAPACRES":205.09924351},"geometry":{"type":"Polygon","coordinates":[[[-122.32872,44.196977],[-122.333677,44.19697],[-122.333979,44.1934],[-122.334282,44.189829],[-122.329022,44.189833],[-122.329323,44.182683],[-122.324681,44.18269],[-122.324321,44.18295],[-122.323752,44.183591],[-122.32375,44.18984],[-122.323753,44.193413],[-122.328872,44.193406],[-122.32872,44.196977]]]}},{"type":"Feature","properties":{"MAPTAXLOT":"1645000002100","MAPNUMBER":"16450000","TAXLOT":"2100","ACCTNO":"0084218","MAPACRES":39.49468733},"geometry":{"type":"Polygon","coordinates":[[[-122.323762,44.196983],[-122.32872,44.196977],[-122.328872,44.193406],[-122.323753,44.193413],[-122.323762,44.196983]]]}},{"type":"Feature","properties":{"MAPTAXLOT":"1645000002200","MAPNUMBER":"16450000","TAXLOT":"2200","ACCTNO":"0084226","MAPACRES":59.92886388},"geometry":{"type":"Polygon","coordinates":[[[-122.329022,44.189833],[-122.334282,44.189829],[-122.334765,44.184099],[-122.333686,44.186198],[-122.33265,44.186408],[-122.332189,44.186501],[-122.331547,44.186631],[-122.331494,44.185023],[-122.331272,44.183496],[-122.330926,44.182681],[-122.329323,44.182683],[-122.329022,44.189833]]]}},{"type":"Feature","properties":{"MAPTAXLOT":"1645000002400","MAPNUMBER":"16450000","TAXLOT":"2400","ACCTNO":"0084242","MAPACRES":586.57268658},"geometry":{"type":"MultiPolygon","coordinates":[[[[-122.293929,44.183739],[-122.293915,44.186214],[-122.293895,44.189811],[-122.298901,44.189783],[-122.303913,44.189751],[-122.30393,44.186156],[-122.303944,44.182561],[-122.308899,44.182593],[-122.313852,44.182625],[-122.31757,44.18265],[-122.318804,44.182658],[-122.31879,44.179062],[-122.32376,44.179107],[-122.323772,44.176015],[-122.323772,44.175519],[-122.323778,44.173953],[-122.323544,44.173941],[-122.323223,44.173985],[-122.322957,44.174076],[-122.322741,44.174051],[-122.322643,44.173927],[-122.322387,44.173921],[-122.322132,44.173916],[-122.321796,44.173843],[-122.321499,44.173828],[-122.321327,44.173899],[-122.321165,44.173883],[-122.32112,44.173748],[-122.320899,44.173549],[-122.320613,44.173437],[-122.320357,44.173413],[-122.320124,44.173301],[-122.319972,44.173158],[-122.319594,44.173097],[-122.319325,44.173102],[-122.31915,44.173105],[-122.319,44.17303],[-122.318858,44.17281],[-122.318658,44.172446],[-122.318165,44.172145],[-122.31774,44.171891],[-122.317657,44.171834],[-122.31661,44.171822],[-122.316517,44.171883],[-122.316318,44.171983],[-122.315824,44.172088],[-122.315489,44.172123],[-122.315175,44.172389],[-122.315116,44.172632],[-122.315068,44.172807],[-122.314859,44.173013],[-122.31417,44.173325],[-122.313777,44.173477],[-122.31379,44.175409],[-122.310958,44.175377],[-122.310856,44.175475],[-122.310181,44.175815],[-122.309723,44.1762],[-122.30922,44.176451],[-122.308905,44.176591],[-122.3089,44.178975],[-122.30399,44.178932],[-122.303689,44.178929],[-122.303486,44.178974],[-122.302922,44.179003],[-122.302401,44.179109],[-122.301881,44.179234],[-122.301617,44.179374],[-122.301541,44.17955],[-122.301608,44.179974],[-122.301791,44.180222],[-122.30187,44.180607],[-122.301781,44.180773],[-122.301556,44.180883],[-122.301055,44.181182],[-122.300969,44.181445],[-122.300869,44.181698],[-122.300319,44.182161],[-122.299753,44.182539],[-122.299195,44.182761],[-122.29871,44.183006],[-122.298149,44.183113],[-122.29783,44.183225],[-122.29778,44.183351],[-122.297797,44.183476],[-122.297799,44.183544],[-122.297787,44.183564],[-122.297732,44.183526],[-122.297567,44.183432],[-122.297337,44.183368],[-122.297123,44.183401],[-122.296694,44.183428],[-122.296008,44.18342],[-122.295403,44.183431],[-122.294957,44.183342],[-122.294242,44.183248],[-122.293933,44.1832],[-122.293929,44.183739]]],[[[-122.283948,44.18043],[-122.284275,44.18063],[-122.284781,44.180912],[-122.285138,44.181138],[-122.285538,44.181469],[-122.286059,44.181818],[-122.286496,44.182023],[-122.286931,44.18219],[-122.287294,44.182213],[-122.287602,44.18215],[-122.287891,44.181942],[-122.288163,44.181628],[-122.288594,44.181205],[-122.289032,44.181024],[-122.289689,44.180974],[-122.290168,44.180831],[-122.290429,44.180556],[-122.290596,44.180321],[-122.290913,44.180132],[-122.291338,44.179961],[-122.292064,44.179693],[-122.292814,44.179603],[-122.293528,44.179668],[-122.293951,44.179854],[-122.294197,44.179995],[-122.294514,44.180231],[-122.294787,44.180381],[-122.295006,44.180493],[-122.295466,44.180591],[-122.295895,44.180574],[-122.29619,44.18054],[-122.29654,44.180573],[-122.29688,44.180692],[-122.297055,44.180689],[-122.297374,44.180597],[-122.297623,44.180399],[-122.297615,44.180129],[-122.297591,44.179772],[-122.297565,44.179395],[-122.297529,44.179086],[-122.297476,44.178682],[-122.297641,44.178369],[-122.297852,44.17824],[-122.298146,44.178196],[-122.29848,44.178123],[-122.298663,44.177946],[-122.298925,44.177748],[-122.298935,44.177746],[-122.298934,44.176786],[-122.298684,44.176778],[-122.29856,44.176673],[-122.298631,44.176363],[-122.298769,44.176071],[-122.298844,44.175866],[-122.298933,44.175816],[-122.298933,44.175344],[-122.29384,44.175386],[-122.288903,44.175424],[-122.28891,44.179038],[-122.283959,44.179069],[-122.283948,44.18043]]],[[[-122.322304,44.171947],[-122.322793,44.172113],[-122.323048,44.172089],[-122.323393,44.171968],[-122.323638,44.171903],[-122.32363,44.171902],[-122.322181,44.171886],[-122.322304,44.171947]]]]}},{"type":"Feature","properties":{"MAPTAXLOT":"1645000004100","MAPNUMBER":"16450000","TAXLOT":"4100","ACCTNO":"0084457","MAPACRES":131.76249821},"geometry":{"type":"MultiPolygon","coordinates":[[[[-122.303525,44.172752],[-122.303481,44.173062],[-122.303489,44.173333],[-122.303614,44.173466],[-122.303646,44.173601],[-122.30361,44.173756],[-122.303818,44.173965],[-122.304119,44.174134],[-122.304608,44.174299],[-122.305093,44.174339],[-122.305441,44.174275],[-122.30557,44.174128],[-122.305576,44.173886],[-122.305528,44.173635],[-122.305533,44.173355],[-122.305672,44.173091],[-122.305868,44.172894],[-122.306212,44.172734],[-122.306373,44.172731],[-122.306694,44.172667],[-122.306863,44.17249],[-122.306899,44.172364],[-122.306937,44.172286],[-122.307196,44.172398],[-122.307532,44.172401],[-122.307985,44.172278],[-122.30826,44.172051],[-122.308605,44.171909],[-122.309205,44.171754],[-122.309578,44.171661],[-122.309709,44.171533],[-122.30965,44.171379],[-122.309633,44.171244],[-122.309713,44.171233],[-122.309958,44.171325],[-122.310257,44.171427],[-122.310675,44.171497],[-122.310984,44.171482],[-122.311206,44.171388],[-122.311363,44.171269],[-122.311371,44.171076],[-122.311516,44.170996],[-122.311706,44.17106],[-122.31179,44.171165],[-122.311979,44.171191],[-122.312301,44.171156],[-122.312473,44.171076],[-122.312694,44.17086],[-122.312849,44.170654],[-122.31302,44.170545],[-122.313232,44.170435],[-122.313432,44.170392],[-122.313674,44.170388],[-122.313942,44.170374],[-122.314101,44.170294],[-122.314364,44.170115],[-122.314698,44.170042],[-122.314964,44.16997],[-122.315159,44.169763],[-122.315125,44.169541],[-122.314958,44.169332],[-122.314925,44.169158],[-122.315112,44.169107],[-122.315436,44.169149],[-122.315666,44.169213],[-122.315975,44.169208],[-122.31608,44.169148],[-122.316195,44.168962],[-122.316227,44.168681],[-122.316244,44.168362],[-122.316343,44.16807],[-122.316503,44.168048],[-122.316612,44.168095],[-122.31675,44.168228],[-122.316999,44.168455],[-122.317194,44.168665],[-122.317413,44.168816],[-122.317629,44.168851],[-122.317844,44.168837],[-122.31799,44.168777],[-122.318148,44.168678],[-122.318321,44.168626],[-122.318484,44.168672],[-122.318704,44.168861],[-122.319074,44.169097],[-122.319422,44.169316],[-122.319604,44.169535],[-122.319897,44.169859],[-122.320149,44.170164],[-122.320165,44.170667],[-122.32012,44.170939],[-122.320236,44.171178],[-122.320428,44.171301],[-122.320851,44.171487],[-122.321133,44.171502],[-122.32154,44.171601],[-122.321867,44.171731],[-122.322181,44.171886],[-122.32363,44.171902],[-122.323638,44.171903],[-122.323699,44.171886],[-122.323787,44.171883],[-122.323797,44.16933],[-122.319608,44.169415],[-122.319587,44.167678],[-122.314808,44.167759],[-122.314852,44.169508],[-122.314852,44.169519],[-122.313751,44.169526],[-122.308923,44.169431],[-122.304093,44.169335],[-122.30407,44.171678],[-122.29893,44.17173],[-122.298932,44.174003],[-122.299232,44.17409],[-122.299528,44.174114],[-122.30009,44.174046],[-122.300531,44.173961],[-122.300839,44.173916],[-122.301158,44.173804],[-122.301285,44.173579],[-122.301155,44.173272],[-122.300903,44.172977],[-122.300818,44.172814],[-122.300937,44.172773],[-122.301075,44.172877],[-122.301341,44.172965],[-122.301613,44.173076],[-122.30202,44.173175],[-122.302355,44.173169],[-122.302647,44.173048],[-122.302857,44.17289],[-122.303229,44.172738],[-122.303443,44.172705],[-122.303525,44.172752]]],[[[-122.30861,44.176722],[-122.308084,44.177089],[-122.307609,44.177368],[-122.307011,44.1776],[-122.306242,44.177913],[-122.305992,44.178111],[-122.30565,44.178349],[-122.305315,44.178374],[-122.304876,44.178508],[-122.304704,44.178607],[-122.304501,44.178782],[-122.304193,44.178817],[-122.303689,44.178929],[-122.30399,44.178932],[-122.3089,44.178975],[-122.308905,44.176591],[-122.30861,44.176722]]],[[[-122.31344,44.173608],[-122.313086,44.173895],[-122.312488,44.174354],[-122.311973,44.174663],[-122.311182,44.17516],[-122.310958,44.175377],[-122.31379,44.175409],[-122.313777,44.173477],[-122.31344,44.173608]]],[[[-122.298935,44.177746],[-122.29922,44.177704],[-122.299542,44.177698],[-122.299823,44.177664],[-122.300089,44.177582],[-122.300088,44.177429],[-122.299933,44.17719],[-122.299548,44.176917],[-122.299074,44.17679],[-122.298934,44.176786],[-122.298935,44.177746]]],[[[-122.298933,44.175344],[-122.298933,44.175816],[-122.299147,44.175697],[-122.29956,44.175554],[-122.299721,44.175551],[-122.300121,44.175457],[-122.300143,44.175292],[-122.300017,44.175149],[-122.299446,44.174928],[-122.299024,44.174761],[-122.298932,44.174708],[-122.298933,44.175344]]],[[[-122.316806,44.171694],[-122.31661,44.171822],[-122.317657,44.171834],[-122.317506,44.17173],[-122.317248,44.171648],[-122.316965,44.171614],[-122.316806,44.171694]]]]}},{"type":"Feature","properties":{"MAPTAXLOT":"1645000004700","MAPNUMBER":"16450000","TAXLOT":"4700","ACCTNO":"0084499","MAPACRES":223.40227531},"geometry":{"type":"Polygon","coordinates":[[[-122.349759,44.183883],[-122.354693,44.183891],[-122.354703,44.180355],[-122.354713,44.176819],[-122.354723,44.173519],[-122.349878,44.173497],[-122.345023,44.173475],[-122.344945,44.176879],[-122.344889,44.179773],[-122.344877,44.180377],[-122.344833,44.182667],[-122.344823,44.183877],[-122.349759,44.183883]]]}},{"type":"Feature","properties":{"MAPTAXLOT":"1645000004800","MAPNUMBER":"16450000","TAXLOT":"4800","ACCTNO":"0084507","MAPACRES":73.35804257},"geometry":{"type":"Polygon","coordinates":[[[-122.349878,44.173497],[-122.354723,44.173519],[-122.354732,44.170011],[-122.349918,44.170041],[-122.345101,44.170071],[-122.345023,44.173475],[-122.349878,44.173497]]]}},{"type":"Feature","properties":{"MAPTAXLOT":"1645000004900","MAPNUMBER":"16450000","TAXLOT":"4900","ACCTNO":"0084515","MAPACRES":38.50052429},"geometry":{"type":"Polygon","coordinates":[[[-122.354693,44.183891],[-122.359627,44.183898],[-122.35966,44.180343],[-122.354703,44.180355],[-122.354693,44.183891]]]}},{"type":"Feature","properties":{"MAPTAXLOT":"1645000005000","MAPNUMBER":"16450000","TAXLOT":"5000","ACCTNO":"0084523","MAPACRES":115.34037469},"geometry":{"type":"Polygon","coordinates":[[[-122.359627,44.183898],[-122.364562,44.183905],[-122.364557,44.18033],[-122.364552,44.176756],[-122.359693,44.176788],[-122.354713,44.176819],[-122.354703,44.180355],[-122.35966,44.180343],[-122.359627,44.183898]]]}},{"type":"Feature","properties":{"MAPTAXLOT":"1645000005100","MAPNUMBER":"16450000","TAXLOT":"5100","ACCTNO":"0084531","MAPACRES":73.40979792},"geometry":{"type":"Polygon","coordinates":[[[-122.354713,44.176819],[-122.359693,44.176788],[-122.359723,44.173542],[-122.359754,44.170227],[-122.359754,44.170227],[-122.358944,44.170192],[-122.354732,44.170011],[-122.354723,44.173519],[-122.354713,44.176819]]]}},{"type":"Feature","properties":{"MAPTAXLOT":"1645000005200","MAPNUMBER":"16450000","TAXLOT":"5200","ACCTNO":"0084549","MAPACRES":68.31389987},"geometry":{"type":"Polygon","coordinates":[[[-122.359693,44.176788],[-122.364552,44.176756],[-122.364546,44.173563],[-122.364537,44.17037],[-122.363155,44.170373],[-122.359754,44.170227],[-122.359754,44.170227],[-122.359723,44.173542],[-122.359693,44.176788]]]}},{"type":"Feature","properties":{"MAPTAXLOT":"1645000005300","MAPNUMBER":"16450000","TAXLOT":"5300","ACCTNO":"0084556","MAPACRES":529.2787487},"geometry":{"type":"Polygon","coordinates":[[[-122.37879,44.183871],[-122.3831,44.183862],[-122.383099,44.183591],[-122.38314,44.180233],[-122.38314,44.180031],[-122.38314,44.18003],[-122.383182,44.176607],[-122.383182,44.176607],[-122.383182,44.176472],[-122.383182,44.176472],[-122.383226,44.172983],[-122.383226,44.172983],[-122.383226,44.172916],[-122.383226,44.172915],[-122.383272,44.169361],[-122.378896,44.169792],[-122.374523,44.170224],[-122.372721,44.170412],[-122.369579,44.170396],[-122.369565,44.173408],[-122.364546,44.173563],[-122.364552,44.176756],[-122.364557,44.18033],[-122.364562,44.183905],[-122.369521,44.183893],[-122.37448,44.18388],[-122.37879,44.183871]]]}},{"type":"Feature","properties":{"MAPTAXLOT":"1645000005400","MAPNUMBER":"16450000","TAXLOT":"5400","ACCTNO":"0084564","MAPACRES":34.27650845},"geometry":{"type":"Polygon","coordinates":[[[-122.364537,44.17037],[-122.364546,44.173563],[-122.369565,44.173408],[-122.369579,44.170396],[-122.367938,44.170387],[-122.364537,44.17037]]]}},{"type":"Feature","properties":{"MAPTAXLOT":"1645000005500","MAPNUMBER":"16450000","TAXLOT":"5500","ACCTNO":"0084572","MAPACRES":38.81615744},"geometry":{"type":"Polygon","coordinates":[[[-122.364537,44.17037],[-122.367938,44.170387],[-122.368268,44.166593],[-122.363447,44.166787],[-122.363155,44.170373],[-122.364537,44.17037]]]}},{"type":"Feature","properties":{"MAPTAXLOT":"1645000005600","MAPNUMBER":"16450000","TAXLOT":"5600","ACCTNO":"0084580","MAPACRES":605.15250926},"geometry":{"type":"Polygon","coordinates":[[[-122.369579,44.170396],[-122.372721,44.170412],[-122.374523,44.170224],[-122.378896,44.169792],[-122.383272,44.169361],[-122.383906,44.165961],[-122.38454,44.162561],[-122.38454,44.162561],[-122.385173,44.159161],[-122.385799,44.155824],[-122.379898,44.155916],[-122.374054,44.156007],[-122.369183,44.156018],[-122.364313,44.156028],[-122.364028,44.159615],[-122.363736,44.163201],[-122.363447,44.166787],[-122.368268,44.166593],[-122.367938,44.170387],[-122.369579,44.170396]]]}},{"type":"Feature","properties":{"MAPTAXLOT":"1645050000100","MAPNUMBER":"16450500","TAXLOT":"100","ACCTNO":"0084812","MAPACRES":203.47552041},"geometry":{"type":"Polygon","coordinates":[[[-122.349657,44.217771],[-122.350043,44.218123],[-122.350105,44.218085],[-122.351467,44.217261],[-122.351529,44.217243],[-122.351653,44.217208],[-122.351652,44.217204],[-122.351639,44.217157],[-122.351792,44.217064],[-122.351556,44.216849],[-122.351306,44.21592],[-122.351378,44.215899],[-122.351646,44.215821],[-122.351644,44.215814],[-122.350884,44.212868],[-122.350322,44.212991],[-122.350322,44.21299],[-122.349785,44.21146],[-122.34792,44.211721],[-122.347991,44.211687],[-122.351314,44.210079],[-122.3513,44.210058],[-122.35107,44.209704],[-122.349285,44.210298],[-122.349409,44.209342],[-122.350699,44.208894],[-122.350349,44.208654],[-122.351566,44.207674],[-122.347315,44.204919],[-122.3458,44.20614],[-122.344392,44.207274],[-122.344285,44.20736],[-122.343661,44.206956],[-122.342429,44.207553],[-122.342092,44.207399],[-122.3409,44.20876],[-122.340622,44.208634],[-122.340025,44.209173],[-122.337649,44.208058],[-122.335912,44.209112],[-122.336387,44.209345],[-122.336463,44.209382],[-122.336464,44.209382],[-122.339011,44.210603],[-122.339036,44.210615],[-122.338325,44.211391],[-122.338319,44.211398],[-122.343031,44.213673],[-122.343622,44.213026],[-122.344169,44.213366],[-122.344331,44.213467],[-122.345832,44.2144],[-122.349433,44.217566],[-122.349474,44.217604],[-122.349529,44.217807],[-122.349657,44.217771]],[[-122.34762,44.21185],[-122.347857,44.212518],[-122.347193,44.212061],[-122.34762,44.21185]]]}},{"type":"Feature","properties":{"MAPTAXLOT":"1645050000200","MAPNUMBER":"16450500","TAXLOT":"200","ACCTNO":"0084820","MAPACRES":3.99212802},"geometry":{"type":"Polygon","coordinates":[[[-122.349409,44.209342],[-122.349285,44.210298],[-122.35107,44.209704],[-122.351071,44.209704],[-122.351244,44.209644],[-122.351298,44.209307],[-122.351298,44.209304],[-122.351354,44.208667],[-122.350699,44.208894],[-122.349409,44.209342]]]}},{"type":"Feature","properties":{"MAPTAXLOT":"1645050000300","MAPNUMBER":"16450500","TAXLOT":"300","ACCTNO":"0084838","MAPACRES":382.53424512},"geometry":{"type":"Polygon","coordinates":[[[-122.355923,44.209378],[-122.360771,44.209353],[-122.360774,44.209353],[-122.360131,44.208491],[-122.358519,44.206447],[-122.358379,44.206551],[-122.353561,44.204248],[-122.355147,44.203075],[-122.357914,44.204606],[-122.359109,44.20392],[-122.361908,44.20747],[-122.362764,44.208702],[-122.36348,44.209141],[-122.363414,44.20906],[-122.363856,44.20851],[-122.364135,44.208228],[-122.364308,44.204577],[-122.364464,44.198261],[-122.364464,44.198117],[-122.359665,44.19795],[-122.354867,44.197784],[-122.34527,44.197452],[-122.344734,44.203488],[-122.344392,44.207274],[-122.3458,44.20614],[-122.347315,44.204919],[-122.351566,44.207674],[-122.350349,44.208654],[-122.350699,44.208894],[-122.351354,44.208667],[-122.351298,44.209304],[-122.351298,44.209307],[-122.351474,44.209431],[-122.353054,44.208869],[-122.353602,44.208587],[-122.353581,44.208562],[-122.350977,44.205481],[-122.352842,44.204781],[-122.355879,44.208174],[-122.355276,44.208403],[-122.355911,44.20936],[-122.355922,44.209376],[-122.355923,44.209378]]]}},{"type":"Feature","properties":{"MAPTAXLOT":"1645050000400","MAPNUMBER":"16450500","TAXLOT":"400","ACCTNO":"0084846","MAPACRES":17.53230182},"geometry":{"type":"Polygon","coordinates":[[[-122.350977,44.205481],[-122.353581,44.208562],[-122.353602,44.208587],[-122.354911,44.207914],[-122.354942,44.207899],[-122.355276,44.208402],[-122.355276,44.208403],[-122.355879,44.208174],[-122.352842,44.204781],[-122.350977,44.205481]]]}},{"type":"Feature","properties":{"MAPTAXLOT":"1645050000500","MAPNUMBER":"16450500","TAXLOT":"500","ACCTNO":"0084853","MAPACRES":18.6062293},"geometry":{"type":"Polygon","coordinates":[[[-122.353561,44.204248],[-122.358379,44.206551],[-122.358519,44.206447],[-122.359679,44.205584],[-122.357914,44.204606],[-122.355147,44.203075],[-122.353561,44.204248]]]}},{"type":"Feature","properties":{"MAPTAXLOT":"1645050000600","MAPNUMBER":"16450500","TAXLOT":"600","ACCTNO":"0084861","MAPACRES":34.40425696},"geometry":{"type":"Polygon","coordinates":[[[-122.3638,44.211508],[-122.363934,44.211602],[-122.363943,44.211522],[-122.364015,44.210887],[-122.365214,44.210344],[-122.365349,44.210283],[-122.36348,44.209141],[-122.362764,44.208702],[-122.361908,44.20747],[-122.359109,44.20392],[-122.357914,44.204606],[-122.359679,44.205584],[-122.358519,44.206447],[-122.360131,44.208491],[-122.360774,44.209353],[-122.360841,44.209447],[-122.360999,44.20967],[-122.3638,44.211508]]]}},{"type":"Feature","properties":{"MAPTAXLOT":"1645060000100","MAPNUMBER":"16450600","TAXLOT":"100","ACCTNO":"1223385","MAPACRES":15.48017498},"geometry":{"type":"Polygon","coordinates":[[[-122.382413,44.209475],[-122.382422,44.20948],[-122.38354,44.210168],[-122.383546,44.210155],[-122.383849,44.209477],[-122.383852,44.209469],[-122.384119,44.208871],[-122.383133,44.20826],[-122.383128,44.208257],[-122.382177,44.207668],[-122.379437,44.206678],[-122.378921,44.207928],[-122.381048,44.208622],[-122.382413,44.209475]]]}},{"type":"Feature","properties":{"MAPTAXLOT":"1645060000200","MAPNUMBER":"16450600","TAXLOT":"200","ACCTNO":"0084143","MAPACRES":58.98571732},"geometry":{"type":"Polygon","coordinates":[[[-122.371147,44.206473],[-122.374589,44.209333],[-122.376216,44.208377],[-122.375539,44.207803],[-122.376607,44.207175],[-122.37379,44.204785],[-122.374019,44.204859],[-122.374666,44.204182],[-122.371483,44.202421],[-122.370307,44.203655],[-122.372478,44.20436],[-122.371672,44.204833],[-122.368372,44.202935],[-122.366667,44.20394],[-122.371147,44.206473]]]}},{"type":"Feature","properties":{"MAPTAXLOT":"1645060000300","MAPNUMBER":"16450600","TAXLOT":"300","ACCTNO":"1405925","MAPACRES":7.01110038},"geometry":{"type":"Polygon","coordinates":[[[-122.36348,44.209141],[-122.365349,44.210283],[-122.366242,44.209879],[-122.365801,44.209345],[-122.364517,44.207843],[-122.364135,44.208228],[-122.363856,44.20851],[-122.363414,44.20906],[-122.36348,44.209141]]]}},{"type":"Feature","properties":{"MAPTAXLOT":"1645100000100","MAPNUMBER":"16451000","TAXLOT":"100","ACCTNO":"0084879","MAPACRES":428.62940661},"geometry":{"type":"Polygon","coordinates":[[[-122.313824,44.196962],[-122.315517,44.196966],[-122.315523,44.196917],[-122.316011,44.196214],[-122.315914,44.195643],[-122.315807,44.195389],[-122.316345,44.194803],[-122.316845,44.194164],[-122.317275,44.1938],[-122.318795,44.193607],[-122.318795,44.193394],[-122.32019,44.193399],[-122.320634,44.192536],[-122.321668,44.19165],[-122.321693,44.191393],[-122.322914,44.19028],[-122.323295,44.190087],[-122.32375,44.18984],[-122.323752,44.183591],[-122.323295,44.184106],[-122.320454,44.185001],[-122.31752,44.185],[-122.316015,44.185057],[-122.315194,44.185331],[-122.313729,44.184617],[-122.313868,44.183772],[-122.31487,44.183178],[-122.315678,44.18307],[-122.316628,44.182948],[-122.317102,44.18275],[-122.31757,44.18265],[-122.313852,44.182625],[-122.308899,44.182593],[-122.308875,44.189772],[-122.303913,44.189751],[-122.303894,44.193348],[-122.30387,44.196946],[-122.308849,44.196953],[-122.313824,44.196962]]]}},{"type":"Feature","properties":{"MAPTAXLOT":"1645100000200","MAPNUMBER":"16451000","TAXLOT":"200","ACCTNO":"0084887","MAPACRES":74.01498058},"geometry":{"type":"Polygon","coordinates":[[[-122.318795,44.196973],[-122.323762,44.196983],[-122.323753,44.193413],[-122.32375,44.18984],[-122.323295,44.190087],[-122.322914,44.19028],[-122.321693,44.191393],[-122.321668,44.19165],[-122.320634,44.192536],[-122.32019,44.193399],[-122.318795,44.193394],[-122.318795,44.193607],[-122.317275,44.1938],[-122.316845,44.194164],[-122.316345,44.194803],[-122.315807,44.195389],[-122.315914,44.195643],[-122.316011,44.196214],[-122.315523,44.196917],[-122.315517,44.196966],[-122.318795,44.196973]]]}},{"type":"Feature","properties":{"MAPTAXLOT":"1645160000066","MAPNUMBER":"16451600","TAXLOT":"66","ACCTNO":"000None","MAPACRES":84.76228125},"geometry":{"type":"MultiPolygon","coordinates":[[[[-122.31721,44.183945],[-122.317062,44.184023],[-122.317006,44.184066],[-122.317111,44.184089],[-122.317353,44.184035],[-122.317605,44.183938],[-122.317917,44.183875],[-122.318381,44.183867],[-122.318787,44.183851],[-122.31909,44.183863],[-122.319427,44.183865],[-122.319667,44.183761],[-122.319917,44.183615],[-122.320181,44.183519],[-122.32055,44.183454],[-122.320967,44.183422],[-122.321118,44.183411],[-122.321243,44.183342],[-122.321422,44.183172],[-122.321531,44.18297],[-122.321559,44.18277],[-122.321705,44.182625],[-122.321936,44.182597],[-122.322203,44.1826],[-122.322587,44.182619],[-122.322864,44.182581],[-122.323063,44.182549],[-122.323328,44.182486],[-122.323497,44.18235],[-122.323594,44.182156],[-122.323618,44.181848],[-122.323659,44.181705],[-122.323784,44.18162],[-122.323965,44.181508],[-122.324068,44.181465],[-122.324173,44.18148],[-122.324334,44.181427],[-122.324516,44.181332],[-122.324603,44.181172],[-122.32474,44.181095],[-122.325013,44.180957],[-122.325239,44.180795],[-122.325579,44.180572],[-122.325768,44.180327],[-122.325899,44.180165],[-122.326306,44.17996],[-122.326638,44.1798],[-122.326846,44.179597],[-122.326993,44.179418],[-122.327126,44.179262],[-122.327411,44.17908],[-122.327515,44.178968],[-122.327631,44.178779],[-122.32778,44.178655],[-122.32801,44.17864],[-122.328318,44.178668],[-122.328755,44.178893],[-122.329022,44.179076],[-122.329353,44.179325],[-122.329667,44.179518],[-122.330054,44.179622],[-122.330319,44.179729],[-122.330614,44.179834],[-122.330862,44.179907],[-122.330973,44.180027],[-122.331226,44.180222],[-122.331357,44.180484],[-122.33146,44.180781],[-122.331528,44.180978],[-122.331655,44.181086],[-122.331777,44.181084],[-122.332144,44.181035],[-122.332141,44.180968],[-122.332117,44.180715],[-122.332123,44.180439],[-122.332112,44.18013],[-122.332061,44.179988],[-122.331966,44.179901],[-122.331746,44.179739],[-122.3314,44.179491],[-122.331114,44.179208],[-122.330905,44.178925],[-122.330743,44.178673],[-122.330641,44.178388],[-122.330606,44.178256],[-122.330492,44.178048],[-122.330302,44.177886],[-122.330218,44.177667],[-122.330211,44.177446],[-122.330338,44.177113],[-122.330405,44.176803],[-122.330424,44.176471],[-122.330367,44.176165],[-122.330206,44.175925],[-122.329873,44.17561],[-122.329682,44.175404],[-122.32955,44.175119],[-122.329541,44.174876],[-122.329793,44.174585],[-122.330094,44.174404],[-122.330182,44.174281],[-122.330115,44.174116],[-122.329864,44.173944],[-122.329502,44.173696],[-122.329107,44.17336],[-122.328864,44.173163],[-122.328745,44.173068],[-122.328441,44.172697],[-122.328068,44.172096],[-122.327948,44.171722],[-122.32786,44.171382],[-122.327823,44.171194],[-122.327743,44.171074],[-122.32765,44.171065],[-122.327484,44.171134],[-122.327154,44.171382],[-122.326735,44.17173],[-122.326586,44.171854],[-122.326407,44.172012],[-122.326197,44.172181],[-122.326014,44.172217],[-122.325653,44.172134],[-122.325404,44.172038],[-122.324884,44.171954],[-122.324546,44.171892],[-122.324169,44.171869],[-122.323787,44.171883],[-122.323778,44.173953],[-122.323988,44.173963],[-122.324208,44.174104],[-122.324587,44.174185],[-122.324948,44.174141],[-122.325416,44.174207],[-122.325987,44.174297],[-122.326496,44.174356],[-122.326787,44.17434],[-122.327109,44.174335],[-122.3272,44.1743],[-122.327383,44.174264],[-122.327507,44.174295],[-122.327509,44.174362],[-122.327499,44.174516],[-122.327569,44.174758],[-122.32768,44.174889],[-122.327746,44.17502],[-122.327718,44.175087],[-122.327582,44.175166],[-122.327587,44.17531],[-122.327767,44.175638],[-122.32802,44.175877],[-122.328264,44.176198],[-122.328309,44.176258],[-122.328424,44.176488],[-122.328447,44.176709],[-122.328271,44.176965],[-122.327972,44.177213],[-122.327595,44.177406],[-122.327262,44.177544],[-122.326778,44.177773],[-122.326386,44.177978],[-122.32613,44.178126],[-122.325762,44.178585],[-122.325762,44.178826],[-122.325573,44.179071],[-122.325326,44.179292],[-122.324974,44.179506],[-122.324725,44.179677],[-122.324524,44.179897],[-122.324266,44.180144],[-122.323857,44.180392],[-122.32342,44.1805],[-122.323194,44.18067],[-122.323084,44.180839],[-122.322857,44.180993],[-122.322695,44.181116],[-122.3225,44.181195],[-122.322421,44.181254],[-122.322417,44.181463],[-122.322344,44.181681],[-122.322297,44.182007],[-122.322184,44.182092],[-122.321964,44.182104],[-122.321662,44.182093],[-122.32143,44.182105],[-122.321249,44.182241],[-122.321,44.182412],[-122.32082,44.182566],[-122.320633,44.182844],[-122.320348,44.182999],[-122.320024,44.183029],[-122.319793,44.183067],[-122.319654,44.183094],[-122.319369,44.183224],[-122.319085,44.183396],[-122.31867,44.183486],[-122.318277,44.18356],[-122.317802,44.183602],[-122.317391,44.183792],[-122.31721,44.183945]]],[[[-122.332009,44.1818],[-122.331949,44.181842],[-122.331946,44.181911],[-122.332036,44.182059],[-122.33216,44.18224],[-122.332302,44.182416],[-122.332518,44.182611],[-122.332573,44.18274],[-122.332651,44.18286],[-122.332706,44.182981],[-122.332718,44.183171],[-122.33268,44.183366],[-122.332654,44.183557],[-122.332676,44.183714],[-122.332723,44.183912],[-122.332837,44.184113],[-122.332888,44.184258],[-122.33286,44.18457],[-122.332811,44.184781],[-122.332779,44.184968],[-122.33274,44.185139],[-122.33274,44.185317],[-122.332918,44.184929],[-122.33305,44.184704],[-122.33314,44.184407],[-122.333127,44.184192],[-122.333105,44.184059],[-122.33307,44.183877],[-122.333057,44.183683],[-122.333148,44.183398],[-122.333231,44.183195],[-122.333286,44.182996],[-122.333252,44.18283],[-122.33322,44.182745],[-122.333135,44.182577],[-122.333033,44.182392],[-122.332931,44.182227],[-122.332807,44.182067],[-122.332666,44.181895],[-122.332565,44.181743],[-122.332502,44.181715],[-122.332406,44.181705],[-122.332009,44.1818]]]]}},{"type":"Feature","properties":{"MAPTAXLOT":"1645160000077","MAPNUMBER":"16451600","TAXLOT":"77","ACCTNO":"000None","MAPACRES":50.41951067},"geometry":{"type":"Polygon","coordinates":[[[-122.329898,44.174683],[-122.32985,44.174736],[-122.329809,44.174792],[-122.329775,44.174851],[-122.329747,44.174911],[-122.329727,44.174973],[-122.329715,44.175035],[-122.329709,44.175099],[-122.329712,44.175162],[-122.329722,44.175225],[-122.329739,44.175287],[-122.329763,44.175348],[-122.329795,44.175407],[-122.329834,44.175464],[-122.329879,44.175518],[-122.329931,44.17557],[-122.330211,44.175814],[-122.330252,44.175853],[-122.330288,44.175894],[-122.330319,44.175937],[-122.330345,44.175981],[-122.330366,44.176028],[-122.330408,44.176129],[-122.330433,44.176182],[-122.330464,44.176233],[-122.3305,44.176283],[-122.330542,44.17633],[-122.330928,44.176729],[-122.330943,44.176748],[-122.330955,44.176769],[-122.330961,44.17679],[-122.330963,44.176812],[-122.330961,44.176834],[-122.330953,44.176856],[-122.330942,44.176876],[-122.330926,44.176895],[-122.330813,44.177007],[-122.330764,44.17706],[-122.33072,44.177115],[-122.330683,44.177172],[-122.330652,44.177231],[-122.330626,44.177292],[-122.330607,44.177354],[-122.330595,44.177416],[-122.330589,44.177479],[-122.330589,44.177543],[-122.330596,44.177606],[-122.33061,44.177668],[-122.330638,44.177771],[-122.330648,44.177819],[-122.330652,44.177869],[-122.330651,44.177918],[-122.330637,44.178078],[-122.330635,44.178129],[-122.33064,44.17818],[-122.330651,44.17823],[-122.330669,44.17828],[-122.330692,44.178328],[-122.330722,44.178375],[-122.330757,44.178419],[-122.330797,44.178461],[-122.330843,44.178501],[-122.331367,44.178915],[-122.33145,44.178984],[-122.331528,44.179056],[-122.331601,44.17913],[-122.331669,44.179207],[-122.331731,44.179286],[-122.331819,44.179405],[-122.331856,44.17945],[-122.3319,44.179492],[-122.331948,44.179531],[-122.332002,44.179566],[-122.332061,44.179598],[-122.3322,44.179664],[-122.3322,44.179664],[-122.332249,44.17969],[-122.332293,44.179721],[-122.332333,44.179754],[-122.332366,44.179791],[-122.332394,44.17983],[-122.332416,44.179871],[-122.33243,44.179913],[-122.332439,44.179957],[-122.33244,44.180001],[-122.332434,44.180044],[-122.332421,44.180087],[-122.332402,44.180129],[-122.332323,44.180273],[-122.332295,44.180329],[-122.332275,44.180387],[-122.332261,44.180446],[-122.332254,44.180506],[-122.332255,44.180565],[-122.332262,44.180625],[-122.332277,44.180684],[-122.332299,44.180741],[-122.332327,44.180798],[-122.33314,44.182207],[-122.33317,44.182254],[-122.333205,44.1823],[-122.333245,44.182344],[-122.333289,44.182385],[-122.333334,44.182424],[-122.333378,44.182466],[-122.333416,44.182509],[-122.333449,44.182556],[-122.333475,44.182604],[-122.333496,44.182653],[-122.33351,44.182704],[-122.333518,44.182755],[-122.33352,44.182807],[-122.333515,44.182859],[-122.333503,44.18291],[-122.333486,44.18296],[-122.333462,44.183009],[-122.33339,44.183137],[-122.333364,44.18319],[-122.333344,44.183243],[-122.33333,44.183298],[-122.333322,44.183353],[-122.33332,44.183409],[-122.333324,44.183464],[-122.333329,44.1835],[-122.33333,44.183536],[-122.333326,44.183572],[-122.333316,44.183607],[-122.3333,44.183641],[-122.33326,44.183712],[-122.333236,44.183761],[-122.333218,44.18381],[-122.333206,44.183861],[-122.333201,44.183912],[-122.333202,44.183963],[-122.333209,44.184014],[-122.333223,44.184064],[-122.333243,44.184114],[-122.333292,44.184218],[-122.333309,44.184259],[-122.333319,44.184301],[-122.333324,44.184343],[-122.333322,44.184386],[-122.333315,44.184428],[-122.333302,44.184469],[-122.333283,44.18451],[-122.332189,44.186501],[-122.33265,44.186408],[-122.333636,44.184611],[-122.333664,44.184553],[-122.333685,44.184494],[-122.333698,44.184433],[-122.333704,44.184372],[-122.333702,44.184311],[-122.333693,44.18425],[-122.333676,44.184189],[-122.333652,44.18413],[-122.334012,44.184043],[-122.333963,44.183939],[-122.333962,44.183936],[-122.333961,44.183932],[-122.333961,44.183928],[-122.333962,44.183925],[-122.333964,44.183921],[-122.334004,44.183851],[-122.334036,44.183787],[-122.334061,44.183721],[-122.334078,44.183654],[-122.334088,44.183586],[-122.334091,44.183518],[-122.334086,44.18345],[-122.334081,44.183414],[-122.33408,44.183391],[-122.334085,44.183367],[-122.334095,44.183344],[-122.334167,44.183216],[-122.334203,44.183145],[-122.334233,44.183072],[-122.334255,44.182998],[-122.334271,44.182923],[-122.334279,44.182848],[-122.334281,44.182772],[-122.334275,44.182696],[-122.334262,44.182621],[-122.334243,44.182547],[-122.334216,44.182473],[-122.334182,44.182402],[-122.334142,44.182331],[-122.334096,44.182264],[-122.334043,44.182198],[-122.333984,44.182135],[-122.333919,44.182075],[-122.333874,44.182036],[-122.333856,44.182018],[-122.333842,44.181998],[-122.333031,44.18059],[-122.333021,44.180568],[-122.333016,44.180545],[-122.333016,44.180522],[-122.333021,44.180499],[-122.33303,44.180477],[-122.33311,44.180332],[-122.333143,44.180266],[-122.333169,44.180197],[-122.333187,44.180128],[-122.333198,44.180058],[-122.333202,44.179987],[-122.333198,44.179916],[-122.333187,44.179846],[-122.333169,44.179776],[-122.333143,44.179708],[-122.33311,44.179641],[-122.33307,44.179577],[-122.333024,44.179514],[-122.332971,44.179455],[-122.332912,44.179398],[-122.332847,44.179345],[-122.332777,44.179295],[-122.332702,44.17925],[-122.332622,44.179208],[-122.332488,44.179144],[-122.332404,44.179029],[-122.332337,44.178943],[-122.332265,44.178859],[-122.332188,44.178777],[-122.332107,44.178698],[-122.332021,44.178621],[-122.33193,44.178547],[-122.331406,44.178132],[-122.331403,44.178129],[-122.3314,44.178126],[-122.331398,44.178122],[-122.331397,44.178118],[-122.331397,44.178114],[-122.331411,44.177954],[-122.331415,44.177882],[-122.331411,44.17781],[-122.331402,44.177738],[-122.331386,44.177667],[-122.331358,44.177564],[-122.331352,44.177529],[-122.331351,44.177494],[-122.331356,44.177459],[-122.331366,44.177424],[-122.331382,44.177391],[-122.331404,44.177359],[-122.33143,44.177329],[-122.331543,44.177217],[-122.33159,44.177166],[-122.33163,44.177112],[-122.331663,44.177056],[-122.33169,44.176999],[-122.331709,44.176939],[-122.331721,44.176879],[-122.331725,44.176818],[-122.331722,44.176757],[-122.331712,44.176697],[-122.331694,44.176637],[-122.331669,44.176579],[-122.331637,44.176522],[-122.331599,44.176468],[-122.331553,44.176417],[-122.33171,44.176339],[-122.331324,44.175939],[-122.331322,44.175938],[-122.331321,44.175936],[-122.331284,44.175845],[-122.331253,44.175773],[-122.331216,44.175702],[-122.331173,44.175633],[-122.331124,44.175565],[-122.331069,44.1755],[-122.33101,44.175438],[-122.330945,44.175378],[-122.330678,44.175146],[-122.330671,44.175138],[-122.330666,44.175129],[-122.330663,44.17512],[-122.330662,44.17511],[-122.330663,44.175101],[-122.330667,44.175092],[-122.330673,44.175083],[-122.330681,44.175075],[-122.330976,44.17483],[-122.33104,44.174775],[-122.331101,44.174718],[-122.331159,44.17466],[-122.331165,44.174653],[-122.331213,44.174604],[-122.331234,44.174585],[-122.331259,44.174568],[-122.331287,44.174555],[-122.331317,44.174544],[-122.33135,44.174537],[-122.331448,44.17452],[-122.331537,44.174503],[-122.331624,44.174482],[-122.33171,44.174458],[-122.331794,44.17443],[-122.331876,44.1744],[-122.332205,44.174266],[-122.332279,44.174238],[-122.332356,44.174214],[-122.332533,44.174163],[-122.332462,44.174036],[-122.332545,44.17401],[-122.332625,44.173978],[-122.332701,44.173943],[-122.332773,44.173903],[-122.33284,44.173859],[-122.332903,44.173812],[-122.33296,44.173761],[-122.333011,44.173707],[-122.333056,44.17365],[-122.333094,44.173591],[-122.333126,44.17353],[-122.333522,44.17267],[-122.333561,44.172584],[-122.333593,44.172497],[-122.333619,44.172408],[-122.333639,44.172319],[-122.333652,44.172229],[-122.333659,44.172139],[-122.333659,44.172048],[-122.333652,44.171958],[-122.333639,44.171868],[-122.333619,44.171778],[-122.333593,44.17169],[-122.33356,44.171602],[-122.333368,44.171139],[-122.333357,44.171102],[-122.333351,44.171064],[-122.333353,44.171025],[-122.333361,44.170987],[-122.333376,44.17095],[-122.333414,44.170874],[-122.333442,44.17081],[-122.333463,44.170744],[-122.333477,44.170677],[-122.333483,44.17061],[-122.333482,44.170543],[-122.333473,44.170476],[-122.333457,44.170409],[-122.333434,44.170344],[-122.333404,44.17028],[-122.333261,44.170016],[-122.333219,44.169931],[-122.333184,44.169844],[-122.333156,44.169756],[-122.333135,44.169667],[-122.333122,44.169578],[-122.333115,44.169487],[-122.333116,44.169397],[-122.333125,44.169307],[-122.33314,44.169218],[-122.333163,44.169129],[-122.333193,44.169041],[-122.33323,44.168955],[-122.333273,44.16887],[-122.333324,44.168788],[-122.333381,44.168707],[-122.333444,44.168629],[-122.333514,44.168554],[-122.33355,44.168518],[-122.333616,44.168447],[-122.333675,44.168374],[-122.333727,44.168299],[-122.333774,44.168221],[-122.333814,44.168142],[-122.333846,44.168061],[-122.333873,44.167978],[-122.333892,44.167895],[-122.333904,44.167811],[-122.333909,44.167727],[-122.333907,44.167642],[-122.333897,44.167558],[-122.333881,44.167474],[-122.333851,44.16735],[-122.333837,44.167277],[-122.33383,44.167203],[-122.333829,44.167129],[-122.333834,44.167055],[-122.333846,44.166982],[-122.334066,44.165928],[-122.334538,44.165944],[-122.33455,44.165707],[-122.334374,44.165143],[-122.334199,44.164911],[-122.334116,44.164442],[-122.334007,44.164158],[-122.333969,44.163958],[-122.333834,44.163259],[-122.333837,44.163214],[-122.333867,44.162968],[-122.333911,44.162782],[-122.334028,44.16253],[-122.334079,44.162469],[-122.334191,44.162332],[-122.334704,44.161467],[-122.334716,44.161452],[-122.334728,44.161438],[-122.334768,44.161386],[-122.334802,44.161331],[-122.33483,44.161276],[-122.334853,44.161218],[-122.334869,44.16116],[-122.334879,44.161101],[-122.334884,44.161041],[-122.334882,44.160982],[-122.334875,44.160929],[-122.334864,44.160877],[-122.334848,44.160826],[-122.334827,44.160776],[-122.334819,44.16076],[-122.334811,44.160744],[-122.334575,44.160306],[-122.334475,44.160119],[-122.334447,44.160119],[-122.33445,44.160074],[-122.334457,44.160037],[-122.334468,44.160002],[-122.334482,44.159966],[-122.334518,44.159975],[-122.334631,44.159736],[-122.334595,44.159727],[-122.334754,44.1594],[-122.335088,44.158681],[-122.335113,44.158628],[-122.335137,44.158584],[-122.335167,44.158542],[-122.33521,44.1585],[-122.335259,44.158462],[-122.335312,44.158426],[-122.335312,44.158426],[-122.335319,44.158422],[-122.33532,44.158421],[-122.335327,44.158417],[-122.335366,44.158395],[-122.336353,44.15787],[-122.33621,44.157742],[-122.335342,44.158202],[-122.335245,44.158254],[-122.335186,44.158287],[-122.335132,44.158323],[-122.335081,44.158362],[-122.335065,44.158376],[-122.335024,44.158416],[-122.335011,44.158429],[-122.334971,44.158478],[-122.334937,44.15853],[-122.334913,44.158576],[-122.334592,44.159242],[-122.33453,44.159369],[-122.334379,44.159673],[-122.334343,44.159664],[-122.33423,44.159904],[-122.334266,44.159913],[-122.334242,44.159967],[-122.334225,44.160024],[-122.334214,44.160081],[-122.33421,44.160138],[-122.334208,44.160253],[-122.334207,44.160314],[-122.334199,44.160374],[-122.334184,44.160434],[-122.334171,44.160464],[-122.334155,44.160494],[-122.33407,44.160648],[-122.334048,44.160685],[-122.334024,44.160722],[-122.333977,44.160767],[-122.333871,44.160863],[-122.333792,44.160937],[-122.333662,44.161061],[-122.333489,44.161224],[-122.333431,44.161279],[-122.33329,44.161412],[-122.333259,44.161442],[-122.333207,44.1615],[-122.333195,44.161514],[-122.333152,44.16157],[-122.333113,44.161628],[-122.33308,44.161681],[-122.333033,44.161758],[-122.333083,44.161856],[-122.333099,44.161887],[-122.333204,44.16192],[-122.333259,44.16183],[-122.333242,44.161825],[-122.333322,44.161694],[-122.333354,44.161646],[-122.33339,44.1616],[-122.333429,44.161555],[-122.333472,44.161512],[-122.334053,44.160963],[-122.334196,44.160827],[-122.334231,44.160778],[-122.334261,44.160727],[-122.334307,44.160645],[-122.334431,44.160875],[-122.334454,44.160925],[-122.33447,44.160976],[-122.334473,44.160991],[-122.334478,44.161028],[-122.334479,44.161043],[-122.334479,44.16105],[-122.33448,44.161065],[-122.334478,44.161095],[-122.334474,44.161125],[-122.334473,44.161132],[-122.334466,44.161162],[-122.334464,44.161169],[-122.334449,44.161212],[-122.334442,44.161227],[-122.334428,44.161255],[-122.33442,44.161269],[-122.334393,44.161309],[-122.334361,44.161347],[-122.33377,44.161991],[-122.333326,44.162475],[-122.333262,44.162548],[-122.333205,44.162622],[-122.333153,44.162698],[-122.333106,44.162775],[-122.33306,44.162865],[-122.33302,44.162957],[-122.332988,44.16305],[-122.332963,44.163145],[-122.332946,44.16324],[-122.332936,44.163336],[-122.332933,44.163432],[-122.33295,44.164814],[-122.332954,44.164881],[-122.332964,44.164948],[-122.33298,44.165014],[-122.333003,44.165079],[-122.333031,44.165143],[-122.333065,44.165206],[-122.333105,44.165267],[-122.333151,44.165325],[-122.333177,44.165357],[-122.333215,44.165407],[-122.333248,44.165458],[-122.333274,44.165511],[-122.333296,44.165565],[-122.333311,44.165621],[-122.33332,44.165677],[-122.333324,44.165733],[-122.333321,44.16579],[-122.333312,44.165846],[-122.333092,44.1669],[-122.333077,44.16699],[-122.333068,44.167081],[-122.333066,44.167172],[-122.333071,44.167262],[-122.333082,44.167353],[-122.3331,44.167442],[-122.33313,44.167567],[-122.333142,44.167633],[-122.333147,44.167699],[-122.333144,44.167766],[-122.333134,44.167832],[-122.333117,44.167897],[-122.333093,44.167962],[-122.333062,44.168024],[-122.333024,44.168085],[-122.33298,44.168144],[-122.332929,44.168199],[-122.332893,44.168236],[-122.332812,44.168322],[-122.332738,44.168411],[-122.332669,44.168502],[-122.332607,44.168596],[-122.332552,44.168692],[-122.332503,44.16879],[-122.33246,44.168889],[-122.332425,44.168989],[-122.332397,44.169091],[-122.332375,44.169194],[-122.332361,44.169297],[-122.332354,44.169401],[-122.332354,44.169505],[-122.332361,44.169608],[-122.332375,44.169712],[-122.332396,44.169815],[-122.332425,44.169916],[-122.33246,44.170017],[-122.332502,44.170116],[-122.332551,44.170214],[-122.332693,44.170478],[-122.332708,44.170512],[-122.332718,44.170547],[-122.332721,44.170583],[-122.332719,44.170618],[-122.332711,44.170654],[-122.332697,44.170688],[-122.332659,44.170764],[-122.332631,44.170828],[-122.332609,44.170894],[-122.332596,44.170961],[-122.332589,44.171028],[-122.33259,44.171096],[-122.332599,44.171163],[-122.332615,44.17123],[-122.332638,44.171295],[-122.33283,44.171758],[-122.332856,44.17183],[-122.332876,44.171902],[-122.332889,44.171976],[-122.332897,44.172049],[-122.332897,44.172123],[-122.332891,44.172197],[-122.332879,44.172271],[-122.33286,44.172344],[-122.332835,44.172415],[-122.332803,44.172486],[-122.332766,44.172567],[-122.332403,44.173357],[-122.332385,44.173389],[-122.332362,44.173419],[-122.332333,44.173447],[-122.332301,44.173472],[-122.332264,44.173493],[-122.332223,44.173512],[-122.33218,44.173526],[-122.332003,44.173577],[-122.331912,44.173605],[-122.331822,44.173635],[-122.331735,44.173669],[-122.331406,44.173803],[-122.331349,44.173824],[-122.331289,44.17384],[-122.331227,44.173853],[-122.331254,44.173933],[-122.331155,44.17395],[-122.331071,44.173967],[-122.330989,44.173989],[-122.330909,44.174016],[-122.330833,44.174047],[-122.330639,44.173953],[-122.330575,44.174021],[-122.330734,44.174098],[-122.330675,44.174134],[-122.33062,44.174173],[-122.33057,44.174216],[-122.330523,44.17426],[-122.330469,44.174317],[-122.330408,44.174377],[-122.330342,44.174435],[-122.330047,44.17468],[-122.32996,44.174626],[-122.329928,44.174654],[-122.329898,44.174683]]]}},{"type":"Feature","properties":{"MAPTAXLOT":"1645160000100","MAPNUMBER":"16451600","TAXLOT":"100","ACCTNO":"0084994","MAPACRES":19.28258685},"geometry":{"type":"Polygon","coordinates":[[[-122.329323,44.182683],[-122.330926,44.182681],[-122.330227,44.181038],[-122.328672,44.180773],[-122.328414,44.180434],[-122.328152,44.180207],[-122.327195,44.180891],[-122.326702,44.181298],[-122.326223,44.181573],[-122.324681,44.18269],[-122.329323,44.182683]]]}},{"type":"Feature","properties":{"MAPTAXLOT":"1645160000101","MAPNUMBER":"16451600","TAXLOT":"101","ACCTNO":"0085009","MAPACRES":243.83760549},"geometry":{"type":"MultiPolygon","coordinates":[[[[-122.331547,44.186631],[-122.332189,44.186501],[-122.333283,44.18451],[-122.333302,44.184469],[-122.333315,44.184428],[-122.333322,44.184386],[-122.333324,44.184343],[-122.333319,44.184301],[-122.333309,44.184259],[-122.333292,44.184218],[-122.333243,44.184114],[-122.333223,44.184064],[-122.333209,44.184014],[-122.333202,44.183963],[-122.333201,44.183912],[-122.333206,44.183861],[-122.333218,44.18381],[-122.333236,44.183761],[-122.33326,44.183712],[-122.3333,44.183641],[-122.333316,44.183607],[-122.333326,44.183572],[-122.33333,44.183536],[-122.333329,44.1835],[-122.333324,44.183464],[-122.33332,44.183409],[-122.333322,44.183353],[-122.33333,44.183298],[-122.333344,44.183243],[-122.333364,44.18319],[-122.33339,44.183137],[-122.333462,44.183009],[-122.333486,44.18296],[-122.333503,44.18291],[-122.333515,44.182859],[-122.33352,44.182807],[-122.333518,44.182755],[-122.33351,44.182704],[-122.333496,44.182653],[-122.333475,44.182604],[-122.333449,44.182556],[-122.333416,44.182509],[-122.333378,44.182466],[-122.333334,44.182424],[-122.333289,44.182385],[-122.333245,44.182344],[-122.333205,44.1823],[-122.33317,44.182254],[-122.33314,44.182207],[-122.332327,44.180798],[-122.332299,44.180741],[-122.332277,44.180684],[-122.332262,44.180625],[-122.332255,44.180565],[-122.332254,44.180506],[-122.332261,44.180446],[-122.332275,44.180387],[-122.332295,44.180329],[-122.332323,44.180273],[-122.332402,44.180129],[-122.332421,44.180087],[-122.332434,44.180044],[-122.33244,44.180001],[-122.332439,44.179957],[-122.33243,44.179913],[-122.332416,44.179871],[-122.332394,44.17983],[-122.332366,44.179791],[-122.332333,44.179754],[-122.332293,44.179721],[-122.332249,44.17969],[-122.3322,44.179664],[-122.3322,44.179664],[-122.332061,44.179598],[-122.332002,44.179566],[-122.331948,44.179531],[-122.3319,44.179492],[-122.331856,44.17945],[-122.331819,44.179405],[-122.331731,44.179286],[-122.331669,44.179207],[-122.331601,44.17913],[-122.331528,44.179056],[-122.33145,44.178984],[-122.331367,44.178915],[-122.330843,44.178501],[-122.330797,44.178461],[-122.330757,44.178419],[-122.330722,44.178375],[-122.330692,44.178328],[-122.330669,44.17828],[-122.330651,44.17823],[-122.33064,44.17818],[-122.330635,44.178129],[-122.330637,44.178078],[-122.330651,44.177918],[-122.330652,44.177869],[-122.330648,44.177819],[-122.330638,44.177771],[-122.33061,44.177668],[-122.330596,44.177606],[-122.330589,44.177543],[-122.330589,44.177479],[-122.330595,44.177416],[-122.330607,44.177354],[-122.330626,44.177292],[-122.330652,44.177231],[-122.330683,44.177172],[-122.33072,44.177115],[-122.330764,44.17706],[-122.330813,44.177007],[-122.330926,44.176895],[-122.330942,44.176876],[-122.330953,44.176856],[-122.330961,44.176834],[-122.330963,44.176812],[-122.330961,44.17679],[-122.330955,44.176769],[-122.330943,44.176748],[-122.330928,44.176729],[-122.330542,44.17633],[-122.3305,44.176283],[-122.330464,44.176233],[-122.330433,44.176182],[-122.330408,44.176129],[-122.330366,44.176028],[-122.330345,44.175981],[-122.330319,44.175937],[-122.330288,44.175894],[-122.330252,44.175853],[-122.330211,44.175814],[-122.329931,44.17557],[-122.329879,44.175518],[-122.329834,44.175464],[-122.329795,44.175407],[-122.329763,44.175348],[-122.329739,44.175287],[-122.329722,44.175225],[-122.329712,44.175162],[-122.329709,44.175099],[-122.329715,44.175035],[-122.329727,44.174973],[-122.329747,44.174911],[-122.329775,44.174851],[-122.329809,44.174792],[-122.32985,44.174736],[-122.329898,44.174683],[-122.329928,44.174654],[-122.32996,44.174626],[-122.330047,44.17468],[-122.330342,44.174435],[-122.330408,44.174377],[-122.330469,44.174317],[-122.330523,44.17426],[-122.33057,44.174216],[-122.33062,44.174173],[-122.330675,44.174134],[-122.330734,44.174098],[-122.330575,44.174021],[-122.330639,44.173953],[-122.330833,44.174047],[-122.330909,44.174016],[-122.330989,44.173989],[-122.331071,44.173967],[-122.331155,44.17395],[-122.331254,44.173933],[-122.331227,44.173853],[-122.331289,44.17384],[-122.331349,44.173824],[-122.331406,44.173803],[-122.331735,44.173669],[-122.331822,44.173635],[-122.331912,44.173605],[-122.332003,44.173577],[-122.33218,44.173526],[-122.332223,44.173512],[-122.332264,44.173493],[-122.332301,44.173472],[-122.332333,44.173447],[-122.332362,44.173419],[-122.332385,44.173389],[-122.332403,44.173357],[-122.332766,44.172567],[-122.332803,44.172486],[-122.332835,44.172415],[-122.33286,44.172344],[-122.332879,44.172271],[-122.332891,44.172197],[-122.332897,44.172123],[-122.332897,44.172049],[-122.332889,44.171976],[-122.332876,44.171902],[-122.332856,44.17183],[-122.33283,44.171758],[-122.332638,44.171295],[-122.332615,44.17123],[-122.332599,44.171163],[-122.33259,44.171096],[-122.332589,44.171028],[-122.332596,44.170961],[-122.332609,44.170894],[-122.332631,44.170828],[-122.332659,44.170764],[-122.332697,44.170688],[-122.332711,44.170654],[-122.332719,44.170618],[-122.332721,44.170583],[-122.332718,44.170547],[-122.332708,44.170512],[-122.332693,44.170478],[-122.332551,44.170214],[-122.332502,44.170116],[-122.33246,44.170017],[-122.332425,44.169916],[-122.332396,44.169815],[-122.332375,44.169712],[-122.332361,44.169608],[-122.332354,44.169505],[-122.332354,44.169401],[-122.332361,44.169297],[-122.332375,44.169194],[-122.332397,44.169091],[-122.332425,44.168989],[-122.33246,44.168889],[-122.332503,44.16879],[-122.332552,44.168692],[-122.332607,44.168596],[-122.332669,44.168502],[-122.332738,44.168411],[-122.332812,44.168322],[-122.332893,44.168236],[-122.332929,44.168199],[-122.33298,44.168144],[-122.333024,44.168085],[-122.333062,44.168024],[-122.333093,44.167962],[-122.333117,44.167897],[-122.333134,44.167832],[-122.333144,44.167766],[-122.333147,44.167699],[-122.333142,44.167633],[-122.33313,44.167567],[-122.3331,44.167442],[-122.333082,44.167353],[-122.333071,44.167262],[-122.333066,44.167172],[-122.333068,44.167081],[-122.333077,44.16699],[-122.333092,44.1669],[-122.333312,44.165846],[-122.333321,44.16579],[-122.333324,44.165733],[-122.33332,44.165677],[-122.333311,44.165621],[-122.333296,44.165565],[-122.333274,44.165511],[-122.333248,44.165458],[-122.333215,44.165407],[-122.333177,44.165357],[-122.333151,44.165325],[-122.333105,44.165267],[-122.333065,44.165206],[-122.333031,44.165143],[-122.333003,44.165079],[-122.33298,44.165014],[-122.332964,44.164948],[-122.332954,44.164881],[-122.33295,44.164814],[-122.332933,44.163432],[-122.332936,44.163336],[-122.332946,44.16324],[-122.332963,44.163145],[-122.332988,44.16305],[-122.33302,44.162957],[-122.33306,44.162865],[-122.333106,44.162775],[-122.333153,44.162698],[-122.333205,44.162622],[-122.333262,44.162548],[-122.333152,44.162296],[-122.333138,44.162153],[-122.333157,44.161996],[-122.333204,44.16192],[-122.333099,44.161887],[-122.333083,44.161856],[-122.333033,44.161758],[-122.33308,44.161681],[-122.333113,44.161628],[-122.333152,44.16157],[-122.333195,44.161514],[-122.332822,44.161863],[-122.332689,44.16181],[-122.332684,44.161808],[-122.332564,44.16176],[-122.332569,44.161885],[-122.332226,44.16189],[-122.331356,44.161904],[-122.331377,44.162711],[-122.329223,44.162633],[-122.329058,44.166058],[-122.328899,44.169339],[-122.331035,44.16935],[-122.330983,44.172434],[-122.328822,44.172274],[-122.328864,44.173163],[-122.329107,44.17336],[-122.329502,44.173696],[-122.329864,44.173944],[-122.330115,44.174116],[-122.330182,44.174281],[-122.330094,44.174404],[-122.329793,44.174585],[-122.329541,44.174876],[-122.32955,44.175119],[-122.329682,44.175404],[-122.329873,44.17561],[-122.330206,44.175925],[-122.330367,44.176165],[-122.330424,44.176471],[-122.330405,44.176803],[-122.330338,44.177113],[-122.330211,44.177446],[-122.330218,44.177667],[-122.330302,44.177886],[-122.330492,44.178048],[-122.330606,44.178256],[-122.330641,44.178388],[-122.330743,44.178673],[-122.330905,44.178925],[-122.331114,44.179208],[-122.3314,44.179491],[-122.331746,44.179739],[-122.331966,44.179901],[-122.332061,44.179988],[-122.332112,44.18013],[-122.332123,44.180439],[-122.332117,44.180715],[-122.332141,44.180968],[-122.332144,44.181035],[-122.331777,44.181084],[-122.331655,44.181086],[-122.331528,44.180978],[-122.33146,44.180781],[-122.331357,44.180484],[-122.331226,44.180222],[-122.330973,44.180027],[-122.330862,44.179907],[-122.330614,44.179834],[-122.330319,44.179729],[-122.330054,44.179622],[-122.329667,44.179518],[-122.329353,44.179325],[-122.329022,44.179076],[-122.328755,44.178893],[-122.328318,44.178668],[-122.32801,44.17864],[-122.32778,44.178655],[-122.327631,44.178779],[-122.327515,44.178968],[-122.327411,44.17908],[-122.327126,44.179262],[-122.326993,44.179418],[-122.326846,44.179597],[-122.326638,44.1798],[-122.326306,44.17996],[-122.325899,44.180165],[-122.325768,44.180327],[-122.325579,44.180572],[-122.325239,44.180795],[-122.325013,44.180957],[-122.32474,44.181095],[-122.324603,44.181172],[-122.324516,44.181332],[-122.324334,44.181427],[-122.324173,44.18148],[-122.324068,44.181465],[-122.323965,44.181508],[-122.323784,44.18162],[-122.323659,44.181705],[-122.323618,44.181848],[-122.323594,44.182156],[-122.323497,44.18235],[-122.323328,44.182486],[-122.323063,44.182549],[-122.322864,44.182581],[-122.322587,44.182619],[-122.322203,44.1826],[-122.321936,44.182597],[-122.321705,44.182625],[-122.321559,44.18277],[-122.321531,44.18297],[-122.321422,44.183172],[-122.321243,44.183342],[-122.321118,44.183411],[-122.320967,44.183422],[-122.32055,44.183454],[-122.320181,44.183519],[-122.319917,44.183615],[-122.319667,44.183761],[-122.319427,44.183865],[-122.31909,44.183863],[-122.318787,44.183851],[-122.318381,44.183867],[-122.317917,44.183875],[-122.317605,44.183938],[-122.317353,44.184035],[-122.317111,44.184089],[-122.317006,44.184066],[-122.317062,44.184023],[-122.31721,44.183945],[-122.317391,44.183792],[-122.317802,44.183602],[-122.318277,44.18356],[-122.31867,44.183486],[-122.319085,44.183396],[-122.319369,44.183224],[-122.319654,44.183094],[-122.319793,44.183067],[-122.320024,44.183029],[-122.320348,44.182999],[-122.320633,44.182844],[-122.32082,44.182566],[-122.321,44.182412],[-122.321249,44.182241],[-122.32143,44.182105],[-122.321662,44.182093],[-122.321964,44.182104],[-122.322184,44.182092],[-122.322297,44.182007],[-122.322344,44.181681],[-122.322417,44.181463],[-122.322421,44.181254],[-122.3225,44.181195],[-122.322695,44.181116],[-122.322857,44.180993],[-122.323084,44.180839],[-122.323194,44.18067],[-122.32342,44.1805],[-122.323857,44.180392],[-122.324266,44.180144],[-122.324524,44.179897],[-122.324725,44.179677],[-122.324974,44.179506],[-122.325326,44.179292],[-122.325573,44.179071],[-122.325762,44.178826],[-122.325762,44.178585],[-122.32613,44.178126],[-122.326386,44.177978],[-122.326778,44.177773],[-122.327262,44.177544],[-122.327595,44.177406],[-122.327972,44.177213],[-122.328271,44.176965],[-122.328447,44.176709],[-122.328424,44.176488],[-122.328309,44.176258],[-122.328264,44.176198],[-122.323772,44.176015],[-122.32376,44.179107],[-122.31879,44.179062],[-122.318804,44.182658],[-122.31757,44.18265],[-122.317102,44.18275],[-122.316628,44.182948],[-122.315678,44.18307],[-122.31487,44.183178],[-122.313868,44.183772],[-122.313729,44.184617],[-122.315194,44.185331],[-122.316015,44.185057],[-122.31752,44.185],[-122.320454,44.185001],[-122.323295,44.184106],[-122.323752,44.183591],[-122.324321,44.18295],[-122.324681,44.18269],[-122.326223,44.181573],[-122.326702,44.181298],[-122.327195,44.180891],[-122.328152,44.180207],[-122.328414,44.180434],[-122.328672,44.180773],[-122.330227,44.181038],[-122.330926,44.182681],[-122.331272,44.183496],[-122.331494,44.185023],[-122.331547,44.186631]],[[-122.332502,44.181715],[-122.332565,44.181743],[-122.332666,44.181895],[-122.332807,44.182067],[-122.332931,44.182227],[-122.333033,44.182392],[-122.333135,44.182577],[-122.33322,44.182745],[-122.333252,44.18283],[-122.333286,44.182996],[-122.333231,44.183195],[-122.333148,44.183398],[-122.333057,44.183683],[-122.33307,44.183877],[-122.333105,44.184059],[-122.333127,44.184192],[-122.33314,44.184407],[-122.33305,44.184704],[-122.332918,44.184929],[-122.33274,44.185317],[-122.33274,44.185139],[-122.332779,44.184968],[-122.332811,44.184781],[-122.33286,44.18457],[-122.332888,44.184258],[-122.332837,44.184113],[-122.332723,44.183912],[-122.332676,44.183714],[-122.332654,44.183557],[-122.33268,44.183366],[-122.332718,44.183171],[-122.332706,44.182981],[-122.332651,44.18286],[-122.332573,44.18274],[-122.332518,44.182611],[-122.332302,44.182416],[-122.33216,44.18224],[-122.332036,44.182059],[-122.331946,44.181911],[-122.331949,44.181842],[-122.332009,44.1818],[-122.332406,44.181705],[-122.332502,44.181715]]],[[[-122.331159,44.17466],[-122.331101,44.174718],[-122.33104,44.174775],[-122.330976,44.17483],[-122.330681,44.175075],[-122.330673,44.175083],[-122.330667,44.175092],[-122.330663,44.175101],[-122.330662,44.17511],[-122.330663,44.17512],[-122.330666,44.175129],[-122.330671,44.175138],[-122.330678,44.175146],[-122.330945,44.175378],[-122.33101,44.175438],[-122.331069,44.1755],[-122.331124,44.175565],[-122.331173,44.175633],[-122.331216,44.175702],[-122.331253,44.175773],[-122.331284,44.175845],[-122.331321,44.175936],[-122.331322,44.175938],[-122.331324,44.175939],[-122.33171,44.176339],[-122.331553,44.176417],[-122.331599,44.176468],[-122.331637,44.176522],[-122.331669,44.176579],[-122.331694,44.176637],[-122.331712,44.176697],[-122.331722,44.176757],[-122.331725,44.176818],[-122.331721,44.176879],[-122.331709,44.176939],[-122.33169,44.176999],[-122.331663,44.177056],[-122.33163,44.177112],[-122.33159,44.177166],[-122.331543,44.177217],[-122.33143,44.177329],[-122.331404,44.177359],[-122.331382,44.177391],[-122.331366,44.177424],[-122.331356,44.177459],[-122.331351,44.177494],[-122.331352,44.177529],[-122.331358,44.177564],[-122.331386,44.177667],[-122.331402,44.177738],[-122.331411,44.17781],[-122.331415,44.177882],[-122.331411,44.177954],[-122.331397,44.178114],[-122.331397,44.178118],[-122.331398,44.178122],[-122.3314,44.178126],[-122.331403,44.178129],[-122.331406,44.178132],[-122.33193,44.178547],[-122.332021,44.178621],[-122.332107,44.178698],[-122.332188,44.178777],[-122.332265,44.178859],[-122.332337,44.178943],[-122.332404,44.179029],[-122.332488,44.179144],[-122.332622,44.179208],[-122.332702,44.17925],[-122.332777,44.179295],[-122.332847,44.179345],[-122.332912,44.179398],[-122.332971,44.179455],[-122.333024,44.179514],[-122.33307,44.179577],[-122.33311,44.179641],[-122.333143,44.179708],[-122.333169,44.179776],[-122.333187,44.179846],[-122.333198,44.179916],[-122.333202,44.179987],[-122.333198,44.180058],[-122.333187,44.180128],[-122.333169,44.180197],[-122.333143,44.180266],[-122.33311,44.180332],[-122.33303,44.180477],[-122.333021,44.180499],[-122.333016,44.180522],[-122.333016,44.180545],[-122.333021,44.180568],[-122.333031,44.18059],[-122.333842,44.181998],[-122.333856,44.182018],[-122.333874,44.182036],[-122.333919,44.182075],[-122.333984,44.182135],[-122.334043,44.182198],[-122.334096,44.182264],[-122.334142,44.182331],[-122.334182,44.182402],[-122.334216,44.182473],[-122.334243,44.182547],[-122.334262,44.182621],[-122.334275,44.182696],[-122.334281,44.182772],[-122.334279,44.182848],[-122.334271,44.182923],[-122.334255,44.182998],[-122.334233,44.183072],[-122.334203,44.183145],[-122.334167,44.183216],[-122.334095,44.183344],[-122.334085,44.183367],[-122.33408,44.183391],[-122.334081,44.183414],[-122.334086,44.18345],[-122.334091,44.183518],[-122.334088,44.183586],[-122.334078,44.183654],[-122.334061,44.183721],[-122.334036,44.183787],[-122.334004,44.183851],[-122.333964,44.183921],[-122.333962,44.183925],[-122.333961,44.183928],[-122.333961,44.183932],[-122.333962,44.183936],[-122.333963,44.183939],[-122.334012,44.184043],[-122.333652,44.18413],[-122.333676,44.184189],[-122.333693,44.18425],[-122.333702,44.184311],[-122.333704,44.184372],[-122.333698,44.184433],[-122.333685,44.184494],[-122.333664,44.184553],[-122.333636,44.184611],[-122.33265,44.186408],[-122.333686,44.186198],[-122.334765,44.184099],[-122.33482,44.183992],[-122.334432,44.182678],[-122.334159,44.181746],[-122.333213,44.179405],[-122.333119,44.179173],[-122.333119,44.179173],[-122.33216,44.177988],[-122.332341,44.1769],[-122.331165,44.174653],[-122.331159,44.17466]]]]}},{"type":"Feature","properties":{"MAPTAXLOT":"1645160000102","MAPNUMBER":"16451600","TAXLOT":"102","ACCTNO":"0085025","MAPACRES":6.68392901},"geometry":{"type":"Polygon","coordinates":[[[-122.33541,44.176491],[-122.336801,44.176547],[-122.336462,44.175676],[-122.336672,44.175406],[-122.3366,44.174959],[-122.336349,44.174402],[-122.336282,44.174048],[-122.335176,44.174139],[-122.33541,44.176491]]]}},{"type":"Feature","properties":{"MAPTAXLOT":"1645160000103","MAPNUMBER":"16451600","TAXLOT":"103","ACCTNO":"0085033","MAPACRES":6.1438761},"geometry":{"type":"Polygon","coordinates":[[[-122.334432,44.182678],[-122.334885,44.182678],[-122.334566,44.179448],[-122.333213,44.179405],[-122.334159,44.181746],[-122.334432,44.182678]]]}},{"type":"Feature","properties":{"MAPTAXLOT":"1645160000104","MAPNUMBER":"16451600","TAXLOT":"104","ACCTNO":"1405578","MAPACRES":63.39761077},"geometry":{"type":"Polygon","coordinates":[[[-122.333213,44.179405],[-122.334566,44.179448],[-122.334269,44.176444],[-122.33541,44.176491],[-122.335176,44.174139],[-122.336282,44.174048],[-122.336147,44.173342],[-122.336141,44.173059],[-122.335817,44.171888],[-122.335724,44.171782],[-122.33547,44.171453],[-122.335466,44.171281],[-122.335397,44.170655],[-122.335058,44.169873],[-122.335067,44.169452],[-122.334712,44.16943],[-122.334899,44.166458],[-122.334808,44.166423],[-122.334766,44.166405],[-122.334727,44.166383],[-122.334693,44.166358],[-122.334663,44.166329],[-122.334638,44.166299],[-122.334514,44.16612],[-122.334538,44.165944],[-122.334066,44.165928],[-122.333846,44.166982],[-122.333834,44.167055],[-122.333829,44.167129],[-122.33383,44.167203],[-122.333837,44.167277],[-122.333851,44.16735],[-122.333881,44.167474],[-122.333897,44.167558],[-122.333907,44.167642],[-122.333909,44.167727],[-122.333904,44.167811],[-122.333892,44.167895],[-122.333873,44.167978],[-122.333846,44.168061],[-122.333814,44.168142],[-122.333774,44.168221],[-122.333727,44.168299],[-122.333675,44.168374],[-122.333616,44.168447],[-122.33355,44.168518],[-122.333514,44.168554],[-122.333444,44.168629],[-122.333381,44.168707],[-122.333324,44.168788],[-122.333273,44.16887],[-122.33323,44.168955],[-122.333193,44.169041],[-122.333163,44.169129],[-122.33314,44.169218],[-122.333125,44.169307],[-122.333116,44.169397],[-122.333115,44.169487],[-122.333122,44.169578],[-122.333135,44.169667],[-122.333156,44.169756],[-122.333184,44.169844],[-122.333219,44.169931],[-122.333261,44.170016],[-122.333404,44.17028],[-122.333434,44.170344],[-122.333457,44.170409],[-122.333473,44.170476],[-122.333482,44.170543],[-122.333483,44.17061],[-122.333477,44.170677],[-122.333463,44.170744],[-122.333442,44.17081],[-122.333414,44.170874],[-122.333376,44.17095],[-122.333361,44.170987],[-122.333353,44.171025],[-122.333351,44.171064],[-122.333357,44.171102],[-122.333368,44.171139],[-122.33356,44.171602],[-122.333593,44.17169],[-122.333619,44.171778],[-122.333639,44.171868],[-122.333652,44.171958],[-122.333659,44.172048],[-122.333659,44.172139],[-122.333652,44.172229],[-122.333639,44.172319],[-122.333619,44.172408],[-122.333593,44.172497],[-122.333561,44.172584],[-122.333522,44.17267],[-122.333126,44.17353],[-122.333094,44.173591],[-122.333056,44.17365],[-122.333011,44.173707],[-122.33296,44.173761],[-122.332903,44.173812],[-122.33284,44.173859],[-122.332773,44.173903],[-122.332701,44.173943],[-122.332625,44.173978],[-122.332545,44.17401],[-122.332462,44.174036],[-122.332533,44.174163],[-122.332356,44.174214],[-122.332279,44.174238],[-122.332205,44.174266],[-122.331876,44.1744],[-122.331794,44.17443],[-122.33171,44.174458],[-122.331624,44.174482],[-122.331537,44.174503],[-122.331448,44.17452],[-122.33135,44.174537],[-122.331317,44.174544],[-122.331287,44.174555],[-122.331259,44.174568],[-122.331234,44.174585],[-122.331213,44.174604],[-122.331165,44.174653],[-122.332341,44.1769],[-122.33216,44.177988],[-122.333119,44.179173],[-122.333119,44.179173],[-122.333213,44.179405]]]}},{"type":"Feature","properties":{"MAPTAXLOT":"1645160000300","MAPNUMBER":"16451600","TAXLOT":"300","ACCTNO":"0085058","MAPACRES":60.83734674},"geometry":{"type":"Polygon","coordinates":[[[-122.339858,44.182673],[-122.342358,44.18267],[-122.341954,44.182255],[-122.341555,44.182065],[-122.33838,44.179704],[-122.338788,44.179076],[-122.338895,44.1788],[-122.33877,44.178591],[-122.337741,44.178138],[-122.337248,44.177738],[-122.337102,44.177322],[-122.336801,44.176547],[-122.33541,44.176491],[-122.334269,44.176444],[-122.334566,44.179448],[-122.334885,44.182678],[-122.339858,44.182673]]]}},{"type":"Feature","properties":{"MAPTAXLOT":"1645160000400","MAPNUMBER":"16451600","TAXLOT":"400","ACCTNO":"0085066","MAPACRES":75.15601639},"geometry":{"type":"Polygon","coordinates":[[[-122.342358,44.18267],[-122.344833,44.182667],[-122.344877,44.180377],[-122.344889,44.179773],[-122.344945,44.176879],[-122.339616,44.176662],[-122.336801,44.176547],[-122.337102,44.177322],[-122.337248,44.177738],[-122.337741,44.178138],[-122.33877,44.178591],[-122.338895,44.1788],[-122.338788,44.179076],[-122.33838,44.179704],[-122.341555,44.182065],[-122.341954,44.182255],[-122.342358,44.18267]]]}},{"type":"Feature","properties":{"MAPTAXLOT":"1645160000500","MAPNUMBER":"16451600","TAXLOT":"500","ACCTNO":"0085082","MAPACRES":137.03587215},"geometry":{"type":"Polygon","coordinates":[[[-122.339616,44.176662],[-122.344945,44.176879],[-122.345023,44.173475],[-122.345101,44.170071],[-122.339338,44.169718],[-122.335067,44.169452],[-122.335058,44.169873],[-122.335397,44.170655],[-122.335466,44.171281],[-122.33547,44.171453],[-122.335724,44.171782],[-122.335817,44.171888],[-122.336141,44.173059],[-122.336147,44.173342],[-122.336282,44.174048],[-122.336349,44.174402],[-122.3366,44.174959],[-122.336672,44.175406],[-122.336462,44.175676],[-122.336801,44.176547],[-122.339616,44.176662]]]}},{"type":"Feature","properties":{"MAPTAXLOT":"1645160000600","MAPNUMBER":"16451600","TAXLOT":"600","ACCTNO":"0085090","MAPACRES":59.5404514},"geometry":{"type":"MultiPolygon","coordinates":[[[[-122.328441,44.172697],[-122.328745,44.173068],[-122.328864,44.173163],[-122.328822,44.172274],[-122.330983,44.172434],[-122.331035,44.16935],[-122.328899,44.169339],[-122.328686,44.169338],[-122.324353,44.169318],[-122.323797,44.16933],[-122.323787,44.171883],[-122.324169,44.171869],[-122.324546,44.171892],[-122.324884,44.171954],[-122.325404,44.172038],[-122.325653,44.172134],[-122.326014,44.172217],[-122.326197,44.172181],[-122.326407,44.172012],[-122.326586,44.171854],[-122.326735,44.17173],[-122.327154,44.171382],[-122.327484,44.171134],[-122.32765,44.171065],[-122.327743,44.171074],[-122.327823,44.171194],[-122.32786,44.171382],[-122.327948,44.171722],[-122.328068,44.172096],[-122.328441,44.172697]]],[[[-122.323772,44.175519],[-122.323772,44.176015],[-122.328264,44.176198],[-122.32802,44.175877],[-122.327767,44.175638],[-122.327587,44.17531],[-122.327582,44.175166],[-122.327718,44.175087],[-122.327746,44.17502],[-122.32768,44.174889],[-122.327569,44.174758],[-122.327499,44.174516],[-122.327509,44.174362],[-122.327507,44.174295],[-122.327383,44.174264],[-122.3272,44.1743],[-122.327109,44.174335],[-122.326787,44.17434],[-122.326496,44.174356],[-122.325987,44.174297],[-122.325416,44.174207],[-122.324948,44.174141],[-122.324587,44.174185],[-122.324208,44.174104],[-122.323988,44.173963],[-122.323778,44.173953],[-122.323772,44.175519]]]]}},{"type":"Feature","properties":{"MAPTAXLOT":"1645200000200","MAPNUMBER":"16452000","TAXLOT":"200","ACCTNO":"0085116","MAPACRES":138.6374746},"geometry":{"type":"Polygon","coordinates":[[[-122.354732,44.170011],[-122.358944,44.170192],[-122.359015,44.1667],[-122.354584,44.166613],[-122.354436,44.163214],[-122.34986,44.163218],[-122.349887,44.16663],[-122.345189,44.166647],[-122.345101,44.170071],[-122.349918,44.170041],[-122.354732,44.170011]]]}},{"type":"Feature","properties":{"MAPTAXLOT":"1645200000300","MAPNUMBER":"16452000","TAXLOT":"300","ACCTNO":"0085124","MAPACRES":103.31063796},"geometry":{"type":"Polygon","coordinates":[[[-122.359754,44.170227],[-122.363155,44.170373],[-122.363447,44.166787],[-122.363736,44.163201],[-122.359089,44.163208],[-122.354436,44.163214],[-122.354584,44.166613],[-122.359015,44.1667],[-122.358944,44.170192],[-122.359754,44.170227]]]}},{"type":"Feature","properties":{"MAPTAXLOT":"1645210000300","MAPNUMBER":"16452100","TAXLOT":"300","ACCTNO":"0085314","MAPACRES":268.4444988},"geometry":{"type":"Polygon","coordinates":[[[-122.335067,44.169452],[-122.339338,44.169718],[-122.345101,44.170071],[-122.345189,44.166647],[-122.349887,44.16663],[-122.34986,44.163218],[-122.34528,44.163222],[-122.344934,44.159682],[-122.339562,44.159503],[-122.339567,44.159277],[-122.337796,44.15926],[-122.33723,44.158705],[-122.337177,44.158653],[-122.33675,44.158585],[-122.336283,44.158732],[-122.33637,44.158771],[-122.336408,44.158808],[-122.33645,44.158856],[-122.336619,44.159102],[-122.336714,44.159356],[-122.33658,44.159579],[-122.336581,44.159609],[-122.336522,44.160076],[-122.336536,44.160318],[-122.336542,44.160427],[-122.336526,44.160682],[-122.336685,44.160806],[-122.336673,44.161213],[-122.336575,44.161378],[-122.336691,44.161466],[-122.336663,44.161754],[-122.336662,44.161754],[-122.335055,44.161262],[-122.334979,44.161183],[-122.334885,44.160988],[-122.334882,44.160982],[-122.334884,44.161041],[-122.334879,44.161101],[-122.334869,44.16116],[-122.334853,44.161218],[-122.33483,44.161276],[-122.334802,44.161331],[-122.334768,44.161386],[-122.334728,44.161438],[-122.334716,44.161452],[-122.334704,44.161467],[-122.334191,44.162332],[-122.334079,44.162469],[-122.334028,44.16253],[-122.333911,44.162782],[-122.333867,44.162968],[-122.333837,44.163214],[-122.333834,44.163259],[-122.333969,44.163958],[-122.334007,44.164158],[-122.334116,44.164442],[-122.334199,44.164911],[-122.334374,44.165143],[-122.33455,44.165707],[-122.334538,44.165944],[-122.334514,44.16612],[-122.334638,44.166299],[-122.334663,44.166329],[-122.334693,44.166358],[-122.334727,44.166383],[-122.334766,44.166405],[-122.334808,44.166423],[-122.334899,44.166458],[-122.334712,44.16943],[-122.335067,44.169452]]]}}]}