{"type":"FeatureCollection","features":[{"type":"Feature","properties":{"MAPTAXLOT":"2225000000800","MAPNUMBER":"22250000","TAXLOT":"800","ACCTNO":"0971984","MAPACRES":638.07970167},"geometry":{"type":"Polygon","coordinates":[[[-122.589117,43.684234],[-122.589179,43.684234],[-122.609009,43.684149],[-122.609009,43.684124],[-122.608819,43.66965],[-122.589025,43.669741],[-122.588944,43.669741],[-122.589116,43.684203],[-122.589117,43.684234]]]}},{"type":"Feature","properties":{"MAPTAXLOT":"2225000000900","MAPNUMBER":"22250000","TAXLOT":"900","ACCTNO":"0971992","MAPACRES":637.22136218},"geometry":{"type":"Polygon","coordinates":[[[-122.569226,43.684339],[-122.56926,43.684339],[-122.589117,43.684234],[-122.589116,43.684203],[-122.588944,43.669741],[-122.56916,43.669846],[-122.569113,43.669846],[-122.569226,43.684317],[-122.569226,43.684339]]]}},{"type":"Feature","properties":{"MAPTAXLOT":"2225000001000","MAPNUMBER":"22250000","TAXLOT":"1000","ACCTNO":"0972008","MAPACRES":638.94341268},"geometry":{"type":"Polygon","coordinates":[[[-122.549261,43.684359],[-122.549275,43.684359],[-122.569226,43.684339],[-122.569226,43.684317],[-122.569113,43.669846],[-122.549264,43.669862],[-122.549253,43.669862],[-122.549261,43.684351],[-122.549261,43.684359]]]}},{"type":"Feature","properties":{"MAPTAXLOT":"2225000001100","MAPNUMBER":"22250000","TAXLOT":"1100","ACCTNO":"0972016","MAPACRES":636.44227144},"geometry":{"type":"Polygon","coordinates":[[[-122.529374,43.684333],[-122.549261,43.684359],[-122.549261,43.684351],[-122.549253,43.669862],[-122.529419,43.669877],[-122.529374,43.684333]]]}},{"type":"Feature","properties":{"MAPTAXLOT":"2225000001200","MAPNUMBER":"22250000","TAXLOT":"1200","ACCTNO":"0972024","MAPACRES":633.05382666},"geometry":{"type":"Polygon","coordinates":[[[-122.509526,43.684445],[-122.529374,43.684333],[-122.529419,43.669877],[-122.529389,43.669877],[-122.509534,43.670117],[-122.509524,43.670627],[-122.509525,43.677283],[-122.509525,43.677789],[-122.509526,43.684374],[-122.509526,43.684445]]]}},{"type":"Feature","properties":{"MAPTAXLOT":"2225000001300","MAPNUMBER":"22250000","TAXLOT":"1300","ACCTNO":"0972032","MAPACRES":648.09342271},"geometry":{"type":"Polygon","coordinates":[[[-122.509534,43.670117],[-122.529389,43.669877],[-122.529419,43.669877],[-122.529418,43.669793],[-122.52938,43.655356],[-122.529357,43.655356],[-122.509475,43.655112],[-122.509475,43.655618],[-122.509639,43.662868],[-122.509639,43.662868],[-122.509644,43.663375],[-122.509537,43.669937],[-122.509534,43.670117]]]}},{"type":"Feature","properties":{"MAPTAXLOT":"2225000001400","MAPNUMBER":"22250000","TAXLOT":"1400","ACCTNO":"0972040","MAPACRES":636.57749807},"geometry":{"type":"Polygon","coordinates":[[[-122.529419,43.669877],[-122.549253,43.669862],[-122.549252,43.6698],[-122.549167,43.655359],[-122.52938,43.655356],[-122.529418,43.669793],[-122.529419,43.669877]]]}},{"type":"Feature","properties":{"MAPTAXLOT":"2225000001500","MAPNUMBER":"22250000","TAXLOT":"1500","ACCTNO":"0972057","MAPACRES":636.38514907},"geometry":{"type":"Polygon","coordinates":[[[-122.549253,43.669862],[-122.549264,43.669862],[-122.569113,43.669846],[-122.569112,43.669787],[-122.568951,43.65535],[-122.549185,43.655359],[-122.549167,43.655359],[-122.549252,43.6698],[-122.549253,43.669862]]]}},{"type":"Feature","properties":{"MAPTAXLOT":"2225000001600","MAPNUMBER":"22250000","TAXLOT":"1600","ACCTNO":"0972065","MAPACRES":637.42783844},"geometry":{"type":"Polygon","coordinates":[[[-122.569113,43.669846],[-122.56916,43.669846],[-122.588944,43.669741],[-122.588944,43.669688],[-122.588835,43.655243],[-122.569005,43.65535],[-122.568951,43.65535],[-122.569112,43.669787],[-122.569113,43.669846]]]}},{"type":"Feature","properties":{"MAPTAXLOT":"2225000001700","MAPNUMBER":"22250000","TAXLOT":"1700","ACCTNO":"0972073","MAPACRES":636.97910452},"geometry":{"type":"Polygon","coordinates":[[[-122.588944,43.669741],[-122.589025,43.669741],[-122.608819,43.66965],[-122.608818,43.669609],[-122.608667,43.655169],[-122.588928,43.655243],[-122.588835,43.655243],[-122.588944,43.669688],[-122.588944,43.669741]]]}},{"type":"Feature","properties":{"MAPTAXLOT":"2225000002000","MAPNUMBER":"22250000","TAXLOT":"2000","ACCTNO":"0972107","MAPACRES":636.9153977},"geometry":{"type":"Polygon","coordinates":[[[-122.588835,43.655243],[-122.588928,43.655243],[-122.608667,43.655169],[-122.608667,43.655112],[-122.608605,43.640656],[-122.588877,43.640752],[-122.588776,43.640753],[-122.588834,43.655166],[-122.588835,43.655243]]]}},{"type":"Feature","properties":{"MAPTAXLOT":"2225000002100","MAPNUMBER":"22250000","TAXLOT":"2100","ACCTNO":"0972115","MAPACRES":638.49944289},"geometry":{"type":"Polygon","coordinates":[[[-122.568951,43.65535],[-122.569005,43.65535],[-122.588835,43.655243],[-122.588834,43.655166],[-122.588776,43.640753],[-122.568941,43.640854],[-122.568876,43.640854],[-122.568951,43.655255],[-122.568951,43.65535]]]}},{"type":"Feature","properties":{"MAPTAXLOT":"2225000002200","MAPNUMBER":"22250000","TAXLOT":"2200","ACCTNO":"0972123","MAPACRES":635.62783236},"geometry":{"type":"Polygon","coordinates":[[[-122.549167,43.655359],[-122.549185,43.655359],[-122.568951,43.65535],[-122.568951,43.655255],[-122.568876,43.640854],[-122.549067,43.640884],[-122.549034,43.640884],[-122.549166,43.655248],[-122.549167,43.655359]]]}},{"type":"Feature","properties":{"MAPTAXLOT":"2225000002300","MAPNUMBER":"22250000","TAXLOT":"2300","ACCTNO":"0972131","MAPACRES":633.99371976},"geometry":{"type":"Polygon","coordinates":[[[-122.52938,43.655356],[-122.549167,43.655359],[-122.549166,43.655248],[-122.549034,43.640884],[-122.529254,43.640893],[-122.529252,43.640893],[-122.529261,43.641907],[-122.529379,43.655219],[-122.52938,43.655356]]]}},{"type":"Feature","properties":{"MAPTAXLOT":"2225000002400","MAPNUMBER":"22250000","TAXLOT":"2400","ACCTNO":"0972149","MAPACRES":635.56393468},"geometry":{"type":"Polygon","coordinates":[[[-122.509475,43.655112],[-122.529357,43.655356],[-122.52938,43.655356],[-122.529379,43.655219],[-122.529261,43.641907],[-122.529252,43.640893],[-122.524271,43.640858],[-122.509334,43.640752],[-122.509334,43.641336],[-122.509392,43.646784],[-122.509404,43.647933],[-122.509404,43.64845],[-122.509404,43.648476],[-122.509443,43.652155],[-122.509473,43.654944],[-122.509475,43.655112]]]}},{"type":"Feature","properties":{"MAPTAXLOT":"2225000002500","MAPNUMBER":"22250000","TAXLOT":"2500","ACCTNO":"0972156","MAPACRES":397.00776668},"geometry":{"type":"Polygon","coordinates":[[[-122.509288,43.63393],[-122.509292,43.63449],[-122.509332,43.640502],[-122.509334,43.640752],[-122.524271,43.640858],[-122.529252,43.640893],[-122.52925,43.640695],[-122.529102,43.626453],[-122.52418,43.626434],[-122.524139,43.626433],[-122.524202,43.633402],[-122.524204,43.633646],[-122.509292,43.633564],[-122.509289,43.633564],[-122.509289,43.633642],[-122.509288,43.63393]]]}},{"type":"Feature","properties":{"MAPTAXLOT":"2225000002501","MAPNUMBER":"22250000","TAXLOT":"2501","ACCTNO":"0972164","MAPACRES":237.74883484},"geometry":{"type":"Polygon","coordinates":[[[-122.509289,43.633564],[-122.509292,43.633564],[-122.524204,43.633646],[-122.524202,43.633402],[-122.524139,43.626433],[-122.509286,43.626379],[-122.50924,43.626379],[-122.50924,43.626525],[-122.509289,43.633564],[-122.509289,43.633564]]]}},{"type":"Feature","properties":{"MAPTAXLOT":"2225000002600","MAPNUMBER":"22250000","TAXLOT":"2600","ACCTNO":"0972172","MAPACRES":633.78470716},"geometry":{"type":"Polygon","coordinates":[[[-122.529252,43.640893],[-122.529254,43.640893],[-122.549034,43.640884],[-122.549032,43.640722],[-122.548926,43.626429],[-122.529145,43.626453],[-122.529102,43.626453],[-122.52925,43.640695],[-122.529252,43.640893]]]}},{"type":"Feature","properties":{"MAPTAXLOT":"2225000002700","MAPNUMBER":"22250000","TAXLOT":"2700","ACCTNO":"0972180","MAPACRES":636.61771331},"geometry":{"type":"Polygon","coordinates":[[[-122.549034,43.640884],[-122.549067,43.640884],[-122.568876,43.640854],[-122.568875,43.640723],[-122.568791,43.62636],[-122.548976,43.626428],[-122.548926,43.626429],[-122.549032,43.640722],[-122.549034,43.640884]]]}},{"type":"Feature","properties":{"MAPTAXLOT":"2225000002800","MAPNUMBER":"22250000","TAXLOT":"2800","ACCTNO":"0972198","MAPACRES":639.38471825},"geometry":{"type":"Polygon","coordinates":[[[-122.568876,43.640854],[-122.568941,43.640854],[-122.588776,43.640753],[-122.588776,43.64065],[-122.58872,43.626261],[-122.568858,43.62636],[-122.568791,43.62636],[-122.568875,43.640723],[-122.568876,43.640854]]]}},{"type":"Feature","properties":{"MAPTAXLOT":"2225000002900","MAPNUMBER":"22250000","TAXLOT":"2900","ACCTNO":"0972206","MAPACRES":636.64208085},"geometry":{"type":"Polygon","coordinates":[[[-122.588776,43.640753],[-122.588877,43.640752],[-122.608605,43.640656],[-122.608605,43.640586],[-122.60854,43.626155],[-122.588813,43.62626],[-122.58872,43.626261],[-122.588776,43.64065],[-122.588776,43.640753]]]}},{"type":"Feature","properties":{"MAPTAXLOT":"2225000003200","MAPNUMBER":"22250000","TAXLOT":"3200","ACCTNO":"0972230","MAPACRES":636.35649892},"geometry":{"type":"Polygon","coordinates":[[[-122.58872,43.626261],[-122.588813,43.62626],[-122.60854,43.626155],[-122.60854,43.62607],[-122.608517,43.611708],[-122.608014,43.611708],[-122.598584,43.611736],[-122.598069,43.611736],[-122.588712,43.611764],[-122.58865,43.611764],[-122.588719,43.626132],[-122.58872,43.626261]]]}},{"type":"Feature","properties":{"MAPTAXLOT":"2225000003300","MAPNUMBER":"22250000","TAXLOT":"3300","ACCTNO":"0972248","MAPACRES":638.83638062},"geometry":{"type":"Polygon","coordinates":[[[-122.568791,43.62636],[-122.568858,43.62636],[-122.58872,43.626261],[-122.588719,43.626132],[-122.58865,43.611764],[-122.588123,43.611764],[-122.578721,43.611819],[-122.578182,43.611819],[-122.568844,43.611874],[-122.568793,43.611874],[-122.568791,43.626192],[-122.568791,43.62636]]]}},{"type":"Feature","properties":{"MAPTAXLOT":"2225000003400","MAPNUMBER":"22250000","TAXLOT":"3400","ACCTNO":"0972255","MAPACRES":637.67748342},"geometry":{"type":"Polygon","coordinates":[[[-122.548926,43.626429],[-122.548976,43.626428],[-122.568791,43.62636],[-122.568791,43.626192],[-122.568793,43.611874],[-122.568241,43.611874],[-122.558848,43.611918],[-122.558245,43.611918],[-122.548949,43.611961],[-122.548902,43.611961],[-122.548926,43.626215],[-122.548926,43.626429]]]}},{"type":"Feature","properties":{"MAPTAXLOT":"2225000003500","MAPNUMBER":"22250000","TAXLOT":"3500","ACCTNO":"0972263","MAPACRES":635.5924608},"geometry":{"type":"Polygon","coordinates":[[[-122.529102,43.626453],[-122.529145,43.626453],[-122.548926,43.626429],[-122.548926,43.626215],[-122.548902,43.611961],[-122.54825,43.611961],[-122.538947,43.612004],[-122.53826,43.612004],[-122.529042,43.612046],[-122.528992,43.612046],[-122.5291,43.626194],[-122.529102,43.626453]]]}},{"type":"Feature","properties":{"MAPTAXLOT":"2225000003600","MAPNUMBER":"22250000","TAXLOT":"3600","ACCTNO":"0972271","MAPACRES":632.0452458},"geometry":{"type":"Polygon","coordinates":[[[-122.524139,43.626433],[-122.52418,43.626434],[-122.529102,43.626453],[-122.5291,43.626194],[-122.528992,43.612046],[-122.52827,43.612047],[-122.523466,43.612065],[-122.519024,43.612081],[-122.510207,43.612112],[-122.50912,43.612113],[-122.509055,43.612113],[-122.509149,43.619244],[-122.509149,43.619355],[-122.509237,43.626195],[-122.50924,43.626379],[-122.509286,43.626379],[-122.524139,43.626433]]]}},{"type":"Feature","properties":{"MAPTAXLOT":"2325000000100","MAPNUMBER":"23250000","TAXLOT":"100","ACCTNO":"0975464","MAPACRES":2709.91883586},"geometry":{"type":"Polygon","coordinates":[[[-122.548313,43.599909],[-122.568298,43.59999],[-122.568296,43.599774],[-122.5682,43.585486],[-122.548161,43.585428],[-122.538149,43.585416],[-122.528137,43.585404],[-122.528132,43.584172],[-122.518694,43.584224],[-122.508896,43.584225],[-122.508889,43.584225],[-122.508805,43.591251],[-122.508779,43.598266],[-122.508737,43.605341],[-122.508905,43.608951],[-122.509039,43.611761],[-122.509055,43.612113],[-122.50912,43.612113],[-122.510207,43.612112],[-122.519024,43.612081],[-122.523466,43.612065],[-122.523462,43.611737],[-122.523394,43.605454],[-122.523439,43.605455],[-122.528276,43.60549],[-122.528274,43.607071],[-122.52827,43.610687],[-122.52827,43.611728],[-122.52827,43.612047],[-122.528992,43.612046],[-122.529042,43.612046],[-122.53826,43.612004],[-122.538947,43.612004],[-122.54825,43.611961],[-122.54825,43.611698],[-122.54825,43.610767],[-122.548254,43.607149],[-122.548273,43.599909],[-122.538278,43.599878],[-122.538181,43.589032],[-122.538199,43.589032],[-122.548188,43.589048],[-122.54827,43.599628],[-122.548273,43.599909],[-122.548313,43.599909]]]}},{"type":"Feature","properties":{"MAPTAXLOT":"2325000000200","MAPNUMBER":"23250000","TAXLOT":"200","ACCTNO":"0975472","MAPACRES":70.65510843},"geometry":{"type":"Polygon","coordinates":[[[-122.523466,43.612065],[-122.52827,43.612047],[-122.52827,43.611728],[-122.52827,43.610687],[-122.528274,43.607071],[-122.528276,43.60549],[-122.523439,43.605455],[-122.523394,43.605454],[-122.523462,43.611737],[-122.523466,43.612065]]]}},{"type":"Feature","properties":{"MAPTAXLOT":"2325000000300","MAPNUMBER":"23250000","TAXLOT":"300","ACCTNO":"0975480","MAPACRES":530.64602108},"geometry":{"type":"Polygon","coordinates":[[[-122.558848,43.611918],[-122.568241,43.611874],[-122.568241,43.61167],[-122.568241,43.610848],[-122.568251,43.60723],[-122.568298,43.59999],[-122.548313,43.599909],[-122.548273,43.599909],[-122.548254,43.607149],[-122.54825,43.610767],[-122.54825,43.611698],[-122.54825,43.611961],[-122.548902,43.611961],[-122.548949,43.611961],[-122.558245,43.611918],[-122.558848,43.611918]]]}},{"type":"Feature","properties":{"MAPTAXLOT":"2325000000400","MAPNUMBER":"23250000","TAXLOT":"400","ACCTNO":"0975498","MAPACRES":521.34896844},"geometry":{"type":"Polygon","coordinates":[[[-122.578721,43.611819],[-122.588123,43.611764],[-122.588123,43.611608],[-122.588121,43.610816],[-122.588112,43.607193],[-122.588072,43.599936],[-122.568345,43.59999],[-122.568298,43.59999],[-122.568251,43.60723],[-122.568241,43.610848],[-122.568241,43.61167],[-122.568241,43.611874],[-122.568793,43.611874],[-122.568844,43.611874],[-122.578182,43.611819],[-122.578721,43.611819]]]}},{"type":"Feature","properties":{"MAPTAXLOT":"2325000000500","MAPNUMBER":"23250000","TAXLOT":"500","ACCTNO":"0975506","MAPACRES":521.40442799},"geometry":{"type":"Polygon","coordinates":[[[-122.598584,43.611736],[-122.608014,43.611708],[-122.608014,43.611595],[-122.608013,43.610748],[-122.608007,43.60713],[-122.607992,43.599894],[-122.588122,43.599936],[-122.588072,43.599936],[-122.588112,43.607193],[-122.588121,43.610816],[-122.588123,43.611608],[-122.588123,43.611764],[-122.58865,43.611764],[-122.588712,43.611764],[-122.598069,43.611736],[-122.598584,43.611736]]]}}]}