{"type":"FeatureCollection","features":[{"type":"Feature","properties":{"MAPTAXLOT":"1845000000100","MAPNUMBER":"18450000","TAXLOT":"100","ACCTNO":"0810232","MAPACRES":23760.36954722},"geometry":{"type":"Polygon","coordinates":[[[-122.361515,44.0419],[-122.366277,44.041991],[-122.371404,44.042092],[-122.376352,44.04225],[-122.38094,44.042425],[-122.385529,44.042601],[-122.386291,44.042604],[-122.386269,44.035552],[-122.386263,44.03193],[-122.386239,44.024683],[-122.386185,44.010186],[-122.386179,43.995699],[-122.386138,43.988495],[-122.386137,43.988353],[-122.386096,43.981219],[-122.3861,43.966748],[-122.386119,43.952282],[-122.381608,43.952273],[-122.376088,43.952259],[-122.371576,43.95225],[-122.366054,43.952242],[-122.361541,43.952238],[-122.356019,43.952231],[-122.351567,43.952227],[-122.345985,43.952226],[-122.341534,43.952224],[-122.335952,43.952222],[-122.331515,43.952221],[-122.32592,43.95222],[-122.321483,43.95222],[-122.315887,43.95222],[-122.311426,43.95222],[-122.305855,43.952223],[-122.301393,43.952229],[-122.295822,43.952238],[-122.291406,43.952244],[-122.285788,43.952243],[-122.281371,43.952251],[-122.275754,43.952264],[-122.271398,43.952271],[-122.26572,43.952272],[-122.265719,43.955872],[-122.265719,43.959472],[-122.265719,43.963072],[-122.265718,43.966672],[-122.265718,43.966786],[-122.265714,43.970272],[-122.265709,43.973871],[-122.265704,43.977471],[-122.2657,43.981071],[-122.265699,43.981267],[-122.265689,43.98467],[-122.265679,43.988269],[-122.265669,43.991868],[-122.265658,43.995468],[-122.265657,43.995749],[-122.265642,43.999066],[-122.265625,44.002665],[-122.265609,44.006263],[-122.265592,44.009862],[-122.265589,44.01023],[-122.265559,44.013459],[-122.265525,44.017057],[-122.265491,44.020654],[-122.265458,44.024252],[-122.265453,44.024711],[-122.26542,44.027849],[-122.265382,44.031447],[-122.265344,44.035044],[-122.265307,44.038642],[-122.265285,44.04134],[-122.27338,44.041483],[-122.275363,44.041489],[-122.283546,44.041506],[-122.285441,44.041506],[-122.293649,44.041513],[-122.295575,44.041512],[-122.29856,44.041513],[-122.303472,44.041515],[-122.305706,44.041511],[-122.308416,44.041511],[-122.31336,44.041511],[-122.315839,44.041525],[-122.323103,44.041579],[-122.325969,44.04161],[-122.332858,44.041702],[-122.336083,44.041715],[-122.342421,44.041753],[-122.346195,44.041747],[-122.352039,44.041752],[-122.356242,44.041815],[-122.35889,44.041857],[-122.361515,44.0419]]]}},{"type":"Feature","properties":{"MAPTAXLOT":"1945000000100","MAPNUMBER":"19450000","TAXLOT":"100","ACCTNO":"0876951","MAPACRES":22155.24309164},"geometry":{"type":"Polygon","coordinates":[[[-122.386119,43.952282],[-122.38888,43.952275],[-122.38888,43.950046],[-122.38888,43.946424],[-122.388879,43.939178],[-122.388856,43.924684],[-122.388835,43.910193],[-122.388831,43.8957],[-122.388817,43.881206],[-122.388742,43.866715],[-122.38633,43.866715],[-122.381326,43.866716],[-122.376321,43.866718],[-122.371317,43.866719],[-122.366315,43.86672],[-122.366176,43.86672],[-122.365901,43.86672],[-122.361313,43.86672],[-122.356311,43.86672],[-122.351309,43.866721],[-122.346309,43.866719],[-122.341308,43.866717],[-122.336307,43.866716],[-122.331306,43.866714],[-122.326306,43.866715],[-122.321306,43.866716],[-122.316305,43.866717],[-122.311305,43.866718],[-122.306302,43.866722],[-122.3013,43.866725],[-122.296297,43.866729],[-122.291295,43.866733],[-122.286292,43.866738],[-122.281289,43.866744],[-122.276287,43.86675],[-122.271284,43.866756],[-122.271291,43.870378],[-122.271297,43.874001],[-122.271304,43.877623],[-122.27131,43.881245],[-122.27132,43.884868],[-122.27133,43.88849],[-122.27134,43.892112],[-122.27135,43.895734],[-122.271356,43.899355],[-122.271362,43.902977],[-122.271368,43.906598],[-122.271374,43.910219],[-122.271379,43.91384],[-122.271383,43.917461],[-122.271388,43.921082],[-122.271392,43.924703],[-122.271395,43.928324],[-122.271398,43.931946],[-122.271402,43.935567],[-122.271405,43.939188],[-122.271403,43.942804],[-122.271401,43.94642],[-122.271399,43.950036],[-122.271398,43.952271],[-122.275754,43.952264],[-122.281371,43.952251],[-122.285788,43.952243],[-122.291406,43.952244],[-122.295822,43.952238],[-122.301393,43.952229],[-122.305855,43.952223],[-122.311426,43.95222],[-122.315887,43.95222],[-122.321483,43.95222],[-122.32592,43.95222],[-122.331515,43.952221],[-122.335952,43.952222],[-122.341534,43.952224],[-122.345985,43.952226],[-122.351567,43.952227],[-122.356019,43.952231],[-122.361541,43.952238],[-122.366054,43.952242],[-122.371576,43.95225],[-122.376088,43.952259],[-122.381608,43.952273],[-122.386119,43.952282]]]}}]}