{"type":"FeatureCollection","features":[{"type":"Feature","properties":{"MAPTAXLOT":"1576000000077","MAPNUMBER":"15760000","TAXLOT":"77","ACCTNO":"000None","MAPACRES":28.87555066},"geometry":{"type":"Polygon","coordinates":[[[-121.836674,44.249558],[-121.836674,44.249725],[-121.836692,44.249723],[-121.836736,44.249718],[-121.836841,44.249701],[-121.836969,44.249692],[-121.837986,44.249563],[-121.838147,44.249537],[-121.838303,44.249498],[-121.838595,44.249471],[-121.838763,44.249422],[-121.838929,44.249334],[-121.839073,44.249236],[-121.839127,44.249104],[-121.839185,44.249047],[-121.839238,44.248968],[-121.839211,44.248877],[-121.839226,44.248786],[-121.839261,44.24868],[-121.839339,44.248597],[-121.839465,44.248503],[-121.839678,44.248434],[-121.839962,44.248401],[-121.84039,44.248366],[-121.841226,44.248364],[-121.841345,44.248362],[-121.841456,44.248331],[-121.841671,44.248246],[-121.841928,44.248111],[-121.842415,44.247911],[-121.843211,44.247584],[-121.843487,44.247448],[-121.843612,44.247329],[-121.843717,44.24724],[-121.843742,44.247047],[-121.843704,44.246906],[-121.843678,44.246782],[-121.843641,44.246645],[-121.843514,44.246346],[-121.843338,44.245983],[-121.84329,44.245873],[-121.843305,44.245822],[-121.843333,44.245695],[-121.843373,44.245612],[-121.843453,44.24556],[-121.843542,44.245485],[-121.844008,44.245239],[-121.844318,44.245108],[-121.844535,44.245043],[-121.845193,44.244722],[-121.845982,44.244379],[-121.847266,44.243784],[-121.847466,44.243713],[-121.847647,44.243638],[-121.848096,44.243398],[-121.849224,44.242868],[-121.85025,44.242429],[-121.850787,44.242182],[-121.851465,44.241855],[-121.853214,44.241037],[-121.854325,44.240567],[-121.854619,44.240433],[-121.854885,44.240341],[-121.855045,44.240304],[-121.855296,44.240263],[-121.855484,44.240238],[-121.855717,44.240212],[-121.856008,44.240194],[-121.856263,44.240199],[-121.856407,44.240197],[-121.856527,44.240229],[-121.856618,44.240252],[-121.85671,44.240273],[-121.856817,44.24031],[-121.857187,44.240289],[-121.857519,44.240293],[-121.857952,44.24028],[-121.858406,44.240251],[-121.858867,44.240223],[-121.859452,44.2402],[-121.860035,44.240154],[-121.860167,44.240146],[-121.860299,44.240166],[-121.860542,44.240181],[-121.860738,44.240143],[-121.860874,44.240109],[-121.86105,44.240053],[-121.861135,44.239989],[-121.861355,44.239857],[-121.861556,44.23973],[-121.861904,44.239519],[-121.862369,44.23928],[-121.862868,44.238965],[-121.863075,44.238789],[-121.863295,44.238617],[-121.863366,44.238519],[-121.863437,44.238404],[-121.863525,44.237897],[-121.863705,44.237251],[-121.86379,44.236792],[-121.863962,44.236136],[-121.864212,44.234976],[-121.864233,44.234887],[-121.86431,44.234785],[-121.864393,44.234685],[-121.864512,44.234561],[-121.864742,44.234421],[-121.864945,44.234271],[-121.865098,44.234168],[-121.865234,44.234052],[-121.865331,44.233898],[-121.865464,44.233747],[-121.865538,44.233605],[-121.865576,44.233484],[-121.865584,44.233398],[-121.865582,44.233312],[-121.865521,44.233006],[-121.86548,44.232844],[-121.865452,44.232743],[-121.865437,44.23267],[-121.865485,44.232574],[-121.865523,44.232503],[-121.865613,44.232419],[-121.865705,44.232351],[-121.86579,44.232311],[-121.865923,44.232288],[-121.866036,44.232281],[-121.86703,44.232276],[-121.867217,44.232267],[-121.867369,44.232266],[-121.867537,44.232218],[-121.867678,44.232161],[-121.867819,44.232094],[-121.867923,44.232009],[-121.867976,44.231943],[-121.868026,44.23186],[-121.868063,44.231732],[-121.868079,44.231632],[-121.868094,44.231531],[-121.868092,44.231406],[-121.868046,44.231332],[-121.867994,44.231257],[-121.867904,44.231159],[-121.86757,44.230882],[-121.86729,44.23057],[-121.867181,44.230451],[-121.867073,44.230323],[-121.867032,44.230209],[-121.867021,44.230084],[-121.866984,44.229939],[-121.867013,44.229795],[-121.86707,44.229606],[-121.867101,44.229474],[-121.867196,44.229325],[-121.867261,44.229233],[-121.867327,44.229161],[-121.867434,44.229056],[-121.86764,44.22889],[-121.868819,44.227907],[-121.86909,44.227692],[-121.869389,44.227438],[-121.870602,44.226361],[-121.870913,44.226082],[-121.871061,44.225883],[-121.871251,44.225488],[-121.872231,44.223661],[-121.872472,44.223198],[-121.872521,44.22308],[-121.8726,44.222966],[-121.872708,44.222837],[-121.872831,44.222715],[-121.872943,44.222631],[-121.873075,44.222552],[-121.873193,44.222495],[-121.873368,44.22241],[-121.873542,44.222326],[-121.873788,44.222225],[-121.874485,44.222008],[-121.875893,44.221661],[-121.876781,44.221477],[-121.877404,44.221305],[-121.877719,44.221217],[-121.877874,44.221159],[-121.878006,44.221088],[-121.878111,44.221027],[-121.878172,44.220958],[-121.878269,44.22085],[-121.878297,44.220781],[-121.878358,44.220687],[-121.878386,44.220577],[-121.878404,44.220465],[-121.87839,44.220313],[-121.878349,44.220128],[-121.878031,44.219049],[-121.877995,44.218584],[-121.878009,44.218411],[-121.878025,44.21829],[-121.877953,44.218073],[-121.877888,44.217859],[-121.877779,44.217389],[-121.877641,44.216768],[-121.877276,44.21483],[-121.877209,44.214568],[-121.877169,44.214375],[-121.877157,44.214259],[-121.877154,44.214103],[-121.877123,44.213917],[-121.877098,44.213614],[-121.876891,44.212772],[-121.876811,44.212343],[-121.876694,44.21195],[-121.876578,44.211577],[-121.876447,44.211269],[-121.876208,44.211269],[-121.876218,44.211293],[-121.876356,44.211619],[-121.876471,44.211986],[-121.876585,44.212371],[-121.876665,44.212797],[-121.876871,44.213633],[-121.876895,44.213931],[-121.876925,44.214115],[-121.876929,44.214266],[-121.876941,44.214393],[-121.876983,44.214595],[-121.87705,44.214856],[-121.877415,44.216792],[-121.877553,44.217416],[-121.877664,44.21789],[-121.87773,44.21811],[-121.877794,44.218301],[-121.877781,44.218398],[-121.877765,44.218583],[-121.877804,44.219071],[-121.878124,44.220159],[-121.878163,44.220331],[-121.878174,44.220461],[-121.878159,44.220553],[-121.878138,44.220636],[-121.878081,44.220723],[-121.878058,44.220782],[-121.87798,44.220868],[-121.877938,44.220916],[-121.877865,44.220959],[-121.877752,44.221019],[-121.877624,44.221067],[-121.877321,44.221152],[-121.876708,44.221321],[-121.875824,44.221504],[-121.874402,44.221855],[-121.873685,44.222077],[-121.873421,44.222186],[-121.873241,44.222273],[-121.873065,44.222359],[-121.872938,44.22242],[-121.872787,44.22251],[-121.872655,44.222609],[-121.872517,44.222746],[-121.872399,44.222887],[-121.872308,44.223019],[-121.872255,44.223145],[-121.872018,44.223603],[-121.871036,44.225432],[-121.870851,44.225816],[-121.870721,44.225991],[-121.870424,44.226257],[-121.869213,44.227333],[-121.868917,44.227584],[-121.868648,44.227798],[-121.867468,44.228781],[-121.867255,44.228952],[-121.867138,44.229067],[-121.867063,44.229151],[-121.86699,44.229253],[-121.86688,44.229425],[-121.866845,44.229575],[-121.866788,44.229766],[-121.866752,44.229942],[-121.866794,44.230104],[-121.866805,44.230235],[-121.86686,44.230388],[-121.866988,44.230538],[-121.867098,44.23066],[-121.867386,44.230981],[-121.867721,44.231259],[-121.867795,44.231339],[-121.867838,44.231402],[-121.867863,44.231443],[-121.867865,44.231523],[-121.867851,44.231614],[-121.867837,44.231706],[-121.867807,44.23181],[-121.867772,44.231868],[-121.867736,44.231912],[-121.867667,44.231969],[-121.867559,44.232021],[-121.867439,44.232069],[-121.867324,44.232102],[-121.867208,44.232103],[-121.867022,44.232112],[-121.866025,44.232117],[-121.865886,44.232126],[-121.865699,44.232158],[-121.865559,44.232223],[-121.86544,44.232311],[-121.865321,44.232422],[-121.865271,44.232517],[-121.865202,44.232653],[-121.865226,44.232771],[-121.865256,44.232875],[-121.865295,44.233032],[-121.865354,44.233325],[-121.865355,44.233393],[-121.865348,44.23346],[-121.865318,44.233558],[-121.865258,44.233674],[-121.865129,44.23382],[-121.865039,44.233963],[-121.864932,44.234054],[-121.864784,44.234153],[-121.864585,44.234301],[-121.864341,44.234449],[-121.8642,44.234596],[-121.864111,44.234704],[-121.864014,44.234833],[-121.863986,44.23495],[-121.863736,44.23611],[-121.863564,44.236766],[-121.863479,44.237224],[-121.863299,44.237871],[-121.863214,44.238359],[-121.86316,44.238447],[-121.863106,44.238521],[-121.862903,44.23868],[-121.862704,44.23885],[-121.862226,44.239151],[-121.861763,44.239389],[-121.861407,44.239605],[-121.861206,44.239732],[-121.860978,44.239869],[-121.860916,44.239915],[-121.860789,44.239956],[-121.86067,44.239986],[-121.860521,44.240015],[-121.860332,44.240003],[-121.860181,44.23998],[-121.860012,44.239991],[-121.859433,44.240036],[-121.858851,44.240058],[-121.858386,44.240087],[-121.857937,44.240116],[-121.857516,44.240128],[-121.85718,44.240124],[-121.856861,44.240142],[-121.856795,44.240119],[-121.856691,44.240096],[-121.856605,44.240074],[-121.856446,44.240032],[-121.856264,44.240034],[-121.856001,44.240029],[-121.85569,44.240049],[-121.855446,44.240076],[-121.85525,44.240102],[-121.854984,44.240145],[-121.854799,44.240188],[-121.854508,44.240289],[-121.854206,44.240426],[-121.853094,44.240897],[-121.851339,44.241718],[-121.850661,44.242044],[-121.85013,44.242289],[-121.849103,44.242728],[-121.847965,44.243263],[-121.847521,44.2435],[-121.847358,44.243568],[-121.847153,44.243641],[-121.845861,44.24424],[-121.84507,44.244583],[-121.844425,44.244897],[-121.844215,44.244961],[-121.843882,44.245101],[-121.843386,44.245363],[-121.843288,44.245445],[-121.843176,44.245519],[-121.84311,44.245655],[-121.843079,44.245793],[-121.843055,44.245882],[-121.84312,44.246034],[-121.843296,44.246397],[-121.843419,44.246685],[-121.843452,44.24681],[-121.843478,44.246934],[-121.843511,44.247056],[-121.843496,44.247173],[-121.843433,44.247226],[-121.843326,44.247327],[-121.843089,44.247445],[-121.842124,44.247841],[-121.841953,44.247911],[-121.841804,44.247972],[-121.841548,44.248107],[-121.841358,44.248182],[-121.841299,44.248198],[-121.841223,44.248199],[-121.840376,44.248201],[-121.839931,44.248238],[-121.839611,44.248275],[-121.839331,44.248366],[-121.83916,44.248493],[-121.839048,44.248613],[-121.839001,44.248757],[-121.838979,44.248884],[-121.838998,44.248947],[-121.838988,44.248962],[-121.838919,44.24903],[-121.838871,44.249147],[-121.838782,44.249208],[-121.83865,44.249278],[-121.838537,44.24931],[-121.83825,44.249337],[-121.838084,44.249379],[-121.837941,44.249402],[-121.836937,44.249529],[-121.836806,44.249539],[-121.836694,44.249556],[-121.836674,44.249558]]]}},{"type":"Feature","properties":{"MAPTAXLOT":"1576000000100","MAPNUMBER":"15760000","TAXLOT":"100","ACCTNO":"1857315","MAPACRES":7501.85194588},"geometry":{"type":"MultiPolygon","coordinates":[[[[-121.839962,44.248401],[-121.839678,44.248434],[-121.839465,44.248503],[-121.839339,44.248597],[-121.839261,44.24868],[-121.839226,44.248786],[-121.839211,44.248877],[-121.839238,44.248968],[-121.839185,44.249047],[-121.839127,44.249104],[-121.839073,44.249236],[-121.838929,44.249334],[-121.838763,44.249422],[-121.838595,44.249471],[-121.838303,44.249498],[-121.838147,44.249537],[-121.837986,44.249563],[-121.836969,44.249692],[-121.836841,44.249701],[-121.836736,44.249718],[-121.836692,44.249723],[-121.836674,44.249725],[-121.836674,44.251531],[-121.836674,44.255151],[-121.836674,44.258253],[-121.908903,44.258237],[-121.908926,44.24791],[-121.908926,44.24429],[-121.908926,44.24067],[-121.908926,44.23705],[-121.908926,44.23343],[-121.908926,44.211312],[-121.908926,44.211299],[-121.907551,44.211297],[-121.90503,44.211295],[-121.899987,44.211289],[-121.897068,44.211286],[-121.894952,44.211284],[-121.889916,44.211279],[-121.884881,44.211274],[-121.879846,44.211269],[-121.876936,44.211269],[-121.876447,44.211269],[-121.876578,44.211577],[-121.876694,44.21195],[-121.876811,44.212343],[-121.876891,44.212772],[-121.877098,44.213614],[-121.877123,44.213917],[-121.877154,44.214103],[-121.877157,44.214259],[-121.877169,44.214375],[-121.877209,44.214568],[-121.877276,44.21483],[-121.877641,44.216768],[-121.877779,44.217389],[-121.877888,44.217859],[-121.877953,44.218073],[-121.878025,44.21829],[-121.878009,44.218411],[-121.877995,44.218584],[-121.878031,44.219049],[-121.878349,44.220128],[-121.87839,44.220313],[-121.878404,44.220465],[-121.878386,44.220577],[-121.878358,44.220687],[-121.878297,44.220781],[-121.878269,44.22085],[-121.878172,44.220958],[-121.878111,44.221027],[-121.878006,44.221088],[-121.877874,44.221159],[-121.877719,44.221217],[-121.877404,44.221305],[-121.876781,44.221477],[-121.875893,44.221661],[-121.874485,44.222008],[-121.873788,44.222225],[-121.873542,44.222326],[-121.873368,44.22241],[-121.873193,44.222495],[-121.873075,44.222552],[-121.872943,44.222631],[-121.872831,44.222715],[-121.872708,44.222837],[-121.8726,44.222966],[-121.872521,44.22308],[-121.872472,44.223198],[-121.872231,44.223661],[-121.871251,44.225488],[-121.871061,44.225883],[-121.870913,44.226082],[-121.870602,44.226361],[-121.869389,44.227438],[-121.86909,44.227692],[-121.868819,44.227907],[-121.86764,44.22889],[-121.867434,44.229056],[-121.867327,44.229161],[-121.867261,44.229233],[-121.867196,44.229325],[-121.867101,44.229474],[-121.86707,44.229606],[-121.867013,44.229795],[-121.866984,44.229939],[-121.867021,44.230084],[-121.867032,44.230209],[-121.867073,44.230323],[-121.867181,44.230451],[-121.86729,44.23057],[-121.86757,44.230882],[-121.867904,44.231159],[-121.867994,44.231257],[-121.868046,44.231332],[-121.868092,44.231406],[-121.868094,44.231531],[-121.868079,44.231632],[-121.868063,44.231732],[-121.868026,44.23186],[-121.867976,44.231943],[-121.867923,44.232009],[-121.867819,44.232094],[-121.867678,44.232161],[-121.867537,44.232218],[-121.867369,44.232266],[-121.867217,44.232267],[-121.86703,44.232276],[-121.866036,44.232281],[-121.865923,44.232288],[-121.86579,44.232311],[-121.865705,44.232351],[-121.865613,44.232419],[-121.865523,44.232503],[-121.865485,44.232574],[-121.865437,44.23267],[-121.865452,44.232743],[-121.86548,44.232844],[-121.865521,44.233006],[-121.865582,44.233312],[-121.865584,44.233398],[-121.865576,44.233484],[-121.865538,44.233605],[-121.865464,44.233747],[-121.865331,44.233898],[-121.865234,44.234052],[-121.865098,44.234168],[-121.864945,44.234271],[-121.864742,44.234421],[-121.864512,44.234561],[-121.864393,44.234685],[-121.86431,44.234785],[-121.864233,44.234887],[-121.864212,44.234976],[-121.863962,44.236136],[-121.86379,44.236792],[-121.863705,44.237251],[-121.863525,44.237897],[-121.863437,44.238404],[-121.863366,44.238519],[-121.863295,44.238617],[-121.863075,44.238789],[-121.862868,44.238965],[-121.862369,44.23928],[-121.861904,44.239519],[-121.861556,44.23973],[-121.861355,44.239857],[-121.861135,44.239989],[-121.86105,44.240053],[-121.860874,44.240109],[-121.860738,44.240143],[-121.860542,44.240181],[-121.860299,44.240166],[-121.860167,44.240146],[-121.860035,44.240154],[-121.859452,44.2402],[-121.858867,44.240223],[-121.858406,44.240251],[-121.857952,44.24028],[-121.857519,44.240293],[-121.857187,44.240289],[-121.856817,44.24031],[-121.85671,44.240273],[-121.856618,44.240252],[-121.856527,44.240229],[-121.856407,44.240197],[-121.856263,44.240199],[-121.856008,44.240194],[-121.855717,44.240212],[-121.855484,44.240238],[-121.855296,44.240263],[-121.855045,44.240304],[-121.854885,44.240341],[-121.854619,44.240433],[-121.854325,44.240567],[-121.853214,44.241037],[-121.851465,44.241855],[-121.850787,44.242182],[-121.85025,44.242429],[-121.849224,44.242868],[-121.848096,44.243398],[-121.847647,44.243638],[-121.847466,44.243713],[-121.847266,44.243784],[-121.845982,44.244379],[-121.845193,44.244722],[-121.844535,44.245043],[-121.844318,44.245108],[-121.844008,44.245239],[-121.843542,44.245485],[-121.843453,44.24556],[-121.843373,44.245612],[-121.843333,44.245695],[-121.843305,44.245822],[-121.84329,44.245873],[-121.843338,44.245983],[-121.843514,44.246346],[-121.843641,44.246645],[-121.843678,44.246782],[-121.843704,44.246906],[-121.843742,44.247047],[-121.843717,44.24724],[-121.843612,44.247329],[-121.843487,44.247448],[-121.843211,44.247584],[-121.842415,44.247911],[-121.841928,44.248111],[-121.841671,44.248246],[-121.841456,44.248331],[-121.841345,44.248362],[-121.841226,44.248364],[-121.84039,44.248366],[-121.839962,44.248401]],[[-121.87435,44.232901],[-121.8743,44.232976],[-121.874354,44.23305],[-121.874425,44.233124],[-121.874495,44.233185],[-121.874549,44.233271],[-121.874516,44.233334],[-121.874535,44.23343],[-121.874622,44.23343],[-121.874624,44.233519],[-121.874502,44.233495],[-121.874396,44.233397],[-121.874256,44.233299],[-121.874116,44.233214],[-121.874045,44.233128],[-121.874025,44.233041],[-121.874058,44.232942],[-121.874004,44.232855],[-121.873916,44.232769],[-121.873775,44.232659],[-121.87372,44.232523],[-121.873648,44.232412],[-121.873594,44.232289],[-121.873556,44.23214],[-121.873518,44.232004],[-121.873532,44.231855],[-121.873563,44.231705],[-121.873664,44.231567],[-121.873772,44.231466],[-121.873901,44.231353],[-121.874036,44.231215],[-121.874137,44.231127],[-121.874255,44.230989],[-121.874408,44.230875],[-121.874527,44.230787],[-121.874698,44.230735],[-121.874869,44.230659],[-121.874971,44.230571],[-121.87509,44.23047],[-121.875208,44.230357],[-121.875327,44.230268],[-121.875516,44.230229],[-121.875722,44.230177],[-121.875928,44.230125],[-121.876099,44.230036],[-121.8762,44.229923],[-121.876145,44.229787],[-121.875987,44.229677],[-121.875845,44.22948],[-121.875685,44.229308],[-121.875524,44.229049],[-121.875346,44.22884],[-121.875274,44.228691],[-121.875219,44.228555],[-121.875041,44.228346],[-121.874865,44.228199],[-121.874707,44.228077],[-121.874513,44.227918],[-121.874493,44.227781],[-121.874594,44.227693],[-121.874838,44.227765],[-121.874959,44.227788],[-121.875149,44.227761],[-121.875306,44.227834],[-121.875414,44.228006],[-121.875573,44.228166],[-121.875731,44.228288],[-121.875855,44.228436],[-121.875978,44.228497],[-121.876169,44.228544],[-121.87636,44.228592],[-121.876362,44.228678],[-121.876295,44.228779],[-121.876263,44.228878],[-121.876198,44.228987],[-121.876251,44.229115],[-121.876357,44.229225],[-121.876514,44.229273],[-121.876685,44.229209],[-121.876717,44.229084],[-121.876851,44.228934],[-121.876916,44.228746],[-121.877051,44.228621],[-121.87717,44.228495],[-121.877288,44.228369],[-121.87744,44.228243],[-121.877647,44.228228],[-121.877819,44.228177],[-121.87792,44.228064],[-121.87802,44.227926],[-121.878035,44.227802],[-121.878085,44.227726],[-121.878223,44.227725],[-121.878346,44.227798],[-121.878366,44.227947],[-121.878437,44.228033],[-121.878561,44.228131],[-121.878682,44.228142],[-121.878732,44.228091],[-121.878869,44.22804],[-121.878902,44.22794],[-121.878776,44.227743],[-121.87874,44.227669],[-121.878823,44.227531],[-121.878941,44.227406],[-121.87906,44.227305],[-121.879214,44.227229],[-121.879298,44.227128],[-121.879399,44.227015],[-121.879499,44.226865],[-121.879443,44.226704],[-121.879406,44.226593],[-121.879351,44.226432],[-121.879263,44.226346],[-121.879175,44.226285],[-121.879173,44.226223],[-121.879257,44.226098],[-121.879201,44.225937],[-121.879093,44.225739],[-121.878986,44.225567],[-121.878828,44.225457],[-121.878722,44.225371],[-121.878618,44.225372],[-121.878516,44.225436],[-121.878412,44.225424],[-121.878324,44.225363],[-121.878374,44.225251],[-121.878354,44.225139],[-121.878419,44.224977],[-121.878486,44.224889],[-121.878564,44.224813],[-121.878716,44.224811],[-121.878884,44.224888],[-121.878927,44.224977],[-121.879011,44.225026],[-121.879165,44.225094],[-121.879222,44.225193],[-121.879295,44.225341],[-121.879283,44.22544],[-121.87937,44.225598],[-121.879373,44.225727],[-121.8795,44.225845],[-121.879681,44.225932],[-121.87989,44.22597],[-121.880125,44.225987],[-121.880249,44.225965],[-121.880414,44.225954],[-121.880553,44.225982],[-121.880718,44.22594],[-121.880856,44.225918],[-121.880993,44.225877],[-121.881075,44.225826],[-121.8811,44.225727],[-121.88121,44.225706],[-121.881307,44.225704],[-121.881431,44.225703],[-121.881474,44.225752],[-121.881421,44.225842],[-121.881312,44.225903],[-121.881244,44.225964],[-121.881163,44.226044],[-121.881111,44.226184],[-121.881072,44.226294],[-121.880976,44.226344],[-121.880896,44.226465],[-121.880843,44.226555],[-121.880802,44.226605],[-121.880818,44.226684],[-121.88082,44.226754],[-121.880725,44.226854],[-121.880604,44.226985],[-121.880523,44.227075],[-121.880401,44.227176],[-121.880252,44.227317],[-121.880102,44.227418],[-121.879953,44.227519],[-121.87983,44.22761],[-121.879735,44.227681],[-121.879585,44.227762],[-121.879463,44.227843],[-121.87934,44.227934],[-121.879232,44.228045],[-121.87911,44.228125],[-121.879043,44.228236],[-121.878963,44.228356],[-121.878938,44.228465],[-121.878912,44.228555],[-121.87883,44.228596],[-121.878806,44.228735],[-121.878781,44.228855],[-121.878752,44.228948],[-121.878669,44.229074],[-121.878602,44.229174],[-121.878518,44.229299],[-121.878504,44.229436],[-121.878594,44.229596],[-121.878737,44.229689],[-121.878774,44.229905],[-121.878779,44.230141],[-121.8788,44.230302],[-121.878786,44.230451],[-121.878739,44.230663],[-121.878743,44.230824],[-121.878677,44.230962],[-121.878594,44.231112],[-121.878494,44.231274],[-121.878361,44.231475],[-121.878209,44.23165],[-121.878109,44.231801],[-121.878077,44.231925],[-121.878097,44.232037],[-121.878151,44.232135],[-121.878135,44.232185],[-121.878049,44.232211],[-121.877995,44.232112],[-121.877925,44.232051],[-121.877871,44.231977],[-121.877767,44.231966],[-121.877681,44.231967],[-121.87761,44.231906],[-121.877506,44.231882],[-121.877386,44.231909],[-121.877213,44.231911],[-121.877074,44.23185],[-121.876953,44.231914],[-121.876782,44.231928],[-121.876661,44.231942],[-121.876559,44.232018],[-121.876578,44.23208],[-121.876596,44.232141],[-121.876512,44.232217],[-121.876496,44.232267],[-121.87648,44.232354],[-121.876413,44.232417],[-121.876258,44.232456],[-121.876154,44.232445],[-121.876013,44.232322],[-121.875926,44.232274],[-121.875839,44.23225],[-121.875649,44.232277],[-121.875512,44.232316],[-121.87527,44.232331],[-121.875149,44.232295],[-121.874975,44.232272],[-121.874803,44.232287],[-121.874666,44.232326],[-121.874633,44.232413],[-121.874686,44.232475],[-121.874671,44.232562],[-121.874638,44.232637],[-121.87464,44.232724],[-121.874727,44.23276],[-121.874864,44.232708],[-121.874934,44.23272],[-121.875004,44.232781],[-121.875005,44.232831],[-121.874903,44.232882],[-121.874765,44.232884],[-121.874643,44.23286],[-121.87459,44.232811],[-121.874503,44.232787],[-121.874435,44.232825],[-121.87435,44.232901]]],[[[-121.836674,44.249558],[-121.836694,44.249556],[-121.836806,44.249539],[-121.836937,44.249529],[-121.837941,44.249402],[-121.838084,44.249379],[-121.83825,44.249337],[-121.838537,44.24931],[-121.83865,44.249278],[-121.838782,44.249208],[-121.838871,44.249147],[-121.838919,44.24903],[-121.838988,44.248962],[-121.838998,44.248947],[-121.838979,44.248884],[-121.839001,44.248757],[-121.839048,44.248613],[-121.83916,44.248493],[-121.839331,44.248366],[-121.839611,44.248275],[-121.839931,44.248238],[-121.840376,44.248201],[-121.841223,44.248199],[-121.841299,44.248198],[-121.841358,44.248182],[-121.841548,44.248107],[-121.841804,44.247972],[-121.841953,44.247911],[-121.842124,44.247841],[-121.843089,44.247445],[-121.843326,44.247327],[-121.843433,44.247226],[-121.843496,44.247173],[-121.843511,44.247056],[-121.843478,44.246934],[-121.843452,44.24681],[-121.843419,44.246685],[-121.843296,44.246397],[-121.84312,44.246034],[-121.843055,44.245882],[-121.843079,44.245793],[-121.84311,44.245655],[-121.843176,44.245519],[-121.843288,44.245445],[-121.843386,44.245363],[-121.843882,44.245101],[-121.844215,44.244961],[-121.844425,44.244897],[-121.84507,44.244583],[-121.845861,44.24424],[-121.847153,44.243641],[-121.847358,44.243568],[-121.847521,44.2435],[-121.847965,44.243263],[-121.849103,44.242728],[-121.85013,44.242289],[-121.850661,44.242044],[-121.851339,44.241718],[-121.853094,44.240897],[-121.854206,44.240426],[-121.854508,44.240289],[-121.854799,44.240188],[-121.854984,44.240145],[-121.85525,44.240102],[-121.855446,44.240076],[-121.85569,44.240049],[-121.856001,44.240029],[-121.856264,44.240034],[-121.856446,44.240032],[-121.856605,44.240074],[-121.856691,44.240096],[-121.856795,44.240119],[-121.856861,44.240142],[-121.85718,44.240124],[-121.857516,44.240128],[-121.857937,44.240116],[-121.858386,44.240087],[-121.858851,44.240058],[-121.859433,44.240036],[-121.860012,44.239991],[-121.860181,44.23998],[-121.860332,44.240003],[-121.860521,44.240015],[-121.86067,44.239986],[-121.860789,44.239956],[-121.860916,44.239915],[-121.860978,44.239869],[-121.861206,44.239732],[-121.861407,44.239605],[-121.861763,44.239389],[-121.862226,44.239151],[-121.862704,44.23885],[-121.862903,44.23868],[-121.863106,44.238521],[-121.86316,44.238447],[-121.863214,44.238359],[-121.863299,44.237871],[-121.863479,44.237224],[-121.863564,44.236766],[-121.863736,44.23611],[-121.863986,44.23495],[-121.864014,44.234833],[-121.864111,44.234704],[-121.8642,44.234596],[-121.864341,44.234449],[-121.864585,44.234301],[-121.864784,44.234153],[-121.864932,44.234054],[-121.865039,44.233963],[-121.865129,44.23382],[-121.865258,44.233674],[-121.865318,44.233558],[-121.865348,44.23346],[-121.865355,44.233393],[-121.865354,44.233325],[-121.865295,44.233032],[-121.865256,44.232875],[-121.865226,44.232771],[-121.865202,44.232653],[-121.865271,44.232517],[-121.865321,44.232422],[-121.86544,44.232311],[-121.865559,44.232223],[-121.865699,44.232158],[-121.865886,44.232126],[-121.866025,44.232117],[-121.867022,44.232112],[-121.867208,44.232103],[-121.867324,44.232102],[-121.867439,44.232069],[-121.867559,44.232021],[-121.867667,44.231969],[-121.867736,44.231912],[-121.867772,44.231868],[-121.867807,44.23181],[-121.867837,44.231706],[-121.867851,44.231614],[-121.867865,44.231523],[-121.867863,44.231443],[-121.867838,44.231402],[-121.867795,44.231339],[-121.867721,44.231259],[-121.867386,44.230981],[-121.867098,44.23066],[-121.866988,44.230538],[-121.86686,44.230388],[-121.866805,44.230235],[-121.866794,44.230104],[-121.866752,44.229942],[-121.866788,44.229766],[-121.866845,44.229575],[-121.86688,44.229425],[-121.86699,44.229253],[-121.867063,44.229151],[-121.867138,44.229067],[-121.867255,44.228952],[-121.867468,44.228781],[-121.868648,44.227798],[-121.868917,44.227584],[-121.869213,44.227333],[-121.870424,44.226257],[-121.870721,44.225991],[-121.870851,44.225816],[-121.871036,44.225432],[-121.872018,44.223603],[-121.872255,44.223145],[-121.872308,44.223019],[-121.872399,44.222887],[-121.872517,44.222746],[-121.872655,44.222609],[-121.872787,44.22251],[-121.872938,44.22242],[-121.873065,44.222359],[-121.873241,44.222273],[-121.873421,44.222186],[-121.873685,44.222077],[-121.874402,44.221855],[-121.875824,44.221504],[-121.876708,44.221321],[-121.877321,44.221152],[-121.877624,44.221067],[-121.877752,44.221019],[-121.877865,44.220959],[-121.877938,44.220916],[-121.87798,44.220868],[-121.878058,44.220782],[-121.878081,44.220723],[-121.878138,44.220636],[-121.878159,44.220553],[-121.878174,44.220461],[-121.878163,44.220331],[-121.878124,44.220159],[-121.877804,44.219071],[-121.877765,44.218583],[-121.877781,44.218398],[-121.877794,44.218301],[-121.87773,44.21811],[-121.877664,44.21789],[-121.877553,44.217416],[-121.877415,44.216792],[-121.87705,44.214856],[-121.876983,44.214595],[-121.876941,44.214393],[-121.876929,44.214266],[-121.876925,44.214115],[-121.876895,44.213931],[-121.876871,44.213633],[-121.876665,44.212797],[-121.876585,44.212371],[-121.876471,44.211986],[-121.876356,44.211619],[-121.876218,44.211293],[-121.876208,44.211269],[-121.874814,44.211269],[-121.869783,44.211268],[-121.864759,44.211263],[-121.859735,44.211257],[-121.856806,44.211578],[-121.851773,44.211578],[-121.848128,44.211578],[-121.84674,44.211578],[-121.843095,44.211578],[-121.841707,44.211578],[-121.838062,44.211578],[-121.836673,44.211578],[-121.833028,44.211578],[-121.83164,44.211578],[-121.827995,44.211579],[-121.827995,44.211578],[-121.827995,44.215329],[-121.827995,44.21895],[-121.827995,44.21895],[-121.83147,44.21895],[-121.83164,44.21895],[-121.836673,44.21895],[-121.836673,44.22257],[-121.836674,44.22619],[-121.836674,44.22981],[-121.836674,44.23343],[-121.836674,44.23705],[-121.836674,44.24067],[-121.836674,44.244291],[-121.836674,44.247911],[-121.836674,44.249558]]]]}},{"type":"Feature","properties":{"MAPTAXLOT":"1585000000077","MAPNUMBER":"15850000","TAXLOT":"77","ACCTNO":"000None","MAPACRES":10.05116855},"geometry":{"type":"Polygon","coordinates":[[[-121.836674,44.249558],[-121.836656,44.24956],[-121.836555,44.249572],[-121.836423,44.249573],[-121.836317,44.249561],[-121.836146,44.249534],[-121.835985,44.249486],[-121.835832,44.249429],[-121.835645,44.249338],[-121.834917,44.248831],[-121.834811,44.248758],[-121.834621,44.248705],[-121.834417,44.248674],[-121.834255,44.248667],[-121.833853,44.248664],[-121.833719,44.248683],[-121.833576,44.248708],[-121.833308,44.24876],[-121.831467,44.249358],[-121.830138,44.2498],[-121.829738,44.249937],[-121.829174,44.250148],[-121.828771,44.25034],[-121.828321,44.250539],[-121.827988,44.2507],[-121.827132,44.251122],[-121.826725,44.251344],[-121.826379,44.251523],[-121.826102,44.251635],[-121.825562,44.2519],[-121.824802,44.252306],[-121.824431,44.252518],[-121.823016,44.253193],[-121.822794,44.253314],[-121.822246,44.253619],[-121.821587,44.253967],[-121.820236,44.254623],[-121.819442,44.255021],[-121.819056,44.255186],[-121.818391,44.255531],[-121.817777,44.255858],[-121.817357,44.256064],[-121.816588,44.256457],[-121.8154,44.257055],[-121.814601,44.257448],[-121.813815,44.257869],[-121.813269,44.258141],[-121.81302,44.258265],[-121.813431,44.25826],[-121.813948,44.258002],[-121.814735,44.257582],[-121.81553,44.25719],[-121.81672,44.256591],[-121.817488,44.256199],[-121.81791,44.255992],[-121.818526,44.255663],[-121.819181,44.255324],[-121.819566,44.255159],[-121.820366,44.254759],[-121.821719,44.254101],[-121.822384,44.253751],[-121.822933,44.253445],[-121.823149,44.253327],[-121.824566,44.252651],[-121.824942,44.252436],[-121.825695,44.252034],[-121.826223,44.251775],[-121.826502,44.251662],[-121.826861,44.251477],[-121.827266,44.251255],[-121.828116,44.250836],[-121.828444,44.250678],[-121.828894,44.250479],[-121.829291,44.25029],[-121.82984,44.250084],[-121.830235,44.249949],[-121.831562,44.249507],[-121.833385,44.248915],[-121.833634,44.248868],[-121.833769,44.248844],[-121.833874,44.248829],[-121.834247,44.248832],[-121.834386,44.248837],[-121.834555,44.248864],[-121.834686,44.2489],[-121.834759,44.24895],[-121.8355,44.249466],[-121.835715,44.249571],[-121.835889,44.249635],[-121.836077,44.249691],[-121.836274,44.249722],[-121.836406,44.249738],[-121.836575,44.249736],[-121.836674,44.249725],[-121.836674,44.249558]]]}},{"type":"Feature","properties":{"MAPTAXLOT":"1585000000100","MAPNUMBER":"15850000","TAXLOT":"100","ACCTNO":"1857323","MAPACRES":4197.56248677},"geometry":{"type":"MultiPolygon","coordinates":[[[[-121.789984,44.249532],[-121.790365,44.249852],[-121.791203,44.250481],[-121.792538,44.251214],[-121.793301,44.251718],[-121.793904,44.252701],[-121.794413,44.253091],[-121.794954,44.253274],[-121.79683,44.254281],[-121.797307,44.254625],[-121.798767,44.257576],[-121.799339,44.258285],[-121.812545,44.258271],[-121.81302,44.258265],[-121.813269,44.258141],[-121.813815,44.257869],[-121.814601,44.257448],[-121.8154,44.257055],[-121.816588,44.256457],[-121.817357,44.256064],[-121.817777,44.255858],[-121.818391,44.255531],[-121.819056,44.255186],[-121.819442,44.255021],[-121.820236,44.254623],[-121.821587,44.253967],[-121.822246,44.253619],[-121.822794,44.253314],[-121.823016,44.253193],[-121.824431,44.252518],[-121.824802,44.252306],[-121.825562,44.2519],[-121.826102,44.251635],[-121.826379,44.251523],[-121.826725,44.251344],[-121.827132,44.251122],[-121.827988,44.2507],[-121.828321,44.250539],[-121.828771,44.25034],[-121.829174,44.250148],[-121.829738,44.249937],[-121.830138,44.2498],[-121.831467,44.249358],[-121.833308,44.24876],[-121.833576,44.248708],[-121.833719,44.248683],[-121.833853,44.248664],[-121.834255,44.248667],[-121.834417,44.248674],[-121.834621,44.248705],[-121.834811,44.248758],[-121.834917,44.248831],[-121.835645,44.249338],[-121.835832,44.249429],[-121.835985,44.249486],[-121.836146,44.249534],[-121.836317,44.249561],[-121.836423,44.249573],[-121.836555,44.249572],[-121.836656,44.24956],[-121.836674,44.249558],[-121.836674,44.247911],[-121.836674,44.244291],[-121.836674,44.24067],[-121.836674,44.23705],[-121.836674,44.23343],[-121.836674,44.22981],[-121.836674,44.22619],[-121.836673,44.22257],[-121.836673,44.21895],[-121.83164,44.21895],[-121.83147,44.21895],[-121.827995,44.21895],[-121.822618,44.21895],[-121.817584,44.21895],[-121.816369,44.21895],[-121.81255,44.21895],[-121.807516,44.21895],[-121.807516,44.21895],[-121.802482,44.21895],[-121.797448,44.21895],[-121.796233,44.21895],[-121.792414,44.21895],[-121.78738,44.21895],[-121.782346,44.21895],[-121.777808,44.21895],[-121.777783,44.219149],[-121.777909,44.22011],[-121.778668,44.222969],[-121.778985,44.223519],[-121.779683,44.22416],[-121.781399,44.225213],[-121.782321,44.225351],[-121.783815,44.225924],[-121.784196,44.226336],[-121.785782,44.229379],[-121.78594,44.2305],[-121.785779,44.231163],[-121.786127,44.232444],[-121.787397,44.234618],[-121.78784,44.236219],[-121.787965,44.237866],[-121.787836,44.238621],[-121.787833,44.241091],[-121.788944,44.242715],[-121.790055,44.24402],[-121.790468,44.244683],[-121.790499,44.245187],[-121.790403,44.245575],[-121.789383,44.247427],[-121.789446,44.247907],[-121.789698,44.248982],[-121.789984,44.249532]]],[[[-121.836674,44.258253],[-121.836674,44.255151],[-121.836674,44.251531],[-121.836674,44.249725],[-121.836575,44.249736],[-121.836406,44.249738],[-121.836274,44.249722],[-121.836077,44.249691],[-121.835889,44.249635],[-121.835715,44.249571],[-121.8355,44.249466],[-121.834759,44.24895],[-121.834686,44.2489],[-121.834555,44.248864],[-121.834386,44.248837],[-121.834247,44.248832],[-121.833874,44.248829],[-121.833769,44.248844],[-121.833634,44.248868],[-121.833385,44.248915],[-121.831562,44.249507],[-121.830235,44.249949],[-121.82984,44.250084],[-121.829291,44.25029],[-121.828894,44.250479],[-121.828444,44.250678],[-121.828116,44.250836],[-121.827266,44.251255],[-121.826861,44.251477],[-121.826502,44.251662],[-121.826223,44.251775],[-121.825695,44.252034],[-121.824942,44.252436],[-121.824566,44.252651],[-121.823149,44.253327],[-121.822933,44.253445],[-121.822384,44.253751],[-121.821719,44.254101],[-121.820366,44.254759],[-121.819566,44.255159],[-121.819181,44.255324],[-121.818526,44.255663],[-121.81791,44.255992],[-121.817488,44.256199],[-121.81672,44.256591],[-121.81553,44.25719],[-121.814735,44.257582],[-121.813948,44.258002],[-121.813431,44.25826],[-121.814455,44.258249],[-121.836674,44.258253]]]]}}]}