{"type":"FeatureCollection","features":[{"type":"Feature","properties":{"MAPTAXLOT":"2315000001800","MAPNUMBER":"23150000","TAXLOT":"1800","ACCTNO":"0975043","MAPACRES":6121.97748926},"geometry":{"type":"Polygon","coordinates":[[[-122.642698,43.568397],[-122.642729,43.568397],[-122.662549,43.56843],[-122.662549,43.568361],[-122.662545,43.561205],[-122.662577,43.561205],[-122.672523,43.561213],[-122.672523,43.561151],[-122.672523,43.557599],[-122.672556,43.557599],[-122.682506,43.557607],[-122.682506,43.557555],[-122.68251,43.553992],[-122.682543,43.553992],[-122.687499,43.554012],[-122.687499,43.553963],[-122.687464,43.539554],[-122.687454,43.535936],[-122.687514,43.535936],[-122.702456,43.535976],[-122.702456,43.535936],[-122.702417,43.532355],[-122.702396,43.528733],[-122.702462,43.528733],[-122.707376,43.528763],[-122.707376,43.528725],[-122.707344,43.524139],[-122.703565,43.524262],[-122.702364,43.524273],[-122.693734,43.524327],[-122.692402,43.524337],[-122.683939,43.524382],[-122.683938,43.524382],[-122.682442,43.524386],[-122.673531,43.524402],[-122.672507,43.524405],[-122.663125,43.524422],[-122.662573,43.524429],[-122.65332,43.524542],[-122.652641,43.524551],[-122.643027,43.524683],[-122.642712,43.524687],[-122.632984,43.524809],[-122.632798,43.524813],[-122.622925,43.525002],[-122.622885,43.525002],[-122.622896,43.527485],[-122.622884,43.532241],[-122.622881,43.534722],[-122.622869,43.539479],[-122.622866,43.54196],[-122.622853,43.546718],[-122.62285,43.549199],[-122.622836,43.553956],[-122.62283,43.556282],[-122.62283,43.556438],[-122.622825,43.561196],[-122.622823,43.563678],[-122.622818,43.568437],[-122.622844,43.568437],[-122.642698,43.568397]],[[-122.643277,43.562385],[-122.645581,43.565781],[-122.645629,43.565852],[-122.643596,43.566578],[-122.641245,43.563111],[-122.6412,43.563127],[-122.64028,43.559073],[-122.640333,43.559054],[-122.642403,43.558314],[-122.643322,43.562368],[-122.643277,43.562385]]]}},{"type":"Feature","properties":{"MAPTAXLOT":"2315000001900","MAPNUMBER":"23150000","TAXLOT":"1900","ACCTNO":"0975068","MAPACRES":481.40616782},"geometry":{"type":"Polygon","coordinates":[[[-122.687499,43.554012],[-122.702469,43.554074],[-122.702469,43.55404],[-122.702495,43.539598],[-122.687517,43.539554],[-122.687464,43.539554],[-122.687499,43.553963],[-122.687499,43.554012]]]}},{"type":"Feature","properties":{"MAPTAXLOT":"2315000002000","MAPNUMBER":"23150000","TAXLOT":"2000","ACCTNO":"0975076","MAPACRES":638.30491257},"geometry":{"type":"Polygon","coordinates":[[[-122.702469,43.554074],[-122.702492,43.554074],[-122.722399,43.554153],[-122.722399,43.554141],[-122.722347,43.539697],[-122.707458,43.539623],[-122.702545,43.539598],[-122.702495,43.539598],[-122.702469,43.55404],[-122.702469,43.554074]]]}},{"type":"Feature","properties":{"MAPTAXLOT":"2315000002100","MAPNUMBER":"23150000","TAXLOT":"2100","ACCTNO":"0975084","MAPACRES":620.03719077},"geometry":{"type":"Polygon","coordinates":[[[-122.737357,43.554164],[-122.741533,43.554156],[-122.741558,43.551574],[-122.741558,43.551574],[-122.741594,43.550553],[-122.741674,43.5481],[-122.741713,43.546952],[-122.74179,43.544625],[-122.741817,43.543332],[-122.741861,43.541101],[-122.74189,43.539712],[-122.737285,43.539712],[-122.732306,43.539711],[-122.722369,43.539697],[-122.722347,43.539697],[-122.722399,43.554141],[-122.722399,43.554153],[-122.722408,43.554153],[-122.732373,43.554175],[-122.737357,43.554164]]]}},{"type":"Feature","properties":{"MAPTAXLOT":"2315000002200","MAPNUMBER":"23150000","TAXLOT":"2200","ACCTNO":"0975092","MAPACRES":699.73183786},"geometry":{"type":"Polygon","coordinates":[[[-122.737285,43.539712],[-122.74189,43.539712],[-122.74189,43.539708],[-122.741933,43.537577],[-122.741929,43.536117],[-122.741922,43.534055],[-122.741918,43.532521],[-122.741912,43.530533],[-122.741907,43.528888],[-122.741901,43.52701],[-122.741896,43.525256],[-122.74189,43.523487],[-122.732703,43.523633],[-122.732252,43.523638],[-122.723184,43.523695],[-122.72233,43.523719],[-122.722282,43.52372],[-122.722301,43.528849],[-122.722313,43.532466],[-122.722347,43.539676],[-122.722347,43.539697],[-122.722369,43.539697],[-122.732306,43.539711],[-122.737285,43.539712]]]}},{"type":"Feature","properties":{"MAPTAXLOT":"2315000002300","MAPNUMBER":"23150000","TAXLOT":"2300","ACCTNO":"0975100","MAPACRES":641.0354914},"geometry":{"type":"Polygon","coordinates":[[[-122.707458,43.539623],[-122.722347,43.539697],[-122.722347,43.539676],[-122.722313,43.532466],[-122.722301,43.528849],[-122.722282,43.52372],[-122.713395,43.523937],[-122.712324,43.523976],[-122.70741,43.524137],[-122.707344,43.524139],[-122.707376,43.528725],[-122.707376,43.528763],[-122.702462,43.528733],[-122.702396,43.528733],[-122.702417,43.532355],[-122.702456,43.535936],[-122.702456,43.535976],[-122.702494,43.539558],[-122.702495,43.539598],[-122.702545,43.539598],[-122.707458,43.539623]]]}},{"type":"Feature","properties":{"MAPTAXLOT":"2315000002400","MAPNUMBER":"23150000","TAXLOT":"2400","ACCTNO":"0975118","MAPACRES":120.59708122},"geometry":{"type":"Polygon","coordinates":[[[-122.687464,43.539554],[-122.687517,43.539554],[-122.702495,43.539598],[-122.702494,43.539558],[-122.702456,43.535976],[-122.687514,43.535936],[-122.687454,43.535936],[-122.687464,43.539554]]]}},{"type":"Feature","properties":{"MAPTAXLOT":"2415000000100","MAPNUMBER":"24150000","TAXLOT":"100","ACCTNO":"0976199","MAPACRES":22876.50301499},"geometry":{"type":"Polygon","coordinates":[[[-122.702364,43.524273],[-122.703565,43.524262],[-122.707344,43.524139],[-122.70741,43.524137],[-122.712324,43.523976],[-122.713395,43.523937],[-122.722282,43.52372],[-122.72233,43.523719],[-122.723184,43.523695],[-122.732252,43.523638],[-122.732703,43.523633],[-122.74189,43.523487],[-122.741939,43.519929],[-122.741988,43.516371],[-122.742038,43.512814],[-122.742087,43.509256],[-122.742086,43.505682],[-122.742085,43.502109],[-122.742085,43.498535],[-122.742084,43.494961],[-122.742067,43.491375],[-122.742049,43.487789],[-122.742032,43.484203],[-122.742014,43.480617],[-122.741981,43.477018],[-122.741948,43.473419],[-122.741915,43.469821],[-122.741882,43.466222],[-122.741811,43.462617],[-122.74174,43.459011],[-122.741669,43.455406],[-122.741599,43.451801],[-122.74158,43.448191],[-122.741561,43.444581],[-122.741543,43.440971],[-122.741524,43.437361],[-122.738329,43.437364],[-122.733334,43.437373],[-122.723297,43.437406],[-122.703158,43.437555],[-122.683058,43.437725],[-122.662927,43.437915],[-122.642875,43.438117],[-122.622852,43.438301],[-122.622829,43.440105],[-122.622783,43.44373],[-122.622763,43.445378],[-122.622758,43.447355],[-122.62275,43.45098],[-122.622746,43.452781],[-122.622741,43.454605],[-122.622736,43.458232],[-122.622732,43.460108],[-122.622723,43.461857],[-122.622707,43.465483],[-122.622698,43.467274],[-122.622702,43.46911],[-122.622709,43.472737],[-122.622713,43.474459],[-122.622764,43.476362],[-122.62286,43.479989],[-122.622902,43.481521],[-122.622904,43.483617],[-122.622903,43.487243],[-122.622905,43.488658],[-122.622918,43.490868],[-122.622936,43.494494],[-122.622945,43.495927],[-122.622953,43.498119],[-122.622968,43.501744],[-122.622975,43.503155],[-122.622955,43.505367],[-122.622921,43.508991],[-122.622909,43.510424],[-122.62291,43.512615],[-122.622909,43.516239],[-122.622911,43.517708],[-122.622904,43.519861],[-122.622889,43.523485],[-122.622885,43.525002],[-122.622925,43.525002],[-122.632798,43.524813],[-122.632984,43.524809],[-122.642712,43.524687],[-122.643027,43.524683],[-122.652641,43.524551],[-122.65332,43.524542],[-122.662573,43.524429],[-122.663125,43.524422],[-122.672507,43.524405],[-122.673531,43.524402],[-122.682442,43.524386],[-122.683938,43.524382],[-122.683939,43.524382],[-122.692402,43.524337],[-122.693734,43.524327],[-122.702364,43.524273]]]}}]}