{"type":"FeatureCollection","features":[{"type":"Feature","properties":{"MAPTAXLOT":"1555000000100","MAPNUMBER":"15550000","TAXLOT":"100","ACCTNO":"0027480","MAPACRES":11138.30777997},"geometry":{"type":"MultiPolygon","coordinates":[[[[-122.14673,44.24298],[-122.14673,44.2466],[-122.14673,44.25022],[-122.14673,44.25384],[-122.166877,44.25384],[-122.187024,44.25384],[-122.207171,44.25384],[-122.227318,44.253839],[-122.229052,44.25384],[-122.229162,44.253684],[-122.229308,44.253476],[-122.229417,44.253304],[-122.229481,44.253214],[-122.229629,44.253068],[-122.22974,44.25295],[-122.229908,44.252845],[-122.23002,44.252741],[-122.230131,44.25265],[-122.230319,44.252572],[-122.230498,44.252515],[-122.230667,44.25243],[-122.230873,44.252311],[-122.230994,44.252213],[-122.231133,44.252095],[-122.231216,44.251998],[-122.231345,44.251845],[-122.231456,44.251734],[-122.231568,44.251651],[-122.23166,44.25154],[-122.231752,44.251443],[-122.231853,44.251304],[-122.231981,44.251125],[-122.232091,44.250973],[-122.232239,44.250827],[-122.232389,44.250736],[-122.23248,44.250618],[-122.232573,44.250514],[-122.232663,44.250348],[-122.232678,44.250198],[-122.232711,44.25004],[-122.232689,44.249917],[-122.232638,44.249822],[-122.232645,44.249733],[-122.232623,44.249617],[-122.23261,44.249501],[-122.232579,44.249406],[-122.232565,44.249249],[-122.232608,44.249097],[-122.232642,44.248946],[-122.232724,44.248815],[-122.232823,44.248643],[-122.232972,44.248524],[-122.23314,44.248399],[-122.233289,44.248301],[-122.233465,44.248141],[-122.233603,44.247968],[-122.233732,44.247808],[-122.233843,44.247691],[-122.23398,44.247518],[-122.234099,44.247345],[-122.234179,44.247152],[-122.234231,44.246967],[-122.234274,44.246815],[-122.234268,44.24661],[-122.234281,44.246405],[-122.234258,44.246262],[-122.234197,44.246112],[-122.234162,44.245907],[-122.234091,44.245751],[-122.234001,44.245602],[-122.233872,44.245406],[-122.233772,44.245229],[-122.233653,44.245074],[-122.23362,44.24493],[-122.233617,44.244814],[-122.233604,44.244705],[-122.233665,44.244492],[-122.233697,44.244286],[-122.233787,44.244121],[-122.233944,44.243961],[-122.23412,44.243788],[-122.234231,44.24367],[-122.234398,44.243523],[-122.234538,44.243412],[-122.234632,44.24337],[-122.234715,44.243307],[-122.234808,44.243223],[-122.234966,44.243091],[-122.235107,44.24302],[-122.235247,44.242936],[-122.235424,44.242817],[-122.235593,44.242726],[-122.235657,44.242622],[-122.235779,44.242559],[-122.235946,44.24242],[-122.236018,44.242296],[-122.236091,44.242178],[-122.236202,44.24206],[-122.236311,44.241894],[-122.236375,44.241784],[-122.236468,44.241707],[-122.236636,44.241623],[-122.23689,44.241503],[-122.237134,44.241403],[-122.237342,44.241339],[-122.237588,44.24128],[-122.237777,44.241243],[-122.237947,44.241213],[-122.238107,44.241156],[-122.238229,44.241079],[-122.238379,44.241009],[-122.238538,44.240931],[-122.23866,44.240861],[-122.238858,44.240783],[-122.238989,44.240712],[-122.239176,44.2406],[-122.239315,44.240475],[-122.239474,44.240383],[-122.239613,44.240238],[-122.239742,44.240113],[-122.239804,44.239961],[-122.239848,44.239831],[-122.239923,44.239782],[-122.239978,44.239699],[-122.240109,44.239622],[-122.240258,44.239517],[-122.240388,44.239426],[-122.240527,44.23928],[-122.240638,44.239155],[-122.240709,44.23899],[-122.240801,44.238893],[-122.24091,44.238713],[-122.241047,44.23852],[-122.241167,44.238374],[-122.24123,44.23825],[-122.241379,44.238152],[-122.241511,44.238096],[-122.241795,44.238044],[-122.241975,44.238041],[-122.242193,44.23801],[-122.242384,44.238007],[-122.242546,44.238019],[-122.242688,44.238017],[-122.242877,44.237959],[-122.242969,44.237841],[-122.242965,44.237705],[-122.242943,44.237616],[-122.242921,44.237514],[-122.242964,44.237356],[-122.242989,44.237239],[-122.243032,44.237067],[-122.243105,44.236964],[-122.243215,44.236812],[-122.243278,44.236681],[-122.243377,44.236495],[-122.24344,44.236371],[-122.243586,44.23617],[-122.243649,44.236032],[-122.243739,44.235853],[-122.24386,44.235755],[-122.243991,44.235706],[-122.244313,44.235639],[-122.244578,44.235608],[-122.244834,44.235563],[-122.245033,44.235533],[-122.245194,44.23551],[-122.245364,44.235473],[-122.245467,44.235417],[-122.245646,44.235332],[-122.245787,44.235282],[-122.245956,44.235211],[-122.246049,44.235141],[-122.24619,44.235071],[-122.246378,44.235],[-122.246509,44.234909],[-122.246639,44.234811],[-122.246683,44.234708],[-122.246698,44.234557],[-122.246665,44.234386],[-122.246642,44.23425],[-122.246494,44.234081],[-122.246406,44.234],[-122.246402,44.23385],[-122.246464,44.233719],[-122.246592,44.233526],[-122.246702,44.23338],[-122.246812,44.233242],[-122.247025,44.233027],[-122.247192,44.232901],[-122.247484,44.232787],[-122.247608,44.232813],[-122.247692,44.232757],[-122.247805,44.232707],[-122.248154,44.232613],[-122.248448,44.232568],[-122.248799,44.232535],[-122.249035,44.232456],[-122.249204,44.232378],[-122.249391,44.232287],[-122.24941,44.232273],[-122.249503,44.23221],[-122.249633,44.232085],[-122.249772,44.231966],[-122.249854,44.231856],[-122.249917,44.231718],[-122.250008,44.231586],[-122.250081,44.231455],[-122.250163,44.231352],[-122.250246,44.231261],[-122.250318,44.23113],[-122.250363,44.231013],[-122.250434,44.230862],[-122.250545,44.230744],[-122.25059,44.230654],[-122.250595,44.230511],[-122.250621,44.230401],[-122.250721,44.230256],[-122.250775,44.230145],[-122.250884,44.229973],[-122.250957,44.229862],[-122.251057,44.229703],[-122.251177,44.229578],[-122.251305,44.229405],[-122.251416,44.229288],[-122.251764,44.229152],[-122.252095,44.229086],[-122.252323,44.229062],[-122.252579,44.229044],[-122.252731,44.229056],[-122.252854,44.22902],[-122.253053,44.229003],[-122.253224,44.228973],[-122.253461,44.228942],[-122.253697,44.228884],[-122.253904,44.228826],[-122.254122,44.228782],[-122.254368,44.228737],[-122.25446,44.22864],[-122.254617,44.22848],[-122.254669,44.228308],[-122.254721,44.228136],[-122.254736,44.227986],[-122.25474,44.227808],[-122.254785,44.227691],[-122.254789,44.227527],[-122.254861,44.227361],[-122.254933,44.227224],[-122.255082,44.227112],[-122.255231,44.227021],[-122.255313,44.226896],[-122.255423,44.226765],[-122.255458,44.226627],[-122.25552,44.226476],[-122.255525,44.226325],[-122.25553,44.226182],[-122.255545,44.226045],[-122.255579,44.225887],[-122.255689,44.225748],[-122.255771,44.225624],[-122.255862,44.225506],[-122.255993,44.225415],[-122.256105,44.225345],[-122.256256,44.225302],[-122.256455,44.225279],[-122.256702,44.225254],[-122.256872,44.225238],[-122.257089,44.225153],[-122.257277,44.225088],[-122.257456,44.22501],[-122.257739,44.224944],[-122.25789,44.224908],[-122.258061,44.224885],[-122.25824,44.224848],[-122.258469,44.224845],[-122.258647,44.22478],[-122.258761,44.224751],[-122.258891,44.224667],[-122.258992,44.224536],[-122.25912,44.22437],[-122.259202,44.224218],[-122.259303,44.2241],[-122.25948,44.223961],[-122.259688,44.223916],[-122.259904,44.223845],[-122.260054,44.223774],[-122.26008,44.223678],[-122.260207,44.223478],[-122.260299,44.223374],[-122.26041,44.223242],[-122.260482,44.223111],[-122.26065,44.222992],[-122.260761,44.222888],[-122.260862,44.222784],[-122.260926,44.222666],[-122.261045,44.222528],[-122.261128,44.222417],[-122.261237,44.222272],[-122.261374,44.222078],[-122.261495,44.221987],[-122.261616,44.221883],[-122.261718,44.221793],[-122.261802,44.221737],[-122.261905,44.221667],[-122.262072,44.221534],[-122.262241,44.221449],[-122.2624,44.221358],[-122.262586,44.221225],[-122.26282,44.221106],[-122.26315,44.220991],[-122.263432,44.220891],[-122.263677,44.220785],[-122.263896,44.220781],[-122.263895,44.220149],[-122.263894,44.219178],[-122.263844,44.21912],[-122.263554,44.218689],[-122.263284,44.218146],[-122.263113,44.217717],[-122.262876,44.217152],[-122.262631,44.21636],[-122.262484,44.215679],[-122.262401,44.214998],[-122.262385,44.214428],[-122.262427,44.213724],[-122.262468,44.21295],[-122.262608,44.212308],[-122.262842,44.211669],[-122.263074,44.210961],[-122.263335,44.210394],[-122.256812,44.210394],[-122.254296,44.210394],[-122.247391,44.210394],[-122.241716,44.210394],[-122.236683,44.210394],[-122.23165,44.210394],[-122.227259,44.210394],[-122.226617,44.210394],[-122.221583,44.210394],[-122.21655,44.210394],[-122.211517,44.210394],[-122.207127,44.210394],[-122.206484,44.210394],[-122.201451,44.210394],[-122.196418,44.210395],[-122.191385,44.210395],[-122.186994,44.210395],[-122.186352,44.210395],[-122.181319,44.210395],[-122.176286,44.210395],[-122.171253,44.210395],[-122.166862,44.210395],[-122.16622,44.210395],[-122.161186,44.210395],[-122.14673,44.210395],[-122.14673,44.224879],[-122.14673,44.228499],[-122.14673,44.232119],[-122.14673,44.235739],[-122.14673,44.239359],[-122.14673,44.24298]]],[[[-122.231878,44.252301],[-122.231576,44.252492],[-122.231226,44.252706],[-122.230881,44.252906],[-122.230617,44.253127],[-122.230335,44.253386],[-122.230002,44.253671],[-122.229771,44.25384],[-122.247465,44.253839],[-122.26395,44.253839],[-122.263948,44.252729],[-122.263941,44.249107],[-122.263934,44.245485],[-122.263928,44.241863],[-122.263923,44.239359],[-122.263921,44.238241],[-122.263915,44.234624],[-122.26391,44.231006],[-122.263905,44.227388],[-122.263901,44.224878],[-122.263899,44.22377],[-122.263897,44.221462],[-122.263894,44.221464],[-122.263315,44.221752],[-122.262722,44.221965],[-122.262258,44.222197],[-122.261799,44.222405],[-122.26147,44.222697],[-122.261139,44.223153],[-122.260743,44.223635],[-122.260406,44.224074],[-122.259851,44.22456],[-122.259511,44.224889],[-122.259112,44.225153],[-122.258748,44.225402],[-122.25835,44.225653],[-122.257933,44.225882],[-122.257565,44.226039],[-122.257169,44.226218],[-122.25676,44.226419],[-122.256434,44.22664],[-122.256186,44.22685],[-122.255923,44.227117],[-122.255645,44.227467],[-122.255478,44.227697],[-122.255375,44.22796],[-122.2553,44.228195],[-122.255176,44.228421],[-122.25505,44.228623],[-122.254903,44.228795],[-122.254734,44.228897],[-122.254472,44.229008],[-122.254168,44.229106],[-122.253785,44.229251],[-122.253193,44.229434],[-122.252666,44.229615],[-122.252107,44.229786],[-122.251808,44.229894],[-122.251516,44.230021],[-122.251352,44.230166],[-122.251216,44.230349],[-122.251032,44.230616],[-122.25091,44.230849],[-122.25077,44.231061],[-122.250632,44.231295],[-122.250447,44.231575],[-122.250278,44.231881],[-122.250089,44.232118],[-122.249916,44.232344],[-122.249719,44.232504],[-122.249487,44.232628],[-122.24916,44.23274],[-122.248852,44.232815],[-122.248644,44.232865],[-122.248294,44.232951],[-122.247982,44.233046],[-122.247769,44.233149],[-122.247603,44.233274],[-122.24745,44.233434],[-122.247312,44.233596],[-122.247209,44.233763],[-122.247169,44.234],[-122.247144,44.234219],[-122.247136,44.234498],[-122.247078,44.234785],[-122.246967,44.234978],[-122.246839,44.23516],[-122.246673,44.235296],[-122.24646,44.235419],[-122.246152,44.235554],[-122.245817,44.235675],[-122.245465,44.23582],[-122.245219,44.235895],[-122.244916,44.235957],[-122.244666,44.236051],[-122.244416,44.236146],[-122.244202,44.236272],[-122.243987,44.236445],[-122.243803,44.23663],[-122.243699,44.236764],[-122.243626,44.236968],[-122.243553,44.237188],[-122.243511,44.237383],[-122.243484,44.237582],[-122.243423,44.237761],[-122.243344,44.237918],[-122.243233,44.238062],[-122.243153,44.238171],[-122.243019,44.238284],[-122.242836,44.238384],[-122.242593,44.238482],[-122.242082,44.238663],[-122.241619,44.238844],[-122.241384,44.238927],[-122.241203,44.239029],[-122.241004,44.239202],[-122.24082,44.239386],[-122.240666,44.239607],[-122.240294,44.240087],[-122.240013,44.240512],[-122.239805,44.240692],[-122.239566,44.24092],[-122.239338,44.241042],[-122.23905,44.24121],[-122.238745,44.241343],[-122.238499,44.241454],[-122.238218,44.241506],[-122.237942,44.241557],[-122.237688,44.241584],[-122.237471,44.241643],[-122.237185,44.241728],[-122.236953,44.24181],[-122.236821,44.241887],[-122.236703,44.241998],[-122.236596,44.242148],[-122.236439,44.242349],[-122.23625,44.242551],[-122.236124,44.242681],[-122.235964,44.242837],[-122.235753,44.242983],[-122.235483,44.243138],[-122.235155,44.243372],[-122.234843,44.243629],[-122.234639,44.24383],[-122.234387,44.244019],[-122.234157,44.24426],[-122.234024,44.244462],[-122.233984,44.244672],[-122.234005,44.244885],[-122.234075,44.245109],[-122.234192,44.245314],[-122.234329,44.24559],[-122.234465,44.245821],[-122.234571,44.246078],[-122.234643,44.246313],[-122.234667,44.246561],[-122.234656,44.246762],[-122.234629,44.246961],[-122.234587,44.247186],[-122.234493,44.247403],[-122.234352,44.247605],[-122.234195,44.247829],[-122.234022,44.248019],[-122.233862,44.248199],[-122.233672,44.24833],[-122.233517,44.248493],[-122.233314,44.248669],[-122.233147,44.248874],[-122.233015,44.24912],[-122.233021,44.24932],[-122.233045,44.249607],[-122.23312,44.249964],[-122.23316,44.250233],[-122.233166,44.250434],[-122.233138,44.250638],[-122.233044,44.250844],[-122.232918,44.25101],[-122.232827,44.251161],[-122.232755,44.251276],[-122.232881,44.251316],[-122.233055,44.251389],[-122.233208,44.251435],[-122.233439,44.251507],[-122.233584,44.251607],[-122.233732,44.251776],[-122.233794,44.25196],[-122.233799,44.25211],[-122.233869,44.252239],[-122.233763,44.252186],[-122.233702,44.252063],[-122.23368,44.251961],[-122.233648,44.251839],[-122.233549,44.25171],[-122.233423,44.251623],[-122.233259,44.251543],[-122.233066,44.251471],[-122.232884,44.251419],[-122.232704,44.251358],[-122.232613,44.251545],[-122.232487,44.25176],[-122.232311,44.25194],[-122.232152,44.252108],[-122.231878,44.252301]]],[[[-122.241951,44.238192],[-122.241771,44.238208],[-122.241657,44.23823],[-122.241499,44.238335],[-122.241396,44.238419],[-122.241285,44.238523],[-122.241203,44.238634],[-122.241016,44.23876],[-122.240924,44.238877],[-122.240834,44.239029],[-122.240715,44.239188],[-122.240623,44.23932],[-122.240475,44.239452],[-122.240336,44.23957],[-122.240234,44.239668],[-122.240123,44.239792],[-122.240019,44.239828],[-122.239927,44.239912],[-122.23991,44.239994],[-122.239886,44.240131],[-122.239794,44.240262],[-122.239748,44.240318],[-122.239553,44.240464],[-122.239441,44.240548],[-122.239311,44.240666],[-122.239189,44.240723],[-122.238992,44.240815],[-122.238823,44.240886],[-122.238644,44.24097],[-122.238476,44.241062],[-122.238345,44.241146],[-122.238185,44.241223],[-122.238016,44.241281],[-122.237827,44.241318],[-122.237637,44.241355],[-122.23741,44.241406],[-122.237241,44.24147],[-122.237062,44.241528],[-122.236902,44.241598],[-122.236724,44.241676],[-122.236565,44.241768],[-122.236453,44.241851],[-122.236362,44.241996],[-122.236307,44.242079],[-122.236207,44.242245],[-122.236078,44.242384],[-122.235893,44.242585],[-122.235717,44.242724],[-122.23554,44.242877],[-122.235419,44.242954],[-122.235241,44.243053],[-122.235054,44.243185],[-122.234877,44.243297],[-122.234738,44.24343],[-122.23457,44.243541],[-122.234459,44.243653],[-122.234329,44.243778],[-122.234236,44.243854],[-122.234097,44.243959],[-122.233996,44.24409],[-122.233913,44.244194],[-122.233813,44.244367],[-122.23376,44.244484],[-122.233735,44.244621],[-122.233778,44.244778],[-122.233744,44.244915],[-122.233748,44.245065],[-122.233818,44.245181],[-122.233877,44.245262],[-122.234005,44.245404],[-122.234075,44.245532],[-122.234157,44.24573],[-122.234208,44.245831],[-122.234259,44.245954],[-122.234329,44.246083],[-122.234352,44.246219],[-122.234365,44.246322],[-122.234397,44.246472],[-122.234384,44.24667],[-122.234381,44.246889],[-122.234339,44.247088],[-122.234278,44.247281],[-122.234141,44.247467],[-122.233976,44.247695],[-122.233829,44.247869],[-122.233662,44.248028],[-122.233478,44.248257],[-122.233339,44.248375],[-122.2332,44.248494],[-122.233014,44.248647],[-122.232895,44.248806],[-122.232813,44.248951],[-122.232761,44.249109],[-122.232717,44.249267],[-122.232712,44.249417],[-122.232736,44.249574],[-122.232788,44.249717],[-122.232822,44.249908],[-122.232853,44.25001],[-122.232808,44.2501],[-122.232792,44.250217],[-122.232767,44.250319],[-122.232732,44.250423],[-122.232752,44.25047],[-122.232773,44.250525],[-122.232747,44.250607],[-122.232636,44.250718],[-122.232503,44.250754],[-122.232391,44.250824],[-122.232261,44.250929],[-122.232236,44.251052],[-122.232315,44.25114],[-122.23245,44.25122],[-122.232636,44.251267],[-122.232722,44.251128],[-122.232815,44.250974],[-122.232938,44.250812],[-122.233026,44.250621],[-122.233051,44.250431],[-122.233046,44.250238],[-122.233006,44.249975],[-122.232931,44.249615],[-122.232907,44.249323],[-122.2329,44.249106],[-122.233044,44.248838],[-122.23322,44.248621],[-122.233426,44.248443],[-122.233584,44.248277],[-122.233773,44.248147],[-122.233926,44.247975],[-122.234096,44.247788],[-122.234249,44.247568],[-122.234387,44.247372],[-122.234475,44.247168],[-122.234516,44.246952],[-122.234542,44.246756],[-122.234552,44.246562],[-122.23453,44.246325],[-122.23446,44.246098],[-122.234357,44.245848],[-122.234222,44.24562],[-122.234085,44.245343],[-122.233965,44.245134],[-122.233892,44.244897],[-122.233869,44.24467],[-122.233913,44.244438],[-122.234058,44.244219],[-122.234297,44.243967],[-122.234551,44.243777],[-122.234754,44.243578],[-122.235072,44.243316],[-122.235407,44.243076],[-122.235677,44.242921],[-122.235877,44.242783],[-122.236031,44.242633],[-122.236155,44.242504],[-122.236341,44.242306],[-122.236495,44.242109],[-122.236606,44.241954],[-122.236738,44.24183],[-122.236891,44.24174],[-122.237138,44.241653],[-122.237428,44.241567],[-122.237659,44.241504],[-122.237919,44.241476],[-122.238189,44.241426],[-122.238453,44.241378],[-122.238685,44.241273],[-122.238984,44.241142],[-122.239267,44.240977],[-122.239484,44.240861],[-122.239715,44.240641],[-122.239916,44.240467],[-122.240192,44.240049],[-122.240565,44.239568],[-122.240722,44.239343],[-122.240913,44.239151],[-122.241123,44.23897],[-122.241323,44.238857],[-122.241567,44.238771],[-122.242029,44.23859],[-122.242539,44.238409],[-122.242774,44.238315],[-122.24294,44.238224],[-122.243058,44.238124],[-122.243133,44.238022],[-122.24324,44.237884],[-122.243313,44.237738],[-122.243371,44.237568],[-122.243397,44.237372],[-122.24344,44.237172],[-122.243515,44.236948],[-122.243592,44.236733],[-122.243706,44.236586],[-122.243897,44.236394],[-122.244123,44.236213],[-122.244353,44.236077],[-122.244613,44.235979],[-122.244874,44.23588],[-122.24518,44.235817],[-122.245414,44.235746],[-122.245763,44.235602],[-122.246097,44.235482],[-122.246394,44.235352],[-122.246594,44.235237],[-122.246743,44.235114],[-122.246863,44.234944],[-122.246966,44.234763],[-122.247021,44.234491],[-122.247029,44.234214],[-122.247055,44.233992],[-122.247098,44.233741],[-122.247211,44.233557],[-122.247354,44.23339],[-122.247514,44.233221],[-122.247695,44.233086],[-122.247927,44.232973],[-122.248253,44.232874],[-122.248608,44.232787],[-122.248816,44.232737],[-122.249117,44.232664],[-122.249428,44.232558],[-122.249641,44.232443],[-122.249822,44.232296],[-122.24999,44.232077],[-122.250175,44.231845],[-122.250342,44.231543],[-122.250528,44.231261],[-122.250666,44.231027],[-122.250804,44.230817],[-122.250927,44.230583],[-122.251114,44.230312],[-122.251257,44.23012],[-122.251439,44.229958],[-122.251752,44.229821],[-122.252059,44.229711],[-122.252619,44.22954],[-122.253145,44.229359],[-122.253735,44.229176],[-122.254118,44.229031],[-122.25442,44.228935],[-122.254668,44.228829],[-122.254816,44.228741],[-122.254949,44.228584],[-122.25507,44.228389],[-122.25519,44.22817],[-122.255264,44.227939],[-122.255371,44.227666],[-122.255544,44.227427],[-122.255826,44.227073],[-122.256095,44.226799],[-122.256351,44.226584],[-122.256688,44.226355],[-122.257106,44.226149],[-122.257505,44.225969],[-122.257869,44.225813],[-122.258278,44.225589],[-122.258671,44.225341],[-122.259034,44.225093],[-122.259426,44.224834],[-122.25976,44.22451],[-122.260311,44.224027],[-122.260643,44.223594],[-122.261039,44.223113],[-122.261374,44.222651],[-122.261722,44.222343],[-122.262195,44.222129],[-122.262664,44.221894],[-122.263256,44.221681],[-122.263867,44.221377],[-122.263897,44.221366],[-122.263896,44.220875],[-122.263841,44.220885],[-122.2637,44.220935],[-122.263559,44.220978],[-122.263371,44.221056],[-122.26322,44.221099],[-122.263031,44.22115],[-122.262824,44.221215],[-122.262636,44.22132],[-122.262477,44.221412],[-122.262299,44.221496],[-122.262112,44.221602],[-122.261982,44.221713],[-122.261833,44.221805],[-122.261731,44.221922],[-122.261639,44.222013],[-122.261555,44.222069],[-122.261499,44.222124],[-122.261444,44.22218],[-122.261371,44.222297],[-122.261317,44.222394],[-122.261234,44.22247],[-122.261151,44.222567],[-122.261022,44.222713],[-122.260939,44.222817],[-122.260867,44.222955],[-122.260803,44.223044],[-122.26072,44.223114],[-122.260675,44.223197],[-122.260601,44.223266],[-122.260488,44.22333],[-122.260443,44.223399],[-122.260388,44.223482],[-122.260334,44.223565],[-122.26027,44.223668],[-122.260225,44.223758],[-122.26018,44.223841],[-122.260134,44.223896],[-122.260069,44.223938],[-122.259936,44.223961],[-122.259842,44.223989],[-122.259729,44.224025],[-122.259616,44.224088],[-122.259494,44.224145],[-122.259411,44.224215],[-122.259366,44.224311],[-122.259245,44.224416],[-122.259173,44.224526],[-122.259137,44.224616],[-122.259072,44.224658],[-122.258941,44.224748],[-122.258829,44.224825],[-122.258717,44.224868],[-122.258594,44.224891],[-122.258452,44.22492],[-122.258281,44.224929],[-122.258157,44.224938],[-122.258053,44.224947],[-122.257988,44.224989],[-122.257856,44.225032],[-122.257771,44.225053],[-122.2576,44.225063],[-122.257525,44.225105],[-122.257412,44.225161],[-122.257309,44.225204],[-122.257187,44.225247],[-122.257054,44.225283],[-122.256942,44.225326],[-122.25679,44.225349],[-122.25661,44.225379],[-122.256458,44.225367],[-122.256296,44.225384],[-122.256212,44.225426],[-122.256128,44.225489],[-122.255997,44.225559],[-122.255914,44.225649],[-122.25585,44.225746],[-122.255787,44.225843],[-122.255752,44.225959],[-122.255688,44.226056],[-122.255663,44.226159],[-122.255646,44.226255],[-122.255649,44.226344],[-122.255699,44.226419],[-122.255673,44.226528],[-122.255619,44.226604],[-122.255603,44.226707],[-122.255586,44.226796],[-122.255521,44.226859],[-122.255466,44.226935],[-122.255412,44.227011],[-122.255347,44.227074],[-122.255291,44.227129],[-122.255217,44.227171],[-122.25517,44.227193],[-122.255114,44.227228],[-122.255077,44.227297],[-122.255032,44.227379],[-122.254969,44.227483],[-122.254962,44.227586],[-122.254947,44.22773],[-122.254904,44.227874],[-122.254879,44.228004],[-122.254882,44.228107],[-122.254847,44.228217],[-122.254822,44.22832],[-122.254815,44.228409],[-122.25478,44.228498],[-122.254734,44.228581],[-122.25466,44.228644],[-122.254586,44.228706],[-122.254493,44.228776],[-122.254389,44.228812],[-122.254257,44.228841],[-122.254134,44.22887],[-122.254049,44.228899],[-122.253918,44.228956],[-122.253785,44.228985],[-122.253559,44.229057],[-122.253427,44.2291],[-122.253257,44.22915],[-122.253068,44.229187],[-122.252878,44.229204],[-122.252747,44.229247],[-122.252595,44.229283],[-122.252453,44.229299],[-122.252301,44.229308],[-122.252159,44.229324],[-122.252036,44.229353],[-122.251866,44.229383],[-122.251705,44.229406],[-122.251564,44.229477],[-122.251394,44.229527],[-122.251302,44.229618],[-122.25121,44.229728],[-122.251136,44.229812],[-122.251064,44.229936],[-122.250981,44.23004],[-122.250918,44.230157],[-122.250855,44.230267],[-122.250791,44.230378],[-122.250738,44.230502],[-122.250703,44.230618],[-122.250649,44.230736],[-122.250595,44.230832],[-122.25056,44.230942],[-122.250488,44.23108],[-122.250416,44.231204],[-122.250352,44.231301],[-122.250279,44.231411],[-122.250197,44.231543],[-122.250105,44.231653],[-122.250032,44.23175],[-122.249987,44.231854],[-122.249962,44.231957],[-122.249861,44.232074],[-122.249768,44.232172],[-122.249675,44.232241],[-122.249573,44.232318],[-122.249489,44.232395],[-122.249377,44.232458],[-122.249274,44.232528],[-122.249085,44.232565],[-122.248916,44.232643],[-122.248708,44.232666],[-122.248509,44.232697],[-122.248338,44.232727],[-122.248206,44.232763],[-122.248046,44.232799],[-122.247885,44.232843],[-122.247716,44.232921],[-122.247575,44.232977],[-122.247424,44.233014],[-122.247312,44.233084],[-122.2472,44.233161],[-122.247116,44.233217],[-122.247052,44.2333],[-122.247017,44.233403],[-122.246934,44.233507],[-122.246852,44.233638],[-122.246808,44.233741],[-122.246821,44.233878],[-122.246825,44.234021],[-122.24681,44.234145],[-122.246814,44.234275],[-122.246827,44.234418],[-122.246784,44.234556],[-122.246796,44.234665],[-122.246799,44.23474],[-122.246726,44.234864],[-122.246643,44.234954],[-122.246485,44.235087],[-122.246307,44.235165],[-122.246166,44.235249],[-122.245987,44.235313],[-122.245809,44.235405],[-122.245602,44.235483],[-122.245538,44.235552],[-122.245387,44.235609],[-122.245208,44.235653],[-122.244952,44.235712],[-122.244763,44.235742],[-122.244583,44.235758],[-122.244394,44.235816],[-122.244195,44.235853],[-122.244082,44.235882],[-122.243959,44.235891],[-122.243894,44.23596],[-122.243822,44.236084],[-122.243767,44.236188],[-122.243684,44.236271],[-122.243602,44.236395],[-122.243539,44.236526],[-122.243468,44.236671],[-122.243386,44.236823],[-122.243314,44.236967],[-122.243262,44.237119],[-122.243247,44.237256],[-122.243192,44.237352],[-122.243167,44.237455],[-122.24316,44.237538],[-122.243154,44.237661],[-122.243128,44.237764],[-122.243112,44.237867],[-122.243068,44.237977],[-122.242994,44.238067],[-122.242882,44.23813],[-122.242712,44.238174],[-122.242588,44.238182],[-122.242427,44.238178],[-122.242207,44.238167],[-122.241951,44.238192]]],[[[-122.26345,44.210407],[-122.263184,44.210983],[-122.262953,44.211688],[-122.26272,44.212325],[-122.262582,44.212958],[-122.262541,44.213727],[-122.262499,44.214429],[-122.262516,44.214993],[-122.262598,44.215669],[-122.262743,44.216345],[-122.262986,44.217132],[-122.263223,44.217694],[-122.263393,44.218121],[-122.263659,44.218657],[-122.263892,44.219002],[-122.263894,44.219005],[-122.263892,44.216528],[-122.263891,44.215446],[-122.263821,44.215324],[-122.263789,44.215195],[-122.263766,44.215085],[-122.263705,44.21495],[-122.263646,44.214862],[-122.263644,44.214793],[-122.263612,44.214677],[-122.263532,44.214555],[-122.263482,44.214454],[-122.263392,44.214304],[-122.263348,44.214107],[-122.263324,44.21395],[-122.263311,44.213827],[-122.263279,44.213711],[-122.263266,44.213574],[-122.263221,44.213356],[-122.263187,44.213165],[-122.263192,44.213008],[-122.263255,44.212877],[-122.263316,44.212691],[-122.263436,44.21258],[-122.263549,44.212537],[-122.263679,44.212433],[-122.263887,44.212327],[-122.263885,44.210394],[-122.263456,44.210394],[-122.26345,44.210407]]],[[[-122.232023,44.251274],[-122.231943,44.25146],[-122.231823,44.251585],[-122.231666,44.251752],[-122.231499,44.251884],[-122.231416,44.251981],[-122.231286,44.252113],[-122.231129,44.252266],[-122.230932,44.252378],[-122.230755,44.252504],[-122.230539,44.252589],[-122.230257,44.252717],[-122.230042,44.252857],[-122.229783,44.253107],[-122.229608,44.253308],[-122.229424,44.253536],[-122.229304,44.253682],[-122.229204,44.25384],[-122.229611,44.25384],[-122.22965,44.253811],[-122.229917,44.253616],[-122.230246,44.253334],[-122.230529,44.253075],[-122.230801,44.252847],[-122.231153,44.252643],[-122.231501,44.25243],[-122.2318,44.252241],[-122.232064,44.252055],[-122.232217,44.251893],[-122.232386,44.25172],[-122.232506,44.251515],[-122.232598,44.251328],[-122.232395,44.251289],[-122.232212,44.251217],[-122.232125,44.25117],[-122.232023,44.251274]]],[[[-122.263787,44.212623],[-122.263639,44.212779],[-122.263583,44.212922],[-122.263541,44.213064],[-122.263545,44.213185],[-122.263549,44.213316],[-122.263554,44.213501],[-122.263529,44.213688],[-122.263579,44.213818],[-122.263615,44.214014],[-122.263649,44.214145],[-122.263714,44.214286],[-122.263764,44.214438],[-122.263844,44.214579],[-122.26389,44.214789],[-122.263888,44.212999],[-122.263888,44.212907],[-122.263887,44.212548],[-122.263787,44.212623]]]]}},{"type":"Feature","properties":{"MAPTAXLOT":"1565000000100","MAPNUMBER":"15650000","TAXLOT":"100","ACCTNO":"0027498","MAPACRES":11140.92115861},"geometry":{"type":"MultiPolygon","coordinates":[[[[-122.042363,44.248833],[-122.042252,44.248882],[-122.042168,44.248903],[-122.042094,44.248938],[-122.042002,44.248966],[-122.0419,44.249007],[-122.04178,44.249056],[-122.04166,44.249111],[-122.041606,44.249193],[-122.041551,44.24924],[-122.041469,44.249322],[-122.041405,44.24939],[-122.041332,44.249458],[-122.041287,44.249526],[-122.041224,44.249621],[-122.041189,44.249715],[-122.041155,44.249837],[-122.041148,44.24991],[-122.041141,44.250011],[-122.041143,44.250092],[-122.041164,44.250179],[-122.041156,44.250246],[-122.041093,44.250328],[-122.041076,44.250408],[-122.041097,44.250482],[-122.041109,44.250569],[-122.041121,44.250676],[-122.041131,44.25073],[-122.041161,44.250797],[-122.041191,44.250864],[-122.041193,44.250944],[-122.041223,44.251038],[-122.041263,44.251111],[-122.041283,44.251191],[-122.041295,44.251279],[-122.041297,44.251346],[-122.041335,44.251406],[-122.041357,44.251506],[-122.041378,44.251606],[-122.04139,44.251707],[-122.041355,44.251815],[-122.041301,44.25189],[-122.041248,44.251991],[-122.041221,44.252025],[-122.041194,44.252099],[-122.041178,44.252173],[-122.041105,44.252241],[-122.041098,44.252342],[-122.04108,44.252389],[-122.041017,44.252478],[-122.041,44.252531],[-122.040963,44.252566],[-122.040937,44.25264],[-122.040948,44.252707],[-122.04096,44.252781],[-122.040914,44.252828],[-122.040888,44.252896],[-122.040843,44.252977],[-122.040798,44.253051],[-122.040772,44.253105],[-122.040746,44.253186],[-122.040747,44.253253],[-122.04073,44.253321],[-122.040714,44.253402],[-122.040707,44.253502],[-122.040671,44.253563],[-122.040645,44.253631],[-122.040619,44.253698],[-122.040592,44.253746],[-122.040557,44.253841],[-122.049281,44.25384],[-122.069428,44.25384],[-122.089575,44.25384],[-122.109723,44.25384],[-122.12987,44.25384],[-122.14498,44.25384],[-122.14673,44.25384],[-122.14673,44.25022],[-122.14673,44.2466],[-122.14673,44.24298],[-122.14673,44.239359],[-122.14673,44.235739],[-122.14673,44.232119],[-122.14673,44.228499],[-122.14673,44.224879],[-122.14673,44.210395],[-122.139848,44.210275],[-122.135048,44.210281],[-122.130014,44.210288],[-122.129797,44.210288],[-122.119947,44.210313],[-122.099815,44.210321],[-122.079677,44.210235],[-122.074193,44.210241],[-122.069397,44.210246],[-122.068708,44.210247],[-122.064362,44.210251],[-122.063675,44.210252],[-122.058641,44.210257],[-122.049311,44.210575],[-122.049266,44.210576],[-122.047484,44.210642],[-122.047179,44.210654],[-122.047157,44.210655],[-122.047122,44.210656],[-122.047182,44.21083],[-122.047312,44.211018],[-122.047415,44.211227],[-122.047531,44.211406],[-122.04762,44.211605],[-122.04772,44.211734],[-122.04785,44.211882],[-122.047923,44.212021],[-122.047982,44.212161],[-122.048055,44.21231],[-122.04814,44.212369],[-122.048296,44.212477],[-122.048398,44.212626],[-122.048485,44.212775],[-122.048543,44.212854],[-122.048657,44.212963],[-122.048786,44.213101],[-122.048873,44.21325],[-122.04893,44.213309],[-122.049059,44.213428],[-122.049145,44.213527],[-122.04926,44.213685],[-122.049362,44.213854],[-122.049449,44.213973],[-122.049606,44.214141],[-122.049679,44.214261],[-122.049778,44.214339],[-122.049863,44.214378],[-122.050017,44.214436],[-122.050145,44.214535],[-122.050218,44.214644],[-122.050359,44.214722],[-122.050514,44.21481],[-122.050641,44.214889],[-122.050726,44.214938],[-122.050937,44.215015],[-122.051119,44.215062],[-122.051274,44.21512],[-122.051442,44.215168],[-122.051582,44.215176],[-122.05175,44.215214],[-122.051931,44.215242],[-122.052071,44.21527],[-122.052239,44.215308],[-122.052366,44.215346],[-122.052589,44.215383],[-122.052688,44.215432],[-122.0528,44.215471],[-122.052955,44.215549],[-122.053081,44.215567],[-122.053291,44.215624],[-122.053418,44.215673],[-122.05353,44.215691],[-122.05367,44.215719],[-122.053864,44.215707],[-122.054045,44.215674],[-122.054252,44.215641],[-122.054462,44.215659],[-122.05467,44.215626],[-122.054879,44.215653],[-122.055047,44.215681],[-122.055286,44.215758],[-122.055524,44.215815],[-122.05572,44.215852],[-122.055916,44.21592],[-122.056002,44.216009],[-122.056143,44.216057],[-122.056283,44.216085],[-122.056436,44.216113],[-122.05663,44.21606],[-122.056768,44.216018],[-122.056907,44.216016],[-122.057103,44.216044],[-122.057328,44.216121],[-122.057482,44.216169],[-122.057609,44.216227],[-122.057777,44.216265],[-122.057959,44.216323],[-122.058086,44.216381],[-122.058227,44.216459],[-122.0583,44.216568],[-122.058413,44.216647],[-122.05847,44.216676],[-122.058555,44.216755],[-122.058613,44.216835],[-122.058657,44.216944],[-122.058688,44.217044],[-122.058706,44.217214],[-122.058738,44.217374],[-122.05881,44.217463],[-122.058842,44.217613],[-122.058887,44.217762],[-122.058892,44.217952],[-122.058923,44.218072],[-122.058967,44.218141],[-122.058998,44.218251],[-122.059029,44.218381],[-122.059019,44.218541],[-122.059007,44.218622],[-122.059025,44.218761],[-122.059,44.218872],[-122.059003,44.218992],[-122.059006,44.219102],[-122.059036,44.219202],[-122.059039,44.219302],[-122.059014,44.219422],[-122.059003,44.219533],[-122.059033,44.219632],[-122.059063,44.219712],[-122.059024,44.219793],[-122.059027,44.219913],[-122.059015,44.220013],[-122.059046,44.220113],[-122.059034,44.220213],[-122.05904,44.220443],[-122.059073,44.220623],[-122.059077,44.220763],[-122.059039,44.220914],[-122.059042,44.221054],[-122.059033,44.221234],[-122.059051,44.221384],[-122.059084,44.221574],[-122.059102,44.221744],[-122.059092,44.221894],[-122.059095,44.222014],[-122.059141,44.222164],[-122.059145,44.222314],[-122.059148,44.222444],[-122.059179,44.222564],[-122.059224,44.222694],[-122.05927,44.222873],[-122.059261,44.223033],[-122.059319,44.223143],[-122.05935,44.223243],[-122.059421,44.223332],[-122.05948,44.223431],[-122.059525,44.223561],[-122.05957,44.22368],[-122.059613,44.22375],[-122.059672,44.223869],[-122.059703,44.223989],[-122.059734,44.224098],[-122.059765,44.224248],[-122.059783,44.224378],[-122.0598,44.224498],[-122.059831,44.224648],[-122.059849,44.224768],[-122.05984,44.224958],[-122.059871,44.225108],[-122.059861,44.225238],[-122.059836,44.225379],[-122.059882,44.225518],[-122.05994,44.225628],[-122.060082,44.225736],[-122.060168,44.225825],[-122.060212,44.225884],[-122.06031,44.225933],[-122.06041,44.226022],[-122.060497,44.226141],[-122.060569,44.22625],[-122.060654,44.226319],[-122.060726,44.226378],[-122.06084,44.226476],[-122.060898,44.226596],[-122.060929,44.226706],[-122.060918,44.226816],[-122.060921,44.226926],[-122.06091,44.227036],[-122.060912,44.227126],[-122.060915,44.227246],[-122.060918,44.227347],[-122.060893,44.227477],[-122.060869,44.227607],[-122.060872,44.227728],[-122.060833,44.227848],[-122.060767,44.227969],[-122.060714,44.22807],[-122.060675,44.228181],[-122.060636,44.228291],[-122.060597,44.228412],[-122.060544,44.228503],[-122.06049,44.228584],[-122.060494,44.228724],[-122.060455,44.228814],[-122.060374,44.228916],[-122.060307,44.229017],[-122.060213,44.229148],[-122.060187,44.229249],[-122.060134,44.229319],[-122.060024,44.229401],[-122.059972,44.229552],[-122.059893,44.229693],[-122.059812,44.229824],[-122.059747,44.229985],[-122.059653,44.230127],[-122.059588,44.230288],[-122.059535,44.230419],[-122.059525,44.230549],[-122.059472,44.23065],[-122.059378,44.230781],[-122.05931,44.230862],[-122.059215,44.230954],[-122.059105,44.231015],[-122.058968,44.231097],[-122.05879,44.23121],[-122.058709,44.231321],[-122.058573,44.231423],[-122.058409,44.231535],[-122.058174,44.231628],[-122.058011,44.231761],[-122.057817,44.231823],[-122.057611,44.231906],[-122.057445,44.231979],[-122.057281,44.232091],[-122.057102,44.232173],[-122.056979,44.232255],[-122.05687,44.232367],[-122.056874,44.232507],[-122.05685,44.232657],[-122.056911,44.232847],[-122.056942,44.232976],[-122.057,44.233086],[-122.057143,44.233224],[-122.05723,44.233363],[-122.057345,44.233472],[-122.057528,44.233549],[-122.057544,44.233629],[-122.057687,44.233767],[-122.057829,44.233876],[-122.057943,44.234004],[-122.058085,44.234113],[-122.058227,44.234201],[-122.05834,44.234259],[-122.058398,44.234349],[-122.058443,44.234478],[-122.0585,44.234538],[-122.058627,44.234606],[-122.058727,44.234705],[-122.058798,44.234764],[-122.058816,44.234884],[-122.058874,44.234973],[-122.058946,44.235082],[-122.058949,44.235182],[-122.058993,44.235292],[-122.059037,44.235371],[-122.05908,44.235421],[-122.059192,44.235459],[-122.059223,44.235559],[-122.059253,44.235639],[-122.059285,44.235799],[-122.059287,44.235899],[-122.059291,44.236019],[-122.059293,44.236119],[-122.059337,44.236218],[-122.059395,44.236298],[-122.059439,44.236377],[-122.059414,44.236498],[-122.059417,44.236618],[-122.059393,44.236738],[-122.05941,44.236868],[-122.059384,44.236949],[-122.059401,44.237038],[-122.059305,44.23711],[-122.059293,44.2372],[-122.059337,44.23727],[-122.059408,44.237319],[-122.059452,44.237418],[-122.05947,44.237568],[-122.059488,44.237738],[-122.059506,44.237868],[-122.059441,44.238049],[-122.059417,44.23817],[-122.05941,44.238251],[-122.059413,44.238352],[-122.059406,44.238439],[-122.059407,44.238499],[-122.0594,44.238567],[-122.059411,44.238627],[-122.059413,44.238708],[-122.059405,44.238768],[-122.059323,44.238836],[-122.059277,44.238897],[-122.059186,44.238966],[-122.059058,44.239062],[-122.058975,44.23913],[-122.058893,44.239191],[-122.05881,44.239246],[-122.058746,44.239307],[-122.058692,44.239369],[-122.058628,44.239437],[-122.058546,44.239512],[-122.058436,44.239587],[-122.058382,44.239682],[-122.058329,44.239776],[-122.058257,44.239898],[-122.058213,44.240013],[-122.058141,44.240115],[-122.058031,44.24019],[-122.057977,44.240244],[-122.057941,44.240305],[-122.057896,44.24038],[-122.057823,44.240441],[-122.057806,44.240495],[-122.057723,44.240537],[-122.057695,44.240571],[-122.057669,44.240652],[-122.057597,44.240726],[-122.057532,44.240761],[-122.057394,44.240823],[-122.057265,44.240899],[-122.057172,44.240934],[-122.057099,44.240975],[-122.056951,44.241031],[-122.056858,44.241052],[-122.056794,44.2411],[-122.056729,44.241141],[-122.05661,44.24123],[-122.056509,44.241298],[-122.056371,44.241367],[-122.056288,44.241422],[-122.056187,44.241477],[-122.056085,44.241532],[-122.055985,44.241621],[-122.055838,44.241704],[-122.055736,44.241738],[-122.055654,44.241813],[-122.055543,44.241862],[-122.055422,44.241897],[-122.055339,44.241932],[-122.055229,44.242014],[-122.055108,44.242036],[-122.055016,44.242064],[-122.054914,44.242099],[-122.054841,44.24218],[-122.054749,44.242215],[-122.054609,44.242244],[-122.054497,44.242239],[-122.054414,44.24228],[-122.054312,44.242315],[-122.054154,44.242344],[-122.054024,44.242393],[-122.053866,44.242408],[-122.053755,44.242443],[-122.053597,44.242465],[-122.05342,44.242481],[-122.05328,44.242503],[-122.053111,44.242485],[-122.052982,44.242521],[-122.052841,44.242516],[-122.052719,44.242491],[-122.052589,44.242506],[-122.052486,44.2425],[-122.052375,44.242542],[-122.052235,44.242571],[-122.052142,44.242552],[-122.052038,44.242526],[-122.051945,44.242555],[-122.051843,44.242576],[-122.051712,44.242578],[-122.051628,44.242566],[-122.051535,44.24258],[-122.051386,44.242589],[-122.051284,44.242624],[-122.051209,44.242605],[-122.051078,44.2426],[-122.050985,44.242608],[-122.050921,44.242662],[-122.050828,44.242684],[-122.050735,44.242698],[-122.050652,44.242746],[-122.05053,44.242721],[-122.050418,44.242729],[-122.050372,44.242777],[-122.050298,44.242785],[-122.050214,44.242813],[-122.050112,44.242841],[-122.05,44.242842],[-122.049926,44.242864],[-122.049834,44.242898],[-122.049769,44.242919],[-122.049649,44.242981],[-122.049519,44.24301],[-122.049388,44.243005],[-122.049305,44.243053],[-122.049213,44.243088],[-122.049074,44.243143],[-122.048982,44.243198],[-122.048898,44.24322],[-122.048797,44.243288],[-122.048677,44.243337],[-122.048586,44.243412],[-122.048475,44.243467],[-122.048374,44.243536],[-122.048273,44.243591],[-122.0482,44.243659],[-122.048145,44.243707],[-122.048043,44.243735],[-122.047978,44.243769],[-122.047924,44.243824],[-122.047842,44.243932],[-122.047797,44.244],[-122.047706,44.244062],[-122.047622,44.244096],[-122.04754,44.244151],[-122.047484,44.244179],[-122.047439,44.244246],[-122.047422,44.244307],[-122.047369,44.244395],[-122.047295,44.24445],[-122.047231,44.244498],[-122.047157,44.244532],[-122.047112,44.244593],[-122.047067,44.244648],[-122.047012,44.244709],[-122.046976,44.24477],[-122.046866,44.244832],[-122.046811,44.244879],[-122.046794,44.24494],[-122.046749,44.245021],[-122.046704,44.245069],[-122.046649,44.245103],[-122.046613,44.245157],[-122.046558,44.245218],[-122.046493,44.245233],[-122.046457,44.245287],[-122.046385,44.245369],[-122.04633,44.24543],[-122.04622,44.245498],[-122.046165,44.245566],[-122.04612,44.245614],[-122.046095,44.245715],[-122.046023,44.245837],[-122.045969,44.245911],[-122.045923,44.245952],[-122.045906,44.24602],[-122.045889,44.246074],[-122.045853,44.246141],[-122.045818,44.246209],[-122.045763,44.24625],[-122.045746,44.246324],[-122.045701,44.246385],[-122.045656,44.246466],[-122.045593,44.246574],[-122.04553,44.246649],[-122.045448,44.246744],[-122.045451,44.246852],[-122.045415,44.246919],[-122.045399,44.247],[-122.045345,44.247088],[-122.045291,44.247163],[-122.045246,44.247237],[-122.045182,44.247292],[-122.045127,44.247346],[-122.045082,44.247407],[-122.045066,44.247488],[-122.045011,44.247556],[-122.044938,44.247611],[-122.044911,44.247658],[-122.044838,44.247706],[-122.04482,44.247746],[-122.044775,44.247807],[-122.044711,44.247875],[-122.044629,44.247944],[-122.044584,44.248011],[-122.044539,44.248066],[-122.044428,44.248128],[-122.044354,44.248169],[-122.044272,44.248244],[-122.044135,44.248346],[-122.044005,44.248382],[-122.043903,44.248437],[-122.043849,44.248491],[-122.043776,44.248566],[-122.043684,44.248608],[-122.043562,44.248616],[-122.043459,44.24859],[-122.043338,44.248612],[-122.043264,44.24864],[-122.043228,44.248681],[-122.043135,44.248716],[-122.043051,44.24873],[-122.042949,44.248752],[-122.0428,44.248754],[-122.042707,44.248788],[-122.042587,44.248817],[-122.042502,44.248784],[-122.042418,44.248792],[-122.042363,44.248833]]],[[[-122.029133,44.224879],[-122.029134,44.233429],[-122.029134,44.23705],[-122.029134,44.23936],[-122.029134,44.24067],[-122.029134,44.24429],[-122.029134,44.24791],[-122.029134,44.253841],[-122.034171,44.25384],[-122.038654,44.253841],[-122.038588,44.253618],[-122.038529,44.253378],[-122.038488,44.253023],[-122.038474,44.252845],[-122.038491,44.252588],[-122.038508,44.252356],[-122.038508,44.252061],[-122.038532,44.251726],[-122.038575,44.251438],[-122.038623,44.251131],[-122.038695,44.250874],[-122.038796,44.250542],[-122.038877,44.250303],[-122.038981,44.250053],[-122.039116,44.249748],[-122.039276,44.2495],[-122.039471,44.249201],[-122.039592,44.249019],[-122.03971,44.248896],[-122.039882,44.248688],[-122.040034,44.248528],[-122.040196,44.248351],[-122.040394,44.248162],[-122.040562,44.247998],[-122.040886,44.247698],[-122.041017,44.247602],[-122.041612,44.247164],[-122.043531,44.245845],[-122.043949,44.245561],[-122.044392,44.245248],[-122.044811,44.244975],[-122.045351,44.244601],[-122.046333,44.243922],[-122.04671,44.243693],[-122.047062,44.243475],[-122.047436,44.243265],[-122.047794,44.243091],[-122.048121,44.24294],[-122.04849,44.242784],[-122.048942,44.242583],[-122.049296,44.242432],[-122.050138,44.242086],[-122.051176,44.24167],[-122.0527,44.241077],[-122.053461,44.240744],[-122.0537,44.240647],[-122.053943,44.240481],[-122.054194,44.240301],[-122.054381,44.24016],[-122.054517,44.240021],[-122.05467,44.239858],[-122.05477,44.239717],[-122.054891,44.239552],[-122.054973,44.239446],[-122.055048,44.23934],[-122.055096,44.239216],[-122.055162,44.239089],[-122.055212,44.238948],[-122.055247,44.238791],[-122.055286,44.238607],[-122.055297,44.238441],[-122.055307,44.238253],[-122.055309,44.238034],[-122.055302,44.237763],[-122.055287,44.237486],[-122.055268,44.237208],[-122.055216,44.236059],[-122.055172,44.234791],[-122.055186,44.234459],[-122.055196,44.234244],[-122.055229,44.234009],[-122.055279,44.233744],[-122.055373,44.233472],[-122.055484,44.233223],[-122.055588,44.232973],[-122.055718,44.232728],[-122.055917,44.232457],[-122.056079,44.232247],[-122.056273,44.232057],[-122.056699,44.231595],[-122.058462,44.22981],[-122.05865,44.229613],[-122.058827,44.229426],[-122.058952,44.229264],[-122.059072,44.229124],[-122.059173,44.228988],[-122.059244,44.228883],[-122.059313,44.228749],[-122.059392,44.228576],[-122.059456,44.228397],[-122.059508,44.228213],[-122.059514,44.228017],[-122.059521,44.22771],[-122.059536,44.227399],[-122.05949,44.227061],[-122.059425,44.226628],[-122.059362,44.226183],[-122.059317,44.22591],[-122.059277,44.225564],[-122.05924,44.2253],[-122.059185,44.225014],[-122.059133,44.22476],[-122.059034,44.224354],[-122.058807,44.223672],[-122.058756,44.223475],[-122.058669,44.223148],[-122.05861,44.222937],[-122.058567,44.222772],[-122.058504,44.222379],[-122.058261,44.220996],[-122.058202,44.220697],[-122.058175,44.220557],[-122.058149,44.220412],[-122.058084,44.220216],[-122.058028,44.220081],[-122.057949,44.219895],[-122.057778,44.219633],[-122.057602,44.219393],[-122.057503,44.219261],[-122.057373,44.219123],[-122.057244,44.218992],[-122.057096,44.218875],[-122.05692,44.218763],[-122.056711,44.218619],[-122.056434,44.218472],[-122.05286,44.216653],[-122.051804,44.216114],[-122.05149,44.21594],[-122.051125,44.215752],[-122.050705,44.21555],[-122.050422,44.215388],[-122.050058,44.215159],[-122.049813,44.214972],[-122.049472,44.214687],[-122.04913,44.214332],[-122.048793,44.213928],[-122.048417,44.213501],[-122.048104,44.21317],[-122.047742,44.212741],[-122.047304,44.212173],[-122.047061,44.211796],[-122.046802,44.211435],[-122.046387,44.21088],[-122.046268,44.210729],[-122.046227,44.210677],[-122.045679,44.210685],[-122.039827,44.210765],[-122.029133,44.210791],[-122.029133,44.210792],[-122.029133,44.224879]]],[[[-122.040139,44.248806],[-122.039967,44.249015],[-122.039858,44.249129],[-122.039747,44.249295],[-122.039553,44.249593],[-122.039401,44.249828],[-122.039273,44.250117],[-122.039172,44.25036],[-122.039093,44.250591],[-122.038994,44.250919],[-122.038925,44.251165],[-122.038878,44.251462],[-122.038836,44.251743],[-122.038813,44.252066],[-122.038813,44.252362],[-122.038796,44.252598],[-122.03878,44.252844],[-122.038793,44.253008],[-122.038832,44.25335],[-122.038887,44.253576],[-122.038958,44.253813],[-122.038959,44.253818],[-122.038966,44.253841],[-122.040266,44.253841],[-122.040275,44.25374],[-122.040294,44.253647],[-122.040354,44.253483],[-122.040394,44.253335],[-122.040422,44.253188],[-122.040472,44.253009],[-122.040555,44.252899],[-122.040606,44.252759],[-122.040656,44.252634],[-122.040707,44.252502],[-122.040778,44.252346],[-122.040871,44.252166],[-122.040986,44.252017],[-122.041005,44.251916],[-122.041076,44.251752],[-122.041127,44.251651],[-122.041133,44.251457],[-122.041129,44.251287],[-122.041048,44.251078],[-122.040969,44.250955],[-122.040955,44.250831],[-122.040866,44.250701],[-122.040819,44.25057],[-122.040827,44.250453],[-122.040769,44.250291],[-122.040766,44.250159],[-122.04073,44.250028],[-122.040768,44.249849],[-122.040829,44.249701],[-122.040935,44.249607],[-122.041072,44.249481],[-122.041177,44.249379],[-122.041196,44.249278],[-122.041291,44.249191],[-122.04146,44.249042],[-122.041577,44.248978],[-122.041736,44.248891],[-122.041971,44.248794],[-122.042099,44.248738],[-122.042238,44.248682],[-122.042377,44.248642],[-122.042517,44.248648],[-122.042668,44.248615],[-122.042839,44.248581],[-122.043075,44.248516],[-122.043256,44.248428],[-122.043492,44.248379],[-122.043621,44.248354],[-122.043748,44.248282],[-122.043876,44.248211],[-122.043951,44.248179],[-122.044077,44.248053],[-122.044215,44.247958],[-122.044374,44.247871],[-122.04448,44.247777],[-122.044596,44.247666],[-122.044658,44.247565],[-122.044699,44.247487],[-122.044816,44.247423],[-122.0449,44.247337],[-122.044973,44.247258],[-122.044982,44.247165],[-122.045001,44.247087],[-122.045118,44.247008],[-122.045179,44.246883],[-122.045197,44.24672],[-122.045259,44.246619],[-122.045299,44.24651],[-122.045361,44.246377],[-122.045411,44.246245],[-122.045462,44.246135],[-122.045567,44.246018],[-122.045672,44.2459],[-122.045755,44.245783],[-122.045849,44.245657],[-122.045911,44.24554],[-122.046015,44.245407],[-122.04611,44.245313],[-122.046237,44.245226],[-122.046289,44.245132],[-122.046394,44.245038],[-122.046499,44.244912],[-122.046625,44.244786],[-122.04674,44.244669],[-122.046845,44.244559],[-122.046928,44.244418],[-122.04699,44.244324],[-122.047127,44.244198],[-122.047275,44.244072],[-122.047433,44.2439],[-122.047558,44.243743],[-122.047739,44.24364],[-122.047887,44.243537],[-122.048036,44.24345],[-122.048185,44.24337],[-122.048323,44.243283],[-122.048418,44.24322],[-122.048524,44.243141],[-122.048684,44.243092],[-122.048834,44.243051],[-122.048886,44.242981],[-122.049078,44.242893],[-122.049335,44.242789],[-122.04958,44.2427],[-122.049795,44.242643],[-122.049988,44.242625],[-122.05015,44.242615],[-122.050299,44.242559],[-122.050395,44.242488],[-122.050599,44.242477],[-122.050814,44.242451],[-122.051017,44.242386],[-122.051211,44.242345],[-122.051555,44.24231],[-122.051899,44.242266],[-122.052103,44.242248],[-122.052394,44.242244],[-122.052653,44.242248],[-122.052912,44.242237],[-122.053115,44.24218],[-122.05332,44.24217],[-122.053599,44.242112],[-122.053868,44.242085],[-122.054115,44.242043],[-122.054308,44.242025],[-122.054545,44.241983],[-122.054727,44.241934],[-122.054919,44.241854],[-122.055088,44.241743],[-122.055409,44.241622],[-122.055589,44.241511],[-122.055813,44.2414],[-122.055972,44.241312],[-122.056143,44.241217],[-122.056279,44.241091],[-122.056418,44.241035],[-122.05661,44.240924],[-122.056737,44.240868],[-122.056886,44.240773],[-122.057046,44.240686],[-122.057258,44.240574],[-122.057439,44.240456],[-122.05765,44.240282],[-122.057818,44.240102],[-122.057995,44.239851],[-122.05811,44.239733],[-122.058266,44.239506],[-122.058413,44.239357],[-122.058508,44.239263],[-122.058624,44.239184],[-122.058708,44.239097],[-122.058868,44.239018],[-122.058974,44.238946],[-122.059122,44.238844],[-122.059229,44.238788],[-122.059225,44.238625],[-122.059211,44.238501],[-122.059132,44.238378],[-122.059172,44.238254],[-122.059148,44.238177],[-122.059199,44.238052],[-122.059195,44.237881],[-122.059223,44.237741],[-122.059174,44.237517],[-122.059171,44.237385],[-122.059135,44.237246],[-122.05911,44.237115],[-122.059162,44.237052],[-122.059214,44.236982],[-122.059179,44.23685],[-122.059163,44.23668],[-122.059149,44.236525],[-122.059111,44.236324],[-122.059053,44.236154],[-122.059038,44.236007],[-122.059011,44.23579],[-122.058931,44.235598],[-122.058873,44.235451],[-122.058815,44.235312],[-122.058726,44.235189],[-122.058691,44.235081],[-122.058591,44.234966],[-122.058523,44.234866],[-122.058425,44.234814],[-122.058336,44.234698],[-122.058224,44.234545],[-122.058113,44.234446],[-122.058036,44.234361],[-122.057916,44.234301],[-122.05787,44.234208],[-122.057781,44.234117],[-122.057714,44.234017],[-122.057626,44.233956],[-122.057484,44.233857],[-122.057373,44.233765],[-122.057274,44.233689],[-122.057175,44.233613],[-122.057023,44.233576],[-122.056926,44.233547],[-122.056837,44.233455],[-122.05678,44.233355],[-122.056615,44.233217],[-122.056525,44.233087],[-122.056414,44.232941],[-122.056367,44.23281],[-122.056406,44.232646],[-122.056436,44.232537],[-122.056488,44.232459],[-122.056539,44.232373],[-122.056656,44.232286],[-122.056761,44.232169],[-122.056813,44.232106],[-122.056928,44.231973],[-122.057098,44.231885],[-122.057204,44.231806],[-122.057343,44.23175],[-122.057492,44.231678],[-122.057554,44.231592],[-122.057779,44.231504],[-122.057981,44.231416],[-122.058119,44.231344],[-122.058225,44.231257],[-122.058288,44.231171],[-122.058436,44.231092],[-122.058519,44.230959],[-122.058623,44.230818],[-122.05875,44.230715],[-122.058931,44.230605],[-122.059078,44.230478],[-122.059204,44.230353],[-122.059297,44.230196],[-122.059316,44.230064],[-122.059385,44.229823],[-122.059487,44.229589],[-122.059653,44.229347],[-122.059745,44.229159],[-122.059849,44.228995],[-122.059953,44.228854],[-122.060058,44.228744],[-122.060152,44.228642],[-122.060246,44.228501],[-122.06035,44.228384],[-122.060434,44.228266],[-122.060527,44.228141],[-122.060598,44.227938],[-122.060647,44.227767],[-122.060643,44.22762],[-122.060693,44.227449],[-122.060689,44.227309],[-122.060621,44.227163],[-122.060542,44.227047],[-122.060474,44.226932],[-122.060385,44.226809],[-122.060274,44.226679],[-122.060108,44.226526],[-122.059984,44.226311],[-122.059906,44.226211],[-122.059772,44.226042],[-122.059681,44.225865],[-122.059635,44.225757],[-122.059643,44.225617],[-122.059628,44.225478],[-122.059603,44.225347],[-122.059599,44.225192],[-122.059574,44.225037],[-122.059559,44.224897],[-122.059513,44.224782],[-122.059488,44.224627],[-122.059474,44.224519],[-122.059503,44.224402],[-122.0595,44.224286],[-122.059509,44.224193],[-122.059495,44.224084],[-122.05946,44.223968],[-122.059425,44.223876],[-122.059378,44.223737],[-122.059309,44.223567],[-122.05923,44.223444],[-122.059162,44.223298],[-122.059104,44.223151],[-122.059047,44.223036],[-122.059012,44.222904],[-122.058966,44.222797],[-122.058952,44.222688],[-122.058949,44.222564],[-122.058937,44.222502],[-122.058924,44.222417],[-122.058921,44.222316],[-122.058908,44.222224],[-122.058884,44.222139],[-122.058828,44.222054],[-122.058814,44.221922],[-122.058811,44.221829],[-122.058797,44.221682],[-122.058793,44.221558],[-122.058802,44.221488],[-122.058746,44.221404],[-122.058754,44.22128],[-122.058763,44.221202],[-122.058717,44.221086],[-122.058682,44.220994],[-122.058723,44.2209],[-122.058699,44.220839],[-122.058696,44.220699],[-122.058671,44.220591],[-122.0587,44.220459],[-122.058708,44.220334],[-122.058715,44.220195],[-122.05869,44.220048],[-122.058697,44.219924],[-122.058737,44.219807],[-122.058733,44.219644],[-122.058741,44.219528],[-122.058738,44.219396],[-122.058735,44.219287],[-122.058731,44.219156],[-122.058738,44.219],[-122.058736,44.218923],[-122.058745,44.218845],[-122.058753,44.218752],[-122.058697,44.218652],[-122.058671,44.218497],[-122.058691,44.21842],[-122.058656,44.218319],[-122.0586,44.218235],[-122.058566,44.218173],[-122.058607,44.218111],[-122.058594,44.218033],[-122.058558,44.217879],[-122.058577,44.217778],[-122.058499,44.217678],[-122.058451,44.217492],[-122.058448,44.217384],[-122.058402,44.217276],[-122.058366,44.217137],[-122.058331,44.217006],[-122.058253,44.216906],[-122.058196,44.216806],[-122.058118,44.216698],[-122.058062,44.216629],[-122.058007,44.216583],[-122.057844,44.216516],[-122.057723,44.21644],[-122.057538,44.216388],[-122.057237,44.216392],[-122.05702,44.216341],[-122.056727,44.216259],[-122.056435,44.21624],[-122.056197,44.216212],[-122.055992,44.216192],[-122.0557,44.216157],[-122.055354,44.216115],[-122.055125,44.216041],[-122.054984,44.215973],[-122.054778,44.215929],[-122.054561,44.215885],[-122.054322,44.215826],[-122.054151,44.21586],[-122.054043,44.215884],[-122.053808,44.21595],[-122.053689,44.215936],[-122.053613,44.215898],[-122.053451,44.2159],[-122.053364,44.21587],[-122.053212,44.215833],[-122.053125,44.215788],[-122.052962,44.215759],[-122.052788,44.215707],[-122.052516,44.21561],[-122.052429,44.21558],[-122.052363,44.215535],[-122.052288,44.215528],[-122.052223,44.215521],[-122.052157,44.215483],[-122.052081,44.215438],[-122.05195,44.215401],[-122.051809,44.215364],[-122.051689,44.215303],[-122.05157,44.215289],[-122.051517,44.215306],[-122.051451,44.215268],[-122.05132,44.215223],[-122.05119,44.215178],[-122.051093,44.215172],[-122.051018,44.21518],[-122.050854,44.215097],[-122.050713,44.21506],[-122.050495,44.215001],[-122.050342,44.214918],[-122.050221,44.214827],[-122.05009,44.214759],[-122.050013,44.214674],[-122.049826,44.21453],[-122.04966,44.214384],[-122.049505,44.214231],[-122.049361,44.214063],[-122.049216,44.213879],[-122.049038,44.213664],[-122.048872,44.213496],[-122.048661,44.213273],[-122.048461,44.213028],[-122.048261,44.21279],[-122.04805,44.212568],[-122.047906,44.212384],[-122.047681,44.212038],[-122.047335,44.211578],[-122.047111,44.211247],[-122.046921,44.210978],[-122.046732,44.210671],[-122.046574,44.210673],[-122.046574,44.210673],[-122.046654,44.210773],[-122.047072,44.211333],[-122.047335,44.2117],[-122.047576,44.212074],[-122.048006,44.212631],[-122.048361,44.213051],[-122.048672,44.213381],[-122.049053,44.213813],[-122.049386,44.214213],[-122.049714,44.214552],[-122.05004,44.214826],[-122.050269,44.215001],[-122.050618,44.215219],[-122.050885,44.215373],[-122.051299,44.215572],[-122.051672,44.215764],[-122.051986,44.215938],[-122.053036,44.216474],[-122.056613,44.218294],[-122.056908,44.218451],[-122.057127,44.218602],[-122.057311,44.218719],[-122.057482,44.218854],[-122.057624,44.218998],[-122.057764,44.219147],[-122.057871,44.21929],[-122.058051,44.219536],[-122.058234,44.219815],[-122.058321,44.220017],[-122.058379,44.220159],[-122.05845,44.220373],[-122.058478,44.220528],[-122.058504,44.220667],[-122.058563,44.220967],[-122.058807,44.222353],[-122.058869,44.222739],[-122.05891,44.222895],[-122.058968,44.223106],[-122.059055,44.223435],[-122.059105,44.223626],[-122.059333,44.224309],[-122.059435,44.224725],[-122.059487,44.224983],[-122.059543,44.225274],[-122.059581,44.225544],[-122.05962,44.225888],[-122.059665,44.226159],[-122.059728,44.226605],[-122.059793,44.227039],[-122.059841,44.227391],[-122.059826,44.227716],[-122.059819,44.228022],[-122.059813,44.228238],[-122.059753,44.228446],[-122.059685,44.228637],[-122.059602,44.228822],[-122.059525,44.228969],[-122.059445,44.229088],[-122.059337,44.229234],[-122.059216,44.229375],[-122.059087,44.229541],[-122.058903,44.229737],[-122.058712,44.229935],[-122.056951,44.231719],[-122.056523,44.232182],[-122.056337,44.232365],[-122.056185,44.232561],[-122.055997,44.232818],[-122.055877,44.233044],[-122.055776,44.233288],[-122.055667,44.233532],[-122.055579,44.233786],[-122.055532,44.234035],[-122.055501,44.234258],[-122.055491,44.234466],[-122.055477,44.234792],[-122.055521,44.236053],[-122.055573,44.237199],[-122.055592,44.237477],[-122.055607,44.237757],[-122.055614,44.238032],[-122.055612,44.238258],[-122.055602,44.23845],[-122.05559,44.238629],[-122.055548,44.238825],[-122.055511,44.238992],[-122.055454,44.239154],[-122.055386,44.239285],[-122.055334,44.239419],[-122.055243,44.239549],[-122.055159,44.239657],[-122.055041,44.239818],[-122.054934,44.23997],[-122.054768,44.240145],[-122.054618,44.2403],[-122.054412,44.240454],[-122.054156,44.240638],[-122.053883,44.240824],[-122.053616,44.240933],[-122.052852,44.241267],[-122.051323,44.241863],[-122.050288,44.242277],[-122.049449,44.242622],[-122.0491,44.24277],[-122.048647,44.242972],[-122.048281,44.243127],[-122.047962,44.243274],[-122.047616,44.243443],[-122.047256,44.243644],[-122.046909,44.243859],[-122.046538,44.244085],[-122.045563,44.244759],[-122.04502,44.245135],[-122.044602,44.245408],[-122.04416,44.245719],[-122.043741,44.246004],[-122.041827,44.24732],[-122.041235,44.247756],[-122.041116,44.247843],[-122.040806,44.24813],[-122.040639,44.248293],[-122.040445,44.248477],[-122.040288,44.24865],[-122.040139,44.248806]]]]}}]}