{"type":"FeatureCollection","features":[{"type":"Feature","properties":{"MAPTAXLOT":"1812000000200","MAPNUMBER":"18120000","TAXLOT":"200","ACCTNO":"0773257","MAPACRES":321.54964577},"geometry":{"type":"Polygon","coordinates":[[[-124.136412,43.9991],[-124.13812,43.9991],[-124.13812,43.9991],[-124.13812,43.9991],[-124.138122,43.999048],[-124.138119,43.998694],[-124.138139,43.998397],[-124.138117,43.998147],[-124.138154,43.997874],[-124.138145,43.997732],[-124.138146,43.997424],[-124.138172,43.99716],[-124.138161,43.996982],[-124.138181,43.996819],[-124.138199,43.996613],[-124.138234,43.996246],[-124.138337,43.995936],[-124.138359,43.995795],[-124.138428,43.995603],[-124.138471,43.995371],[-124.138504,43.995159],[-124.138526,43.994892],[-124.138567,43.994761],[-124.1386,43.994615],[-124.138612,43.994428],[-124.138643,43.994188],[-124.138724,43.994012],[-124.138767,43.993841],[-124.138825,43.993614],[-124.138943,43.993352],[-124.138953,43.993138],[-124.138938,43.992962],[-124.138942,43.99277],[-124.138893,43.992533],[-124.138882,43.992275],[-124.138857,43.992114],[-124.138849,43.991993],[-124.138826,43.991725],[-124.138835,43.991442],[-124.138873,43.991182],[-124.138885,43.991001],[-124.138931,43.990752],[-124.138992,43.990564],[-124.139069,43.990276],[-124.139137,43.990073],[-124.139166,43.989861],[-124.139218,43.989648],[-124.139288,43.989483],[-124.139335,43.989257],[-124.139384,43.989003],[-124.139413,43.988724],[-124.139419,43.988568],[-124.139449,43.988369],[-124.139508,43.988084],[-124.139535,43.987784],[-124.139551,43.987536],[-124.139551,43.987276],[-124.139578,43.987105],[-124.139573,43.987014],[-124.139571,43.986855],[-124.139612,43.986711],[-124.139643,43.986474],[-124.139706,43.986255],[-124.139759,43.985946],[-124.139831,43.985746],[-124.139835,43.985564],[-124.139863,43.985451],[-124.139881,43.985247],[-124.139892,43.985112],[-124.139946,43.984946],[-124.139933,43.98485],[-124.13993,43.984738],[-124.139966,43.984569],[-124.139961,43.984555],[-124.139961,43.984555],[-124.139135,43.984553],[-124.133887,43.984542],[-124.128905,43.98453],[-124.128911,43.988163],[-124.128918,43.991806],[-124.128924,43.995449],[-124.128931,43.99909],[-124.133918,43.999099],[-124.136412,43.9991]]]}},{"type":"Feature","properties":{"MAPTAXLOT":"1812000000300","MAPNUMBER":"18120000","TAXLOT":"300","ACCTNO":"0773265","MAPACRES":303.83102127},"geometry":{"type":"Polygon","coordinates":[[[-124.128786,43.973737],[-124.128826,43.977325],[-124.133823,43.977342],[-124.133855,43.980938],[-124.133887,43.984542],[-124.139135,43.984553],[-124.139961,43.984555],[-124.139937,43.984479],[-124.139972,43.984297],[-124.139965,43.984119],[-124.139931,43.983938],[-124.139947,43.983757],[-124.139925,43.983579],[-124.139925,43.983579],[-124.139928,43.983378],[-124.139924,43.983118],[-124.139924,43.983118],[-124.139942,43.982843],[-124.139942,43.982843],[-124.139993,43.982558],[-124.140052,43.982337],[-124.140169,43.982069],[-124.140238,43.981825],[-124.14033,43.981595],[-124.140338,43.981477],[-124.140338,43.981476],[-124.140338,43.981476],[-124.140423,43.981237],[-124.140434,43.98104],[-124.140434,43.98104],[-124.140434,43.981039],[-124.140461,43.980858],[-124.140461,43.980857],[-124.140461,43.980857],[-124.140511,43.980675],[-124.140511,43.980675],[-124.140512,43.980507],[-124.140512,43.980507],[-124.140512,43.980507],[-124.140609,43.980221],[-124.140626,43.979999],[-124.140626,43.979998],[-124.140626,43.979998],[-124.140721,43.979685],[-124.140767,43.979442],[-124.140767,43.979442],[-124.140767,43.979442],[-124.140796,43.979224],[-124.140796,43.979224],[-124.140796,43.979224],[-124.140856,43.978896],[-124.140856,43.978896],[-124.140856,43.978895],[-124.140883,43.978711],[-124.140883,43.978711],[-124.140883,43.97871],[-124.140934,43.978481],[-124.140934,43.978481],[-124.140934,43.978481],[-124.140954,43.978184],[-124.140954,43.978184],[-124.140954,43.978184],[-124.141016,43.977957],[-124.141016,43.977957],[-124.141016,43.977957],[-124.141015,43.977866],[-124.14101,43.977594],[-124.140997,43.977326],[-124.140973,43.977055],[-124.140961,43.976717],[-124.140984,43.976604],[-124.140984,43.976604],[-124.140984,43.976604],[-124.140984,43.976604],[-124.140981,43.976425],[-124.140984,43.976217],[-124.141027,43.975988],[-124.141027,43.975988],[-124.141027,43.975987],[-124.141052,43.975831],[-124.141052,43.97583],[-124.141052,43.97583],[-124.141107,43.975609],[-124.141223,43.975385],[-124.141264,43.975244],[-124.141264,43.975244],[-124.141264,43.975244],[-124.141287,43.974996],[-124.141324,43.974801],[-124.141324,43.974801],[-124.141324,43.9748],[-124.141324,43.9748],[-124.141302,43.974614],[-124.141326,43.974457],[-124.141326,43.974457],[-124.141326,43.974457],[-124.14135,43.974159],[-124.141369,43.973967],[-124.141382,43.973799],[-124.141382,43.973604],[-124.141382,43.973604],[-124.141382,43.973604],[-124.141413,43.973435],[-124.141434,43.973279],[-124.141434,43.973278],[-124.141452,43.973078],[-124.141452,43.973077],[-124.141452,43.973077],[-124.141517,43.972891],[-124.141517,43.972891],[-124.141517,43.972891],[-124.141518,43.972712],[-124.141549,43.972531],[-124.141549,43.972531],[-124.141549,43.972531],[-124.141549,43.97253],[-124.14157,43.972324],[-124.141571,43.972324],[-124.141571,43.972324],[-124.141613,43.972141],[-124.141613,43.972141],[-124.141613,43.972141],[-124.141637,43.971904],[-124.141678,43.971583],[-124.141678,43.971581],[-124.141714,43.971432],[-124.141715,43.971432],[-124.141715,43.971432],[-124.141734,43.971185],[-124.141734,43.971185],[-124.141734,43.971184],[-124.141781,43.970955],[-124.141811,43.970702],[-124.141811,43.970702],[-124.141811,43.970702],[-124.141811,43.970701],[-124.14186,43.970448],[-124.14186,43.970447],[-124.141861,43.970447],[-124.141875,43.970241],[-124.141875,43.970241],[-124.141875,43.970241],[-124.141892,43.970167],[-124.141892,43.970165],[-124.141278,43.970165],[-124.138771,43.970164],[-124.133759,43.97016],[-124.128747,43.970151],[-124.128786,43.973737]]]}},{"type":"Feature","properties":{"MAPTAXLOT":"1812000000400","MAPNUMBER":"18120000","TAXLOT":"400","ACCTNO":"0773273","MAPACRES":146.94783933},"geometry":{"type":"Polygon","coordinates":[[[-124.128905,43.98453],[-124.133887,43.984542],[-124.133855,43.980938],[-124.133823,43.977342],[-124.128826,43.977325],[-124.128786,43.973737],[-124.128747,43.970151],[-124.123735,43.970142],[-124.122169,43.969233],[-124.118748,43.966543],[-124.118693,43.9665],[-124.1187,43.967021],[-124.119607,43.967552],[-124.120391,43.968063],[-124.120602,43.968156],[-124.120939,43.968389],[-124.12111,43.968507],[-124.121696,43.968912],[-124.121782,43.969016],[-124.122375,43.969393],[-124.122425,43.969458],[-124.123117,43.969971],[-124.123216,43.9701],[-124.123307,43.970184],[-124.123518,43.970379],[-124.123838,43.970591],[-124.124045,43.970799],[-124.124023,43.970816],[-124.124337,43.971103],[-124.124751,43.971724],[-124.12519,43.972197],[-124.125527,43.97268],[-124.125519,43.972738],[-124.125772,43.972969],[-124.125924,43.973228],[-124.126217,43.97354],[-124.126521,43.97424],[-124.126772,43.974706],[-124.126913,43.974933],[-124.127059,43.975341],[-124.127227,43.975724],[-124.127501,43.976142],[-124.127577,43.976301],[-124.127757,43.97733],[-124.127773,43.977802],[-124.127874,43.978611],[-124.127892,43.979565],[-124.127772,43.980183],[-124.127681,43.98063],[-124.127557,43.981181],[-124.127529,43.981606],[-124.127399,43.982281],[-124.12709,43.983009],[-124.126764,43.983907],[-124.126422,43.984517],[-124.127798,43.984527],[-124.128905,43.98453]]]}},{"type":"Feature","properties":{"MAPTAXLOT":"1812000000600","MAPNUMBER":"18120000","TAXLOT":"600","ACCTNO":"0773299","MAPACRES":616.40487416},"geometry":{"type":"Polygon","coordinates":[[[-124.12356,43.959374],[-124.123595,43.962969],[-124.123665,43.966555],[-124.123735,43.970142],[-124.128747,43.970151],[-124.133759,43.97016],[-124.138771,43.970164],[-124.141278,43.970165],[-124.141892,43.970165],[-124.141926,43.970017],[-124.141955,43.969814],[-124.141955,43.969812],[-124.141996,43.969606],[-124.141996,43.969606],[-124.141996,43.969605],[-124.142012,43.969361],[-124.142012,43.96936],[-124.142089,43.969056],[-124.142156,43.968787],[-124.142219,43.968516],[-124.142266,43.96827],[-124.142302,43.968002],[-124.142302,43.968001],[-124.142302,43.968001],[-124.142302,43.968],[-124.142314,43.967873],[-124.142303,43.967695],[-124.142319,43.967513],[-124.142332,43.967296],[-124.142343,43.967099],[-124.142343,43.967098],[-124.142387,43.967006],[-124.142423,43.966849],[-124.142423,43.966848],[-124.142411,43.966712],[-124.142411,43.966712],[-124.142411,43.966711],[-124.142437,43.966579],[-124.142485,43.966424],[-124.142485,43.966424],[-124.142485,43.966423],[-124.142493,43.966245],[-124.142493,43.966245],[-124.142493,43.966245],[-124.142515,43.966101],[-124.14255,43.96599],[-124.142582,43.965829],[-124.142582,43.965827],[-124.142577,43.965737],[-124.142577,43.965737],[-124.142577,43.965737],[-124.142612,43.965568],[-124.142686,43.965335],[-124.142686,43.965335],[-124.142686,43.965335],[-124.142709,43.965093],[-124.142714,43.964918],[-124.142714,43.964917],[-124.14277,43.964781],[-124.142807,43.964648],[-124.142808,43.964648],[-124.142808,43.964648],[-124.142812,43.964528],[-124.142812,43.964527],[-124.142838,43.964402],[-124.142879,43.964255],[-124.142901,43.964114],[-124.142901,43.964112],[-124.142896,43.964025],[-124.142896,43.964024],[-124.142896,43.964024],[-124.142912,43.963917],[-124.142945,43.963654],[-124.142945,43.963652],[-124.142942,43.963475],[-124.142942,43.963473],[-124.142986,43.963381],[-124.143003,43.96328],[-124.143003,43.963279],[-124.143014,43.963082],[-124.143014,43.963081],[-124.143034,43.962971],[-124.143083,43.962841],[-124.143083,43.96284],[-124.143083,43.96284],[-124.143091,43.962657],[-124.143091,43.962656],[-124.143129,43.962478],[-124.143129,43.962476],[-124.143124,43.962387],[-124.143124,43.962386],[-124.143166,43.962209],[-124.143208,43.962081],[-124.143245,43.961932],[-124.143271,43.96174],[-124.143271,43.961738],[-124.143273,43.961655],[-124.143273,43.961653],[-124.143291,43.961568],[-124.143339,43.961478],[-124.143364,43.961392],[-124.143395,43.961273],[-124.143395,43.961273],[-124.143395,43.961273],[-124.143407,43.961149],[-124.14341,43.961025],[-124.14341,43.961023],[-124.143447,43.960934],[-124.143447,43.960934],[-124.143447,43.960934],[-124.143453,43.960853],[-124.143453,43.960851],[-124.143478,43.960752],[-124.143521,43.960661],[-124.143522,43.96066],[-124.143515,43.960619],[-124.143512,43.960571],[-124.143512,43.960569],[-124.143537,43.960481],[-124.143537,43.960481],[-124.143539,43.96039],[-124.143521,43.960276],[-124.143521,43.960275],[-124.143549,43.960164],[-124.143596,43.960064],[-124.143622,43.959939],[-124.143622,43.959937],[-124.143594,43.959847],[-124.143593,43.959757],[-124.143602,43.959668],[-124.143602,43.959666],[-124.143626,43.95957],[-124.143627,43.959569],[-124.143618,43.959485],[-124.143618,43.959484],[-124.143643,43.959396],[-124.143643,43.959395],[-124.143644,43.959288],[-124.143655,43.959156],[-124.143655,43.959153],[-124.143673,43.959078],[-124.143726,43.958945],[-124.14374,43.958865],[-124.143756,43.958762],[-124.143757,43.95876],[-124.143744,43.958671],[-124.143744,43.95867],[-124.143765,43.95858],[-124.143765,43.958579],[-124.143769,43.958454],[-124.143769,43.958452],[-124.143802,43.958314],[-124.143829,43.9582],[-124.143829,43.958198],[-124.143814,43.958128],[-124.143814,43.958127],[-124.143832,43.95806],[-124.143848,43.957944],[-124.143865,43.957911],[-124.143899,43.957847],[-124.14392,43.957751],[-124.14392,43.95775],[-124.143919,43.957674],[-124.143919,43.957673],[-124.143942,43.957545],[-124.143942,43.957543],[-124.143943,43.957493],[-124.143943,43.957491],[-124.144001,43.957327],[-124.144011,43.957299],[-124.144011,43.957299],[-124.14402,43.957203],[-124.14402,43.9572],[-124.144044,43.95709],[-124.144058,43.956949],[-124.144058,43.956946],[-124.144062,43.956832],[-124.144062,43.956831],[-124.144086,43.95666],[-124.144108,43.956519],[-124.144145,43.956371],[-124.144145,43.95637],[-124.144139,43.956276],[-124.144134,43.956189],[-124.14414,43.956046],[-124.14414,43.956043],[-124.144198,43.95586],[-124.144214,43.955777],[-124.144215,43.955774],[-124.14361,43.955774],[-124.142792,43.955774],[-124.142788,43.955774],[-124.142611,43.955774],[-124.142608,43.955774],[-124.138598,43.955774],[-124.133586,43.955774],[-124.128574,43.955774],[-124.128573,43.955774],[-124.123561,43.955774],[-124.12356,43.959374]]]}},{"type":"Feature","properties":{"MAPTAXLOT":"1812040000200","MAPNUMBER":"18120400","TAXLOT":"200","ACCTNO":"0775252","MAPACRES":15.2758563},"geometry":{"type":"Polygon","coordinates":[[[-124.132543,44.029021],[-124.132659,44.029159],[-124.132667,44.029982],[-124.133424,44.030639],[-124.133389,44.030721],[-124.133481,44.030834],[-124.133492,44.031699],[-124.133495,44.031988],[-124.133375,44.032444],[-124.133346,44.032563],[-124.13339,44.03325],[-124.133386,44.03339],[-124.133393,44.034087],[-124.133394,44.034224],[-124.133401,44.034924],[-124.133402,44.03506],[-124.133402,44.035062],[-124.133426,44.035914],[-124.133226,44.036619],[-124.133217,44.036754],[-124.133164,44.03697],[-124.133111,44.037185],[-124.132969,44.037518],[-124.132967,44.037523],[-124.132993,44.037583],[-124.133002,44.037604],[-124.133078,44.037779],[-124.133087,44.037801],[-124.133163,44.037976],[-124.133172,44.037997],[-124.133211,44.038086],[-124.133213,44.03807],[-124.133213,44.038069],[-124.13332,44.03732],[-124.13353,44.036383],[-124.133547,44.035841],[-124.133503,44.035377],[-124.133568,44.034366],[-124.133756,44.033699],[-124.133842,44.033067],[-124.134152,44.031205],[-124.134466,44.029361],[-124.134768,44.028154],[-124.132534,44.028163],[-124.132543,44.029021]]]}},{"type":"Feature","properties":{"MAPTAXLOT":"1812044300077","MAPNUMBER":"18120443","TAXLOT":"77","ACCTNO":"000None","MAPACRES":8.76823107},"geometry":{"type":"Polygon","coordinates":[[[-124.133253,44.030879],[-124.133255,44.031016],[-124.133257,44.031152],[-124.133258,44.031289],[-124.13326,44.031426],[-124.133262,44.031563],[-124.133263,44.031699],[-124.133492,44.031699],[-124.133481,44.030834],[-124.133389,44.030721],[-124.133424,44.030639],[-124.132667,44.029982],[-124.132659,44.029159],[-124.132543,44.029021],[-124.132534,44.028163],[-124.130975,44.028172],[-124.130868,44.028172],[-124.130205,44.028173],[-124.129711,44.028174],[-124.129298,44.028175],[-124.129299,44.028244],[-124.12987,44.028245],[-124.129946,44.028244],[-124.130022,44.028244],[-124.131165,44.028244],[-124.132307,44.028245],[-124.132315,44.029067],[-124.131934,44.029067],[-124.131668,44.029067],[-124.131401,44.029067],[-124.131173,44.029067],[-124.13064,44.029067],[-124.130601,44.029067],[-124.130449,44.029067],[-124.13003,44.029067],[-124.129954,44.029067],[-124.129878,44.029067],[-124.129573,44.029067],[-124.129307,44.029067],[-124.129308,44.029204],[-124.129498,44.029204],[-124.129689,44.029205],[-124.129879,44.029205],[-124.13007,44.029205],[-124.13026,44.029205],[-124.130451,44.029205],[-124.130454,44.029534],[-124.130263,44.029534],[-124.130073,44.029534],[-124.129882,44.029534],[-124.129692,44.029534],[-124.129502,44.029534],[-124.129311,44.029534],[-124.129311,44.029554],[-124.129311,44.029575],[-124.129502,44.029575],[-124.129692,44.029575],[-124.129883,44.029575],[-124.130073,44.029575],[-124.130264,44.029575],[-124.130454,44.029575],[-124.130457,44.029904],[-124.130267,44.029904],[-124.130077,44.029904],[-124.129886,44.029904],[-124.129696,44.029904],[-124.129505,44.029904],[-124.129315,44.029904],[-124.129316,44.030041],[-124.129506,44.030041],[-124.129697,44.030041],[-124.129887,44.030041],[-124.130078,44.030041],[-124.130268,44.030041],[-124.130459,44.030041],[-124.13046,44.030206],[-124.130462,44.030371],[-124.130272,44.030371],[-124.130081,44.03037],[-124.129891,44.03037],[-124.1297,44.03037],[-124.12951,44.03037],[-124.129319,44.03037],[-124.129319,44.030391],[-124.12932,44.030411],[-124.12951,44.030411],[-124.129701,44.030411],[-124.129891,44.030412],[-124.130082,44.030412],[-124.130177,44.030412],[-124.130272,44.030412],[-124.130462,44.030412],[-124.130466,44.030741],[-124.130275,44.030741],[-124.13018,44.030741],[-124.130085,44.030741],[-124.129894,44.030741],[-124.129704,44.030741],[-124.129513,44.030741],[-124.129323,44.030741],[-124.129324,44.030878],[-124.129515,44.030878],[-124.129705,44.030878],[-124.129896,44.030878],[-124.130086,44.030878],[-124.130277,44.030878],[-124.130467,44.030878],[-124.13047,44.031207],[-124.13028,44.031207],[-124.130089,44.031207],[-124.129899,44.031207],[-124.129708,44.031207],[-124.129518,44.031207],[-124.129327,44.031207],[-124.129328,44.031248],[-124.129518,44.031248],[-124.129709,44.031248],[-124.129899,44.031248],[-124.13009,44.031248],[-124.13028,44.031248],[-124.130471,44.031248],[-124.130472,44.031413],[-124.130474,44.031578],[-124.130283,44.031577],[-124.130093,44.031577],[-124.129903,44.031577],[-124.129712,44.031577],[-124.129522,44.031577],[-124.129331,44.031577],[-124.129332,44.031714],[-124.129523,44.031714],[-124.129523,44.031714],[-124.129713,44.031714],[-124.129904,44.031714],[-124.130094,44.031715],[-124.130285,44.031715],[-124.130475,44.031715],[-124.130666,44.031709],[-124.130856,44.031709],[-124.131047,44.031709],[-124.131237,44.03171],[-124.131427,44.03171],[-124.131618,44.03171],[-124.131617,44.031637],[-124.131794,44.031508],[-124.13187,44.031452],[-124.131995,44.031361],[-124.131993,44.031139],[-124.13199,44.030879],[-124.132371,44.030879],[-124.132752,44.030879],[-124.132636,44.031186],[-124.132531,44.031464],[-124.132441,44.031702],[-124.132639,44.031699],[-124.132691,44.031562],[-124.132743,44.031426],[-124.132794,44.031289],[-124.132846,44.031152],[-124.132897,44.031016],[-124.132949,44.030879],[-124.133253,44.030879]],[[-124.132431,44.029205],[-124.132432,44.029356],[-124.132433,44.029466],[-124.132434,44.029576],[-124.132435,44.029685],[-124.132437,44.029795],[-124.132438,44.029905],[-124.132438,44.029973],[-124.132439,44.030042],[-124.132439,44.030057],[-124.132898,44.030445],[-124.133127,44.030643],[-124.133156,44.030668],[-124.133155,44.030668],[-124.133144,44.03072],[-124.133141,44.030732],[-124.132672,44.030742],[-124.132446,44.030742],[-124.131989,44.030741],[-124.131988,44.030597],[-124.131988,44.030591],[-124.131986,44.030453],[-124.131985,44.030316],[-124.131983,44.030179],[-124.131982,44.030042],[-124.131981,44.029973],[-124.131981,44.029905],[-124.13198,44.029795],[-124.131979,44.029685],[-124.131977,44.029576],[-124.131976,44.029466],[-124.131975,44.029356],[-124.131974,44.029205],[-124.132431,44.029205]],[[-124.130848,44.030878],[-124.131038,44.030878],[-124.131229,44.030878],[-124.131419,44.030878],[-124.13161,44.030878],[-124.1318,44.030878],[-124.131803,44.031208],[-124.131613,44.031208],[-124.131422,44.031208],[-124.131232,44.031207],[-124.131042,44.031207],[-124.130851,44.031207],[-124.130661,44.031207],[-124.130657,44.030878],[-124.130848,44.030878]],[[-124.130843,44.030412],[-124.131034,44.030412],[-124.131224,44.030412],[-124.131415,44.030412],[-124.131605,44.030412],[-124.131795,44.030412],[-124.131799,44.030741],[-124.131608,44.030741],[-124.131418,44.030741],[-124.131227,44.030741],[-124.131037,44.030741],[-124.130847,44.030741],[-124.130656,44.030741],[-124.130653,44.030412],[-124.130843,44.030412]],[[-124.13084,44.030042],[-124.13103,44.030042],[-124.13122,44.030042],[-124.131383,44.030042],[-124.131411,44.030042],[-124.131601,44.030042],[-124.131792,44.030042],[-124.131793,44.030206],[-124.131795,44.030371],[-124.131605,44.030371],[-124.131414,44.030371],[-124.131409,44.030371],[-124.131224,44.030371],[-124.131033,44.030371],[-124.130843,44.030371],[-124.130652,44.030371],[-124.130651,44.030206],[-124.130649,44.030041],[-124.13084,44.030042]],[[-124.130835,44.029575],[-124.131025,44.029575],[-124.131216,44.029575],[-124.131406,44.029575],[-124.131597,44.029575],[-124.131787,44.029576],[-124.13179,44.029905],[-124.1316,44.029905],[-124.131409,44.029905],[-124.131219,44.029905],[-124.131029,44.029904],[-124.130838,44.029904],[-124.130648,44.029904],[-124.130645,44.029575],[-124.130835,44.029575]],[[-124.131787,44.029534],[-124.131596,44.029534],[-124.131406,44.029534],[-124.131215,44.029534],[-124.131025,44.029534],[-124.130835,44.029534],[-124.130644,44.029534],[-124.130643,44.029369],[-124.130641,44.029205],[-124.130831,44.029205],[-124.131022,44.029205],[-124.131212,44.029205],[-124.131403,44.029205],[-124.131593,44.029205],[-124.131783,44.029205],[-124.131787,44.029534]],[[-124.130661,44.031248],[-124.130852,44.031248],[-124.131042,44.031249],[-124.131232,44.031249],[-124.131423,44.031249],[-124.131804,44.031249],[-124.131804,44.031304],[-124.131426,44.031578],[-124.131236,44.031578],[-124.131045,44.031578],[-124.130855,44.031578],[-124.130664,44.031578],[-124.130661,44.031248]]]}},{"type":"Feature","properties":{"MAPTAXLOT":"1812044302600","MAPNUMBER":"18120443","TAXLOT":"2600","ACCTNO":"0779007","MAPACRES":0.26208131},"geometry":{"type":"Polygon","coordinates":[[[-124.131976,44.029466],[-124.132433,44.029466],[-124.132432,44.029356],[-124.132431,44.029205],[-124.131974,44.029205],[-124.131975,44.029356],[-124.131976,44.029466]]]}},{"type":"Feature","properties":{"MAPTAXLOT":"1812044302601","MAPNUMBER":"18120443","TAXLOT":"2601","ACCTNO":"0779015","MAPACRES":0.2069118},"geometry":{"type":"Polygon","coordinates":[[[-124.131983,44.030179],[-124.13244,44.030179],[-124.132439,44.030057],[-124.132439,44.030042],[-124.132438,44.029973],[-124.131981,44.029973],[-124.131982,44.030042],[-124.131983,44.030179]]]}},{"type":"Feature","properties":{"MAPTAXLOT":"1812044302607","MAPNUMBER":"18120443","TAXLOT":"2607","ACCTNO":"0779072","MAPACRES":0.22069913},"geometry":{"type":"Polygon","coordinates":[[[-124.131979,44.029685],[-124.132435,44.029685],[-124.132434,44.029576],[-124.132433,44.029466],[-124.131976,44.029466],[-124.131977,44.029576],[-124.131979,44.029685]]]}},{"type":"Feature","properties":{"MAPTAXLOT":"1812044302609","MAPNUMBER":"18120443","TAXLOT":"2609","ACCTNO":"1107026","MAPACRES":0.17932276},"geometry":{"type":"Polygon","coordinates":[[[-124.131981,44.029973],[-124.132438,44.029973],[-124.132438,44.029905],[-124.132437,44.029795],[-124.13198,44.029795],[-124.131981,44.029905],[-124.131981,44.029973]]]}},{"type":"Feature","properties":{"MAPTAXLOT":"1812044302610","MAPNUMBER":"18120443","TAXLOT":"2610","ACCTNO":"1107034","MAPACRES":0.11035136},"geometry":{"type":"Polygon","coordinates":[[[-124.13198,44.029795],[-124.132437,44.029795],[-124.132435,44.029685],[-124.131979,44.029685],[-124.13198,44.029795]]]}},{"type":"Feature","properties":{"MAPTAXLOT":"1812044303500","MAPNUMBER":"18120443","TAXLOT":"3500","ACCTNO":"0779288","MAPACRES":1.46905182},"geometry":{"type":"Polygon","coordinates":[[[-124.131934,44.029067],[-124.132315,44.029067],[-124.132307,44.028245],[-124.131165,44.028244],[-124.131168,44.028573],[-124.131169,44.028738],[-124.131398,44.028738],[-124.131398,44.028697],[-124.131664,44.028697],[-124.131931,44.028697],[-124.131934,44.029067]]]}},{"type":"Feature","properties":{"MAPTAXLOT":"1812044303502","MAPNUMBER":"18120443","TAXLOT":"3502","ACCTNO":"0779304","MAPACRES":0.13798136},"geometry":{"type":"Polygon","coordinates":[[[-124.129886,44.029904],[-124.130077,44.029904],[-124.130073,44.029575],[-124.129883,44.029575],[-124.129886,44.029904]]]}},{"type":"Feature","properties":{"MAPTAXLOT":"1812044303508","MAPNUMBER":"18120443","TAXLOT":"3508","ACCTNO":"0779361","MAPACRES":0.1379787},"geometry":{"type":"Polygon","coordinates":[[[-124.129882,44.029534],[-124.130073,44.029534],[-124.13007,44.029205],[-124.129879,44.029205],[-124.129882,44.029534]]]}},{"type":"Feature","properties":{"MAPTAXLOT":"1812044303509","MAPNUMBER":"18120443","TAXLOT":"3509","ACCTNO":"0779379","MAPACRES":0.27594645},"geometry":{"type":"Polygon","coordinates":[[[-124.130263,44.029534],[-124.130454,44.029534],[-124.130451,44.029205],[-124.13026,44.029205],[-124.13007,44.029205],[-124.130073,44.029534],[-124.130263,44.029534]]]}},{"type":"Feature","properties":{"MAPTAXLOT":"1812044303511","MAPNUMBER":"18120443","TAXLOT":"3511","ACCTNO":"0779395","MAPACRES":0.27592786},"geometry":{"type":"Polygon","coordinates":[[[-124.130838,44.029904],[-124.131029,44.029904],[-124.131025,44.029575],[-124.130835,44.029575],[-124.130645,44.029575],[-124.130648,44.029904],[-124.130838,44.029904]]]}},{"type":"Feature","properties":{"MAPTAXLOT":"1812044303513","MAPNUMBER":"18120443","TAXLOT":"3513","ACCTNO":"0779411","MAPACRES":0.1379579},"geometry":{"type":"Polygon","coordinates":[[[-124.131029,44.029904],[-124.131219,44.029905],[-124.131216,44.029575],[-124.131025,44.029575],[-124.131029,44.029904]]]}},{"type":"Feature","properties":{"MAPTAXLOT":"1812044303514","MAPNUMBER":"18120443","TAXLOT":"3514","ACCTNO":"0779429","MAPACRES":0.13795535},"geometry":{"type":"Polygon","coordinates":[[[-124.131219,44.029905],[-124.131409,44.029905],[-124.131406,44.029575],[-124.131216,44.029575],[-124.131219,44.029905]]]}},{"type":"Feature","properties":{"MAPTAXLOT":"1812044303515","MAPNUMBER":"18120443","TAXLOT":"3515","ACCTNO":"0779437","MAPACRES":0.13795116},"geometry":{"type":"Polygon","coordinates":[[[-124.131409,44.029905],[-124.1316,44.029905],[-124.131597,44.029575],[-124.131406,44.029575],[-124.131409,44.029905]]]}},{"type":"Feature","properties":{"MAPTAXLOT":"1812044303516","MAPNUMBER":"18120443","TAXLOT":"3516","ACCTNO":"0779445","MAPACRES":0.13795029},"geometry":{"type":"Polygon","coordinates":[[[-124.1316,44.029905],[-124.13179,44.029905],[-124.131787,44.029576],[-124.131597,44.029575],[-124.1316,44.029905]]]}},{"type":"Feature","properties":{"MAPTAXLOT":"1812044303517","MAPNUMBER":"18120443","TAXLOT":"3517","ACCTNO":"0779452","MAPACRES":0.13794661},"geometry":{"type":"Polygon","coordinates":[[[-124.131596,44.029534],[-124.131787,44.029534],[-124.131783,44.029205],[-124.131593,44.029205],[-124.131596,44.029534]]]}},{"type":"Feature","properties":{"MAPTAXLOT":"1812044303518","MAPNUMBER":"18120443","TAXLOT":"3518","ACCTNO":"0779460","MAPACRES":0.13794788},"geometry":{"type":"Polygon","coordinates":[[[-124.131406,44.029534],[-124.131596,44.029534],[-124.131593,44.029205],[-124.131403,44.029205],[-124.131406,44.029534]]]}},{"type":"Feature","properties":{"MAPTAXLOT":"1812044303519","MAPNUMBER":"18120443","TAXLOT":"3519","ACCTNO":"0779478","MAPACRES":0.13795054},"geometry":{"type":"Polygon","coordinates":[[[-124.131215,44.029534],[-124.131406,44.029534],[-124.131403,44.029205],[-124.131212,44.029205],[-124.131215,44.029534]]]}},{"type":"Feature","properties":{"MAPTAXLOT":"1812044303525","MAPNUMBER":"18120443","TAXLOT":"3525","ACCTNO":"0779528","MAPACRES":0.20923376},"geometry":{"type":"Polygon","coordinates":[[[-124.13064,44.029067],[-124.131173,44.029067],[-124.131171,44.028889],[-124.130638,44.028889],[-124.13064,44.029067]]]}},{"type":"Feature","properties":{"MAPTAXLOT":"1812044303526","MAPNUMBER":"18120443","TAXLOT":"3526","ACCTNO":"0779536","MAPACRES":0.31500522},"geometry":{"type":"Polygon","coordinates":[[[-124.130448,44.028902],[-124.130449,44.029067],[-124.130601,44.029067],[-124.13064,44.029067],[-124.130638,44.028889],[-124.131171,44.028889],[-124.131169,44.028738],[-124.130598,44.028738],[-124.130446,44.028738],[-124.130448,44.028902]]]}},{"type":"Feature","properties":{"MAPTAXLOT":"1812044303528","MAPNUMBER":"18120443","TAXLOT":"3528","ACCTNO":"0779551","MAPACRES":0.44146829},"geometry":{"type":"Polygon","coordinates":[[[-124.130598,44.028738],[-124.131169,44.028738],[-124.131168,44.028573],[-124.129949,44.028573],[-124.129949,44.028587],[-124.12995,44.028656],[-124.129951,44.028737],[-124.130446,44.028738],[-124.130598,44.028738]]]}},{"type":"Feature","properties":{"MAPTAXLOT":"1812044303530","MAPNUMBER":"18120443","TAXLOT":"3530","ACCTNO":"0779577","MAPACRES":0.17936814},"geometry":{"type":"Polygon","coordinates":[[[-124.129952,44.028902],[-124.130448,44.028902],[-124.130446,44.028738],[-124.129951,44.028737],[-124.129951,44.028793],[-124.129952,44.028902]]]}},{"type":"Feature","properties":{"MAPTAXLOT":"1812044303532","MAPNUMBER":"18120443","TAXLOT":"3532","ACCTNO":"0779593","MAPACRES":0.88290492},"geometry":{"type":"Polygon","coordinates":[[[-124.129949,44.028573],[-124.131168,44.028573],[-124.131165,44.028244],[-124.130022,44.028244],[-124.129946,44.028244],[-124.129949,44.028573]]]}},{"type":"Feature","properties":{"MAPTAXLOT":"1812044303534","MAPNUMBER":"18120443","TAXLOT":"3534","ACCTNO":"0779619","MAPACRES":0.17938953},"geometry":{"type":"Polygon","coordinates":[[[-124.13003,44.029067],[-124.130449,44.029067],[-124.130448,44.028902],[-124.129952,44.028902],[-124.129954,44.029067],[-124.13003,44.029067]]]}},{"type":"Feature","properties":{"MAPTAXLOT":"1812044303535","MAPNUMBER":"18120443","TAXLOT":"3535","ACCTNO":"1182516","MAPACRES":0.16554029},"geometry":{"type":"Polygon","coordinates":[[[-124.131173,44.029067],[-124.131401,44.029067],[-124.131398,44.028738],[-124.131169,44.028738],[-124.131171,44.028889],[-124.131173,44.029067]]]}},{"type":"Feature","properties":{"MAPTAXLOT":"1812044303536","MAPNUMBER":"18120443","TAXLOT":"3536","ACCTNO":"1367588","MAPACRES":0.21726279},"geometry":{"type":"Polygon","coordinates":[[[-124.131401,44.029067],[-124.131668,44.029067],[-124.131664,44.028697],[-124.131398,44.028697],[-124.131398,44.028738],[-124.131401,44.029067]]]}},{"type":"Feature","properties":{"MAPTAXLOT":"1812044303537","MAPNUMBER":"18120443","TAXLOT":"3537","ACCTNO":"1402005","MAPACRES":0.21725545},"geometry":{"type":"Polygon","coordinates":[[[-124.131668,44.029067],[-124.131934,44.029067],[-124.131931,44.028697],[-124.131664,44.028697],[-124.131668,44.029067]]]}},{"type":"Feature","properties":{"MAPTAXLOT":"1812044303700","MAPNUMBER":"18120443","TAXLOT":"3700","ACCTNO":"0779643","MAPACRES":0.1379786},"geometry":{"type":"Polygon","coordinates":[[[-124.130077,44.029904],[-124.130267,44.029904],[-124.130264,44.029575],[-124.130073,44.029575],[-124.130077,44.029904]]]}},{"type":"Feature","properties":{"MAPTAXLOT":"1812044303800","MAPNUMBER":"18120443","TAXLOT":"3800","ACCTNO":"0779650","MAPACRES":0.13797482},"geometry":{"type":"Polygon","coordinates":[[[-124.130267,44.029904],[-124.130457,44.029904],[-124.130454,44.029575],[-124.130264,44.029575],[-124.130267,44.029904]]]}},{"type":"Feature","properties":{"MAPTAXLOT":"1812044303900","MAPNUMBER":"18120443","TAXLOT":"3900","ACCTNO":"0779668","MAPACRES":0.13795767},"geometry":{"type":"Polygon","coordinates":[[[-124.130643,44.029369],[-124.130833,44.02937],[-124.131023,44.02937],[-124.131022,44.029205],[-124.130831,44.029205],[-124.130641,44.029205],[-124.130643,44.029369]]]}},{"type":"Feature","properties":{"MAPTAXLOT":"1812044303901","MAPNUMBER":"18120443","TAXLOT":"3901","ACCTNO":"0779676","MAPACRES":0.13795979},"geometry":{"type":"Polygon","coordinates":[[[-124.130835,44.029534],[-124.131025,44.029534],[-124.131023,44.02937],[-124.130833,44.02937],[-124.130643,44.029369],[-124.130644,44.029534],[-124.130835,44.029534]]]}},{"type":"Feature","properties":{"MAPTAXLOT":"1812044304000","MAPNUMBER":"18120443","TAXLOT":"4000","ACCTNO":"0779684","MAPACRES":0.13796153},"geometry":{"type":"Polygon","coordinates":[[[-124.131025,44.029534],[-124.131215,44.029534],[-124.131212,44.029205],[-124.131022,44.029205],[-124.131023,44.02937],[-124.131025,44.029534]]]}},{"type":"Feature","properties":{"MAPTAXLOT":"1812090000500","MAPNUMBER":"18120900","TAXLOT":"500","ACCTNO":"0780112","MAPACRES":234.53719475},"geometry":{"type":"Polygon","coordinates":[[[-124.132534,44.028163],[-124.134768,44.028154],[-124.134768,44.028154],[-124.134998,44.027237],[-124.135567,44.025725],[-124.136199,44.023699],[-124.136549,44.022465],[-124.13706,44.020783],[-124.137309,44.019417],[-124.137528,44.018376],[-124.136821,44.018165],[-124.136348,44.018037],[-124.135174,44.01773],[-124.134091,44.017404],[-124.132726,44.016858],[-124.13165,44.016302],[-124.13085,44.015812],[-124.130052,44.015277],[-124.12948,44.014898],[-124.129219,44.0148],[-124.128653,44.014437],[-124.128227,44.014131],[-124.127893,44.013774],[-124.127794,44.013689],[-124.12726,44.013689],[-124.127259,44.013689],[-124.125906,44.013688],[-124.125904,44.014046],[-124.125946,44.014046],[-124.126138,44.015747],[-124.126183,44.015716],[-124.126233,44.015689],[-124.126287,44.015666],[-124.126344,44.015647],[-124.126403,44.015634],[-124.126465,44.015625],[-124.126527,44.015622],[-124.126532,44.015786],[-124.126485,44.015789],[-124.12644,44.015797],[-124.126396,44.01581],[-124.126356,44.015827],[-124.126319,44.015849],[-124.126288,44.015873],[-124.126261,44.015901],[-124.12624,44.015932],[-124.126226,44.015964],[-124.126219,44.015997],[-124.126191,44.016217],[-124.126282,44.017018],[-124.126293,44.017132],[-124.126293,44.017293],[-124.126293,44.017616],[-124.126293,44.017937],[-124.126293,44.018252],[-124.126293,44.018568],[-124.126293,44.018883],[-124.126293,44.019199],[-124.126293,44.019514],[-124.126293,44.01983],[-124.126293,44.020145],[-124.126293,44.020461],[-124.126293,44.020502],[-124.126293,44.020572],[-124.126336,44.020776],[-124.126401,44.021091],[-124.126466,44.021406],[-124.126556,44.02184],[-124.12748,44.02184],[-124.127549,44.021985],[-124.127622,44.022129],[-124.127698,44.022271],[-124.127787,44.022428],[-124.127881,44.022584],[-124.127979,44.022737],[-124.128091,44.022903],[-124.128208,44.023067],[-124.12833,44.023228],[-124.128457,44.023388],[-124.128589,44.023545],[-124.128726,44.023701],[-124.128864,44.023849],[-124.129006,44.023995],[-124.129152,44.024139],[-124.129303,44.02428],[-124.129459,44.024419],[-124.129618,44.024555],[-124.127829,44.024556],[-124.127877,44.024625],[-124.128093,44.024931],[-124.12849,44.025495],[-124.128696,44.025787],[-124.128876,44.02598],[-124.129119,44.026242],[-124.129766,44.026937],[-124.130002,44.027178],[-124.130579,44.027767],[-124.130975,44.028172],[-124.132534,44.028163]]]}},{"type":"Feature","properties":{"MAPTAXLOT":"1812091102600","MAPNUMBER":"18120911","TAXLOT":"2600","ACCTNO":"1769106","MAPACRES":0.49885348},"geometry":{"type":"Polygon","coordinates":[[[-124.129299,44.027311],[-124.129916,44.027306],[-124.129944,44.027264],[-124.130002,44.027178],[-124.129766,44.026937],[-124.129613,44.026938],[-124.129322,44.02694],[-124.129318,44.026962],[-124.129309,44.026983],[-124.129295,44.027003],[-124.12929,44.02701],[-124.129287,44.027018],[-124.129285,44.027025],[-124.129284,44.027033],[-124.129286,44.027041],[-124.129286,44.027041],[-124.129293,44.02708],[-124.129296,44.027119],[-124.129299,44.027311]]]}},{"type":"Feature","properties":{"MAPTAXLOT":"1812091102800","MAPNUMBER":"18120911","TAXLOT":"2800","ACCTNO":"1769122","MAPACRES":0.58505498},"geometry":{"type":"Polygon","coordinates":[[[-124.129822,44.027773],[-124.130457,44.027768],[-124.130579,44.027767],[-124.130002,44.027178],[-124.129944,44.027264],[-124.129916,44.027306],[-124.129713,44.027607],[-124.129741,44.027617],[-124.129766,44.027631],[-124.129787,44.027647],[-124.129805,44.027665],[-124.129818,44.027685],[-124.129826,44.027707],[-124.12983,44.027729],[-124.129828,44.027751],[-124.129822,44.027773]]]}},{"type":"Feature","properties":{"MAPTAXLOT":"1812091102900","MAPNUMBER":"18120911","TAXLOT":"2900","ACCTNO":"1769130","MAPACRES":0.54704314},"geometry":{"type":"Polygon","coordinates":[[[-124.130205,44.028173],[-124.130868,44.028172],[-124.130975,44.028172],[-124.130579,44.027767],[-124.130457,44.027768],[-124.129822,44.027773],[-124.12981,44.027795],[-124.129793,44.027814],[-124.1302,44.027811],[-124.130205,44.028173]]]}},{"type":"Feature","properties":{"MAPTAXLOT":"1812091103000","MAPNUMBER":"18120911","TAXLOT":"3000","ACCTNO":"1769148","MAPACRES":0.38702749},"geometry":{"type":"Polygon","coordinates":[[[-124.129711,44.028174],[-124.130205,44.028173],[-124.1302,44.027811],[-124.129793,44.027814],[-124.129775,44.027829],[-124.129755,44.027843],[-124.129731,44.027853],[-124.129706,44.027862],[-124.129711,44.028174]]]}},{"type":"Feature","properties":{"MAPTAXLOT":"1812160000088","MAPNUMBER":"18121600","TAXLOT":"88","ACCTNO":"000None","MAPACRES":224.85135841},"geometry":{"type":"Polygon","coordinates":[[[-124.127794,44.013689],[-124.127893,44.013774],[-124.128227,44.014131],[-124.128653,44.014437],[-124.129219,44.0148],[-124.12948,44.014898],[-124.130052,44.015277],[-124.13085,44.015812],[-124.13165,44.016302],[-124.132726,44.016858],[-124.134091,44.017404],[-124.135174,44.01773],[-124.136348,44.018037],[-124.136821,44.018165],[-124.137528,44.018376],[-124.137974,44.016257],[-124.137544,44.016166],[-124.136129,44.015737],[-124.135366,44.015232],[-124.134401,44.014589],[-124.133758,44.014163],[-124.13339,44.013712],[-124.133027,44.013327],[-124.132508,44.012549],[-124.132224,44.011963],[-124.131991,44.011347],[-124.131784,44.010739],[-124.131651,44.010491],[-124.131718,44.010309],[-124.131919,44.010161],[-124.132101,44.010136],[-124.132412,44.010089],[-124.132578,44.0098],[-124.132724,44.00939],[-124.132745,44.009087],[-124.132776,44.008727],[-124.132732,44.008426],[-124.132473,44.008264],[-124.132315,44.00825],[-124.132146,44.008265],[-124.132028,44.008268],[-124.131943,44.008158],[-124.1319,44.007876],[-124.13181,44.00768],[-124.131804,44.007586],[-124.13182,44.007192],[-124.13153,44.006502],[-124.131464,44.006415],[-124.131003,44.005801],[-124.130471,44.005005],[-124.12981,44.00425],[-124.129417,44.003592],[-124.129015,44.003226],[-124.128311,44.00245],[-124.127717,44.001939],[-124.127325,44.001516],[-124.126428,44.000524],[-124.125665,43.99982],[-124.125374,43.999377],[-124.125243,43.999086],[-124.121635,43.99909],[-124.122757,44.001802],[-124.122996,44.002187],[-124.123212,44.002481],[-124.123377,44.002622],[-124.123495,44.002723],[-124.123513,44.00275],[-124.123623,44.002885],[-124.123678,44.003022],[-124.12373,44.003146],[-124.124261,44.00369],[-124.124567,44.00385],[-124.12492,44.004096],[-124.125353,44.004317],[-124.125593,44.004539],[-124.125597,44.004646],[-124.125607,44.004948],[-124.125618,44.00525],[-124.125621,44.005332],[-124.125646,44.006087],[-124.125656,44.006362],[-124.125666,44.006666],[-124.125676,44.006951],[-124.125685,44.007225],[-124.125691,44.007387],[-124.12567,44.007507],[-124.12562,44.007793],[-124.125568,44.00809],[-124.125557,44.008158],[-124.125479,44.008606],[-124.125431,44.008879],[-124.125388,44.009124],[-124.125339,44.009546],[-124.125103,44.009868],[-124.124975,44.010183],[-124.125007,44.010346],[-124.125144,44.010464],[-124.125294,44.010504],[-124.125459,44.010512],[-124.125616,44.010482],[-124.125788,44.010415],[-124.125857,44.010434],[-124.125893,44.010666],[-124.126022,44.011116],[-124.12638,44.011784],[-124.126723,44.012305],[-124.127158,44.012852],[-124.12766,44.013577],[-124.127794,44.013689]]]}},{"type":"Feature","properties":{"MAPTAXLOT":"1812160000300","MAPNUMBER":"18121600","TAXLOT":"300","ACCTNO":"0783769","MAPACRES":110.60755162},"geometry":{"type":"Polygon","coordinates":[[[-124.131464,44.006415],[-124.133633,44.006422],[-124.134408,44.005279],[-124.134839,44.004425],[-124.135791,44.001601],[-124.136412,43.9991],[-124.133918,43.999099],[-124.128931,43.99909],[-124.125963,43.999085],[-124.125243,43.999086],[-124.125374,43.999377],[-124.125665,43.99982],[-124.126428,44.000524],[-124.127325,44.001516],[-124.127717,44.001939],[-124.128311,44.00245],[-124.129015,44.003226],[-124.129417,44.003592],[-124.12981,44.00425],[-124.130471,44.005005],[-124.131003,44.005801],[-124.131464,44.006415]]]}},{"type":"Feature","properties":{"MAPTAXLOT":"1812160000400","MAPNUMBER":"18121600","TAXLOT":"400","ACCTNO":"0783777","MAPACRES":144.68714889},"geometry":{"type":"Polygon","coordinates":[[[-124.134401,44.014589],[-124.135366,44.015232],[-124.136129,44.015737],[-124.137544,44.016166],[-124.137974,44.016257],[-124.137974,44.016257],[-124.138056,44.015065],[-124.137706,44.01374],[-124.137665,44.012518],[-124.13762,44.011106],[-124.137761,44.009457],[-124.137746,44.007871],[-124.137855,44.005704],[-124.137798,44.003427],[-124.137833,44.002012],[-124.137797,44.00104],[-124.137837,44.000896],[-124.137892,44.000664],[-124.137945,44.000465],[-124.13803,44.000179],[-124.138107,43.99988],[-124.13809,43.999785],[-124.138103,43.99962],[-124.138114,43.999358],[-124.13812,43.9991],[-124.136412,43.9991],[-124.135791,44.001601],[-124.134839,44.004425],[-124.134408,44.005279],[-124.133633,44.006422],[-124.131464,44.006415],[-124.13153,44.006502],[-124.13182,44.007192],[-124.131804,44.007586],[-124.13181,44.00768],[-124.1319,44.007876],[-124.131943,44.008158],[-124.132028,44.008268],[-124.132146,44.008265],[-124.132315,44.00825],[-124.132473,44.008264],[-124.132732,44.008426],[-124.132776,44.008727],[-124.132745,44.009087],[-124.132724,44.00939],[-124.132578,44.0098],[-124.132412,44.010089],[-124.132101,44.010136],[-124.131919,44.010161],[-124.131718,44.010309],[-124.131651,44.010491],[-124.131784,44.010739],[-124.131991,44.011347],[-124.132224,44.011963],[-124.132508,44.012549],[-124.133027,44.013327],[-124.13339,44.013712],[-124.133758,44.014163],[-124.134401,44.014589]]]}}]}