{"type":"FeatureCollection","features":[{"type":"Feature","properties":{"MAPTAXLOT":"2303000002400","MAPNUMBER":"23030000","TAXLOT":"2400","ACCTNO":"0974178","MAPACRES":321.3954654},"geometry":{"type":"Polygon","coordinates":[[[-122.988057,43.546657],[-122.988057,43.546657],[-122.988065,43.546657],[-122.997873,43.546742],[-123.007694,43.546827],[-123.007677,43.539578],[-122.987718,43.539266],[-122.987814,43.541237],[-122.987814,43.541245],[-122.987886,43.542961],[-122.987964,43.544746],[-122.988057,43.546657]]]}},{"type":"Feature","properties":{"MAPTAXLOT":"2303000002500","MAPNUMBER":"23030000","TAXLOT":"2500","ACCTNO":"0974186","MAPACRES":318.47754006},"geometry":{"type":"Polygon","coordinates":[[[-123.017596,43.546836],[-123.027508,43.546845],[-123.027538,43.543224],[-123.027569,43.539631],[-123.007677,43.539578],[-123.007694,43.546827],[-123.017596,43.546836]]]}}]}