{"type":"FeatureCollection","features":[{"type":"Feature","properties":{"MAPTAXLOT":"1835000000077","MAPNUMBER":"18350000","TAXLOT":"77","ACCTNO":"000None","MAPACRES":31.98202811},"geometry":{"type":"Polygon","coordinates":[[[-122.466544,43.984702],[-122.467136,43.984845],[-122.467402,43.984911],[-122.467695,43.98495],[-122.467987,43.984945],[-122.468256,43.984911],[-122.468527,43.984848],[-122.4688,43.984722],[-122.470227,43.984061],[-122.470705,43.983839],[-122.471053,43.983717],[-122.471312,43.983624],[-122.471583,43.983567],[-122.471903,43.983555],[-122.472293,43.983589],[-122.472709,43.983697],[-122.473338,43.98388],[-122.475092,43.984349],[-122.47666,43.98478],[-122.4776,43.985041],[-122.478491,43.985275],[-122.480378,43.98579],[-122.481627,43.98615],[-122.48246,43.986392],[-122.482956,43.986543],[-122.483336,43.986642],[-122.483666,43.986719],[-122.483949,43.986784],[-122.484124,43.986816],[-122.48431,43.986855],[-122.484501,43.986881],[-122.484691,43.986892],[-122.484914,43.986888],[-122.485103,43.986856],[-122.48533,43.986817],[-122.486544,43.986433],[-122.486601,43.986411],[-122.486737,43.986359],[-122.486883,43.9863],[-122.487049,43.986218],[-122.487326,43.986051],[-122.487692,43.98581],[-122.488076,43.985576],[-122.488536,43.985312],[-122.488767,43.985186],[-122.489015,43.985081],[-122.489484,43.984929],[-122.489902,43.984811],[-122.490416,43.98465],[-122.490879,43.984511],[-122.49137,43.984385],[-122.491853,43.984274],[-122.492385,43.984168],[-122.492765,43.984099],[-122.492994,43.984059],[-122.493182,43.983984],[-122.493406,43.983902],[-122.494054,43.983526],[-122.494476,43.983256],[-122.494867,43.98303],[-122.495257,43.982853],[-122.495732,43.982682],[-122.495979,43.982624],[-122.496335,43.982577],[-122.496625,43.982552],[-122.497012,43.982552],[-122.497337,43.98256],[-122.497734,43.982575],[-122.498254,43.982559],[-122.498504,43.982554],[-122.498814,43.982542],[-122.499124,43.982516],[-122.499398,43.982483],[-122.499763,43.982407],[-122.500076,43.982352],[-122.50037,43.982239],[-122.500529,43.982171],[-122.500665,43.982082],[-122.500828,43.981986],[-122.501008,43.981911],[-122.501225,43.981845],[-122.501449,43.981759],[-122.501719,43.981702],[-122.502063,43.98169],[-122.502444,43.981683],[-122.502856,43.98169],[-122.50321,43.981691],[-122.503614,43.981705],[-122.504009,43.981698],[-122.504405,43.981698],[-122.504707,43.981679],[-122.505027,43.981645],[-122.505383,43.981597],[-122.505683,43.98155],[-122.505938,43.9815],[-122.505941,43.981441],[-122.505943,43.981386],[-122.505644,43.981444],[-122.505352,43.98149],[-122.505002,43.981537],[-122.50469,43.98157],[-122.504398,43.981588],[-122.504008,43.981588],[-122.503616,43.981595],[-122.503214,43.981581],[-122.502858,43.98158],[-122.502444,43.981573],[-122.502058,43.98158],[-122.501693,43.981593],[-122.501391,43.981657],[-122.50116,43.981746],[-122.50094,43.981812],[-122.500742,43.981896],[-122.500566,43.981999],[-122.500439,43.982082],[-122.500296,43.982143],[-122.500021,43.982248],[-122.499724,43.982301],[-122.499364,43.982376],[-122.499103,43.982407],[-122.498801,43.982433],[-122.498498,43.982445],[-122.498249,43.982449],[-122.497734,43.982465],[-122.497343,43.982451],[-122.497015,43.982442],[-122.496615,43.982442],[-122.496312,43.982469],[-122.495942,43.982517],[-122.495674,43.98258],[-122.495182,43.982757],[-122.494779,43.98294],[-122.494378,43.983172],[-122.493955,43.983442],[-122.493323,43.983809],[-122.493111,43.983887],[-122.492939,43.983956],[-122.492729,43.983993],[-122.492346,43.984062],[-122.49181,43.984168],[-122.491322,43.984281],[-122.490824,43.984408],[-122.490356,43.984549],[-122.489844,43.98471],[-122.489425,43.984828],[-122.488945,43.984983],[-122.488682,43.985094],[-122.488442,43.985225],[-122.48798,43.985491],[-122.487592,43.985727],[-122.487226,43.985969],[-122.486957,43.98613],[-122.486802,43.986206],[-122.486664,43.986263],[-122.4866,43.986287],[-122.486478,43.986334],[-122.485281,43.986712],[-122.485068,43.986749],[-122.484895,43.986779],[-122.484696,43.986782],[-122.484521,43.986772],[-122.484345,43.986748],[-122.484164,43.98671],[-122.483991,43.986679],[-122.483713,43.986615],[-122.483385,43.986538],[-122.483011,43.986441],[-122.482518,43.98629],[-122.481684,43.986048],[-122.480433,43.985688],[-122.478544,43.985173],[-122.477653,43.984938],[-122.476714,43.984677],[-122.475145,43.984247],[-122.473393,43.983778],[-122.472763,43.983594],[-122.472328,43.983481],[-122.471908,43.983445],[-122.471558,43.983458],[-122.471257,43.983522],[-122.470986,43.983618],[-122.470631,43.983743],[-122.470145,43.983968],[-122.468718,43.98463],[-122.468462,43.984748],[-122.468219,43.984805],[-122.467972,43.984835],[-122.467707,43.98484],[-122.467441,43.984805],[-122.467185,43.984741],[-122.466544,43.984586],[-122.466517,43.984579],[-122.465907,43.984437],[-122.465288,43.984295],[-122.464716,43.984159],[-122.464276,43.984068],[-122.463906,43.984026],[-122.463591,43.983983],[-122.463165,43.983914],[-122.46276,43.983865],[-122.462326,43.983797],[-122.461786,43.983736],[-122.46039,43.983525],[-122.459576,43.9834],[-122.459118,43.983365],[-122.458365,43.983337],[-122.457095,43.98333],[-122.4555,43.983351],[-122.453954,43.983419],[-122.452888,43.983499],[-122.451766,43.983623],[-122.451076,43.983725],[-122.450445,43.983819],[-122.449682,43.983956],[-122.449175,43.984028],[-122.448573,43.984142],[-122.446523,43.984492],[-122.446409,43.984511],[-122.445111,43.984692],[-122.444336,43.98481],[-122.443658,43.984918],[-122.44313,43.985004],[-122.442857,43.985065],[-122.442573,43.985149],[-122.442273,43.985281],[-122.442048,43.985389],[-122.441762,43.985501],[-122.441494,43.985573],[-122.441224,43.985625],[-122.440934,43.985664],[-122.440644,43.985683],[-122.440411,43.985686],[-122.4402,43.98567],[-122.439947,43.985627],[-122.439756,43.985583],[-122.43951,43.985526],[-122.437798,43.984927],[-122.43745,43.984789],[-122.437259,43.98471],[-122.43703,43.984594],[-122.436855,43.984545],[-122.436702,43.984511],[-122.436517,43.984491],[-122.43633,43.984526],[-122.436179,43.984588],[-122.436011,43.984659],[-122.435813,43.984728],[-122.435631,43.984756],[-122.435414,43.984747],[-122.435234,43.984729],[-122.43467,43.984669],[-122.434477,43.984672],[-122.434268,43.98469],[-122.434057,43.98473],[-122.433901,43.984779],[-122.433762,43.984854],[-122.433544,43.984969],[-122.432655,43.985463],[-122.432457,43.985592],[-122.432262,43.985704],[-122.432046,43.985821],[-122.431889,43.985862],[-122.431697,43.985898],[-122.431512,43.985915],[-122.431353,43.985924],[-122.431179,43.985927],[-122.431004,43.98591],[-122.430841,43.985887],[-122.430649,43.985825],[-122.430431,43.985734],[-122.4302,43.985622],[-122.430009,43.985523],[-122.429757,43.985363],[-122.428882,43.984808],[-122.428468,43.984584],[-122.428111,43.984414],[-122.427846,43.984321],[-122.427437,43.984161],[-122.427094,43.984048],[-122.426676,43.983923],[-122.426412,43.983844],[-122.426356,43.98383],[-122.426106,43.983771],[-122.425755,43.983714],[-122.425388,43.983651],[-122.425042,43.983602],[-122.424483,43.983494],[-122.424116,43.983431],[-122.423739,43.983361],[-122.422977,43.983229],[-122.422408,43.983128],[-122.421979,43.983046],[-122.421645,43.98295],[-122.42132,43.982847],[-122.421084,43.982773],[-122.420512,43.982588],[-122.420017,43.98243],[-122.419615,43.982311],[-122.41924,43.982226],[-122.4189,43.982181],[-122.41866,43.982185],[-122.418319,43.982205],[-122.41796,43.982254],[-122.417315,43.982363],[-122.416722,43.982505],[-122.415742,43.982743],[-122.41535,43.982825],[-122.415146,43.982841],[-122.414857,43.982812],[-122.414574,43.982782],[-122.414246,43.982773],[-122.413915,43.982808],[-122.413564,43.982906],[-122.41333,43.982972],[-122.413074,43.983023],[-122.412877,43.983032],[-122.412716,43.983022],[-122.412524,43.982986],[-122.412299,43.982923],[-122.412078,43.982841],[-122.411822,43.982685],[-122.411492,43.982451],[-122.41123,43.98223],[-122.411008,43.982018],[-122.410796,43.981709],[-122.410566,43.9815],[-122.410247,43.981353],[-122.409997,43.981278],[-122.409715,43.981204],[-122.409372,43.981188],[-122.409091,43.981199],[-122.408725,43.981206],[-122.408441,43.981224],[-122.408087,43.98121],[-122.407867,43.98118],[-122.40782,43.981174],[-122.407482,43.981138],[-122.40724,43.981108],[-122.407057,43.981056],[-122.406897,43.981036],[-122.406768,43.981038],[-122.406655,43.981077],[-122.406517,43.981181],[-122.406481,43.981209],[-122.406389,43.981318],[-122.406341,43.981421],[-122.406279,43.981545],[-122.406213,43.981665],[-122.406209,43.981672],[-122.406087,43.981812],[-122.405925,43.981941],[-122.405772,43.982043],[-122.405578,43.982142],[-122.405267,43.982299],[-122.404988,43.982433],[-122.404704,43.982539],[-122.404331,43.98262],[-122.403873,43.982704],[-122.403432,43.982802],[-122.403065,43.982885],[-122.402686,43.98302],[-122.402331,43.98318],[-122.402032,43.983329],[-122.401689,43.983457],[-122.401338,43.983553],[-122.400953,43.983686],[-122.400722,43.983778],[-122.400573,43.983899],[-122.400282,43.984147],[-122.400045,43.984355],[-122.399835,43.984602],[-122.399733,43.984803],[-122.399589,43.985096],[-122.399455,43.985358],[-122.399304,43.985568],[-122.399098,43.985765],[-122.398924,43.985884],[-122.398751,43.98594],[-122.398514,43.985938],[-122.398379,43.985899],[-122.398156,43.98579],[-122.398008,43.985695],[-122.397827,43.985615],[-122.397573,43.985566],[-122.397327,43.985578],[-122.397115,43.985643],[-122.396925,43.985757],[-122.396725,43.985894],[-122.396535,43.986038],[-122.396327,43.986216],[-122.39619,43.986339],[-122.395987,43.986398],[-122.395748,43.986429],[-122.395497,43.986453],[-122.395259,43.98645],[-122.395039,43.986507],[-122.394808,43.986607],[-122.394598,43.986743],[-122.394478,43.986876],[-122.394358,43.986947],[-122.394242,43.987006],[-122.394031,43.987009],[-122.393805,43.986929],[-122.39366,43.986817],[-122.393486,43.986662],[-122.393325,43.986499],[-122.393013,43.986315],[-122.392718,43.986279],[-122.392408,43.986308],[-122.392077,43.986381],[-122.391612,43.986514],[-122.391185,43.986652],[-122.390842,43.986724],[-122.39046,43.986855],[-122.390013,43.986971],[-122.389592,43.987065],[-122.389214,43.987159],[-122.388846,43.987215],[-122.388454,43.987274],[-122.388096,43.987407],[-122.387679,43.987548],[-122.387348,43.98773],[-122.387037,43.987868],[-122.386777,43.988026],[-122.386452,43.988191],[-122.38619,43.98832],[-122.386137,43.988353],[-122.386138,43.988495],[-122.386282,43.988408],[-122.386538,43.988281],[-122.38687,43.988113],[-122.387126,43.987957],[-122.387434,43.987821],[-122.387758,43.987642],[-122.388163,43.987506],[-122.388505,43.987379],[-122.388877,43.987323],[-122.389254,43.987264],[-122.389639,43.98717],[-122.390061,43.987075],[-122.390518,43.986956],[-122.390896,43.986826],[-122.391237,43.986755],[-122.391671,43.986615],[-122.392128,43.986485],[-122.39244,43.986416],[-122.392715,43.98639],[-122.392948,43.986419],[-122.393213,43.986575],[-122.393365,43.986728],[-122.393545,43.986888],[-122.393712,43.987019],[-122.393997,43.98712],[-122.394292,43.987115],[-122.39445,43.987035],[-122.394593,43.986949],[-122.394714,43.986815],[-122.394899,43.986695],[-122.395104,43.986607],[-122.395284,43.98656],[-122.395506,43.986563],[-122.395771,43.986537],[-122.396029,43.986504],[-122.396283,43.98643],[-122.396444,43.986286],[-122.396648,43.986111],[-122.396832,43.985971],[-122.397026,43.985839],[-122.397195,43.985738],[-122.397363,43.985686],[-122.397558,43.985677],[-122.397767,43.985717],[-122.397917,43.985783],[-122.398063,43.985877],[-122.398307,43.985996],[-122.398483,43.986048],[-122.398783,43.98605],[-122.39901,43.985976],[-122.399211,43.985839],[-122.399433,43.985627],[-122.399594,43.985402],[-122.399732,43.985133],[-122.399876,43.98484],[-122.399972,43.98465],[-122.400169,43.984419],[-122.400399,43.984217],[-122.400687,43.98397],[-122.400818,43.983865],[-122.401023,43.983783],[-122.401398,43.983654],[-122.401751,43.983557],[-122.40211,43.983424],[-122.402415,43.983272],[-122.40276,43.983115],[-122.403121,43.982988],[-122.403478,43.982906],[-122.403914,43.982809],[-122.404372,43.982725],[-122.404761,43.982641],[-122.405065,43.982528],[-122.405353,43.982389],[-122.405665,43.982231],[-122.405868,43.982129],[-122.406034,43.982018],[-122.406209,43.981878],[-122.406214,43.981872],[-122.406346,43.981722],[-122.406421,43.981584],[-122.406485,43.981457],[-122.406527,43.981364],[-122.406602,43.981276],[-122.406727,43.981181],[-122.406746,43.981167],[-122.406804,43.981147],[-122.406886,43.981146],[-122.407015,43.981162],[-122.40708,43.981181],[-122.407199,43.981215],[-122.407459,43.981246],[-122.407795,43.981282],[-122.408068,43.981319],[-122.408444,43.981334],[-122.408734,43.981315],[-122.409097,43.981309],[-122.409372,43.981298],[-122.409683,43.981312],[-122.409942,43.98138],[-122.410177,43.98145],[-122.410462,43.981583],[-122.410667,43.981768],[-122.410878,43.982076],[-122.411111,43.982299],[-122.411381,43.982526],[-122.411719,43.982766],[-122.411993,43.982933],[-122.412237,43.983023],[-122.412477,43.983091],[-122.41269,43.983131],[-122.412876,43.983143],[-122.4131,43.983131],[-122.413378,43.983076],[-122.413619,43.983009],[-122.413954,43.982915],[-122.414254,43.982883],[-122.41456,43.982892],[-122.414835,43.982921],[-122.415144,43.982952],[-122.415379,43.982933],[-122.415788,43.982848],[-122.41677,43.982609],[-122.417357,43.982468],[-122.417991,43.982361],[-122.418339,43.982314],[-122.418668,43.982295],[-122.418889,43.982291],[-122.419204,43.982333],[-122.419564,43.982415],[-122.419957,43.982531],[-122.42045,43.982689],[-122.421023,43.982873],[-122.42132,43.982967],[-122.421586,43.983051],[-122.421931,43.98315],[-122.42237,43.983234],[-122.422941,43.983335],[-122.423703,43.983467],[-122.424079,43.983537],[-122.424446,43.9836],[-122.425007,43.983709],[-122.425355,43.983758],[-122.425721,43.983821],[-122.426065,43.983877],[-122.426356,43.983946],[-122.426359,43.983947],[-122.426618,43.984024],[-122.427033,43.984149],[-122.427369,43.984259],[-122.427777,43.984418],[-122.428036,43.98451],[-122.428381,43.984674],[-122.428787,43.984894],[-122.429656,43.985445],[-122.429914,43.985609],[-122.430113,43.985712],[-122.43035,43.985827],[-122.43058,43.985923],[-122.430795,43.985992],[-122.430979,43.986018],[-122.43117,43.986037],[-122.431361,43.986034],[-122.431527,43.986024],[-122.431725,43.986006],[-122.431934,43.985966],[-122.432119,43.985918],[-122.432355,43.985791],[-122.432556,43.985676],[-122.432753,43.985548],[-122.433636,43.985056],[-122.433852,43.984942],[-122.433977,43.984874],[-122.434106,43.984834],[-122.434296,43.984798],[-122.434488,43.984782],[-122.43466,43.984779],[-122.435213,43.984838],[-122.435399,43.984856],[-122.435643,43.984867],[-122.435862,43.984832],[-122.436082,43.984756],[-122.436255,43.984683],[-122.436388,43.984629],[-122.436525,43.984603],[-122.436668,43.984618],[-122.436805,43.984649],[-122.436958,43.984691],[-122.437178,43.984803],[-122.437376,43.984884],[-122.437728,43.985025],[-122.439453,43.985628],[-122.43971,43.985687],[-122.439906,43.985733],[-122.440174,43.985779],[-122.440405,43.985796],[-122.440652,43.985792],[-122.440955,43.985773],[-122.441258,43.985732],[-122.441541,43.985678],[-122.441825,43.985601],[-122.442126,43.985483],[-122.442355,43.985374],[-122.442642,43.985247],[-122.442908,43.985169],[-122.443169,43.98511],[-122.443691,43.985025],[-122.444368,43.984917],[-122.445141,43.9848],[-122.446441,43.984618],[-122.446523,43.984604],[-122.44861,43.984248],[-122.449209,43.984135],[-122.449715,43.984064],[-122.450478,43.983926],[-122.451107,43.983832],[-122.451793,43.983731],[-122.452908,43.983608],[-122.453967,43.983528],[-122.455506,43.98346],[-122.457096,43.98344],[-122.45836,43.983446],[-122.459106,43.983475],[-122.459552,43.983508],[-122.460358,43.983632],[-122.461759,43.983844],[-122.462298,43.983904],[-122.462732,43.983973],[-122.463136,43.984022],[-122.46356,43.98409],[-122.46388,43.984134],[-122.464243,43.984176],[-122.464672,43.984264],[-122.465241,43.9844],[-122.46586,43.984542],[-122.466469,43.984683],[-122.466544,43.984702]]]}},{"type":"Feature","properties":{"MAPTAXLOT":"1835000000100","MAPNUMBER":"18350000","TAXLOT":"100","ACCTNO":"0809945","MAPACRES":6723.43295408},"geometry":{"type":"MultiPolygon","coordinates":[[[[-122.386239,44.024683],[-122.386263,44.03193],[-122.386269,44.035552],[-122.386291,44.042604],[-122.390495,44.042622],[-122.391339,44.042626],[-122.394616,44.04264],[-122.395461,44.042644],[-122.395688,44.042644],[-122.396387,44.042643],[-122.399365,44.04264],[-122.400373,44.042639],[-122.400629,44.042639],[-122.401429,44.042638],[-122.405285,44.042634],[-122.406472,44.042634],[-122.41018,44.042633],[-122.4115,44.042633],[-122.415074,44.042633],[-122.416527,44.04264],[-122.420295,44.042659],[-122.421564,44.042665],[-122.425516,44.042685],[-122.4266,44.042695],[-122.4266,44.042694],[-122.426575,44.035459],[-122.426567,44.031839],[-122.426543,44.0246],[-122.421509,44.024599],[-122.40641,44.024597],[-122.406341,44.010128],[-122.421437,44.010124],[-122.426469,44.010122],[-122.426384,43.995642],[-122.421354,43.995645],[-122.406261,43.995656],[-122.406214,43.981872],[-122.406209,43.981878],[-122.406034,43.982018],[-122.405868,43.982129],[-122.405665,43.982231],[-122.405353,43.982389],[-122.405065,43.982528],[-122.404761,43.982641],[-122.404372,43.982725],[-122.403914,43.982809],[-122.403478,43.982906],[-122.403121,43.982988],[-122.40276,43.983115],[-122.402415,43.983272],[-122.40211,43.983424],[-122.401751,43.983557],[-122.401398,43.983654],[-122.401023,43.983783],[-122.400818,43.983865],[-122.400687,43.98397],[-122.400399,43.984217],[-122.400169,43.984419],[-122.399972,43.98465],[-122.399876,43.98484],[-122.399732,43.985133],[-122.399594,43.985402],[-122.399433,43.985627],[-122.399211,43.985839],[-122.39901,43.985976],[-122.398783,43.98605],[-122.398483,43.986048],[-122.398307,43.985996],[-122.398063,43.985877],[-122.397917,43.985783],[-122.397767,43.985717],[-122.397558,43.985677],[-122.397363,43.985686],[-122.397195,43.985738],[-122.397026,43.985839],[-122.396832,43.985971],[-122.396648,43.986111],[-122.396444,43.986286],[-122.396283,43.98643],[-122.396029,43.986504],[-122.395771,43.986537],[-122.395506,43.986563],[-122.395284,43.98656],[-122.395104,43.986607],[-122.394899,43.986695],[-122.394714,43.986815],[-122.394593,43.986949],[-122.39445,43.987035],[-122.394292,43.987115],[-122.393997,43.98712],[-122.393712,43.987019],[-122.393545,43.986888],[-122.393365,43.986728],[-122.393213,43.986575],[-122.392948,43.986419],[-122.392715,43.98639],[-122.39244,43.986416],[-122.392128,43.986485],[-122.391671,43.986615],[-122.391237,43.986755],[-122.390896,43.986826],[-122.390518,43.986956],[-122.390061,43.987075],[-122.389639,43.98717],[-122.389254,43.987264],[-122.388877,43.987323],[-122.388505,43.987379],[-122.388163,43.987506],[-122.387758,43.987642],[-122.387434,43.987821],[-122.387126,43.987957],[-122.38687,43.988113],[-122.386538,43.988281],[-122.386282,43.988408],[-122.386138,43.988495],[-122.386179,43.995699],[-122.386185,44.010186],[-122.386239,44.024683]]],[[[-122.386137,43.988353],[-122.38619,43.98832],[-122.386452,43.988191],[-122.386777,43.988026],[-122.387037,43.987868],[-122.387348,43.98773],[-122.387679,43.987548],[-122.388096,43.987407],[-122.388454,43.987274],[-122.388846,43.987215],[-122.389214,43.987159],[-122.389592,43.987065],[-122.390013,43.986971],[-122.39046,43.986855],[-122.390842,43.986724],[-122.391185,43.986652],[-122.391612,43.986514],[-122.392077,43.986381],[-122.392408,43.986308],[-122.392718,43.986279],[-122.393013,43.986315],[-122.393325,43.986499],[-122.393486,43.986662],[-122.39366,43.986817],[-122.393805,43.986929],[-122.394031,43.987009],[-122.394242,43.987006],[-122.394358,43.986947],[-122.394478,43.986876],[-122.394598,43.986743],[-122.394808,43.986607],[-122.395039,43.986507],[-122.395259,43.98645],[-122.395497,43.986453],[-122.395748,43.986429],[-122.395987,43.986398],[-122.39619,43.986339],[-122.396327,43.986216],[-122.396535,43.986038],[-122.396725,43.985894],[-122.396925,43.985757],[-122.397115,43.985643],[-122.397327,43.985578],[-122.397573,43.985566],[-122.397827,43.985615],[-122.398008,43.985695],[-122.398156,43.98579],[-122.398379,43.985899],[-122.398514,43.985938],[-122.398751,43.98594],[-122.398924,43.985884],[-122.399098,43.985765],[-122.399304,43.985568],[-122.399455,43.985358],[-122.399589,43.985096],[-122.399733,43.984803],[-122.399835,43.984602],[-122.400045,43.984355],[-122.400282,43.984147],[-122.400573,43.983899],[-122.400722,43.983778],[-122.400953,43.983686],[-122.401338,43.983553],[-122.401689,43.983457],[-122.402032,43.983329],[-122.402331,43.98318],[-122.402686,43.98302],[-122.403065,43.982885],[-122.403432,43.982802],[-122.403873,43.982704],[-122.404331,43.98262],[-122.404704,43.982539],[-122.404988,43.982433],[-122.405267,43.982299],[-122.405578,43.982142],[-122.405772,43.982043],[-122.405925,43.981941],[-122.406087,43.981812],[-122.406209,43.981672],[-122.406213,43.981665],[-122.406212,43.981181],[-122.406517,43.981181],[-122.406655,43.981077],[-122.406768,43.981038],[-122.406897,43.981036],[-122.407057,43.981056],[-122.40724,43.981108],[-122.407482,43.981138],[-122.40782,43.981174],[-122.407867,43.98118],[-122.421315,43.98117],[-122.426349,43.981165],[-122.426295,43.966686],[-122.426243,43.952201],[-122.419007,43.952212],[-122.416212,43.952213],[-122.408964,43.952224],[-122.406181,43.952227],[-122.398922,43.952249],[-122.396152,43.952252],[-122.38888,43.952275],[-122.386119,43.952282],[-122.3861,43.966748],[-122.386096,43.981219],[-122.386137,43.988353]]],[[[-122.406804,43.981147],[-122.406746,43.981167],[-122.406727,43.981181],[-122.40708,43.981181],[-122.407015,43.981162],[-122.406886,43.981146],[-122.406804,43.981147]]]]}},{"type":"Feature","properties":{"MAPTAXLOT":"1835000000200","MAPNUMBER":"18350000","TAXLOT":"200","ACCTNO":"0809952","MAPACRES":799.19422755},"geometry":{"type":"Polygon","coordinates":[[[-122.426567,44.031839],[-122.426575,44.035459],[-122.4266,44.042694],[-122.4266,44.042695],[-122.430684,44.042729],[-122.43164,44.042738],[-122.435852,44.042774],[-122.435853,44.042774],[-122.436678,44.042731],[-122.441068,44.042521],[-122.441069,44.042521],[-122.441711,44.04249],[-122.446284,44.042268],[-122.446744,44.042254],[-122.446719,44.035434],[-122.44671,44.031814],[-122.446683,44.024573],[-122.426543,44.0246],[-122.426567,44.031839]]]}},{"type":"Feature","properties":{"MAPTAXLOT":"1835000000300","MAPNUMBER":"18350000","TAXLOT":"300","ACCTNO":"0809960","MAPACRES":768.73615025},"geometry":{"type":"Polygon","coordinates":[[[-122.44671,44.031814],[-122.446719,44.035434],[-122.446744,44.042254],[-122.451481,44.042109],[-122.451759,44.042101],[-122.456675,44.04195],[-122.456772,44.041947],[-122.461794,44.041806],[-122.461831,44.041805],[-122.464026,44.041743],[-122.466816,44.041664],[-122.466795,44.035392],[-122.466785,44.031773],[-122.466759,44.024537],[-122.446683,44.024573],[-122.44671,44.031814]]]}},{"type":"Feature","properties":{"MAPTAXLOT":"1835000000800","MAPNUMBER":"18350000","TAXLOT":"800","ACCTNO":"0810018","MAPACRES":639.84424311},"geometry":{"type":"Polygon","coordinates":[[[-122.446683,44.024573],[-122.466759,44.024537],[-122.466676,44.010071],[-122.446587,44.010095],[-122.446683,44.024573]]]}},{"type":"Feature","properties":{"MAPTAXLOT":"1835000000900","MAPNUMBER":"18350000","TAXLOT":"900","ACCTNO":"0810026","MAPACRES":641.61886811},"geometry":{"type":"Polygon","coordinates":[[[-122.426543,44.0246],[-122.446683,44.024573],[-122.446587,44.010095],[-122.426469,44.010122],[-122.426543,44.0246]]]}},{"type":"Feature","properties":{"MAPTAXLOT":"1835000001000","MAPNUMBER":"18350000","TAXLOT":"1000","ACCTNO":"0810034","MAPACRES":160.39686459},"geometry":{"type":"Polygon","coordinates":[[[-122.421509,44.024599],[-122.426543,44.0246],[-122.426469,44.010122],[-122.421437,44.010124],[-122.421509,44.024599]]]}},{"type":"Feature","properties":{"MAPTAXLOT":"1835000001100","MAPNUMBER":"18350000","TAXLOT":"1100","ACCTNO":"0810042","MAPACRES":481.02817807},"geometry":{"type":"Polygon","coordinates":[[[-122.40641,44.024597],[-122.421509,44.024599],[-122.421437,44.010124],[-122.406341,44.010128],[-122.40641,44.024597]]]}},{"type":"Feature","properties":{"MAPTAXLOT":"1835000001200","MAPNUMBER":"18350000","TAXLOT":"1200","ACCTNO":"0810059","MAPACRES":642.36916025},"geometry":{"type":"Polygon","coordinates":[[[-122.426469,44.010122],[-122.446587,44.010095],[-122.446567,43.995622],[-122.426384,43.995642],[-122.426469,44.010122]]]}},{"type":"Feature","properties":{"MAPTAXLOT":"1835000001300","MAPNUMBER":"18350000","TAXLOT":"1300","ACCTNO":"0810067","MAPACRES":639.639046},"geometry":{"type":"Polygon","coordinates":[[[-122.446587,44.010095],[-122.466676,44.010071],[-122.466618,43.995599],[-122.446567,43.995622],[-122.446587,44.010095]]]}},{"type":"Feature","properties":{"MAPTAXLOT":"1835000001800","MAPNUMBER":"18350000","TAXLOT":"1800","ACCTNO":"0810117","MAPACRES":633.6931583},"geometry":{"type":"MultiPolygon","coordinates":[[[[-122.453967,43.983528],[-122.452908,43.983608],[-122.451793,43.983731],[-122.451107,43.983832],[-122.450478,43.983926],[-122.449715,43.984064],[-122.449209,43.984135],[-122.44861,43.984248],[-122.446523,43.984604],[-122.446567,43.995622],[-122.466618,43.995599],[-122.466544,43.984702],[-122.466469,43.984683],[-122.46586,43.984542],[-122.465241,43.9844],[-122.464672,43.984264],[-122.464243,43.984176],[-122.46388,43.984134],[-122.46356,43.98409],[-122.463136,43.984022],[-122.462732,43.983973],[-122.462298,43.983904],[-122.461759,43.983844],[-122.460358,43.983632],[-122.459552,43.983508],[-122.459106,43.983475],[-122.45836,43.983446],[-122.457096,43.98344],[-122.455506,43.98346],[-122.453967,43.983528]]],[[[-122.457095,43.98333],[-122.458365,43.983337],[-122.459118,43.983365],[-122.459576,43.9834],[-122.46039,43.983525],[-122.461786,43.983736],[-122.462326,43.983797],[-122.46276,43.983865],[-122.463165,43.983914],[-122.463591,43.983983],[-122.463906,43.984026],[-122.464276,43.984068],[-122.464716,43.984159],[-122.465288,43.984295],[-122.465907,43.984437],[-122.466517,43.984579],[-122.466544,43.984586],[-122.46652,43.981126],[-122.44651,43.981145],[-122.446523,43.984492],[-122.448573,43.984142],[-122.449175,43.984028],[-122.449682,43.983956],[-122.450445,43.983819],[-122.451076,43.983725],[-122.451766,43.983623],[-122.452888,43.983499],[-122.453954,43.983419],[-122.4555,43.983351],[-122.457095,43.98333]]]]}},{"type":"Feature","properties":{"MAPTAXLOT":"1835000001900","MAPNUMBER":"18350000","TAXLOT":"1900","ACCTNO":"0810125","MAPACRES":637.7866023},"geometry":{"type":"MultiPolygon","coordinates":[[[[-122.426384,43.995642],[-122.446567,43.995622],[-122.446523,43.984604],[-122.446441,43.984618],[-122.445141,43.9848],[-122.444368,43.984917],[-122.443691,43.985025],[-122.443169,43.98511],[-122.442908,43.985169],[-122.442642,43.985247],[-122.442355,43.985374],[-122.442126,43.985483],[-122.441825,43.985601],[-122.441541,43.985678],[-122.441258,43.985732],[-122.440955,43.985773],[-122.440652,43.985792],[-122.440405,43.985796],[-122.440174,43.985779],[-122.439906,43.985733],[-122.43971,43.985687],[-122.439453,43.985628],[-122.437728,43.985025],[-122.437376,43.984884],[-122.437178,43.984803],[-122.436958,43.984691],[-122.436805,43.984649],[-122.436668,43.984618],[-122.436525,43.984603],[-122.436388,43.984629],[-122.436255,43.984683],[-122.436082,43.984756],[-122.435862,43.984832],[-122.435643,43.984867],[-122.435399,43.984856],[-122.435213,43.984838],[-122.43466,43.984779],[-122.434488,43.984782],[-122.434296,43.984798],[-122.434106,43.984834],[-122.433977,43.984874],[-122.433852,43.984942],[-122.433636,43.985056],[-122.432753,43.985548],[-122.432556,43.985676],[-122.432355,43.985791],[-122.432119,43.985918],[-122.431934,43.985966],[-122.431725,43.986006],[-122.431527,43.986024],[-122.431361,43.986034],[-122.43117,43.986037],[-122.430979,43.986018],[-122.430795,43.985992],[-122.43058,43.985923],[-122.43035,43.985827],[-122.430113,43.985712],[-122.429914,43.985609],[-122.429656,43.985445],[-122.428787,43.984894],[-122.428381,43.984674],[-122.428036,43.98451],[-122.427777,43.984418],[-122.427369,43.984259],[-122.427033,43.984149],[-122.426618,43.984024],[-122.426359,43.983947],[-122.426356,43.983946],[-122.426384,43.995642]]],[[[-122.428882,43.984808],[-122.429757,43.985363],[-122.430009,43.985523],[-122.4302,43.985622],[-122.430431,43.985734],[-122.430649,43.985825],[-122.430841,43.985887],[-122.431004,43.98591],[-122.431179,43.985927],[-122.431353,43.985924],[-122.431512,43.985915],[-122.431697,43.985898],[-122.431889,43.985862],[-122.432046,43.985821],[-122.432262,43.985704],[-122.432457,43.985592],[-122.432655,43.985463],[-122.433544,43.984969],[-122.433762,43.984854],[-122.433901,43.984779],[-122.434057,43.98473],[-122.434268,43.98469],[-122.434477,43.984672],[-122.43467,43.984669],[-122.435234,43.984729],[-122.435414,43.984747],[-122.435631,43.984756],[-122.435813,43.984728],[-122.436011,43.984659],[-122.436179,43.984588],[-122.43633,43.984526],[-122.436517,43.984491],[-122.436702,43.984511],[-122.436855,43.984545],[-122.43703,43.984594],[-122.437259,43.98471],[-122.43745,43.984789],[-122.437798,43.984927],[-122.43951,43.985526],[-122.439756,43.985583],[-122.439947,43.985627],[-122.4402,43.98567],[-122.440411,43.985686],[-122.440644,43.985683],[-122.440934,43.985664],[-122.441224,43.985625],[-122.441494,43.985573],[-122.441762,43.985501],[-122.442048,43.985389],[-122.442273,43.985281],[-122.442573,43.985149],[-122.442857,43.985065],[-122.44313,43.985004],[-122.443658,43.984918],[-122.444336,43.98481],[-122.445111,43.984692],[-122.446409,43.984511],[-122.446523,43.984492],[-122.44651,43.981145],[-122.426349,43.981165],[-122.426356,43.98383],[-122.426412,43.983844],[-122.426676,43.983923],[-122.427094,43.984048],[-122.427437,43.984161],[-122.427846,43.984321],[-122.428111,43.984414],[-122.428468,43.984584],[-122.428882,43.984808]]]]}},{"type":"Feature","properties":{"MAPTAXLOT":"1835000002000","MAPNUMBER":"18350000","TAXLOT":"2000","ACCTNO":"0810133","MAPACRES":159.20262922},"geometry":{"type":"MultiPolygon","coordinates":[[[[-122.421354,43.995645],[-122.426384,43.995642],[-122.426356,43.983946],[-122.426065,43.983877],[-122.425721,43.983821],[-122.425355,43.983758],[-122.425007,43.983709],[-122.424446,43.9836],[-122.424079,43.983537],[-122.423703,43.983467],[-122.422941,43.983335],[-122.42237,43.983234],[-122.421931,43.98315],[-122.421586,43.983051],[-122.42132,43.982967],[-122.421354,43.995645]]],[[[-122.42132,43.982847],[-122.421645,43.98295],[-122.421979,43.983046],[-122.422408,43.983128],[-122.422977,43.983229],[-122.423739,43.983361],[-122.424116,43.983431],[-122.424483,43.983494],[-122.425042,43.983602],[-122.425388,43.983651],[-122.425755,43.983714],[-122.426106,43.983771],[-122.426356,43.98383],[-122.426349,43.981165],[-122.421315,43.98117],[-122.42132,43.982847]]]]}},{"type":"Feature","properties":{"MAPTAXLOT":"1835000002100","MAPNUMBER":"18350000","TAXLOT":"2100","ACCTNO":"0810141","MAPACRES":477.43559614},"geometry":{"type":"MultiPolygon","coordinates":[[[[-122.406261,43.995656],[-122.421354,43.995645],[-122.42132,43.982967],[-122.421023,43.982873],[-122.42045,43.982689],[-122.419957,43.982531],[-122.419564,43.982415],[-122.419204,43.982333],[-122.418889,43.982291],[-122.418668,43.982295],[-122.418339,43.982314],[-122.417991,43.982361],[-122.417357,43.982468],[-122.41677,43.982609],[-122.415788,43.982848],[-122.415379,43.982933],[-122.415144,43.982952],[-122.414835,43.982921],[-122.41456,43.982892],[-122.414254,43.982883],[-122.413954,43.982915],[-122.413619,43.983009],[-122.413378,43.983076],[-122.4131,43.983131],[-122.412876,43.983143],[-122.41269,43.983131],[-122.412477,43.983091],[-122.412237,43.983023],[-122.411993,43.982933],[-122.411719,43.982766],[-122.411381,43.982526],[-122.411111,43.982299],[-122.410878,43.982076],[-122.410667,43.981768],[-122.410462,43.981583],[-122.410177,43.98145],[-122.409942,43.98138],[-122.409683,43.981312],[-122.409372,43.981298],[-122.409097,43.981309],[-122.408734,43.981315],[-122.408444,43.981334],[-122.408068,43.981319],[-122.407795,43.981282],[-122.407459,43.981246],[-122.407199,43.981215],[-122.40708,43.981181],[-122.406727,43.981181],[-122.406602,43.981276],[-122.406527,43.981364],[-122.406485,43.981457],[-122.406421,43.981584],[-122.406346,43.981722],[-122.406214,43.981872],[-122.406261,43.995656]]],[[[-122.412078,43.982841],[-122.412299,43.982923],[-122.412524,43.982986],[-122.412716,43.983022],[-122.412877,43.983032],[-122.413074,43.983023],[-122.41333,43.982972],[-122.413564,43.982906],[-122.413915,43.982808],[-122.414246,43.982773],[-122.414574,43.982782],[-122.414857,43.982812],[-122.415146,43.982841],[-122.41535,43.982825],[-122.415742,43.982743],[-122.416722,43.982505],[-122.417315,43.982363],[-122.41796,43.982254],[-122.418319,43.982205],[-122.41866,43.982185],[-122.4189,43.982181],[-122.41924,43.982226],[-122.419615,43.982311],[-122.420017,43.98243],[-122.420512,43.982588],[-122.421084,43.982773],[-122.42132,43.982847],[-122.421315,43.98117],[-122.407867,43.98118],[-122.408087,43.98121],[-122.408441,43.981224],[-122.408725,43.981206],[-122.409091,43.981199],[-122.409372,43.981188],[-122.409715,43.981204],[-122.409997,43.981278],[-122.410247,43.981353],[-122.410566,43.9815],[-122.410796,43.981709],[-122.411008,43.982018],[-122.41123,43.98223],[-122.411492,43.982451],[-122.411822,43.982685],[-122.412078,43.982841]]],[[[-122.406213,43.981665],[-122.406279,43.981545],[-122.406341,43.981421],[-122.406389,43.981318],[-122.406481,43.981209],[-122.406517,43.981181],[-122.406212,43.981181],[-122.406213,43.981665]]]]}},{"type":"Feature","properties":{"MAPTAXLOT":"1835000002200","MAPNUMBER":"18350000","TAXLOT":"2200","ACCTNO":"0810158","MAPACRES":643.01328709},"geometry":{"type":"Polygon","coordinates":[[[-122.426349,43.981165],[-122.44651,43.981145],[-122.446449,43.966665],[-122.426295,43.966686],[-122.426349,43.981165]]]}},{"type":"Feature","properties":{"MAPTAXLOT":"1835000002300","MAPNUMBER":"18350000","TAXLOT":"2300","ACCTNO":"0810166","MAPACRES":638.2325424},"geometry":{"type":"Polygon","coordinates":[[[-122.44651,43.981145],[-122.46652,43.981126],[-122.466468,43.966658],[-122.446449,43.966665],[-122.44651,43.981145]]]}},{"type":"Feature","properties":{"MAPTAXLOT":"1835000002800","MAPNUMBER":"18350000","TAXLOT":"2800","ACCTNO":"0810216","MAPACRES":639.14505308},"geometry":{"type":"Polygon","coordinates":[[[-122.446449,43.966665],[-122.466468,43.966658],[-122.466362,43.952179],[-122.459105,43.952185],[-122.456333,43.952186],[-122.456278,43.952186],[-122.449082,43.952191],[-122.446307,43.952191],[-122.446449,43.966665]]]}},{"type":"Feature","properties":{"MAPTAXLOT":"1835000002900","MAPNUMBER":"18350000","TAXLOT":"2900","ACCTNO":"0810224","MAPACRES":641.68963392},"geometry":{"type":"Polygon","coordinates":[[[-122.426295,43.966686],[-122.446449,43.966665],[-122.446307,43.952191],[-122.439068,43.952194],[-122.436276,43.952195],[-122.42905,43.952199],[-122.426243,43.952201],[-122.426295,43.966686]]]}},{"type":"Feature","properties":{"MAPTAXLOT":"1845000000100","MAPNUMBER":"18450000","TAXLOT":"100","ACCTNO":"0810232","MAPACRES":23760.36954722},"geometry":{"type":"Polygon","coordinates":[[[-122.361515,44.0419],[-122.366277,44.041991],[-122.371404,44.042092],[-122.376352,44.04225],[-122.38094,44.042425],[-122.385529,44.042601],[-122.386291,44.042604],[-122.386269,44.035552],[-122.386263,44.03193],[-122.386239,44.024683],[-122.386185,44.010186],[-122.386179,43.995699],[-122.386138,43.988495],[-122.386137,43.988353],[-122.386096,43.981219],[-122.3861,43.966748],[-122.386119,43.952282],[-122.381608,43.952273],[-122.376088,43.952259],[-122.371576,43.95225],[-122.366054,43.952242],[-122.361541,43.952238],[-122.356019,43.952231],[-122.351567,43.952227],[-122.345985,43.952226],[-122.341534,43.952224],[-122.335952,43.952222],[-122.331515,43.952221],[-122.32592,43.95222],[-122.321483,43.95222],[-122.315887,43.95222],[-122.311426,43.95222],[-122.305855,43.952223],[-122.301393,43.952229],[-122.295822,43.952238],[-122.291406,43.952244],[-122.285788,43.952243],[-122.281371,43.952251],[-122.275754,43.952264],[-122.271398,43.952271],[-122.26572,43.952272],[-122.265719,43.955872],[-122.265719,43.959472],[-122.265719,43.963072],[-122.265718,43.966672],[-122.265718,43.966786],[-122.265714,43.970272],[-122.265709,43.973871],[-122.265704,43.977471],[-122.2657,43.981071],[-122.265699,43.981267],[-122.265689,43.98467],[-122.265679,43.988269],[-122.265669,43.991868],[-122.265658,43.995468],[-122.265657,43.995749],[-122.265642,43.999066],[-122.265625,44.002665],[-122.265609,44.006263],[-122.265592,44.009862],[-122.265589,44.01023],[-122.265559,44.013459],[-122.265525,44.017057],[-122.265491,44.020654],[-122.265458,44.024252],[-122.265453,44.024711],[-122.26542,44.027849],[-122.265382,44.031447],[-122.265344,44.035044],[-122.265307,44.038642],[-122.265285,44.04134],[-122.27338,44.041483],[-122.275363,44.041489],[-122.283546,44.041506],[-122.285441,44.041506],[-122.293649,44.041513],[-122.295575,44.041512],[-122.29856,44.041513],[-122.303472,44.041515],[-122.305706,44.041511],[-122.308416,44.041511],[-122.31336,44.041511],[-122.315839,44.041525],[-122.323103,44.041579],[-122.325969,44.04161],[-122.332858,44.041702],[-122.336083,44.041715],[-122.342421,44.041753],[-122.346195,44.041747],[-122.352039,44.041752],[-122.356242,44.041815],[-122.35889,44.041857],[-122.361515,44.0419]]]}}]}