{"type":"FeatureCollection","features":[{"type":"Feature","properties":{"MAPTAXLOT":"1502000000100","MAPNUMBER":"15020000","TAXLOT":"100","ACCTNO":"0001899","MAPACRES":548.9794639},"geometry":{"type":"Polygon","coordinates":[[[-122.865577,44.258974],[-122.874601,44.258933],[-122.883625,44.258891],[-122.883828,44.255254],[-122.879268,44.255283],[-122.879424,44.251653],[-122.884032,44.251616],[-122.884441,44.244342],[-122.875032,44.244447],[-122.865623,44.244551],[-122.865617,44.246397],[-122.865616,44.246535],[-122.8656,44.251672],[-122.865577,44.258974]]]}},{"type":"Feature","properties":{"MAPTAXLOT":"1502000000200","MAPNUMBER":"15020000","TAXLOT":"200","ACCTNO":"0001907","MAPACRES":36.51340992},"geometry":{"type":"Polygon","coordinates":[[[-122.879268,44.255283],[-122.883828,44.255254],[-122.884032,44.251616],[-122.879424,44.251653],[-122.879268,44.255283]]]}},{"type":"Feature","properties":{"MAPTAXLOT":"1502000000300","MAPNUMBER":"15020000","TAXLOT":"300","ACCTNO":"0001915","MAPACRES":1846.62027361},"geometry":{"type":"Polygon","coordinates":[[[-122.883625,44.258891],[-122.904084,44.259112],[-122.9048,44.244557],[-122.905026,44.237245],[-122.905306,44.229956],[-122.905556,44.222666],[-122.905817,44.215409],[-122.905801,44.215409],[-122.885706,44.215549],[-122.885412,44.229947],[-122.884927,44.237144],[-122.889958,44.23717],[-122.88953,44.244396],[-122.884441,44.244342],[-122.884032,44.251616],[-122.883828,44.255254],[-122.883625,44.258891]]]}},{"type":"Feature","properties":{"MAPTAXLOT":"1502000000400","MAPNUMBER":"15020000","TAXLOT":"400","ACCTNO":"0001923","MAPACRES":80.10127911},"geometry":{"type":"Polygon","coordinates":[[[-122.884441,44.244342],[-122.88953,44.244396],[-122.889958,44.23717],[-122.884927,44.237144],[-122.884805,44.238943],[-122.884684,44.240743],[-122.884441,44.244342]]]}},{"type":"Feature","properties":{"MAPTAXLOT":"1502250000100","MAPNUMBER":"15022500","TAXLOT":"100","ACCTNO":"0001964","MAPACRES":551.73323267},"geometry":{"type":"Polygon","coordinates":[[[-122.875032,44.244447],[-122.884441,44.244342],[-122.884684,44.240743],[-122.882302,44.240768],[-122.881112,44.240781],[-122.879921,44.240794],[-122.880013,44.238993],[-122.881211,44.238981],[-122.882409,44.238969],[-122.884805,44.238943],[-122.884927,44.237144],[-122.885412,44.229947],[-122.871952,44.230068],[-122.870598,44.23008],[-122.870532,44.233685],[-122.865653,44.233731],[-122.865645,44.237337],[-122.865623,44.244551],[-122.875032,44.244447]]]}},{"type":"Feature","properties":{"MAPTAXLOT":"1502250000200","MAPNUMBER":"15022500","TAXLOT":"200","ACCTNO":"0001972","MAPACRES":9.42377734},"geometry":{"type":"Polygon","coordinates":[[[-122.882302,44.240768],[-122.884684,44.240743],[-122.884805,44.238943],[-122.882409,44.238969],[-122.882302,44.240768]]]}},{"type":"Feature","properties":{"MAPTAXLOT":"1502250000300","MAPNUMBER":"15022500","TAXLOT":"300","ACCTNO":"0001980","MAPACRES":4.7130963},"geometry":{"type":"Polygon","coordinates":[[[-122.881112,44.240781],[-122.882302,44.240768],[-122.882409,44.238969],[-122.881211,44.238981],[-122.881112,44.240781]]]}},{"type":"Feature","properties":{"MAPTAXLOT":"1502250000400","MAPNUMBER":"15022500","TAXLOT":"400","ACCTNO":"0001998","MAPACRES":4.71392982},"geometry":{"type":"Polygon","coordinates":[[[-122.879921,44.240794],[-122.881112,44.240781],[-122.881211,44.238981],[-122.880013,44.238993],[-122.879921,44.240794]]]}}]}