{"type":"FeatureCollection","features":[{"type":"Feature","properties":{"MAPTAXLOT":"1585000000077","MAPNUMBER":"15850000","TAXLOT":"77","ACCTNO":"000None","MAPACRES":10.05116855},"geometry":{"type":"Polygon","coordinates":[[[-121.836674,44.249558],[-121.836656,44.24956],[-121.836555,44.249572],[-121.836423,44.249573],[-121.836317,44.249561],[-121.836146,44.249534],[-121.835985,44.249486],[-121.835832,44.249429],[-121.835645,44.249338],[-121.834917,44.248831],[-121.834811,44.248758],[-121.834621,44.248705],[-121.834417,44.248674],[-121.834255,44.248667],[-121.833853,44.248664],[-121.833719,44.248683],[-121.833576,44.248708],[-121.833308,44.24876],[-121.831467,44.249358],[-121.830138,44.2498],[-121.829738,44.249937],[-121.829174,44.250148],[-121.828771,44.25034],[-121.828321,44.250539],[-121.827988,44.2507],[-121.827132,44.251122],[-121.826725,44.251344],[-121.826379,44.251523],[-121.826102,44.251635],[-121.825562,44.2519],[-121.824802,44.252306],[-121.824431,44.252518],[-121.823016,44.253193],[-121.822794,44.253314],[-121.822246,44.253619],[-121.821587,44.253967],[-121.820236,44.254623],[-121.819442,44.255021],[-121.819056,44.255186],[-121.818391,44.255531],[-121.817777,44.255858],[-121.817357,44.256064],[-121.816588,44.256457],[-121.8154,44.257055],[-121.814601,44.257448],[-121.813815,44.257869],[-121.813269,44.258141],[-121.81302,44.258265],[-121.813431,44.25826],[-121.813948,44.258002],[-121.814735,44.257582],[-121.81553,44.25719],[-121.81672,44.256591],[-121.817488,44.256199],[-121.81791,44.255992],[-121.818526,44.255663],[-121.819181,44.255324],[-121.819566,44.255159],[-121.820366,44.254759],[-121.821719,44.254101],[-121.822384,44.253751],[-121.822933,44.253445],[-121.823149,44.253327],[-121.824566,44.252651],[-121.824942,44.252436],[-121.825695,44.252034],[-121.826223,44.251775],[-121.826502,44.251662],[-121.826861,44.251477],[-121.827266,44.251255],[-121.828116,44.250836],[-121.828444,44.250678],[-121.828894,44.250479],[-121.829291,44.25029],[-121.82984,44.250084],[-121.830235,44.249949],[-121.831562,44.249507],[-121.833385,44.248915],[-121.833634,44.248868],[-121.833769,44.248844],[-121.833874,44.248829],[-121.834247,44.248832],[-121.834386,44.248837],[-121.834555,44.248864],[-121.834686,44.2489],[-121.834759,44.24895],[-121.8355,44.249466],[-121.835715,44.249571],[-121.835889,44.249635],[-121.836077,44.249691],[-121.836274,44.249722],[-121.836406,44.249738],[-121.836575,44.249736],[-121.836674,44.249725],[-121.836674,44.249558]]]}},{"type":"Feature","properties":{"MAPTAXLOT":"1585000000100","MAPNUMBER":"15850000","TAXLOT":"100","ACCTNO":"1857323","MAPACRES":4197.56248677},"geometry":{"type":"MultiPolygon","coordinates":[[[[-121.789984,44.249532],[-121.790365,44.249852],[-121.791203,44.250481],[-121.792538,44.251214],[-121.793301,44.251718],[-121.793904,44.252701],[-121.794413,44.253091],[-121.794954,44.253274],[-121.79683,44.254281],[-121.797307,44.254625],[-121.798767,44.257576],[-121.799339,44.258285],[-121.812545,44.258271],[-121.81302,44.258265],[-121.813269,44.258141],[-121.813815,44.257869],[-121.814601,44.257448],[-121.8154,44.257055],[-121.816588,44.256457],[-121.817357,44.256064],[-121.817777,44.255858],[-121.818391,44.255531],[-121.819056,44.255186],[-121.819442,44.255021],[-121.820236,44.254623],[-121.821587,44.253967],[-121.822246,44.253619],[-121.822794,44.253314],[-121.823016,44.253193],[-121.824431,44.252518],[-121.824802,44.252306],[-121.825562,44.2519],[-121.826102,44.251635],[-121.826379,44.251523],[-121.826725,44.251344],[-121.827132,44.251122],[-121.827988,44.2507],[-121.828321,44.250539],[-121.828771,44.25034],[-121.829174,44.250148],[-121.829738,44.249937],[-121.830138,44.2498],[-121.831467,44.249358],[-121.833308,44.24876],[-121.833576,44.248708],[-121.833719,44.248683],[-121.833853,44.248664],[-121.834255,44.248667],[-121.834417,44.248674],[-121.834621,44.248705],[-121.834811,44.248758],[-121.834917,44.248831],[-121.835645,44.249338],[-121.835832,44.249429],[-121.835985,44.249486],[-121.836146,44.249534],[-121.836317,44.249561],[-121.836423,44.249573],[-121.836555,44.249572],[-121.836656,44.24956],[-121.836674,44.249558],[-121.836674,44.247911],[-121.836674,44.244291],[-121.836674,44.24067],[-121.836674,44.23705],[-121.836674,44.23343],[-121.836674,44.22981],[-121.836674,44.22619],[-121.836673,44.22257],[-121.836673,44.21895],[-121.83164,44.21895],[-121.83147,44.21895],[-121.827995,44.21895],[-121.822618,44.21895],[-121.817584,44.21895],[-121.816369,44.21895],[-121.81255,44.21895],[-121.807516,44.21895],[-121.807516,44.21895],[-121.802482,44.21895],[-121.797448,44.21895],[-121.796233,44.21895],[-121.792414,44.21895],[-121.78738,44.21895],[-121.782346,44.21895],[-121.777808,44.21895],[-121.777783,44.219149],[-121.777909,44.22011],[-121.778668,44.222969],[-121.778985,44.223519],[-121.779683,44.22416],[-121.781399,44.225213],[-121.782321,44.225351],[-121.783815,44.225924],[-121.784196,44.226336],[-121.785782,44.229379],[-121.78594,44.2305],[-121.785779,44.231163],[-121.786127,44.232444],[-121.787397,44.234618],[-121.78784,44.236219],[-121.787965,44.237866],[-121.787836,44.238621],[-121.787833,44.241091],[-121.788944,44.242715],[-121.790055,44.24402],[-121.790468,44.244683],[-121.790499,44.245187],[-121.790403,44.245575],[-121.789383,44.247427],[-121.789446,44.247907],[-121.789698,44.248982],[-121.789984,44.249532]]],[[[-121.836674,44.258253],[-121.836674,44.255151],[-121.836674,44.251531],[-121.836674,44.249725],[-121.836575,44.249736],[-121.836406,44.249738],[-121.836274,44.249722],[-121.836077,44.249691],[-121.835889,44.249635],[-121.835715,44.249571],[-121.8355,44.249466],[-121.834759,44.24895],[-121.834686,44.2489],[-121.834555,44.248864],[-121.834386,44.248837],[-121.834247,44.248832],[-121.833874,44.248829],[-121.833769,44.248844],[-121.833634,44.248868],[-121.833385,44.248915],[-121.831562,44.249507],[-121.830235,44.249949],[-121.82984,44.250084],[-121.829291,44.25029],[-121.828894,44.250479],[-121.828444,44.250678],[-121.828116,44.250836],[-121.827266,44.251255],[-121.826861,44.251477],[-121.826502,44.251662],[-121.826223,44.251775],[-121.825695,44.252034],[-121.824942,44.252436],[-121.824566,44.252651],[-121.823149,44.253327],[-121.822933,44.253445],[-121.822384,44.253751],[-121.821719,44.254101],[-121.820366,44.254759],[-121.819566,44.255159],[-121.819181,44.255324],[-121.818526,44.255663],[-121.81791,44.255992],[-121.817488,44.256199],[-121.81672,44.256591],[-121.81553,44.25719],[-121.814735,44.257582],[-121.813948,44.258002],[-121.813431,44.25826],[-121.814455,44.258249],[-121.836674,44.258253]]]]}}]}