{"type":"FeatureCollection","features":[{"type":"Feature","properties":{"MAPTAXLOT":"2303000003100","MAPNUMBER":"23030000","TAXLOT":"3100","ACCTNO":"0974244","MAPACRES":285.96978746},"geometry":{"type":"Polygon","coordinates":[[[-123.082325,43.547418],[-123.087328,43.54744],[-123.087338,43.543806],[-123.08734,43.540163],[-123.082293,43.540102],[-123.077255,43.540041],[-123.072221,43.539979],[-123.067397,43.539921],[-123.067449,43.543788],[-123.072341,43.543793],[-123.072326,43.547374],[-123.077323,43.547396],[-123.082325,43.547418]]]}}]}