{"type":"FeatureCollection","features":[{"type":"Feature","properties":{"MAPTAXLOT":"1825000003800","MAPNUMBER":"18250000","TAXLOT":"3800","ACCTNO":"0809887","MAPACRES":653.83781994},"geometry":{"type":"Polygon","coordinates":[[[-122.506292,43.966708],[-122.506292,43.966708],[-122.516329,43.967313],[-122.526326,43.967256],[-122.526439,43.959899],[-122.526627,43.952484],[-122.526627,43.952478],[-122.519247,43.952311],[-122.516439,43.952251],[-122.509239,43.952162],[-122.506472,43.952127],[-122.506472,43.952135],[-122.506649,43.959114],[-122.506649,43.959117],[-122.506639,43.959314],[-122.506292,43.966701],[-122.506292,43.966708]]]}},{"type":"Feature","properties":{"MAPTAXLOT":"1835000002600","MAPNUMBER":"18350000","TAXLOT":"2600","ACCTNO":"0810190","MAPACRES":642.53607112},"geometry":{"type":"Polygon","coordinates":[[[-122.486478,43.966677],[-122.496504,43.966689],[-122.506292,43.966701],[-122.506639,43.959314],[-122.506649,43.959117],[-122.506649,43.959114],[-122.506472,43.952135],[-122.506472,43.952127],[-122.499239,43.952153],[-122.496444,43.952157],[-122.489238,43.952182],[-122.486416,43.952183],[-122.486478,43.966677]]]}},{"type":"Feature","properties":{"MAPTAXLOT":"1835000002700","MAPNUMBER":"18350000","TAXLOT":"2700","ACCTNO":"0810208","MAPACRES":639.47939042},"geometry":{"type":"Polygon","coordinates":[[[-122.466468,43.966658],[-122.486478,43.966677],[-122.486416,43.952183],[-122.479186,43.952181],[-122.476389,43.952181],[-122.469131,43.952179],[-122.466362,43.952179],[-122.466468,43.966658]]]}},{"type":"Feature","properties":{"MAPTAXLOT":"1835000002800","MAPNUMBER":"18350000","TAXLOT":"2800","ACCTNO":"0810216","MAPACRES":639.14505308},"geometry":{"type":"Polygon","coordinates":[[[-122.446449,43.966665],[-122.466468,43.966658],[-122.466362,43.952179],[-122.459105,43.952185],[-122.456333,43.952186],[-122.456278,43.952186],[-122.449082,43.952191],[-122.446307,43.952191],[-122.446449,43.966665]]]}},{"type":"Feature","properties":{"MAPTAXLOT":"1925000000100","MAPNUMBER":"19250000","TAXLOT":"100","ACCTNO":"0876316","MAPACRES":590.6682655},"geometry":{"type":"Polygon","coordinates":[[[-122.526627,43.952478],[-122.529256,43.952486],[-122.529256,43.94979],[-122.529257,43.94617],[-122.529264,43.938934],[-122.509252,43.938932],[-122.509242,43.946167],[-122.50924,43.949786],[-122.509239,43.952162],[-122.516439,43.952251],[-122.519247,43.952311],[-122.526627,43.952478]]]}},{"type":"Feature","properties":{"MAPTAXLOT":"1925000001200","MAPNUMBER":"19250000","TAXLOT":"1200","ACCTNO":"0876423","MAPACRES":638.57228341},"geometry":{"type":"Polygon","coordinates":[[[-122.509252,43.938932],[-122.529264,43.938934],[-122.529277,43.924474],[-122.509244,43.92446],[-122.509252,43.938932]]]}},{"type":"Feature","properties":{"MAPTAXLOT":"1925000001300","MAPNUMBER":"19250000","TAXLOT":"1300","ACCTNO":"0876431","MAPACRES":640.28165147},"geometry":{"type":"Polygon","coordinates":[[[-122.509244,43.92446],[-122.529277,43.924474],[-122.529214,43.910013],[-122.50911,43.909984],[-122.509244,43.92446]]]}},{"type":"Feature","properties":{"MAPTAXLOT":"1925000002400","MAPNUMBER":"19250000","TAXLOT":"2400","ACCTNO":"0876548","MAPACRES":641.21549256},"geometry":{"type":"Polygon","coordinates":[[[-122.50911,43.909984],[-122.529214,43.910013],[-122.529145,43.895553],[-122.509052,43.895514],[-122.50911,43.909984]]]}},{"type":"Feature","properties":{"MAPTAXLOT":"1925000002500","MAPNUMBER":"19250000","TAXLOT":"2500","ACCTNO":"0876555","MAPACRES":641.373136},"geometry":{"type":"Polygon","coordinates":[[[-122.509052,43.895514],[-122.529145,43.895553],[-122.529116,43.881091],[-122.509004,43.881051],[-122.509052,43.895514]]]}},{"type":"Feature","properties":{"MAPTAXLOT":"1935000000300","MAPNUMBER":"19350000","TAXLOT":"300","ACCTNO":"0876704","MAPACRES":580.66563796},"geometry":{"type":"Polygon","coordinates":[[[-122.466362,43.952179],[-122.469131,43.952179],[-122.469128,43.949869],[-122.469122,43.946248],[-122.469107,43.939006],[-122.449078,43.939071],[-122.449079,43.94631],[-122.449081,43.94993],[-122.449082,43.952191],[-122.456278,43.952186],[-122.456333,43.952186],[-122.459105,43.952185],[-122.466362,43.952179]]]}},{"type":"Feature","properties":{"MAPTAXLOT":"1935000000400","MAPNUMBER":"19350000","TAXLOT":"400","ACCTNO":"0876712","MAPACRES":584.31495606},"geometry":{"type":"Polygon","coordinates":[[[-122.486416,43.952183],[-122.489238,43.952182],[-122.489231,43.949824],[-122.489218,43.946204],[-122.489177,43.938967],[-122.469107,43.939006],[-122.469122,43.946248],[-122.469128,43.949869],[-122.469131,43.952179],[-122.476389,43.952181],[-122.479186,43.952181],[-122.486416,43.952183]]]}},{"type":"Feature","properties":{"MAPTAXLOT":"1935000000500","MAPNUMBER":"19350000","TAXLOT":"500","ACCTNO":"0876720","MAPACRES":583.13297717},"geometry":{"type":"Polygon","coordinates":[[[-122.506472,43.952127],[-122.509239,43.952162],[-122.50924,43.949786],[-122.509242,43.946167],[-122.509252,43.938932],[-122.504202,43.938938],[-122.499193,43.938944],[-122.489177,43.938967],[-122.489218,43.946204],[-122.489231,43.949824],[-122.489238,43.952182],[-122.496444,43.952157],[-122.499239,43.952153],[-122.506472,43.952127]]]}},{"type":"Feature","properties":{"MAPTAXLOT":"1935000000600","MAPNUMBER":"19350000","TAXLOT":"600","ACCTNO":"0876738","MAPACRES":640.67464284},"geometry":{"type":"Polygon","coordinates":[[[-122.504202,43.938938],[-122.509252,43.938932],[-122.509244,43.92446],[-122.504169,43.92447],[-122.499159,43.92448],[-122.489139,43.924506],[-122.489177,43.938967],[-122.499193,43.938944],[-122.504202,43.938938]]]}},{"type":"Feature","properties":{"MAPTAXLOT":"1935000000700","MAPNUMBER":"19350000","TAXLOT":"700","ACCTNO":"0876746","MAPACRES":640.29240767},"geometry":{"type":"Polygon","coordinates":[[[-122.469107,43.939006],[-122.489177,43.938967],[-122.489139,43.924506],[-122.469067,43.924525],[-122.469107,43.939006]]]}},{"type":"Feature","properties":{"MAPTAXLOT":"1935000000800","MAPNUMBER":"19350000","TAXLOT":"800","ACCTNO":"0876753","MAPACRES":638.77425687},"geometry":{"type":"Polygon","coordinates":[[[-122.449078,43.939071],[-122.469107,43.939006],[-122.469067,43.924525],[-122.449071,43.924595],[-122.449078,43.939071]]]}},{"type":"Feature","properties":{"MAPTAXLOT":"1935000001200","MAPNUMBER":"19350000","TAXLOT":"1200","ACCTNO":"0876795","MAPACRES":637.69711888},"geometry":{"type":"Polygon","coordinates":[[[-122.449071,43.924595],[-122.469067,43.924525],[-122.469017,43.910051],[-122.449067,43.910111],[-122.449071,43.924595]]]}},{"type":"Feature","properties":{"MAPTAXLOT":"1935000001300","MAPNUMBER":"19350000","TAXLOT":"1300","ACCTNO":"0876803","MAPACRES":640.48797063},"geometry":{"type":"Polygon","coordinates":[[[-122.469067,43.924525],[-122.489139,43.924506],[-122.489098,43.910046],[-122.469017,43.910051],[-122.469067,43.924525]]]}},{"type":"Feature","properties":{"MAPTAXLOT":"1935000001400","MAPNUMBER":"19350000","TAXLOT":"1400","ACCTNO":"0876811","MAPACRES":639.86037583},"geometry":{"type":"Polygon","coordinates":[[[-122.504169,43.92447],[-122.509244,43.92446],[-122.50911,43.909984],[-122.504124,43.91],[-122.499115,43.910016],[-122.489098,43.910046],[-122.489139,43.924506],[-122.499159,43.92448],[-122.504169,43.92447]]]}},{"type":"Feature","properties":{"MAPTAXLOT":"1935000001500","MAPNUMBER":"19350000","TAXLOT":"1500","ACCTNO":"0876829","MAPACRES":638.65096267},"geometry":{"type":"Polygon","coordinates":[[[-122.504124,43.91],[-122.50911,43.909984],[-122.509052,43.895514],[-122.504064,43.895531],[-122.499056,43.895549],[-122.489039,43.895576],[-122.489098,43.910046],[-122.499115,43.910016],[-122.504124,43.91]]]}},{"type":"Feature","properties":{"MAPTAXLOT":"1935000001600","MAPNUMBER":"19350000","TAXLOT":"1600","ACCTNO":"0876837","MAPACRES":640.24440753},"geometry":{"type":"Polygon","coordinates":[[[-122.469017,43.910051],[-122.489098,43.910046],[-122.489039,43.895576],[-122.468999,43.89558],[-122.469017,43.910051]]]}},{"type":"Feature","properties":{"MAPTAXLOT":"1935000001700","MAPNUMBER":"19350000","TAXLOT":"1700","ACCTNO":"0876845","MAPACRES":637.16527299},"geometry":{"type":"Polygon","coordinates":[[[-122.449067,43.910111],[-122.469017,43.910051],[-122.468999,43.89558],[-122.449038,43.895629],[-122.449067,43.910111]]]}},{"type":"Feature","properties":{"MAPTAXLOT":"1935000002100","MAPNUMBER":"19350000","TAXLOT":"2100","ACCTNO":"0876886","MAPACRES":637.68492365},"geometry":{"type":"Polygon","coordinates":[[[-122.449038,43.895629],[-122.468999,43.89558],[-122.468909,43.88111],[-122.448941,43.881143],[-122.449038,43.895629]]]}},{"type":"Feature","properties":{"MAPTAXLOT":"1935000002200","MAPNUMBER":"19350000","TAXLOT":"2200","ACCTNO":"0876894","MAPACRES":640.5603581},"geometry":{"type":"Polygon","coordinates":[[[-122.468999,43.89558],[-122.489039,43.895576],[-122.488989,43.881099],[-122.468909,43.88111],[-122.468999,43.89558]]]}},{"type":"Feature","properties":{"MAPTAXLOT":"1935000002300","MAPNUMBER":"19350000","TAXLOT":"2300","ACCTNO":"0876902","MAPACRES":638.83100117},"geometry":{"type":"Polygon","coordinates":[[[-122.504064,43.895531],[-122.509052,43.895514],[-122.509004,43.881051],[-122.504004,43.881067],[-122.498999,43.881082],[-122.488989,43.881099],[-122.489039,43.895576],[-122.499056,43.895549],[-122.504064,43.895531]]]}}]}