{"type":"FeatureCollection","features":[{"type":"Feature","properties":{"MAPTAXLOT":"2245000000077","MAPNUMBER":"22450000","TAXLOT":"77","ACCTNO":"000None","MAPACRES":7.16128963},"geometry":{"type":"Polygon","coordinates":[[[-122.348758,43.671054],[-122.349052,43.671094],[-122.349284,43.671187],[-122.349414,43.671338],[-122.349536,43.671592],[-122.34974,43.671863],[-122.350013,43.672135],[-122.350286,43.672355],[-122.350614,43.672529],[-122.350933,43.672626],[-122.351484,43.672671],[-122.351963,43.672716],[-122.35253,43.672797],[-122.353005,43.672959],[-122.353612,43.673242],[-122.354045,43.673513],[-122.354494,43.673772],[-122.354724,43.673878],[-122.355414,43.674058],[-122.356183,43.674251],[-122.356999,43.6744],[-122.358164,43.674714],[-122.359131,43.67494],[-122.360087,43.675175],[-122.361096,43.675401],[-122.361755,43.675548],[-122.362381,43.67574],[-122.363019,43.676],[-122.363373,43.676187],[-122.36403,43.676688],[-122.36464,43.677184],[-122.365089,43.677534],[-122.365594,43.67802],[-122.36623,43.678522],[-122.366926,43.67902],[-122.367582,43.679596],[-122.368148,43.680019],[-122.368674,43.680549],[-122.36942,43.681248],[-122.369877,43.681655],[-122.370216,43.682139],[-122.370989,43.683054],[-122.371547,43.683878],[-122.372033,43.68453],[-122.372194,43.685015],[-122.372268,43.685391],[-122.372155,43.685788],[-122.372042,43.686235],[-122.371782,43.686714],[-122.371436,43.687326],[-122.37136,43.687709],[-122.371416,43.688088],[-122.371652,43.688607],[-122.371817,43.689145],[-122.372119,43.6899],[-122.372303,43.690219],[-122.3723,43.690001],[-122.372226,43.689873],[-122.371927,43.689124],[-122.371761,43.688585],[-122.371527,43.688071],[-122.371474,43.68771],[-122.371546,43.687348],[-122.371887,43.686744],[-122.372151,43.686257],[-122.372266,43.685807],[-122.372266,43.685804],[-122.372384,43.685394],[-122.372332,43.68513],[-122.372306,43.685],[-122.37226,43.684862],[-122.372139,43.684501],[-122.371647,43.68384],[-122.371089,43.683014],[-122.370315,43.682099],[-122.369973,43.68161],[-122.369509,43.681197],[-122.368764,43.6805],[-122.368235,43.679966],[-122.367667,43.679541],[-122.36701,43.678964],[-122.366312,43.678465],[-122.365681,43.677967],[-122.365176,43.677481],[-122.364724,43.677129],[-122.364114,43.676632],[-122.363448,43.676125],[-122.36308,43.675931],[-122.362431,43.675666],[-122.361794,43.675471],[-122.361129,43.675322],[-122.360122,43.675096],[-122.359167,43.674862],[-122.358201,43.674636],[-122.357032,43.674322],[-122.356216,43.674172],[-122.355451,43.67398],[-122.354775,43.673804],[-122.35456,43.673705],[-122.354118,43.67345],[-122.35368,43.673175],[-122.35306,43.672887],[-122.352566,43.672718],[-122.351981,43.672635],[-122.351498,43.67259],[-122.350962,43.672546],[-122.35067,43.672457],[-122.350362,43.672293],[-122.350101,43.672083],[-122.349836,43.671819],[-122.34964,43.671559],[-122.349517,43.671302],[-122.349365,43.671125],[-122.349091,43.671015],[-122.348778,43.670973],[-122.348758,43.671054]]]}},{"type":"Feature","properties":{"MAPTAXLOT":"2245000000099","MAPNUMBER":"22450000","TAXLOT":"99","ACCTNO":"000None","MAPACRES":162.93626686},"geometry":{"type":"Polygon","coordinates":[[[-122.271425,43.675259],[-122.272239,43.6752],[-122.273518,43.675209],[-122.274597,43.675253],[-122.275428,43.675497],[-122.275961,43.675867],[-122.276268,43.676636],[-122.276577,43.677826],[-122.276938,43.678841],[-122.277575,43.679596],[-122.278232,43.679961],[-122.279022,43.680394],[-122.279965,43.680734],[-122.281045,43.68075],[-122.281817,43.680613],[-122.28274,43.680374],[-122.283292,43.679956],[-122.284158,43.679664],[-122.285839,43.679447],[-122.286703,43.67946],[-122.287269,43.679565],[-122.287626,43.679835],[-122.288142,43.680303],[-122.288942,43.681025],[-122.289615,43.681739],[-122.290242,43.682549],[-122.290512,43.683193],[-122.290529,43.683772],[-122.290733,43.684806],[-122.291539,43.685498],[-122.292177,43.685734],[-122.293356,43.685874],[-122.294583,43.685762],[-122.295491,43.685555],[-122.296619,43.68559],[-122.299156,43.685945],[-122.303108,43.686608],[-122.304975,43.686874],[-122.305207,43.686907],[-122.305436,43.686945],[-122.305665,43.686988],[-122.305891,43.687035],[-122.306115,43.687088],[-122.306256,43.68713],[-122.306394,43.687176],[-122.306529,43.687228],[-122.30666,43.687284],[-122.306788,43.687344],[-122.306911,43.687409],[-122.30703,43.687477],[-122.307145,43.68755],[-122.307255,43.687627],[-122.307359,43.687707],[-122.307459,43.687791],[-122.307552,43.687878],[-122.30764,43.687968],[-122.307722,43.688061],[-122.307798,43.688157],[-122.307868,43.688255],[-122.307931,43.688355],[-122.307988,43.688458],[-122.308037,43.688562],[-122.30808,43.688668],[-122.308117,43.688776],[-122.308146,43.688884],[-122.308168,43.688993],[-122.308183,43.689103],[-122.30819,43.689214],[-122.308184,43.689385],[-122.308171,43.689555],[-122.308151,43.689726],[-122.308124,43.689896],[-122.30809,43.690065],[-122.307805,43.691485],[-122.307785,43.691603],[-122.307773,43.691721],[-122.307767,43.691839],[-122.307769,43.691957],[-122.307779,43.692075],[-122.307795,43.692193],[-122.307819,43.69231],[-122.30785,43.692426],[-122.307888,43.692541],[-122.307933,43.692654],[-122.307985,43.692766],[-122.308043,43.692877],[-122.308109,43.692985],[-122.308181,43.693091],[-122.30826,43.693195],[-122.308345,43.693296],[-122.308436,43.693394],[-122.308533,43.693489],[-122.308635,43.69358],[-122.308744,43.693669],[-122.308857,43.693754],[-122.308976,43.693835],[-122.3091,43.693912],[-122.309228,43.693985],[-122.30936,43.694053],[-122.309497,43.694118],[-122.309637,43.694178],[-122.309782,43.694233],[-122.310696,43.694565],[-122.310933,43.694651],[-122.311173,43.694731],[-122.311415,43.694808],[-122.31166,43.69488],[-122.311847,43.694917],[-122.312035,43.694948],[-122.312225,43.694973],[-122.312416,43.694994],[-122.312607,43.695008],[-122.3128,43.695018],[-122.312993,43.695022],[-122.313186,43.69502],[-122.313379,43.695013],[-122.313571,43.695001],[-122.313763,43.694983],[-122.313953,43.694959],[-122.314142,43.694931],[-122.314329,43.694897],[-122.314514,43.694857],[-122.314697,43.694813],[-122.314878,43.694763],[-122.315055,43.694708],[-122.31523,43.694648],[-122.315401,43.694584],[-122.315569,43.694514],[-122.315732,43.69444],[-122.315892,43.694361],[-122.316047,43.694278],[-122.316198,43.69419],[-122.316344,43.694099],[-122.316485,43.694003],[-122.31662,43.693903],[-122.31675,43.6938],[-122.316874,43.693692],[-122.316993,43.693582],[-122.317105,43.693468],[-122.317211,43.693351],[-122.317311,43.693231],[-122.317405,43.693109],[-122.317491,43.692983],[-122.317571,43.692856],[-122.317644,43.692726],[-122.31771,43.692595],[-122.317769,43.692461],[-122.31782,43.692326],[-122.317864,43.69219],[-122.317901,43.692052],[-122.31793,43.691914],[-122.317952,43.691775],[-122.317967,43.691635],[-122.317974,43.691495],[-122.317973,43.691355],[-122.317965,43.691215],[-122.317949,43.691076],[-122.317926,43.690937],[-122.317895,43.690798],[-122.317857,43.690661],[-122.317811,43.690525],[-122.317758,43.69039],[-122.317698,43.690257],[-122.317631,43.690126],[-122.317557,43.689996],[-122.317476,43.689869],[-122.317336,43.689706],[-122.317191,43.689546],[-122.31704,43.689388],[-122.316884,43.689233],[-122.315724,43.688091],[-122.315519,43.687891],[-122.3153,43.687689],[-122.315076,43.68749],[-122.314847,43.687295],[-122.314612,43.687103],[-122.314371,43.686915],[-122.314125,43.686731],[-122.313874,43.68655],[-122.313618,43.686373],[-122.313357,43.6862],[-122.313092,43.686031],[-122.312821,43.685865],[-122.312546,43.685704],[-122.312266,43.685547],[-122.311982,43.685394],[-122.311694,43.685246],[-122.311401,43.685102],[-122.311104,43.684962],[-122.310804,43.684827],[-122.3105,43.684696],[-122.310192,43.68457],[-122.30988,43.684448],[-122.309566,43.684331],[-122.309248,43.684219],[-122.308927,43.684112],[-122.308602,43.684009],[-122.308276,43.683911],[-122.307946,43.683818],[-122.307622,43.683734],[-122.306997,43.683574],[-122.306822,43.683529],[-122.306649,43.683479],[-122.306479,43.683425],[-122.306311,43.683368],[-122.306202,43.683323],[-122.306096,43.683273],[-122.305994,43.68322],[-122.305897,43.683163],[-122.305804,43.683102],[-122.305715,43.683038],[-122.305632,43.68297],[-122.305553,43.682899],[-122.305448,43.682787],[-122.305348,43.682674],[-122.305254,43.682557],[-122.305165,43.682439],[-122.304986,43.6822],[-122.304884,43.682066],[-122.304777,43.681934],[-122.304664,43.681805],[-122.304545,43.681679],[-122.304455,43.681596],[-122.304361,43.681517],[-122.304262,43.68144],[-122.304157,43.681368],[-122.304049,43.681299],[-122.303936,43.681233],[-122.303818,43.681172],[-122.303697,43.681115],[-122.303573,43.681061],[-122.303445,43.681012],[-122.303314,43.680968],[-122.30318,43.680928],[-122.303044,43.680893],[-122.302906,43.680862],[-122.302766,43.680836],[-122.302625,43.680815],[-122.302482,43.680798],[-122.302338,43.680787],[-122.302127,43.68078],[-122.301916,43.680778],[-122.301705,43.680781],[-122.301495,43.680789],[-122.300055,43.680849],[-122.29987,43.680856],[-122.299684,43.680859],[-122.299498,43.680857],[-122.299312,43.680851],[-122.299183,43.680839],[-122.299054,43.680823],[-122.298927,43.680801],[-122.298802,43.680773],[-122.298679,43.680741],[-122.298559,43.680704],[-122.298442,43.680662],[-122.298328,43.680615],[-122.298218,43.680564],[-122.298112,43.680508],[-122.298011,43.680448],[-122.297914,43.680385],[-122.297823,43.680317],[-122.297737,43.680245],[-122.297656,43.680171],[-122.297582,43.680093],[-122.297513,43.680012],[-122.297451,43.679929],[-122.297396,43.679843],[-122.297347,43.679755],[-122.297291,43.679626],[-122.297241,43.679496],[-122.297197,43.679365],[-122.297159,43.679233],[-122.296995,43.678655],[-122.296952,43.678505],[-122.296902,43.678356],[-122.296845,43.678209],[-122.296781,43.678063],[-122.296727,43.677962],[-122.296666,43.677863],[-122.296599,43.677766],[-122.296525,43.677672],[-122.296445,43.67758],[-122.296359,43.677491],[-122.296267,43.677406],[-122.29617,43.677323],[-122.296067,43.677245],[-122.295959,43.677169],[-122.295846,43.677098],[-122.295729,43.677031],[-122.295607,43.676968],[-122.295481,43.67691],[-122.295352,43.676856],[-122.295218,43.676806],[-122.295082,43.676762],[-122.294887,43.676708],[-122.294689,43.67666],[-122.294489,43.676616],[-122.294287,43.676577],[-122.2916,43.676005],[-122.290844,43.675889],[-122.289921,43.675999],[-122.288983,43.676222],[-122.287912,43.676529],[-122.28621,43.677065],[-122.285527,43.677214],[-122.284417,43.677455],[-122.283604,43.677548],[-122.282754,43.677561],[-122.282102,43.677392],[-122.281601,43.676859],[-122.281369,43.676174],[-122.281381,43.675275],[-122.281567,43.673554],[-122.281542,43.672709],[-122.280929,43.671801],[-122.280044,43.671341],[-122.279051,43.670873],[-122.277664,43.670102],[-122.276583,43.669486],[-122.275475,43.668415],[-122.273636,43.66674],[-122.273031,43.666319],[-122.272184,43.666129],[-122.271433,43.666095],[-122.271433,43.666645],[-122.272057,43.666675],[-122.272637,43.666805],[-122.273076,43.667111],[-122.274877,43.668751],[-122.276038,43.669873],[-122.277201,43.670536],[-122.278615,43.671322],[-122.279618,43.671794],[-122.280334,43.672167],[-122.28079,43.672842],[-122.28081,43.673538],[-122.280625,43.675251],[-122.280613,43.676238],[-122.280899,43.677087],[-122.281617,43.677849],[-122.282631,43.678112],[-122.283671,43.678096],[-122.284585,43.677991],[-122.285744,43.677739],[-122.28647,43.677581],[-122.288202,43.677036],[-122.28924,43.676738],[-122.290101,43.676533],[-122.290826,43.676447],[-122.291415,43.676538],[-122.294082,43.677105],[-122.294265,43.67714],[-122.294447,43.677179],[-122.294627,43.677223],[-122.294805,43.677272],[-122.294918,43.67731],[-122.295029,43.677353],[-122.295137,43.6774],[-122.29524,43.677451],[-122.29534,43.677506],[-122.295436,43.677565],[-122.295527,43.677628],[-122.295613,43.677694],[-122.295694,43.677764],[-122.29577,43.677836],[-122.295841,43.677911],[-122.295906,43.677989],[-122.295965,43.67807],[-122.296018,43.678152],[-122.296064,43.678237],[-122.29612,43.678365],[-122.29617,43.678495],[-122.296214,43.678626],[-122.296252,43.678758],[-122.296417,43.679336],[-122.29646,43.679486],[-122.29651,43.679635],[-122.296567,43.679782],[-122.29663,43.679928],[-122.296685,43.680032],[-122.296748,43.680133],[-122.296817,43.680232],[-122.296893,43.680328],[-122.296975,43.680421],[-122.297063,43.680511],[-122.297158,43.680598],[-122.297258,43.680682],[-122.297364,43.680761],[-122.297475,43.680837],[-122.297592,43.680909],[-122.297713,43.680976],[-122.297838,43.681039],[-122.297968,43.681098],[-122.298101,43.681152],[-122.298238,43.681201],[-122.298378,43.681245],[-122.298521,43.681283],[-122.298666,43.681317],[-122.298814,43.681346],[-122.298963,43.681369],[-122.299114,43.681386],[-122.299265,43.681399],[-122.299476,43.681406],[-122.299687,43.681408],[-122.299898,43.681404],[-122.300109,43.681396],[-122.301548,43.681337],[-122.301734,43.68133],[-122.30192,43.681327],[-122.302106,43.681328],[-122.302291,43.681335],[-122.302419,43.681346],[-122.302545,43.681362],[-122.30267,43.681384],[-122.302794,43.68141],[-122.302915,43.681442],[-122.303033,43.681478],[-122.303149,43.681518],[-122.303261,43.681564],[-122.303369,43.681614],[-122.303474,43.681668],[-122.303575,43.681726],[-122.30367,43.681788],[-122.303761,43.681854],[-122.303847,43.681923],[-122.303928,43.681996],[-122.304033,43.682107],[-122.304133,43.682221],[-122.304227,43.682337],[-122.304316,43.682455],[-122.304495,43.682694],[-122.304597,43.682829],[-122.304704,43.682961],[-122.304817,43.68309],[-122.304936,43.683216],[-122.305021,43.683295],[-122.305111,43.683371],[-122.305205,43.683444],[-122.305304,43.683514],[-122.305406,43.68358],[-122.305513,43.683643],[-122.305624,43.683703],[-122.305738,43.683759],[-122.305855,43.683811],[-122.305976,43.68386],[-122.306167,43.683925],[-122.30636,43.683986],[-122.306556,43.684042],[-122.306755,43.684094],[-122.307371,43.684252],[-122.307687,43.684334],[-122.308014,43.684426],[-122.308338,43.684523],[-122.308659,43.684626],[-122.308976,43.684733],[-122.309291,43.684845],[-122.309602,43.684962],[-122.30991,43.685084],[-122.310214,43.68521],[-122.310514,43.685341],[-122.31081,43.685477],[-122.311103,43.685617],[-122.311391,43.685762],[-122.311674,43.685911],[-122.311954,43.686065],[-122.312228,43.686223],[-122.312498,43.686385],[-122.312764,43.686551],[-122.313024,43.686721],[-122.313279,43.686895],[-122.313529,43.687074],[-122.313774,43.687256],[-122.314013,43.687441],[-122.314247,43.687631],[-122.314475,43.687824],[-122.314697,43.68802],[-122.314914,43.68822],[-122.315115,43.688416],[-122.316279,43.689562],[-122.316424,43.689706],[-122.316564,43.689853],[-122.316699,43.690002],[-122.316829,43.690154],[-122.3169,43.690271],[-122.316965,43.69039],[-122.317022,43.690511],[-122.317072,43.690633],[-122.317115,43.690757],[-122.317151,43.690882],[-122.31718,43.691008],[-122.317201,43.691135],[-122.317215,43.691263],[-122.317221,43.691391],[-122.31722,43.691518],[-122.317212,43.691646],[-122.317196,43.691773],[-122.317173,43.6919],[-122.317142,43.692026],[-122.317105,43.692151],[-122.31706,43.692275],[-122.317008,43.692397],[-122.316949,43.692517],[-122.316882,43.692636],[-122.31681,43.692752],[-122.31673,43.692866],[-122.316644,43.692978],[-122.316551,43.693087],[-122.316453,43.693192],[-122.316348,43.693295],[-122.316237,43.693395],[-122.316121,43.693491],[-122.315999,43.693583],[-122.315872,43.693672],[-122.31574,43.693756],[-122.315603,43.693837],[-122.315462,43.693913],[-122.315316,43.693985],[-122.315166,43.694053],[-122.315013,43.694115],[-122.314856,43.694173],[-122.314696,43.694227],[-122.314533,43.694275],[-122.314367,43.694318],[-122.314198,43.694356],[-122.314028,43.694389],[-122.313856,43.694417],[-122.313683,43.694439],[-122.313508,43.694456],[-122.313333,43.694468],[-122.313157,43.694475],[-122.31298,43.694476],[-122.312804,43.694471],[-122.312629,43.694462],[-122.312454,43.694446],[-122.31228,43.694426],[-122.312107,43.6944],[-122.311936,43.694369],[-122.311708,43.694302],[-122.311483,43.694231],[-122.31126,43.694156],[-122.31104,43.694077],[-122.31012,43.693742],[-122.309993,43.693693],[-122.309868,43.693639],[-122.309748,43.693581],[-122.309632,43.693518],[-122.30952,43.693451],[-122.309413,43.693381],[-122.309312,43.693306],[-122.309215,43.693228],[-122.309124,43.693146],[-122.309039,43.693062],[-122.308959,43.692974],[-122.308886,43.692883],[-122.308819,43.69279],[-122.308758,43.692695],[-122.308705,43.692597],[-122.308658,43.692498],[-122.308618,43.692397],[-122.308584,43.692295],[-122.308558,43.692192],[-122.30854,43.692088],[-122.308528,43.691983],[-122.308523,43.691878],[-122.308526,43.691773],[-122.308536,43.691669],[-122.308554,43.691564],[-122.308838,43.690144],[-122.30887,43.689987],[-122.308896,43.68983],[-122.308917,43.689673],[-122.308932,43.689515],[-122.308942,43.689357],[-122.308946,43.689199],[-122.308938,43.689077],[-122.308923,43.688956],[-122.308901,43.688835],[-122.308872,43.688715],[-122.308836,43.688596],[-122.308793,43.688479],[-122.308743,43.688363],[-122.308687,43.688248],[-122.308624,43.688135],[-122.308554,43.688024],[-122.308478,43.687916],[-122.308396,43.68781],[-122.308308,43.687706],[-122.308214,43.687605],[-122.308114,43.687507],[-122.308009,43.687413],[-122.307898,43.687321],[-122.307782,43.687233],[-122.307661,43.687149],[-122.307536,43.687069],[-122.307405,43.686992],[-122.307271,43.686919],[-122.307132,43.686851],[-122.306989,43.686787],[-122.306843,43.686727],[-122.306694,43.686672],[-122.306541,43.686621],[-122.306386,43.686575],[-122.306179,43.686526],[-122.30597,43.68648],[-122.30576,43.686438],[-122.305548,43.6864],[-122.305335,43.686366],[-122.305121,43.686335],[-122.303272,43.686072],[-122.299313,43.685408],[-122.296708,43.685044],[-122.295391,43.685002],[-122.294421,43.685224],[-122.29337,43.685319],[-122.292415,43.685206],[-122.292018,43.685059],[-122.29145,43.684572],[-122.291284,43.683727],[-122.291265,43.683106],[-122.290942,43.682332],[-122.290258,43.681449],[-122.289549,43.680698],[-122.288731,43.67996],[-122.288195,43.679473],[-122.287666,43.679072],[-122.286806,43.678913],[-122.28578,43.678898],[-122.283929,43.679136],[-122.282845,43.679502],[-122.282318,43.679901],[-122.2816,43.680087],[-122.280961,43.6802],[-122.28015,43.680188],[-122.279421,43.679925],[-122.27869,43.679525],[-122.278146,43.679223],[-122.277641,43.678624],[-122.277315,43.677707],[-122.277004,43.676508],[-122.276631,43.675573],[-122.275877,43.675049],[-122.274773,43.674713],[-122.273514,43.67466],[-122.272194,43.674651],[-122.271426,43.674709],[-122.271425,43.675259]]]}},{"type":"Feature","properties":{"MAPTAXLOT":"2245000000100","MAPNUMBER":"22450000","TAXLOT":"100","ACCTNO":"0972792","MAPACRES":20101.24729412},"geometry":{"type":"MultiPolygon","coordinates":[[[[-122.391757,43.668588],[-122.391757,43.668584],[-122.391676,43.655348],[-122.391672,43.654672],[-122.391672,43.654666],[-122.391559,43.64758],[-122.386693,43.647352],[-122.386767,43.654371],[-122.381862,43.65407],[-122.381826,43.647124],[-122.372094,43.646668],[-122.372036,43.642099],[-122.372015,43.639699],[-122.391448,43.640569],[-122.391446,43.640428],[-122.391205,43.626825],[-122.391204,43.626496],[-122.391171,43.612903],[-122.386662,43.611992],[-122.382153,43.611081],[-122.377351,43.611073],[-122.372549,43.611064],[-122.37256,43.612975],[-122.370777,43.612973],[-122.366245,43.612965],[-122.361256,43.612959],[-122.361256,43.612959],[-122.356267,43.612953],[-122.351279,43.612947],[-122.351278,43.612947],[-122.350844,43.612946],[-122.346292,43.612939],[-122.346292,43.612939],[-122.341305,43.612931],[-122.341305,43.612931],[-122.336318,43.612923],[-122.336318,43.612923],[-122.331332,43.612915],[-122.331332,43.612915],[-122.330911,43.612914],[-122.326346,43.612906],[-122.326346,43.612906],[-122.321361,43.612898],[-122.321361,43.612898],[-122.316376,43.612889],[-122.316375,43.612889],[-122.31139,43.612881],[-122.31139,43.612881],[-122.310983,43.61288],[-122.306405,43.612872],[-122.306405,43.612872],[-122.301421,43.612863],[-122.301421,43.612863],[-122.296436,43.612854],[-122.296436,43.612854],[-122.291451,43.612845],[-122.291451,43.612845],[-122.29105,43.612844],[-122.286467,43.612836],[-122.286467,43.612836],[-122.281483,43.612827],[-122.281483,43.612827],[-122.276499,43.612817],[-122.276498,43.612817],[-122.271514,43.612808],[-122.271507,43.616428],[-122.2715,43.620048],[-122.271493,43.623668],[-122.271485,43.627288],[-122.27148,43.630908],[-122.271475,43.634528],[-122.271469,43.638148],[-122.271464,43.641768],[-122.271459,43.645388],[-122.271454,43.649008],[-122.271449,43.652628],[-122.271443,43.656248],[-122.27144,43.659868],[-122.271436,43.663488],[-122.271433,43.666095],[-122.272184,43.666129],[-122.273031,43.666319],[-122.273636,43.66674],[-122.275475,43.668415],[-122.276583,43.669486],[-122.277664,43.670102],[-122.279051,43.670873],[-122.280044,43.671341],[-122.280929,43.671801],[-122.281542,43.672709],[-122.281567,43.673554],[-122.281381,43.675275],[-122.281369,43.676174],[-122.281601,43.676859],[-122.282102,43.677392],[-122.282754,43.677561],[-122.283604,43.677548],[-122.284417,43.677455],[-122.285527,43.677214],[-122.28621,43.677065],[-122.287912,43.676529],[-122.288983,43.676222],[-122.289921,43.675999],[-122.290844,43.675889],[-122.2916,43.676005],[-122.294287,43.676577],[-122.294489,43.676616],[-122.294689,43.67666],[-122.294887,43.676708],[-122.295082,43.676762],[-122.295218,43.676806],[-122.295352,43.676856],[-122.295481,43.67691],[-122.295607,43.676968],[-122.295729,43.677031],[-122.295846,43.677098],[-122.295959,43.677169],[-122.296067,43.677245],[-122.29617,43.677323],[-122.296267,43.677406],[-122.296359,43.677491],[-122.296445,43.67758],[-122.296525,43.677672],[-122.296599,43.677766],[-122.296666,43.677863],[-122.296727,43.677962],[-122.296781,43.678063],[-122.296845,43.678209],[-122.296902,43.678356],[-122.296952,43.678505],[-122.296995,43.678655],[-122.297159,43.679233],[-122.297197,43.679365],[-122.297241,43.679496],[-122.297291,43.679626],[-122.297347,43.679755],[-122.297396,43.679843],[-122.297451,43.679929],[-122.297513,43.680012],[-122.297582,43.680093],[-122.297656,43.680171],[-122.297737,43.680245],[-122.297823,43.680317],[-122.297914,43.680385],[-122.298011,43.680448],[-122.298112,43.680508],[-122.298218,43.680564],[-122.298328,43.680615],[-122.298442,43.680662],[-122.298559,43.680704],[-122.298679,43.680741],[-122.298802,43.680773],[-122.298927,43.680801],[-122.299054,43.680823],[-122.299183,43.680839],[-122.299312,43.680851],[-122.299498,43.680857],[-122.299684,43.680859],[-122.29987,43.680856],[-122.300055,43.680849],[-122.301495,43.680789],[-122.301705,43.680781],[-122.301916,43.680778],[-122.302127,43.68078],[-122.302338,43.680787],[-122.302482,43.680798],[-122.302625,43.680815],[-122.302766,43.680836],[-122.302906,43.680862],[-122.303044,43.680893],[-122.30318,43.680928],[-122.303314,43.680968],[-122.303445,43.681012],[-122.303573,43.681061],[-122.303697,43.681115],[-122.303818,43.681172],[-122.303936,43.681233],[-122.304049,43.681299],[-122.304157,43.681368],[-122.304262,43.68144],[-122.304361,43.681517],[-122.304455,43.681596],[-122.304545,43.681679],[-122.304664,43.681805],[-122.304777,43.681934],[-122.304884,43.682066],[-122.304986,43.6822],[-122.305165,43.682439],[-122.305254,43.682557],[-122.305348,43.682674],[-122.305448,43.682787],[-122.305553,43.682899],[-122.305632,43.68297],[-122.305715,43.683038],[-122.305804,43.683102],[-122.305897,43.683163],[-122.305994,43.68322],[-122.306096,43.683273],[-122.306202,43.683323],[-122.306311,43.683368],[-122.306479,43.683425],[-122.306649,43.683479],[-122.306822,43.683529],[-122.306997,43.683574],[-122.307622,43.683734],[-122.307946,43.683818],[-122.308276,43.683911],[-122.308602,43.684009],[-122.308927,43.684112],[-122.309248,43.684219],[-122.309566,43.684331],[-122.30988,43.684448],[-122.310192,43.68457],[-122.3105,43.684696],[-122.310804,43.684827],[-122.311104,43.684962],[-122.311401,43.685102],[-122.311694,43.685246],[-122.311982,43.685394],[-122.312266,43.685547],[-122.312546,43.685704],[-122.312821,43.685865],[-122.313092,43.686031],[-122.313357,43.6862],[-122.313618,43.686373],[-122.313874,43.68655],[-122.314125,43.686731],[-122.314371,43.686915],[-122.314612,43.687103],[-122.314847,43.687295],[-122.315076,43.68749],[-122.3153,43.687689],[-122.315519,43.687891],[-122.315724,43.688091],[-122.316884,43.689233],[-122.31704,43.689388],[-122.317191,43.689546],[-122.317336,43.689706],[-122.317476,43.689869],[-122.317557,43.689996],[-122.317631,43.690126],[-122.317698,43.690257],[-122.317758,43.69039],[-122.317811,43.690525],[-122.317857,43.690661],[-122.317895,43.690798],[-122.317926,43.690937],[-122.317949,43.691076],[-122.317965,43.691215],[-122.317973,43.691355],[-122.317974,43.691495],[-122.317967,43.691635],[-122.317952,43.691775],[-122.31793,43.691914],[-122.317901,43.692052],[-122.317864,43.69219],[-122.31782,43.692326],[-122.317769,43.692461],[-122.31771,43.692595],[-122.317644,43.692726],[-122.317571,43.692856],[-122.317491,43.692983],[-122.317405,43.693109],[-122.317311,43.693231],[-122.317211,43.693351],[-122.317105,43.693468],[-122.316993,43.693582],[-122.316874,43.693692],[-122.31675,43.6938],[-122.31662,43.693903],[-122.316485,43.694003],[-122.316344,43.694099],[-122.316198,43.69419],[-122.316047,43.694278],[-122.315892,43.694361],[-122.315732,43.69444],[-122.315569,43.694514],[-122.315401,43.694584],[-122.31523,43.694648],[-122.315055,43.694708],[-122.314878,43.694763],[-122.314697,43.694813],[-122.314514,43.694857],[-122.314329,43.694897],[-122.314142,43.694931],[-122.313953,43.694959],[-122.313763,43.694983],[-122.313571,43.695001],[-122.313379,43.695013],[-122.313186,43.69502],[-122.312993,43.695022],[-122.3128,43.695018],[-122.312607,43.695008],[-122.312416,43.694994],[-122.312225,43.694973],[-122.312035,43.694948],[-122.311847,43.694917],[-122.31166,43.69488],[-122.311415,43.694808],[-122.311173,43.694731],[-122.310933,43.694651],[-122.310696,43.694565],[-122.309782,43.694233],[-122.309637,43.694178],[-122.309497,43.694118],[-122.30936,43.694053],[-122.309228,43.693985],[-122.3091,43.693912],[-122.308976,43.693835],[-122.308857,43.693754],[-122.308744,43.693669],[-122.308635,43.69358],[-122.308533,43.693489],[-122.308436,43.693394],[-122.308345,43.693296],[-122.30826,43.693195],[-122.308181,43.693091],[-122.308109,43.692985],[-122.308043,43.692877],[-122.307985,43.692766],[-122.307933,43.692654],[-122.307888,43.692541],[-122.30785,43.692426],[-122.307819,43.69231],[-122.307795,43.692193],[-122.307779,43.692075],[-122.307769,43.691957],[-122.307767,43.691839],[-122.307773,43.691721],[-122.307785,43.691603],[-122.307805,43.691485],[-122.30809,43.690065],[-122.308124,43.689896],[-122.308151,43.689726],[-122.308171,43.689555],[-122.308184,43.689385],[-122.30819,43.689214],[-122.308183,43.689103],[-122.308168,43.688993],[-122.308146,43.688884],[-122.308117,43.688776],[-122.30808,43.688668],[-122.308037,43.688562],[-122.307988,43.688458],[-122.307931,43.688355],[-122.307868,43.688255],[-122.307798,43.688157],[-122.307722,43.688061],[-122.30764,43.687968],[-122.307552,43.687878],[-122.307459,43.687791],[-122.307359,43.687707],[-122.307255,43.687627],[-122.307145,43.68755],[-122.30703,43.687477],[-122.306911,43.687409],[-122.306788,43.687344],[-122.30666,43.687284],[-122.306529,43.687228],[-122.306394,43.687176],[-122.306256,43.68713],[-122.306115,43.687088],[-122.305891,43.687035],[-122.305665,43.686988],[-122.305436,43.686945],[-122.305207,43.686907],[-122.304975,43.686874],[-122.303108,43.686608],[-122.299156,43.685945],[-122.296619,43.68559],[-122.295491,43.685555],[-122.294583,43.685762],[-122.293356,43.685874],[-122.292177,43.685734],[-122.291539,43.685498],[-122.290733,43.684806],[-122.290529,43.683772],[-122.290512,43.683193],[-122.290242,43.682549],[-122.289615,43.681739],[-122.288942,43.681025],[-122.288142,43.680303],[-122.287626,43.679835],[-122.287269,43.679565],[-122.286703,43.67946],[-122.285839,43.679447],[-122.284158,43.679664],[-122.283292,43.679956],[-122.28274,43.680374],[-122.281817,43.680613],[-122.281045,43.68075],[-122.279965,43.680734],[-122.279022,43.680394],[-122.278232,43.679961],[-122.277575,43.679596],[-122.276938,43.678841],[-122.276577,43.677826],[-122.276268,43.676636],[-122.275961,43.675867],[-122.275428,43.675497],[-122.274597,43.675253],[-122.273518,43.675209],[-122.272239,43.6752],[-122.271425,43.675259],[-122.271423,43.677968],[-122.27142,43.681588],[-122.271417,43.685208],[-122.271414,43.688828],[-122.271411,43.692448],[-122.271408,43.696031],[-122.276394,43.69603],[-122.276394,43.69603],[-122.281381,43.696029],[-122.281381,43.69603],[-122.286367,43.696029],[-122.286367,43.696029],[-122.291354,43.696028],[-122.291354,43.696028],[-122.29634,43.696025],[-122.29634,43.696025],[-122.301327,43.696023],[-122.306313,43.69602],[-122.3113,43.696018],[-122.316289,43.696018],[-122.321279,43.696019],[-122.326268,43.69602],[-122.331258,43.69602],[-122.341231,43.696031],[-122.346218,43.696031],[-122.351206,43.696031],[-122.352421,43.69603],[-122.361199,43.69603],[-122.362489,43.696029],[-122.367484,43.696027],[-122.372381,43.696021],[-122.372333,43.692399],[-122.372308,43.690563],[-122.372303,43.690219],[-122.372119,43.6899],[-122.371817,43.689145],[-122.371652,43.688607],[-122.371416,43.688088],[-122.37136,43.687709],[-122.371436,43.687326],[-122.371782,43.686714],[-122.372042,43.686235],[-122.372155,43.685788],[-122.372268,43.685391],[-122.372194,43.685015],[-122.372033,43.68453],[-122.371547,43.683878],[-122.370989,43.683054],[-122.370216,43.682139],[-122.369877,43.681655],[-122.36942,43.681248],[-122.368674,43.680549],[-122.368148,43.680019],[-122.367582,43.679596],[-122.366926,43.67902],[-122.36623,43.678522],[-122.365594,43.67802],[-122.365089,43.677534],[-122.36464,43.677184],[-122.36403,43.676688],[-122.363373,43.676187],[-122.363019,43.676],[-122.362381,43.67574],[-122.361755,43.675548],[-122.361096,43.675401],[-122.360087,43.675175],[-122.359131,43.67494],[-122.358164,43.674714],[-122.356999,43.6744],[-122.356183,43.674251],[-122.355414,43.674058],[-122.354724,43.673878],[-122.354494,43.673772],[-122.354045,43.673513],[-122.353612,43.673242],[-122.353005,43.672959],[-122.35253,43.672797],[-122.351963,43.672716],[-122.351484,43.672671],[-122.350933,43.672626],[-122.350614,43.672529],[-122.350286,43.672355],[-122.350013,43.672135],[-122.34974,43.671863],[-122.349536,43.671592],[-122.349414,43.671338],[-122.349284,43.671187],[-122.349052,43.671094],[-122.348758,43.671054],[-122.348778,43.670973],[-122.349091,43.671015],[-122.349365,43.671125],[-122.349517,43.671302],[-122.34964,43.671559],[-122.349836,43.671819],[-122.350101,43.672083],[-122.350362,43.672293],[-122.35067,43.672457],[-122.350962,43.672546],[-122.351498,43.67259],[-122.351981,43.672635],[-122.352566,43.672718],[-122.35306,43.672887],[-122.35368,43.673175],[-122.354118,43.67345],[-122.35456,43.673705],[-122.354775,43.673804],[-122.355451,43.67398],[-122.356216,43.674172],[-122.357032,43.674322],[-122.358201,43.674636],[-122.359167,43.674862],[-122.360122,43.675096],[-122.361129,43.675322],[-122.361794,43.675471],[-122.362431,43.675666],[-122.36308,43.675931],[-122.363448,43.676125],[-122.364114,43.676632],[-122.364724,43.677129],[-122.365176,43.677481],[-122.365681,43.677967],[-122.366312,43.678465],[-122.36701,43.678964],[-122.367667,43.679541],[-122.368235,43.679966],[-122.368764,43.6805],[-122.369509,43.681197],[-122.369973,43.68161],[-122.370315,43.682099],[-122.371089,43.683014],[-122.371647,43.68384],[-122.372139,43.684501],[-122.37226,43.684862],[-122.37224,43.681483],[-122.371809,43.674603],[-122.371687,43.66742],[-122.362028,43.667526],[-122.362393,43.653561],[-122.367389,43.653531],[-122.372052,43.653467],[-122.371893,43.660391],[-122.371687,43.66742],[-122.391757,43.668588]]],[[[-122.303272,43.686072],[-122.305121,43.686335],[-122.305335,43.686366],[-122.305548,43.6864],[-122.30576,43.686438],[-122.30597,43.68648],[-122.306179,43.686526],[-122.306386,43.686575],[-122.306541,43.686621],[-122.306694,43.686672],[-122.306843,43.686727],[-122.306989,43.686787],[-122.307132,43.686851],[-122.307271,43.686919],[-122.307405,43.686992],[-122.307536,43.687069],[-122.307661,43.687149],[-122.307782,43.687233],[-122.307898,43.687321],[-122.308009,43.687413],[-122.308114,43.687507],[-122.308214,43.687605],[-122.308308,43.687706],[-122.308396,43.68781],[-122.308478,43.687916],[-122.308554,43.688024],[-122.308624,43.688135],[-122.308687,43.688248],[-122.308743,43.688363],[-122.308793,43.688479],[-122.308836,43.688596],[-122.308872,43.688715],[-122.308901,43.688835],[-122.308923,43.688956],[-122.308938,43.689077],[-122.308946,43.689199],[-122.308942,43.689357],[-122.308932,43.689515],[-122.308917,43.689673],[-122.308896,43.68983],[-122.30887,43.689987],[-122.308838,43.690144],[-122.308554,43.691564],[-122.308536,43.691669],[-122.308526,43.691773],[-122.308523,43.691878],[-122.308528,43.691983],[-122.30854,43.692088],[-122.308558,43.692192],[-122.308584,43.692295],[-122.308618,43.692397],[-122.308658,43.692498],[-122.308705,43.692597],[-122.308758,43.692695],[-122.308819,43.69279],[-122.308886,43.692883],[-122.308959,43.692974],[-122.309039,43.693062],[-122.309124,43.693146],[-122.309215,43.693228],[-122.309312,43.693306],[-122.309413,43.693381],[-122.30952,43.693451],[-122.309632,43.693518],[-122.309748,43.693581],[-122.309868,43.693639],[-122.309993,43.693693],[-122.31012,43.693742],[-122.31104,43.694077],[-122.31126,43.694156],[-122.311483,43.694231],[-122.311708,43.694302],[-122.311936,43.694369],[-122.312107,43.6944],[-122.31228,43.694426],[-122.312454,43.694446],[-122.312629,43.694462],[-122.312804,43.694471],[-122.31298,43.694476],[-122.313157,43.694475],[-122.313333,43.694468],[-122.313508,43.694456],[-122.313683,43.694439],[-122.313856,43.694417],[-122.314028,43.694389],[-122.314198,43.694356],[-122.314367,43.694318],[-122.314533,43.694275],[-122.314696,43.694227],[-122.314856,43.694173],[-122.315013,43.694115],[-122.315166,43.694053],[-122.315316,43.693985],[-122.315462,43.693913],[-122.315603,43.693837],[-122.31574,43.693756],[-122.315872,43.693672],[-122.315999,43.693583],[-122.316121,43.693491],[-122.316237,43.693395],[-122.316348,43.693295],[-122.316453,43.693192],[-122.316551,43.693087],[-122.316644,43.692978],[-122.31673,43.692866],[-122.31681,43.692752],[-122.316882,43.692636],[-122.316949,43.692517],[-122.317008,43.692397],[-122.31706,43.692275],[-122.317105,43.692151],[-122.317142,43.692026],[-122.317173,43.6919],[-122.317196,43.691773],[-122.317212,43.691646],[-122.31722,43.691518],[-122.317221,43.691391],[-122.317215,43.691263],[-122.317201,43.691135],[-122.31718,43.691008],[-122.317151,43.690882],[-122.317115,43.690757],[-122.317072,43.690633],[-122.317022,43.690511],[-122.316965,43.69039],[-122.3169,43.690271],[-122.316829,43.690154],[-122.316699,43.690002],[-122.316564,43.689853],[-122.316424,43.689706],[-122.316279,43.689562],[-122.315115,43.688416],[-122.314914,43.68822],[-122.314697,43.68802],[-122.314475,43.687824],[-122.314247,43.687631],[-122.314013,43.687441],[-122.313774,43.687256],[-122.313529,43.687074],[-122.313279,43.686895],[-122.313024,43.686721],[-122.312764,43.686551],[-122.312498,43.686385],[-122.312228,43.686223],[-122.311954,43.686065],[-122.311674,43.685911],[-122.311391,43.685762],[-122.311103,43.685617],[-122.31081,43.685477],[-122.310514,43.685341],[-122.310214,43.68521],[-122.30991,43.685084],[-122.309602,43.684962],[-122.309291,43.684845],[-122.308976,43.684733],[-122.308659,43.684626],[-122.308338,43.684523],[-122.308014,43.684426],[-122.307687,43.684334],[-122.307371,43.684252],[-122.306755,43.684094],[-122.306556,43.684042],[-122.30636,43.683986],[-122.306167,43.683925],[-122.305976,43.68386],[-122.305855,43.683811],[-122.305738,43.683759],[-122.305624,43.683703],[-122.305513,43.683643],[-122.305406,43.68358],[-122.305304,43.683514],[-122.305205,43.683444],[-122.305111,43.683371],[-122.305021,43.683295],[-122.304936,43.683216],[-122.304817,43.68309],[-122.304704,43.682961],[-122.304597,43.682829],[-122.304495,43.682694],[-122.304316,43.682455],[-122.304227,43.682337],[-122.304133,43.682221],[-122.304033,43.682107],[-122.303928,43.681996],[-122.303847,43.681923],[-122.303761,43.681854],[-122.30367,43.681788],[-122.303575,43.681726],[-122.303474,43.681668],[-122.303369,43.681614],[-122.303261,43.681564],[-122.303149,43.681518],[-122.303033,43.681478],[-122.302915,43.681442],[-122.302794,43.68141],[-122.30267,43.681384],[-122.302545,43.681362],[-122.302419,43.681346],[-122.302291,43.681335],[-122.302106,43.681328],[-122.30192,43.681327],[-122.301734,43.68133],[-122.301548,43.681337],[-122.300109,43.681396],[-122.299898,43.681404],[-122.299687,43.681408],[-122.299476,43.681406],[-122.299265,43.681399],[-122.299114,43.681386],[-122.298963,43.681369],[-122.298814,43.681346],[-122.298666,43.681317],[-122.298521,43.681283],[-122.298378,43.681245],[-122.298238,43.681201],[-122.298101,43.681152],[-122.297968,43.681098],[-122.297838,43.681039],[-122.297713,43.680976],[-122.297592,43.680909],[-122.297475,43.680837],[-122.297364,43.680761],[-122.297258,43.680682],[-122.297158,43.680598],[-122.297063,43.680511],[-122.296975,43.680421],[-122.296893,43.680328],[-122.296817,43.680232],[-122.296748,43.680133],[-122.296685,43.680032],[-122.29663,43.679928],[-122.296567,43.679782],[-122.29651,43.679635],[-122.29646,43.679486],[-122.296417,43.679336],[-122.296252,43.678758],[-122.296214,43.678626],[-122.29617,43.678495],[-122.29612,43.678365],[-122.296064,43.678237],[-122.296018,43.678152],[-122.295965,43.67807],[-122.295906,43.677989],[-122.295841,43.677911],[-122.29577,43.677836],[-122.295694,43.677764],[-122.295613,43.677694],[-122.295527,43.677628],[-122.295436,43.677565],[-122.29534,43.677506],[-122.29524,43.677451],[-122.295137,43.6774],[-122.295029,43.677353],[-122.294918,43.67731],[-122.294805,43.677272],[-122.294627,43.677223],[-122.294447,43.677179],[-122.294265,43.67714],[-122.294082,43.677105],[-122.291415,43.676538],[-122.290826,43.676447],[-122.290101,43.676533],[-122.28924,43.676738],[-122.288202,43.677036],[-122.28647,43.677581],[-122.285744,43.677739],[-122.284585,43.677991],[-122.283671,43.678096],[-122.282631,43.678112],[-122.281617,43.677849],[-122.280899,43.677087],[-122.280613,43.676238],[-122.280625,43.675251],[-122.28081,43.673538],[-122.28079,43.672842],[-122.280334,43.672167],[-122.279618,43.671794],[-122.278615,43.671322],[-122.277201,43.670536],[-122.276038,43.669873],[-122.274877,43.668751],[-122.273076,43.667111],[-122.272637,43.666805],[-122.272057,43.666675],[-122.271433,43.666645],[-122.271432,43.667108],[-122.271429,43.670728],[-122.271426,43.674348],[-122.271426,43.674709],[-122.272194,43.674651],[-122.273514,43.67466],[-122.274773,43.674713],[-122.275877,43.675049],[-122.276631,43.675573],[-122.277004,43.676508],[-122.277315,43.677707],[-122.277641,43.678624],[-122.278146,43.679223],[-122.27869,43.679525],[-122.279421,43.679925],[-122.28015,43.680188],[-122.280961,43.6802],[-122.2816,43.680087],[-122.282318,43.679901],[-122.282845,43.679502],[-122.283929,43.679136],[-122.28578,43.678898],[-122.286806,43.678913],[-122.287666,43.679072],[-122.288195,43.679473],[-122.288731,43.67996],[-122.289549,43.680698],[-122.290258,43.681449],[-122.290942,43.682332],[-122.291265,43.683106],[-122.291284,43.683727],[-122.29145,43.684572],[-122.292018,43.685059],[-122.292415,43.685206],[-122.29337,43.685319],[-122.294421,43.685224],[-122.295391,43.685002],[-122.296708,43.685044],[-122.299313,43.685408],[-122.303272,43.686072]]],[[[-122.372151,43.686257],[-122.371887,43.686744],[-122.371546,43.687348],[-122.371474,43.68771],[-122.371527,43.688071],[-122.371761,43.688585],[-122.371927,43.689124],[-122.372226,43.689873],[-122.3723,43.690001],[-122.372298,43.689848],[-122.372283,43.688776],[-122.372275,43.687429],[-122.372266,43.685807],[-122.372151,43.686257]]]]}},{"type":"Feature","properties":{"MAPTAXLOT":"2245000000200","MAPNUMBER":"22450000","TAXLOT":"200","ACCTNO":"0972800","MAPACRES":592.5338864},"geometry":{"type":"Polygon","coordinates":[[[-122.37224,43.681483],[-122.381896,43.681432],[-122.391831,43.681499],[-122.391772,43.675546],[-122.391772,43.675332],[-122.391772,43.675331],[-122.391757,43.668589],[-122.391757,43.668588],[-122.371687,43.66742],[-122.371809,43.674603],[-122.37224,43.681483]]]}},{"type":"Feature","properties":{"MAPTAXLOT":"2245000000300","MAPNUMBER":"22450000","TAXLOT":"300","ACCTNO":"0972818","MAPACRES":298.61753471},"geometry":{"type":"Polygon","coordinates":[[[-122.362028,43.667526],[-122.371687,43.66742],[-122.371893,43.660391],[-122.372052,43.653467],[-122.367389,43.653531],[-122.362393,43.653561],[-122.362028,43.667526]]]}},{"type":"Feature","properties":{"MAPTAXLOT":"2245000000400","MAPNUMBER":"22450000","TAXLOT":"400","ACCTNO":"0972826","MAPACRES":376.48304026},"geometry":{"type":"Polygon","coordinates":[[[-122.381862,43.65407],[-122.386767,43.654371],[-122.386693,43.647352],[-122.391559,43.64758],[-122.391448,43.640569],[-122.372015,43.639699],[-122.372036,43.642099],[-122.372094,43.646668],[-122.381826,43.647124],[-122.381862,43.65407]]]}},{"type":"Feature","properties":{"MAPTAXLOT":"2345000000100","MAPNUMBER":"23450000","TAXLOT":"100","ACCTNO":"0976124","MAPACRES":20138.28167352},"geometry":{"type":"Polygon","coordinates":[[[-122.271514,43.612808],[-122.276498,43.612817],[-122.276499,43.612817],[-122.281483,43.612827],[-122.281483,43.612827],[-122.286467,43.612836],[-122.286467,43.612836],[-122.29105,43.612844],[-122.291451,43.612845],[-122.291451,43.612845],[-122.296436,43.612854],[-122.296436,43.612854],[-122.301421,43.612863],[-122.301421,43.612863],[-122.306405,43.612872],[-122.306405,43.612872],[-122.310983,43.61288],[-122.31139,43.612881],[-122.31139,43.612881],[-122.316375,43.612889],[-122.316376,43.612889],[-122.321361,43.612898],[-122.321361,43.612898],[-122.326346,43.612906],[-122.326346,43.612906],[-122.330911,43.612914],[-122.331332,43.612915],[-122.331332,43.612915],[-122.336318,43.612923],[-122.336318,43.612923],[-122.341305,43.612931],[-122.341305,43.612931],[-122.346292,43.612939],[-122.346292,43.612939],[-122.350844,43.612946],[-122.351278,43.612947],[-122.351279,43.612947],[-122.356267,43.612953],[-122.361256,43.612959],[-122.361256,43.612959],[-122.366245,43.612965],[-122.370777,43.612973],[-122.37256,43.612975],[-122.372549,43.611064],[-122.377351,43.611073],[-122.382153,43.611081],[-122.386662,43.611992],[-122.391171,43.612903],[-122.39117,43.612395],[-122.391167,43.609282],[-122.391166,43.608775],[-122.391163,43.605661],[-122.391159,43.60204],[-122.391155,43.599259],[-122.391155,43.598419],[-122.391155,43.597916],[-122.391155,43.594798],[-122.391155,43.591177],[-122.390086,43.585422],[-122.390094,43.584777],[-122.390141,43.581156],[-122.390187,43.577536],[-122.390233,43.573915],[-122.390271,43.570978],[-122.39028,43.570295],[-122.390447,43.556568],[-122.390448,43.555812],[-122.390451,43.552966],[-122.390454,43.549365],[-122.390455,43.548989],[-122.390458,43.545764],[-122.390458,43.54557],[-122.390461,43.542161],[-122.384992,43.542162],[-122.384968,43.531154],[-122.380004,43.531205],[-122.380009,43.534827],[-122.375045,43.534876],[-122.37504,43.531256],[-122.370083,43.531306],[-122.370074,43.52765],[-122.365591,43.527676],[-122.36513,43.527679],[-122.360622,43.527705],[-122.360186,43.527706],[-122.3557,43.527713],[-122.355223,43.527714],[-122.350778,43.527722],[-122.350261,43.527729],[-122.350243,43.531333],[-122.350225,43.534965],[-122.350195,43.538561],[-122.350165,43.542157],[-122.345225,43.542142],[-122.340286,43.542127],[-122.335281,43.542104],[-122.330276,43.54208],[-122.330283,43.545718],[-122.330288,43.548985],[-122.330289,43.549356],[-122.310359,43.54929],[-122.310345,43.545665],[-122.310331,43.54204],[-122.305332,43.542047],[-122.300332,43.542054],[-122.300456,43.534792],[-122.290654,43.534666],[-122.290716,43.531053],[-122.290777,43.52744],[-122.285835,43.527466],[-122.280892,43.527493],[-122.27595,43.527519],[-122.271007,43.527545],[-122.270976,43.531161],[-122.270945,43.534777],[-122.270914,43.538393],[-122.270883,43.54201],[-122.270883,43.54563],[-122.270883,43.549251],[-122.271118,43.555812],[-122.271118,43.559433],[-122.271118,43.563053],[-122.271118,43.566674],[-122.271118,43.570295],[-122.271118,43.573915],[-122.271118,43.577536],[-122.271118,43.581156],[-122.271118,43.584777],[-122.271118,43.588397],[-122.271118,43.592018],[-122.271118,43.595638],[-122.271118,43.599259],[-122.271118,43.6128],[-122.271118,43.612808],[-122.271118,43.612808],[-122.271514,43.612808],[-122.271514,43.612808]]]}}]}