{"type":"FeatureCollection","features":[{"type":"Feature","properties":{"MAPTAXLOT":"2303000002500","MAPNUMBER":"23030000","TAXLOT":"2500","ACCTNO":"0974186","MAPACRES":318.47754006},"geometry":{"type":"Polygon","coordinates":[[[-123.017596,43.546836],[-123.027508,43.546845],[-123.027538,43.543224],[-123.027569,43.539631],[-123.007677,43.539578],[-123.007694,43.546827],[-123.017596,43.546836]]]}},{"type":"Feature","properties":{"MAPTAXLOT":"2303000002600","MAPNUMBER":"23030000","TAXLOT":"2600","ACCTNO":"0974194","MAPACRES":317.71246052},"geometry":{"type":"Polygon","coordinates":[[[-123.042456,43.547],[-123.047456,43.547051],[-123.047433,43.543502],[-123.047408,43.539867],[-123.042388,43.539808],[-123.03737,43.539748],[-123.032469,43.53969],[-123.027569,43.539631],[-123.027538,43.543224],[-123.027508,43.546845],[-123.032485,43.546896],[-123.037467,43.546948],[-123.042456,43.547]]]}},{"type":"Feature","properties":{"MAPTAXLOT":"2303000002800","MAPNUMBER":"23030000","TAXLOT":"2800","ACCTNO":"0974210","MAPACRES":162.25447609},"geometry":{"type":"Polygon","coordinates":[[[-123.052416,43.547127],[-123.057384,43.547202],[-123.057439,43.543645],[-123.062391,43.543716],[-123.062264,43.539907],[-123.057335,43.539894],[-123.052371,43.539881],[-123.047408,43.539867],[-123.047433,43.543502],[-123.052469,43.543574],[-123.052416,43.547127]]]}},{"type":"Feature","properties":{"MAPTAXLOT":"2303000002900","MAPNUMBER":"23030000","TAXLOT":"2900","ACCTNO":"0974228","MAPACRES":122.26051101},"geometry":{"type":"Polygon","coordinates":[[[-123.062355,43.547277],[-123.067342,43.547352],[-123.067449,43.543788],[-123.067397,43.539921],[-123.062264,43.539907],[-123.062391,43.543716],[-123.057439,43.543645],[-123.057384,43.547202],[-123.062355,43.547277]]]}},{"type":"Feature","properties":{"MAPTAXLOT":"2303000003100","MAPNUMBER":"23030000","TAXLOT":"3100","ACCTNO":"0974244","MAPACRES":285.96978746},"geometry":{"type":"Polygon","coordinates":[[[-123.082325,43.547418],[-123.087328,43.54744],[-123.087338,43.543806],[-123.08734,43.540163],[-123.082293,43.540102],[-123.077255,43.540041],[-123.072221,43.539979],[-123.067397,43.539921],[-123.067449,43.543788],[-123.072341,43.543793],[-123.072326,43.547374],[-123.077323,43.547396],[-123.082325,43.547418]]]}}]}