{"type":"FeatureCollection","features":[{"type":"Feature","properties":{"MAPTAXLOT":"1510000000200","MAPNUMBER":"15100000","TAXLOT":"200","ACCTNO":"0024453","MAPACRES":10358.60660277},"geometry":{"type":"Polygon","coordinates":[[[-123.85631,44.235675],[-123.865488,44.235955],[-123.865453,44.243503],[-123.856428,44.243022],[-123.846113,44.24319],[-123.846017,44.235841],[-123.835875,44.235824],[-123.8359,44.239502],[-123.835901,44.239593],[-123.835926,44.243179],[-123.835926,44.24327],[-123.835935,44.246801],[-123.83594,44.248798],[-123.835944,44.250423],[-123.835954,44.254045],[-123.835963,44.257667],[-123.835963,44.257671],[-123.835893,44.261255],[-123.835836,44.264112],[-123.835833,44.264304],[-123.835829,44.264469],[-123.835822,44.264842],[-123.835836,44.268367],[-123.835846,44.271011],[-123.835849,44.271893],[-123.837066,44.271877],[-123.838261,44.271862],[-123.84065,44.271831],[-123.845405,44.271769],[-123.850689,44.271827],[-123.855926,44.271884],[-123.855934,44.275477],[-123.855943,44.279032],[-123.855906,44.282794],[-123.877084,44.282686],[-123.877087,44.282295],[-123.877111,44.279103],[-123.876765,44.275751],[-123.871599,44.275683],[-123.871311,44.272258],[-123.871285,44.268623],[-123.86612,44.26853],[-123.866049,44.264913],[-123.865979,44.261308],[-123.871033,44.261348],[-123.876077,44.261387],[-123.875695,44.257728],[-123.880799,44.257774],[-123.885887,44.257819],[-123.890982,44.257864],[-123.89223,44.257875],[-123.893534,44.25787],[-123.896074,44.257861],[-123.896082,44.256358],[-123.896076,44.25421],[-123.896071,44.252386],[-123.896069,44.251474],[-123.898645,44.251445],[-123.89993,44.25143],[-123.899931,44.250514],[-123.902504,44.250484],[-123.9025,44.252318],[-123.901214,44.252332],[-123.89993,44.252345],[-123.899929,44.254175],[-123.898646,44.254187],[-123.898643,44.257843],[-123.900869,44.257828],[-123.901205,44.257826],[-123.906327,44.257791],[-123.907896,44.257771],[-123.916408,44.257661],[-123.936701,44.257774],[-123.941184,44.257758],[-123.941184,44.25773],[-123.941168,44.256084],[-123.941168,44.256057],[-123.94115,44.254106],[-123.941149,44.254078],[-123.941135,44.252557],[-123.941135,44.252529],[-123.941115,44.250454],[-123.941115,44.250427],[-123.941116,44.248884],[-123.941116,44.248857],[-123.941118,44.246763],[-123.941118,44.246735],[-123.94112,44.245212],[-123.94112,44.245184],[-123.941122,44.243071],[-123.941121,44.243044],[-123.941107,44.241553],[-123.941107,44.241527],[-123.94108,44.239468],[-123.94108,44.239443],[-123.941066,44.237921],[-123.941065,44.237897],[-123.941041,44.235864],[-123.941041,44.235841],[-123.941028,44.234334],[-123.941028,44.234312],[-123.941004,44.232255],[-123.941003,44.232233],[-123.940991,44.230748],[-123.94099,44.230727],[-123.940966,44.228645],[-123.940965,44.228626],[-123.940953,44.227161],[-123.940926,44.22495],[-123.940915,44.223576],[-123.940875,44.221259],[-123.940863,44.220002],[-123.940818,44.21758],[-123.940808,44.21643],[-123.940798,44.215882],[-123.94076,44.213902],[-123.938439,44.213913],[-123.936325,44.213923],[-123.933369,44.213932],[-123.931175,44.21394],[-123.9283,44.213949],[-123.926024,44.213957],[-123.923182,44.213994],[-123.921048,44.214022],[-123.918065,44.214061],[-123.916071,44.214088],[-123.912947,44.214102],[-123.911052,44.214111],[-123.907828,44.214125],[-123.906033,44.214133],[-123.902993,44.214147],[-123.901013,44.214157],[-123.898159,44.21417],[-123.895993,44.21418],[-123.893323,44.214193],[-123.890928,44.214205],[-123.888488,44.214218],[-123.885864,44.214232],[-123.883529,44.214208],[-123.880795,44.214179],[-123.87857,44.214154],[-123.875723,44.214122],[-123.87361,44.214107],[-123.870734,44.214087],[-123.868651,44.214072],[-123.865745,44.214052],[-123.863652,44.214054],[-123.860776,44.214056],[-123.858695,44.214058],[-123.857832,44.214059],[-123.857557,44.214059],[-123.855806,44.21406],[-123.856147,44.221246],[-123.856149,44.221336],[-123.85629,44.228457],[-123.84601,44.228512],[-123.846017,44.235841],[-123.85631,44.235675]],[[-123.885825,44.215975],[-123.885767,44.218594],[-123.880708,44.21853],[-123.880726,44.217659],[-123.876928,44.217612],[-123.876948,44.216741],[-123.875676,44.216726],[-123.875691,44.215855],[-123.885825,44.215975]]]}},{"type":"Feature","properties":{"MAPTAXLOT":"1510070000100","MAPNUMBER":"15100700","TAXLOT":"100","ACCTNO":"0024560","MAPACRES":31.87938688},"geometry":{"type":"Polygon","coordinates":[[[-123.936481,44.28285],[-123.941063,44.282944],[-123.941056,44.281233],[-123.941055,44.280935],[-123.941048,44.279235],[-123.937694,44.279241],[-123.937718,44.281052],[-123.936457,44.281045],[-123.936469,44.281944],[-123.936481,44.28285]]]}},{"type":"Feature","properties":{"MAPTAXLOT":"1510070000200","MAPNUMBER":"15100700","TAXLOT":"200","ACCTNO":"0024578","MAPACRES":77.7151147},"geometry":{"type":"Polygon","coordinates":[[[-123.936457,44.281045],[-123.937718,44.281052],[-123.937694,44.279241],[-123.941048,44.279235],[-123.94106,44.277368],[-123.94107,44.275665],[-123.941071,44.275633],[-123.941082,44.273801],[-123.941082,44.273768],[-123.941093,44.272095],[-123.936394,44.272141],[-123.936413,44.275691],[-123.936432,44.279254],[-123.936457,44.281045]]]}},{"type":"Feature","properties":{"MAPTAXLOT":"1510080000100","MAPNUMBER":"15100800","TAXLOT":"100","ACCTNO":"0024586","MAPACRES":379.51599527},"geometry":{"type":"Polygon","coordinates":[[[-123.931503,44.282855],[-123.933993,44.282849],[-123.933974,44.281052],[-123.931489,44.28106],[-123.926474,44.277501],[-123.921489,44.277516],[-123.921487,44.275732],[-123.926463,44.275719],[-123.931447,44.275705],[-123.931475,44.279265],[-123.936432,44.279254],[-123.936413,44.275691],[-123.936394,44.272141],[-123.931419,44.27215],[-123.926437,44.27216],[-123.921482,44.272168],[-123.916518,44.272176],[-123.916525,44.275745],[-123.916532,44.279323],[-123.916501,44.282895],[-123.921497,44.282878],[-123.926508,44.282866],[-123.931503,44.282855]]]}},{"type":"Feature","properties":{"MAPTAXLOT":"1510080000200","MAPNUMBER":"15100800","TAXLOT":"200","ACCTNO":"0024594","MAPACRES":7.3678772},"geometry":{"type":"Polygon","coordinates":[[[-123.933993,44.282849],[-123.936481,44.28285],[-123.936469,44.281944],[-123.935227,44.281947],[-123.935216,44.281049],[-123.933974,44.281052],[-123.933993,44.282849]]]}},{"type":"Feature","properties":{"MAPTAXLOT":"1510080000300","MAPNUMBER":"15100800","TAXLOT":"300","ACCTNO":"0024602","MAPACRES":2.44493765},"geometry":{"type":"Polygon","coordinates":[[[-123.935227,44.281947],[-123.936469,44.281944],[-123.936457,44.281045],[-123.935216,44.281049],[-123.935227,44.281947]]]}},{"type":"Feature","properties":{"MAPTAXLOT":"1510080000400","MAPNUMBER":"15100800","TAXLOT":"400","ACCTNO":"0024610","MAPACRES":77.98072659},"geometry":{"type":"Polygon","coordinates":[[[-123.935216,44.281049],[-123.936457,44.281045],[-123.936432,44.279254],[-123.931475,44.279265],[-123.931447,44.275705],[-123.926463,44.275719],[-123.921487,44.275732],[-123.921489,44.277516],[-123.926474,44.277501],[-123.931489,44.28106],[-123.933974,44.281052],[-123.935216,44.281049]]]}},{"type":"Feature","properties":{"MAPTAXLOT":"1510170000100","MAPNUMBER":"15101700","TAXLOT":"100","ACCTNO":"0024727","MAPACRES":636.54912523},"geometry":{"type":"Polygon","coordinates":[[[-123.931419,44.27215],[-123.936394,44.272141],[-123.936472,44.268495],[-123.936549,44.264887],[-123.936625,44.261301],[-123.936701,44.257774],[-123.916408,44.257661],[-123.916419,44.261321],[-123.91643,44.264985],[-123.916474,44.268578],[-123.916518,44.272176],[-123.921482,44.272168],[-123.926437,44.27216],[-123.931419,44.27215]]]}},{"type":"Feature","properties":{"MAPTAXLOT":"1510180000100","MAPNUMBER":"15101800","TAXLOT":"100","ACCTNO":"0024735","MAPACRES":144.4883124},"geometry":{"type":"Polygon","coordinates":[[[-123.936394,44.272141],[-123.941093,44.272095],[-123.941093,44.272067],[-123.941105,44.270234],[-123.941105,44.270206],[-123.941116,44.268483],[-123.941116,44.268456],[-123.941128,44.266666],[-123.941128,44.266639],[-123.941139,44.264872],[-123.941139,44.264844],[-123.94115,44.263139],[-123.94115,44.263111],[-123.941162,44.261315],[-123.941162,44.261287],[-123.941172,44.259612],[-123.941173,44.259584],[-123.941184,44.257758],[-123.936701,44.257774],[-123.936625,44.261301],[-123.936549,44.264887],[-123.936472,44.268495],[-123.936394,44.272141]]]}},{"type":"Feature","properties":{"MAPTAXLOT":"1511000000100","MAPNUMBER":"15110000","TAXLOT":"100","ACCTNO":"1798873","MAPACRES":16619.84861809},"geometry":{"type":"MultiPolygon","coordinates":[[[[-124.055274,44.266403],[-124.060241,44.266363],[-124.060291,44.269977],[-124.060341,44.273591],[-124.060391,44.277179],[-124.063239,44.277173],[-124.063283,44.275089],[-124.063284,44.275044],[-124.063315,44.273582],[-124.063316,44.273537],[-124.063316,44.273537],[-124.063338,44.271621],[-124.063338,44.271576],[-124.063338,44.271576],[-124.063339,44.271563],[-124.063372,44.26996],[-124.063373,44.269915],[-124.063373,44.269915],[-124.063409,44.268158],[-124.06341,44.268113],[-124.06341,44.268113],[-124.063446,44.266338],[-124.063447,44.266293],[-124.06348,44.264694],[-124.063481,44.264649],[-124.063526,44.262697],[-124.063527,44.262655],[-124.063559,44.26124],[-124.06356,44.261199],[-124.063609,44.259056],[-124.06361,44.259019],[-124.063638,44.257786],[-124.063639,44.25775],[-124.063693,44.255419],[-124.063694,44.255387],[-124.063717,44.254332],[-124.063718,44.254301],[-124.063778,44.251755],[-124.063797,44.250878],[-124.063797,44.250852],[-124.063857,44.248291],[-124.063858,44.248268],[-124.063876,44.247418],[-124.063877,44.247397],[-124.063938,44.2448],[-124.063938,44.244782],[-124.063956,44.243959],[-124.064018,44.241309],[-124.064036,44.2405],[-124.064099,44.237818],[-124.064116,44.237041],[-124.064168,44.234173],[-124.064178,44.233591],[-124.064234,44.230528],[-124.064241,44.23014],[-124.064301,44.226882],[-124.064304,44.226687],[-124.064345,44.224494],[-124.064345,44.224492],[-124.064346,44.224421],[-124.064181,44.224381],[-124.06387,44.224296],[-124.063674,44.224238],[-124.063488,44.2242],[-124.063335,44.22419],[-124.063021,44.224177],[-124.062986,44.224173],[-124.062936,44.224167],[-124.062871,44.224151],[-124.06283,44.224138],[-124.062826,44.224137],[-124.062805,44.224131],[-124.062743,44.2241],[-124.062674,44.224052],[-124.062582,44.223979],[-124.062461,44.223876],[-124.062349,44.223777],[-124.06226,44.2237],[-124.062237,44.223678],[-124.062215,44.223662],[-124.06221,44.223659],[-124.062203,44.223659],[-124.062177,44.223661],[-124.062121,44.223667],[-124.062066,44.223672],[-124.06197,44.223681],[-124.061778,44.223698],[-124.061734,44.223703],[-124.061733,44.223703],[-124.06173,44.223704],[-124.061727,44.223706],[-124.061722,44.22371],[-124.061705,44.223725],[-124.061693,44.223738],[-124.061679,44.223758],[-124.061668,44.223778],[-124.061646,44.223839],[-124.06159,44.224129],[-124.061584,44.224174],[-124.061586,44.224266],[-124.061593,44.224321],[-124.0616,44.22438],[-124.061595,44.224417],[-124.061572,44.224456],[-124.061518,44.224491],[-124.061456,44.224508],[-124.061407,44.224513],[-124.061349,44.224509],[-124.061347,44.224509],[-124.061276,44.224487],[-124.061219,44.224462],[-124.061161,44.224431],[-124.061086,44.22438],[-124.061009,44.224321],[-124.060856,44.224182],[-124.060766,44.224102],[-124.060713,44.224022],[-124.060676,44.223896],[-124.06062,44.223593],[-124.060597,44.223385],[-124.060592,44.223348],[-124.060505,44.22335],[-124.058811,44.223401],[-124.058811,44.223401],[-124.058582,44.223506],[-124.058353,44.223594],[-124.057495,44.223916],[-124.057427,44.223936],[-124.057366,44.223944],[-124.057282,44.223953],[-124.057175,44.223965],[-124.057053,44.223962],[-124.056901,44.223945],[-124.056892,44.223944],[-124.056884,44.223942],[-124.055356,44.223598],[-124.05529,44.223575],[-124.055229,44.223551],[-124.055165,44.223516],[-124.055154,44.223511],[-124.055086,44.223513],[-124.052512,44.223585],[-124.052229,44.223593],[-124.052072,44.223668],[-124.051528,44.223927],[-124.050567,44.224161],[-124.049985,44.224154],[-124.049984,44.224128],[-124.049882,44.224126],[-124.049644,44.224109],[-124.049422,44.224077],[-124.049312,44.22406],[-124.049204,44.224007],[-124.049029,44.223901],[-124.048905,44.223819],[-124.048843,44.223788],[-124.04876,44.223766],[-124.04855,44.223697],[-124.048139,44.223708],[-124.045256,44.22379],[-124.045255,44.222304],[-124.045254,44.222194],[-124.044984,44.222099],[-124.044806,44.222014],[-124.04466,44.221926],[-124.044475,44.221846],[-124.044402,44.221824],[-124.044303,44.221819],[-124.044099,44.221825],[-124.043926,44.221826],[-124.043917,44.221825],[-124.043796,44.221812],[-124.043703,44.22178],[-124.04365,44.221722],[-124.043619,44.221631],[-124.043612,44.221513],[-124.043602,44.221436],[-124.043565,44.221357],[-124.043548,44.221336],[-124.043389,44.221145],[-124.043259,44.220977],[-124.043188,44.220913],[-124.043132,44.220856],[-124.043075,44.220821],[-124.042996,44.220796],[-124.042924,44.220784],[-124.042853,44.220774],[-124.042771,44.220733],[-124.042744,44.220712],[-124.042737,44.220711],[-124.042715,44.220714],[-124.04267,44.220721],[-124.042584,44.220746],[-124.042495,44.220769],[-124.0422,44.220825],[-124.042055,44.220818],[-124.041996,44.220803],[-124.041925,44.220785],[-124.041818,44.220727],[-124.041762,44.220655],[-124.041738,44.220568],[-124.041757,44.220483],[-124.041785,44.220353],[-124.041763,44.220257],[-124.040287,44.220286],[-124.040247,44.220286],[-124.040011,44.220282],[-124.039982,44.220315],[-124.039839,44.220465],[-124.039658,44.220622],[-124.039056,44.22113],[-124.038937,44.221201],[-124.038813,44.221245],[-124.038667,44.221297],[-124.038403,44.221378],[-124.037633,44.221537],[-124.037505,44.221559],[-124.037346,44.221577],[-124.037163,44.221576],[-124.037034,44.221556],[-124.036928,44.221534],[-124.036838,44.221506],[-124.036776,44.221479],[-124.036711,44.221474],[-124.036643,44.221476],[-124.036572,44.221471],[-124.036493,44.221461],[-124.036399,44.221442],[-124.036239,44.22139],[-124.03566,44.221166],[-124.0352,44.220966],[-124.034878,44.220804],[-124.034553,44.220614],[-124.034241,44.220407],[-124.033975,44.220187],[-124.033874,44.220185],[-124.030497,44.220132],[-124.02564,44.220057],[-124.020675,44.219977],[-124.020585,44.216753],[-124.020582,44.216651],[-124.020036,44.216469],[-124.019647,44.21627],[-124.01893,44.21589],[-124.018697,44.215797],[-124.018496,44.215738],[-124.018125,44.215619],[-124.017773,44.21554],[-124.017209,44.215455],[-124.016871,44.215445],[-124.016595,44.215473],[-124.016147,44.2155],[-124.015905,44.2155],[-124.015698,44.215506],[-124.015431,44.215493],[-124.015169,44.215441],[-124.014981,44.215429],[-124.014829,44.215445],[-124.014718,44.21547],[-124.014616,44.215521],[-124.014487,44.215544],[-124.014363,44.215538],[-124.01419,44.215474],[-124.014083,44.215431],[-124.013786,44.215398],[-124.013403,44.21539],[-124.013089,44.215406],[-124.012748,44.21543],[-124.012493,44.21541],[-124.012262,44.215383],[-124.011973,44.215329],[-124.011708,44.21526],[-124.011513,44.215189],[-124.011329,44.215105],[-124.011122,44.214986],[-124.010987,44.214931],[-124.010826,44.214888],[-124.01068,44.214866],[-124.010525,44.214832],[-124.01041,44.214769],[-124.010167,44.214665],[-124.009983,44.214576],[-124.00969,44.214428],[-124.009492,44.214291],[-124.009143,44.214053],[-124.00895,44.213888],[-124.008735,44.213752],[-124.008499,44.213651],[-124.008159,44.213506],[-124.007925,44.213443],[-124.007626,44.213362],[-124.007337,44.213327],[-124.006984,44.213312],[-124.006673,44.2133],[-124.006332,44.213218],[-124.006106,44.213132],[-124.005966,44.213099],[-124.005792,44.213058],[-124.005628,44.213068],[-124.00542,44.21312],[-124.005087,44.213145],[-124.004854,44.213137],[-124.004655,44.213098],[-124.004396,44.21301],[-124.004292,44.212956],[-124.003819,44.212956],[-124.001399,44.212955],[-124.001345,44.212955],[-123.998415,44.212944],[-123.996295,44.212936],[-123.991487,44.212917],[-123.991364,44.212917],[-123.991289,44.212953],[-123.991097,44.213024],[-123.990852,44.213081],[-123.990643,44.213102],[-123.990545,44.213093],[-123.99047,44.213104],[-123.990362,44.213144],[-123.990202,44.21319],[-123.990052,44.213231],[-123.98997,44.213237],[-123.989878,44.213245],[-123.989728,44.213216],[-123.989638,44.213187],[-123.989543,44.213174],[-123.989467,44.213177],[-123.989338,44.21318],[-123.989142,44.213193],[-123.988938,44.213212],[-123.988777,44.213217],[-123.988756,44.213216],[-123.988748,44.213215],[-123.988742,44.213214],[-123.988525,44.213178],[-123.988286,44.213117],[-123.988052,44.213052],[-123.98793,44.213018],[-123.987881,44.21301],[-123.98783,44.213006],[-123.987747,44.213007],[-123.987689,44.21301],[-123.987658,44.213014],[-123.987611,44.213021],[-123.987503,44.213045],[-123.987095,44.213174],[-123.986501,44.213343],[-123.986259,44.213412],[-123.98626,44.213465],[-123.986296,44.216445],[-123.986362,44.221876],[-123.98122,44.221837],[-123.976147,44.221766],[-123.976146,44.220011],[-123.971072,44.219999],[-123.971081,44.223442],[-123.966164,44.223474],[-123.961122,44.223507],[-123.961027,44.219975],[-123.96098,44.218209],[-123.966053,44.218216],[-123.966062,44.219102],[-123.97107,44.219111],[-123.971063,44.216445],[-123.971054,44.212881],[-123.968529,44.212882],[-123.968521,44.211521],[-123.968302,44.211467],[-123.96809,44.211389],[-123.96794,44.211347],[-123.967724,44.211313],[-123.967471,44.211306],[-123.967071,44.211296],[-123.966865,44.211278],[-123.966627,44.211197],[-123.966459,44.211124],[-123.966384,44.21108],[-123.966309,44.211073],[-123.966216,44.211081],[-123.966087,44.211135],[-123.965153,44.211507],[-123.964782,44.21163],[-123.964489,44.211699],[-123.964276,44.211729],[-123.964084,44.211743],[-123.963938,44.211723],[-123.96376,44.211707],[-123.963559,44.21169],[-123.963417,44.211663],[-123.963281,44.211635],[-123.963165,44.21159],[-123.963001,44.211521],[-123.962606,44.211176],[-123.962493,44.211126],[-123.96238,44.211063],[-123.962247,44.211057],[-123.962138,44.211104],[-123.961969,44.211206],[-123.961827,44.211292],[-123.961677,44.211333],[-123.961453,44.211354],[-123.961248,44.211401],[-123.961079,44.211452],[-123.96091,44.211468],[-123.96076,44.211414],[-123.960617,44.211273],[-123.960092,44.210822],[-123.959996,44.210755],[-123.95985,44.210695],[-123.9597,44.210653],[-123.959517,44.21062],[-123.959388,44.210564],[-123.959262,44.210533],[-123.959093,44.210479],[-123.958946,44.210373],[-123.958868,44.210296],[-123.95878,44.210145],[-123.95873,44.209972],[-123.958665,44.209865],[-123.958612,44.209826],[-123.958503,44.209796],[-123.958324,44.209773],[-123.958129,44.209732],[-123.958022,44.209746],[-123.957909,44.209788],[-123.957843,44.209846],[-123.957731,44.209977],[-123.957651,44.210058],[-123.957538,44.210118],[-123.957383,44.210166],[-123.957276,44.210177],[-123.957114,44.210191],[-123.956795,44.210137],[-123.956416,44.210054],[-123.956163,44.210011],[-123.95592,44.209968],[-123.955623,44.209926],[-123.955453,44.209892],[-123.955244,44.209828],[-123.955101,44.209768],[-123.954996,44.209739],[-123.954903,44.209751],[-123.954827,44.209778],[-123.954671,44.209832],[-123.954512,44.209846],[-123.954368,44.209841],[-123.954212,44.209809],[-123.954045,44.209721],[-123.95392,44.20967],[-123.953782,44.209623],[-123.953674,44.209608],[-123.953495,44.209607],[-123.953318,44.209612],[-123.953083,44.209626],[-123.952896,44.209672],[-123.952675,44.209722],[-123.952411,44.209782],[-123.952239,44.209811],[-123.952037,44.209824],[-123.951853,44.20983],[-123.951843,44.209665],[-123.952022,44.20966],[-123.952203,44.209648],[-123.952351,44.209623],[-123.952606,44.209566],[-123.952824,44.209516],[-123.953036,44.209463],[-123.953304,44.209447],[-123.953491,44.209442],[-123.953697,44.209444],[-123.953854,44.209465],[-123.954025,44.209524],[-123.954169,44.209582],[-123.954315,44.209659],[-123.954405,44.209678],[-123.954503,44.209681],[-123.954606,44.209672],[-123.954727,44.20963],[-123.95483,44.209594],[-123.955017,44.209569],[-123.9552,44.209619],[-123.955347,44.209681],[-123.955529,44.209736],[-123.955676,44.209765],[-123.95597,44.209807],[-123.956217,44.209851],[-123.956475,44.209895],[-123.956854,44.209978],[-123.957127,44.210024],[-123.957246,44.210014],[-123.95732,44.210006],[-123.957424,44.209974],[-123.957487,44.209941],[-123.95754,44.209887],[-123.957656,44.20975],[-123.957763,44.209657],[-123.957947,44.209588],[-123.958141,44.209564],[-123.958376,44.209612],[-123.958564,44.209637],[-123.958742,44.209685],[-123.958858,44.209772],[-123.958949,44.209922],[-123.959,44.210096],[-123.959069,44.210215],[-123.95912,44.210266],[-123.959225,44.210341],[-123.959345,44.21038],[-123.959486,44.210414],[-123.959606,44.210467],[-123.95977,44.210496],[-123.959949,44.210546],[-123.960134,44.210622],[-123.960259,44.210709],[-123.960797,44.211171],[-123.960909,44.211285],[-123.960949,44.211298],[-123.961019,44.211292],[-123.961169,44.211246],[-123.961403,44.211193],[-123.961621,44.211172],[-123.96171,44.211148],[-123.961822,44.21108],[-123.962005,44.210969],[-123.962191,44.21089],[-123.962464,44.210901],[-123.962623,44.21099],[-123.962758,44.211049],[-123.963152,44.211393],[-123.963277,44.211447],[-123.963368,44.211482],[-123.963478,44.211505],[-123.963601,44.211528],[-123.963787,44.211544],[-123.963974,44.21156],[-123.964093,44.211577],[-123.964243,44.211566],[-123.964431,44.21154],[-123.964697,44.211476],[-123.96505,44.21136],[-123.965974,44.210992],[-123.966141,44.210921],[-123.96631,44.210907],[-123.966478,44.210922],[-123.966592,44.210989],[-123.966735,44.211052],[-123.96693,44.211118],[-123.96709,44.211132],[-123.967479,44.211142],[-123.967753,44.211149],[-123.968006,44.211189],[-123.968185,44.211239],[-123.9683,44.211282],[-123.968379,44.211312],[-123.96852,44.211347],[-123.968508,44.20928],[-123.968284,44.209282],[-123.966039,44.209295],[-123.966038,44.209295],[-123.965972,44.209296],[-123.9633,44.209312],[-123.963232,44.209312],[-123.960969,44.209326],[-123.960968,44.209326],[-123.9609,44.209327],[-123.959646,44.209328],[-123.958317,44.20933],[-123.958248,44.20933],[-123.955964,44.209332],[-123.955894,44.209332],[-123.953334,44.209335],[-123.953219,44.209335],[-123.953199,44.209335],[-123.953194,44.209335],[-123.950888,44.209338],[-123.950872,44.209338],[-123.95086,44.209338],[-123.948279,44.209307],[-123.948118,44.209305],[-123.948107,44.211932],[-123.948103,44.212871],[-123.948098,44.213905],[-123.945697,44.213904],[-123.943451,44.213903],[-123.94076,44.213902],[-123.940798,44.215882],[-123.940808,44.21643],[-123.940818,44.21758],[-123.940863,44.220002],[-123.940875,44.221259],[-123.940915,44.223576],[-123.940926,44.22495],[-123.940953,44.227161],[-123.940965,44.228626],[-123.940966,44.228645],[-123.94099,44.230727],[-123.940991,44.230748],[-123.941003,44.232233],[-123.941004,44.232255],[-123.941028,44.234312],[-123.941028,44.234334],[-123.941041,44.235841],[-123.941041,44.235864],[-123.941065,44.237897],[-123.941066,44.237921],[-123.94108,44.239443],[-123.94108,44.239468],[-123.941107,44.241527],[-123.941107,44.241553],[-123.941121,44.243044],[-123.941122,44.243071],[-123.94112,44.245184],[-123.94112,44.245212],[-123.941118,44.246735],[-123.941118,44.246763],[-123.941116,44.248857],[-123.941116,44.248884],[-123.941115,44.250427],[-123.941115,44.250454],[-123.941135,44.252529],[-123.941135,44.252557],[-123.941149,44.254078],[-123.94115,44.254106],[-123.941168,44.256057],[-123.941168,44.256084],[-123.941184,44.25773],[-123.941184,44.257758],[-123.941173,44.259584],[-123.941172,44.259612],[-123.941162,44.261287],[-123.941162,44.261315],[-123.94115,44.263111],[-123.94115,44.263139],[-123.941139,44.264844],[-123.941139,44.264872],[-123.941128,44.266639],[-123.941128,44.266666],[-123.941116,44.268456],[-123.941116,44.268483],[-123.941105,44.270206],[-123.941105,44.270234],[-123.941093,44.272067],[-123.941093,44.272095],[-123.941082,44.273768],[-123.941082,44.273801],[-123.941071,44.275633],[-123.94107,44.275665],[-123.94106,44.277368],[-123.94605,44.277369],[-123.951059,44.277371],[-123.956113,44.277371],[-123.961152,44.277372],[-123.963697,44.27736],[-123.963669,44.273769],[-123.964947,44.273762],[-123.964923,44.270242],[-123.964926,44.268482],[-123.9662,44.268474],[-123.966208,44.270234],[-123.968751,44.270219],[-123.968758,44.271981],[-123.967487,44.271988],[-123.967495,44.273749],[-123.966225,44.273756],[-123.966242,44.277347],[-123.971317,44.277323],[-123.976393,44.277297],[-123.981408,44.277272],[-124.001543,44.277364],[-124.001556,44.273837],[-124.006247,44.273802],[-124.006298,44.277343],[-124.011073,44.277321],[-124.021032,44.277275],[-124.040673,44.277214],[-124.040573,44.273649],[-124.045518,44.273634],[-124.050462,44.27362],[-124.050539,44.277196],[-124.055465,44.277188],[-124.055402,44.273606],[-124.055338,44.270004],[-124.050385,44.270031],[-124.050307,44.266442],[-124.055274,44.266403]],[[-123.956061,44.270258],[-123.950999,44.27025],[-123.950979,44.266682],[-123.951041,44.263146],[-123.951103,44.259583],[-123.956069,44.259568],[-123.956054,44.263149],[-123.961068,44.263152],[-123.961101,44.26675],[-123.956035,44.266732],[-123.956061,44.270258]]],[[[-124.025673,44.212985],[-124.025657,44.216482],[-124.030496,44.216531],[-124.035369,44.216579],[-124.040401,44.216623],[-124.045252,44.216568],[-124.045254,44.220182],[-124.050306,44.22008],[-124.055411,44.219984],[-124.05893,44.219913],[-124.060502,44.219881],[-124.064409,44.219792],[-124.06445,44.21635],[-124.064505,44.212915],[-124.06456,44.20948],[-124.06398,44.209481],[-124.060461,44.209483],[-124.06046,44.209483],[-124.059503,44.209483],[-124.058763,44.209484],[-124.056837,44.209485],[-124.055336,44.209486],[-124.055336,44.209486],[-124.053728,44.209488],[-124.050211,44.20949],[-124.048694,44.209493],[-124.048694,44.209493],[-124.047315,44.209495],[-124.045248,44.209499],[-124.045248,44.209499],[-124.043656,44.209502],[-124.040284,44.209508],[-124.040284,44.209508],[-124.038618,44.209506],[-124.038618,44.209506],[-124.035384,44.209502],[-124.035384,44.209502],[-124.033581,44.2095],[-124.03358,44.2095],[-124.032074,44.209498],[-124.030484,44.209496],[-124.030484,44.209496],[-124.028543,44.209493],[-124.025689,44.209489],[-124.024474,44.209487],[-124.023495,44.209486],[-124.023495,44.209486],[-124.020894,44.209482],[-124.018464,44.209482],[-124.016133,44.209483],[-124.016098,44.209483],[-124.013501,44.209484],[-124.013452,44.209484],[-124.011361,44.209484],[-124.011303,44.209484],[-124.011248,44.212957],[-124.006337,44.212958],[-124.006099,44.212957],[-124.006196,44.21298],[-124.006422,44.213066],[-124.006716,44.213137],[-124.006996,44.213148],[-124.007363,44.213164],[-124.007686,44.213203],[-124.008005,44.213289],[-124.008258,44.213357],[-124.008616,44.213509],[-124.008871,44.213618],[-124.009115,44.213773],[-124.00931,44.21394],[-124.00965,44.214172],[-124.009836,44.214301],[-124.010113,44.214441],[-124.010289,44.214526],[-124.010537,44.214632],[-124.010631,44.214683],[-124.010737,44.214707],[-124.010889,44.214729],[-124.011084,44.214781],[-124.01125,44.214849],[-124.011462,44.21497],[-124.011627,44.215045],[-124.011799,44.215109],[-124.01204,44.215172],[-124.012309,44.215221],[-124.012524,44.215247],[-124.01275,44.215265],[-124.013069,44.215242],[-124.013398,44.215226],[-124.013807,44.215234],[-124.014159,44.215273],[-124.014298,44.215329],[-124.014425,44.215376],[-124.014468,44.215378],[-124.014521,44.215369],[-124.014616,44.215321],[-124.014778,44.215284],[-124.014974,44.215264],[-124.01521,44.215279],[-124.01547,44.21533],[-124.015702,44.215342],[-124.0159,44.215336],[-124.016137,44.215335],[-124.016569,44.215309],[-124.01686,44.21528],[-124.017237,44.215291],[-124.01783,44.21538],[-124.018206,44.215464],[-124.018586,44.215587],[-124.018797,44.215648],[-124.019054,44.215752],[-124.019781,44.216137],[-124.020152,44.216326],[-124.020575,44.216467],[-124.020576,44.216432],[-124.020735,44.212957],[-124.025673,44.212985]]],[[[-124.036851,44.22132],[-124.036942,44.221359],[-124.037006,44.221378],[-124.03709,44.221396],[-124.037188,44.221411],[-124.03733,44.221412],[-124.037461,44.221398],[-124.037574,44.221378],[-124.038326,44.221222],[-124.038572,44.221148],[-124.038712,44.221098],[-124.038812,44.221062],[-124.038895,44.221013],[-124.039483,44.220517],[-124.039656,44.220366],[-124.03974,44.220278],[-124.035356,44.220209],[-124.034283,44.220192],[-124.034405,44.220293],[-124.034703,44.22049],[-124.035016,44.220673],[-124.035325,44.220828],[-124.035774,44.221023],[-124.03634,44.221243],[-124.036478,44.221287],[-124.036544,44.221301],[-124.036601,44.221308],[-124.036648,44.221311],[-124.03672,44.221309],[-124.036851,44.22132]]],[[[-124.06227,44.223497],[-124.062329,44.223516],[-124.062369,44.22354],[-124.062409,44.223568],[-124.06244,44.223597],[-124.062507,44.223656],[-124.062637,44.223771],[-124.062754,44.223871],[-124.062838,44.223938],[-124.062888,44.223972],[-124.062917,44.223986],[-124.062954,44.223998],[-124.06299,44.224007],[-124.063037,44.224012],[-124.063045,44.224013],[-124.063352,44.224026],[-124.063529,44.224037],[-124.063749,44.224082],[-124.063954,44.224143],[-124.064259,44.224226],[-124.064349,44.224248],[-124.064368,44.223234],[-124.061066,44.223333],[-124.060821,44.223341],[-124.060824,44.223359],[-124.060825,44.223371],[-124.060847,44.223576],[-124.060901,44.223868],[-124.060931,44.223969],[-124.060949,44.223997],[-124.060961,44.224014],[-124.061035,44.224079],[-124.061182,44.224214],[-124.061248,44.224264],[-124.061308,44.224305],[-124.061347,44.224326],[-124.061364,44.224333],[-124.06136,44.224298],[-124.061357,44.224275],[-124.061355,44.224167],[-124.061363,44.22411],[-124.061421,44.223807],[-124.061451,44.223725],[-124.06147,44.223691],[-124.061494,44.223656],[-124.061521,44.223627],[-124.061546,44.223605],[-124.061575,44.223581],[-124.061612,44.223563],[-124.061645,44.22355],[-124.061683,44.223542],[-124.061745,44.223535],[-124.062037,44.223509],[-124.062091,44.223504],[-124.062148,44.223498],[-124.062197,44.223494],[-124.06227,44.223497]]],[[[-124.056944,44.223783],[-124.057074,44.223797],[-124.057162,44.2238],[-124.057249,44.223791],[-124.057328,44.223782],[-124.057362,44.223777],[-124.057399,44.223767],[-124.058246,44.223448],[-124.058331,44.223416],[-124.055668,44.223496],[-124.056944,44.223783]]],[[[-123.989707,44.213029],[-123.989804,44.21306],[-123.989896,44.213078],[-123.989998,44.21307],[-123.990119,44.213037],[-123.990267,44.212994],[-123.990393,44.212947],[-123.990537,44.212926],[-123.990643,44.212936],[-123.9908,44.21292],[-123.990822,44.212915],[-123.988157,44.212904],[-123.988365,44.212963],[-123.988589,44.21302],[-123.988785,44.213052],[-123.988918,44.213048],[-123.989117,44.213029],[-123.989324,44.213016],[-123.98956,44.213009],[-123.989707,44.213029]]],[[[-124.049048,44.22369],[-124.049181,44.223777],[-124.049342,44.223876],[-124.049405,44.223906],[-124.049469,44.223916],[-124.049678,44.223946],[-124.049896,44.223962],[-124.049974,44.223963],[-124.049959,44.223707],[-124.049957,44.223658],[-124.049035,44.223683],[-124.049048,44.22369]]],[[[-123.986257,44.213236],[-123.986417,44.21319],[-123.987007,44.213022],[-123.987389,44.212901],[-123.986253,44.212897],[-123.986257,44.213236]]],[[[-124.004889,44.212973],[-124.00508,44.21298],[-124.00537,44.212959],[-124.005376,44.212957],[-124.004803,44.212957],[-124.004889,44.212973]]]]}},{"type":"Feature","properties":{"MAPTAXLOT":"1511000000500","MAPNUMBER":"15110000","TAXLOT":"500","ACCTNO":"0024784","MAPACRES":49.63475058},"geometry":{"type":"Polygon","coordinates":[[[-123.963697,44.27736],[-123.966242,44.277347],[-123.966225,44.273756],[-123.967495,44.273749],[-123.967487,44.271988],[-123.968758,44.271981],[-123.968751,44.270219],[-123.966208,44.270234],[-123.9662,44.268474],[-123.964926,44.268482],[-123.964923,44.270242],[-123.964947,44.273762],[-123.963669,44.273769],[-123.963697,44.27736]]]}},{"type":"Feature","properties":{"MAPTAXLOT":"1511000000600","MAPNUMBER":"15110000","TAXLOT":"600","ACCTNO":"0024792","MAPACRES":157.41877718},"geometry":{"type":"Polygon","coordinates":[[[-123.950999,44.27025],[-123.956061,44.270258],[-123.956035,44.266732],[-123.961101,44.26675],[-123.961068,44.263152],[-123.956054,44.263149],[-123.956069,44.259568],[-123.951103,44.259583],[-123.951041,44.263146],[-123.950979,44.266682],[-123.950999,44.27025]]]}}]}