{"type":"FeatureCollection","features":[{"type":"Feature","properties":{"MAPTAXLOT":"1509000000077","MAPNUMBER":"15090000","TAXLOT":"77","ACCTNO":"000None","MAPACRES":23.68450889},"geometry":{"type":"MultiPolygon","coordinates":[[[[-123.740335,44.259242],[-123.739995,44.259421],[-123.739986,44.259426],[-123.739976,44.259432],[-123.739967,44.259437],[-123.739958,44.259442],[-123.739949,44.259448],[-123.739941,44.259454],[-123.739932,44.259459],[-123.739924,44.259465],[-123.739915,44.259471],[-123.739907,44.259477],[-123.739899,44.259483],[-123.739891,44.25949],[-123.739883,44.259496],[-123.739876,44.259502],[-123.739869,44.259509],[-123.739861,44.259516],[-123.739854,44.259522],[-123.739847,44.259529],[-123.739841,44.259536],[-123.739834,44.259543],[-123.739828,44.25955],[-123.739826,44.259552],[-123.739459,44.259969],[-123.739457,44.259971],[-123.739453,44.259975],[-123.739449,44.259979],[-123.739445,44.259984],[-123.73944,44.259988],[-123.739436,44.259992],[-123.739431,44.259996],[-123.739427,44.26],[-123.739422,44.260004],[-123.739417,44.260008],[-123.739412,44.260012],[-123.739407,44.260016],[-123.739402,44.26002],[-123.739397,44.260024],[-123.739392,44.260027],[-123.739386,44.260031],[-123.739381,44.260034],[-123.739375,44.260038],[-123.739369,44.260041],[-123.739364,44.260044],[-123.739358,44.260048],[-123.739352,44.260051],[-123.739346,44.260054],[-123.73934,44.260057],[-123.739334,44.26006],[-123.739328,44.260063],[-123.739321,44.260065],[-123.739315,44.260068],[-123.73894,44.260225],[-123.738544,44.260395],[-123.738516,44.260413],[-123.738489,44.260432],[-123.738462,44.260451],[-123.738436,44.260471],[-123.738411,44.26049],[-123.738385,44.260511],[-123.738361,44.260531],[-123.738336,44.260552],[-123.738313,44.260573],[-123.73829,44.260594],[-123.738267,44.260616],[-123.738245,44.260638],[-123.738223,44.26066],[-123.738202,44.260682],[-123.738182,44.260705],[-123.738162,44.260728],[-123.738142,44.260751],[-123.738124,44.260775],[-123.738105,44.260799],[-123.738088,44.260823],[-123.738071,44.260847],[-123.738054,44.260871],[-123.738038,44.260896],[-123.738023,44.26092],[-123.738008,44.260945],[-123.737994,44.26097],[-123.737981,44.260996],[-123.737968,44.261021],[-123.737956,44.261047],[-123.737944,44.261073],[-123.737933,44.261098],[-123.737923,44.261125],[-123.737913,44.261151],[-123.737904,44.261177],[-123.737902,44.261182],[-123.737442,44.262733],[-123.737438,44.262745],[-123.737434,44.262757],[-123.737431,44.262769],[-123.737428,44.262781],[-123.737426,44.262793],[-123.737424,44.262805],[-123.737423,44.262811],[-123.737263,44.263784],[-123.737261,44.263792],[-123.73726,44.263801],[-123.737259,44.263809],[-123.737259,44.263818],[-123.737258,44.263826],[-123.737258,44.263834],[-123.737258,44.263843],[-123.737258,44.263851],[-123.737258,44.26386],[-123.737259,44.263868],[-123.73726,44.263877],[-123.737261,44.263885],[-123.737262,44.263893],[-123.737263,44.263902],[-123.737265,44.26391],[-123.737267,44.263918],[-123.737269,44.263927],[-123.737271,44.263935],[-123.737273,44.263943],[-123.737276,44.263952],[-123.737279,44.26396],[-123.737282,44.263968],[-123.737285,44.263976],[-123.737288,44.263984],[-123.737292,44.263992],[-123.737296,44.264],[-123.7373,44.264008],[-123.737302,44.264012],[-123.737498,44.264383],[-123.737499,44.264385],[-123.737501,44.26439],[-123.737504,44.264395],[-123.737506,44.2644],[-123.737508,44.264405],[-123.73751,44.26441],[-123.737512,44.264415],[-123.737514,44.264421],[-123.737515,44.264426],[-123.737517,44.264431],[-123.737518,44.264436],[-123.737519,44.264441],[-123.737521,44.264446],[-123.737522,44.264452],[-123.737522,44.264457],[-123.737523,44.264462],[-123.737524,44.264467],[-123.737524,44.264473],[-123.737525,44.264478],[-123.737525,44.264483],[-123.737525,44.264488],[-123.737525,44.264494],[-123.737525,44.264499],[-123.737525,44.264504],[-123.737524,44.26451],[-123.737524,44.264515],[-123.737523,44.26452],[-123.737522,44.264525],[-123.737521,44.264531],[-123.73752,44.264536],[-123.737519,44.264541],[-123.737518,44.264546],[-123.737516,44.264551],[-123.737515,44.264557],[-123.737513,44.264562],[-123.737511,44.264567],[-123.73751,44.264572],[-123.737508,44.264577],[-123.737505,44.264582],[-123.737503,44.264587],[-123.737501,44.264592],[-123.737498,44.264597],[-123.737496,44.264602],[-123.737493,44.264607],[-123.73749,44.264612],[-123.737487,44.264616],[-123.737484,44.264621],[-123.737481,44.264626],[-123.737477,44.264631],[-123.737474,44.264635],[-123.73747,44.26464],[-123.737466,44.264645],[-123.737463,44.264649],[-123.737459,44.264654],[-123.737455,44.264658],[-123.737451,44.264662],[-123.737446,44.264667],[-123.737442,44.264671],[-123.737438,44.264675],[-123.737433,44.264679],[-123.737429,44.264683],[-123.737424,44.264687],[-123.737419,44.264691],[-123.737414,44.264695],[-123.737409,44.264699],[-123.737404,44.264703],[-123.737399,44.264707],[-123.737393,44.26471],[-123.737388,44.264714],[-123.737383,44.264717],[-123.737377,44.264721],[-123.737371,44.264724],[-123.735741,44.265687],[-123.73572,44.265699],[-123.7357,44.265712],[-123.735679,44.265725],[-123.735659,44.265738],[-123.73564,44.265752],[-123.735635,44.265755],[-123.735621,44.265766],[-123.735602,44.26578],[-123.735583,44.265794],[-123.735565,44.265809],[-123.735547,44.265823],[-123.73553,44.265838],[-123.735512,44.265853],[-123.735496,44.265869],[-123.735479,44.265884],[-123.735463,44.2659],[-123.735452,44.265912],[-123.735448,44.265916],[-123.735432,44.265932],[-123.735427,44.265938],[-123.734971,44.266439],[-123.734969,44.266441],[-123.734964,44.266446],[-123.73496,44.26645],[-123.734956,44.266454],[-123.734951,44.266458],[-123.734947,44.266462],[-123.734942,44.266467],[-123.734938,44.266471],[-123.734933,44.266475],[-123.734928,44.266478],[-123.734923,44.266482],[-123.734918,44.266486],[-123.734912,44.26649],[-123.734907,44.266493],[-123.734902,44.266497],[-123.734896,44.266501],[-123.734891,44.266504],[-123.734885,44.266507],[-123.734879,44.266511],[-123.734873,44.266514],[-123.734868,44.266517],[-123.734862,44.26652],[-123.734856,44.266523],[-123.73485,44.266526],[-123.734843,44.266529],[-123.734837,44.266532],[-123.734831,44.266534],[-123.734824,44.266537],[-123.73421,44.266785],[-123.734162,44.266805],[-123.734115,44.266825],[-123.734067,44.266846],[-123.734021,44.266868],[-123.733975,44.26689],[-123.733929,44.266913],[-123.733884,44.266936],[-123.73384,44.26696],[-123.733796,44.266984],[-123.733753,44.267009],[-123.73371,44.267035],[-123.733668,44.267061],[-123.733627,44.267087],[-123.733586,44.267114],[-123.733546,44.267142],[-123.733506,44.26717],[-123.733468,44.267199],[-123.733464,44.267202],[-123.733149,44.2674],[-123.73293,44.267615],[-123.73287,44.267753],[-123.732607,44.267955],[-123.73232,44.268143],[-123.732246,44.268216],[-123.732245,44.268217],[-123.73224,44.268222],[-123.732234,44.268228],[-123.732228,44.268233],[-123.732222,44.268238],[-123.732216,44.268243],[-123.73221,44.268248],[-123.732203,44.268253],[-123.732197,44.268258],[-123.731763,44.268674],[-123.731649,44.268786],[-123.731249,44.26908],[-123.731098,44.269144],[-123.731097,44.269145],[-123.731089,44.26915],[-123.731082,44.269155],[-123.731074,44.269161],[-123.731066,44.269166],[-123.731058,44.269171],[-123.73105,44.269176],[-123.731042,44.269181],[-123.731033,44.269185],[-123.731025,44.26919],[-123.731016,44.269194],[-123.731007,44.269199],[-123.7308,44.269301],[-123.730711,44.269348],[-123.730452,44.269486],[-123.730339,44.269546],[-123.729797,44.269739],[-123.729775,44.269753],[-123.729753,44.269767],[-123.729732,44.269781],[-123.729711,44.269796],[-123.72969,44.269811],[-123.72967,44.269826],[-123.72965,44.269841],[-123.729631,44.269857],[-123.729611,44.269873],[-123.729593,44.269889],[-123.729574,44.269906],[-123.729556,44.269922],[-123.729539,44.269939],[-123.729521,44.269956],[-123.729505,44.269974],[-123.729488,44.269991],[-123.729472,44.270009],[-123.729457,44.270027],[-123.729452,44.270033],[-123.729238,44.270523],[-123.728839,44.271089],[-123.728834,44.271095],[-123.72883,44.271102],[-123.728825,44.271109],[-123.728821,44.271115],[-123.728818,44.271122],[-123.728814,44.271129],[-123.72881,44.271136],[-123.728807,44.271142],[-123.728804,44.271149],[-123.728801,44.271156],[-123.728798,44.271163],[-123.728795,44.27117],[-123.728793,44.271177],[-123.72879,44.271185],[-123.728788,44.271191],[-123.728714,44.271285],[-123.728674,44.271419],[-123.72868,44.27156],[-123.728281,44.272911],[-123.728539,44.272912],[-123.728728,44.272268],[-123.728908,44.272015],[-123.728948,44.271881],[-123.729008,44.27161],[-123.729029,44.271473],[-123.72905,44.271336],[-123.729061,44.271233],[-123.729062,44.271229],[-123.729063,44.271226],[-123.729064,44.271222],[-123.729066,44.271218],[-123.729067,44.271215],[-123.729069,44.271211],[-123.729071,44.271207],[-123.729072,44.271204],[-123.729074,44.2712],[-123.729076,44.271197],[-123.729078,44.271193],[-123.72908,44.27119],[-123.729082,44.271186],[-123.729085,44.271183],[-123.729087,44.271179],[-123.729118,44.271094],[-123.729463,44.270604],[-123.729877,44.270216],[-123.729884,44.270208],[-123.729895,44.270196],[-123.729906,44.270183],[-123.729918,44.270171],[-123.72993,44.270159],[-123.729942,44.270147],[-123.729954,44.270135],[-123.729967,44.270123],[-123.730071,44.269968],[-123.730073,44.269967],[-123.730089,44.269956],[-123.730107,44.269947],[-123.730124,44.269937],[-123.730141,44.269927],[-123.730159,44.269918],[-123.730177,44.269909],[-123.730454,44.269772],[-123.730995,44.269505],[-123.731176,44.269375],[-123.731189,44.269368],[-123.731202,44.269362],[-123.731215,44.269355],[-123.731227,44.269348],[-123.731228,44.269347],[-123.731239,44.269341],[-123.731252,44.269333],[-123.731263,44.269326],[-123.731275,44.269318],[-123.731287,44.269311],[-123.731298,44.269303],[-123.731309,44.269295],[-123.731311,44.269294],[-123.731829,44.268913],[-123.731982,44.268828],[-123.732484,44.268459],[-123.732495,44.268451],[-123.732506,44.268442],[-123.732517,44.268433],[-123.732528,44.268424],[-123.732538,44.268415],[-123.732548,44.268406],[-123.732558,44.268397],[-123.732568,44.268388],[-123.732569,44.268386],[-123.732869,44.268092],[-123.733125,44.267887],[-123.733457,44.267562],[-123.733646,44.267327],[-123.73365,44.267324],[-123.733685,44.267298],[-123.733722,44.267272],[-123.733759,44.267246],[-123.733796,44.267221],[-123.733834,44.267197],[-123.733873,44.267173],[-123.733912,44.267149],[-123.733952,44.267126],[-123.733992,44.267104],[-123.734033,44.267082],[-123.734075,44.26706],[-123.734117,44.267039],[-123.734159,44.267019],[-123.734202,44.266999],[-123.734246,44.26698],[-123.734289,44.266961],[-123.734334,44.266943],[-123.734948,44.266695],[-123.734958,44.266691],[-123.734968,44.266686],[-123.734978,44.266682],[-123.734988,44.266677],[-123.734998,44.266673],[-123.735007,44.266668],[-123.735017,44.266663],[-123.735026,44.266658],[-123.735035,44.266653],[-123.735045,44.266647],[-123.735054,44.266642],[-123.735062,44.266637],[-123.735071,44.266631],[-123.73508,44.266625],[-123.735088,44.266619],[-123.735097,44.266613],[-123.735105,44.266607],[-123.735113,44.266601],[-123.735121,44.266595],[-123.735129,44.266589],[-123.735136,44.266582],[-123.735144,44.266576],[-123.735151,44.266569],[-123.735158,44.266562],[-123.735165,44.266555],[-123.735172,44.266549],[-123.735178,44.266542],[-123.735181,44.266538],[-123.735455,44.266282],[-123.73555,44.266194],[-123.735676,44.266056],[-123.73568,44.266051],[-123.735693,44.266038],[-123.735705,44.266025],[-123.735718,44.266012],[-123.735732,44.265999],[-123.735745,44.265987],[-123.735759,44.265975],[-123.735773,44.265963],[-123.735788,44.265951],[-123.735802,44.265939],[-123.735817,44.265927],[-123.735833,44.265916],[-123.735848,44.265905],[-123.735864,44.265894],[-123.73588,44.265883],[-123.735896,44.265873],[-123.735913,44.265862],[-123.73593,44.265852],[-123.736129,44.265748],[-123.736473,44.265567],[-123.736621,44.26548],[-123.736756,44.265382],[-123.737572,44.2649],[-123.737582,44.264894],[-123.737592,44.264888],[-123.737602,44.264882],[-123.737611,44.264876],[-123.73762,44.264869],[-123.73763,44.264863],[-123.737638,44.264856],[-123.737647,44.264849],[-123.737656,44.264842],[-123.737664,44.264836],[-123.737673,44.264828],[-123.737681,44.264821],[-123.737689,44.264814],[-123.737696,44.264807],[-123.737704,44.264799],[-123.737711,44.264792],[-123.737719,44.264784],[-123.737726,44.264776],[-123.737733,44.264768],[-123.737739,44.26476],[-123.737746,44.264752],[-123.737752,44.264744],[-123.737758,44.264736],[-123.737764,44.264728],[-123.737769,44.26472],[-123.737775,44.264711],[-123.73778,44.264703],[-123.737785,44.264694],[-123.73779,44.264686],[-123.737795,44.264677],[-123.737799,44.264668],[-123.737803,44.26466],[-123.737807,44.264651],[-123.737811,44.264642],[-123.737815,44.264633],[-123.737818,44.264624],[-123.737821,44.264615],[-123.737824,44.264606],[-123.737827,44.264597],[-123.737829,44.264588],[-123.737832,44.264579],[-123.737834,44.26457],[-123.737835,44.264561],[-123.737837,44.264552],[-123.737838,44.264542],[-123.737839,44.264533],[-123.73784,44.264524],[-123.737841,44.264515],[-123.737842,44.264505],[-123.737842,44.264496],[-123.737842,44.264487],[-123.737842,44.264478],[-123.737841,44.264468],[-123.737841,44.264459],[-123.73784,44.26445],[-123.737839,44.264441],[-123.737837,44.264432],[-123.737836,44.264422],[-123.737834,44.264413],[-123.737832,44.264404],[-123.73783,44.264395],[-123.737827,44.264386],[-123.737825,44.264377],[-123.737822,44.264368],[-123.737819,44.264359],[-123.737815,44.26435],[-123.737812,44.264341],[-123.737808,44.264332],[-123.737804,44.264323],[-123.7378,44.264315],[-123.737796,44.264306],[-123.737794,44.264303],[-123.737769,44.264178],[-123.737634,44.263922],[-123.737633,44.26392],[-123.737631,44.263916],[-123.737629,44.263912],[-123.737627,44.263908],[-123.737626,44.263905],[-123.737624,44.263901],[-123.737623,44.263897],[-123.737621,44.263893],[-123.73762,44.263889],[-123.737619,44.263885],[-123.737618,44.263881],[-123.737617,44.263877],[-123.737616,44.263873],[-123.737615,44.263869],[-123.737615,44.263866],[-123.737614,44.263862],[-123.737614,44.263858],[-123.737613,44.263854],[-123.737613,44.26385],[-123.737613,44.263846],[-123.737613,44.263842],[-123.737613,44.263838],[-123.737613,44.263834],[-123.737613,44.26383],[-123.737614,44.263826],[-123.737614,44.263822],[-123.737614,44.263818],[-123.737615,44.263814],[-123.737557,44.263585],[-123.737617,44.263217],[-123.737741,44.263048],[-123.737775,44.26284],[-123.737776,44.262837],[-123.737777,44.262829],[-123.737779,44.262821],[-123.737781,44.262814],[-123.737783,44.262806],[-123.737785,44.262799],[-123.737787,44.262791],[-123.737773,44.26251],[-123.738192,44.261231],[-123.738196,44.261219],[-123.738204,44.261196],[-123.738213,44.261174],[-123.738222,44.261151],[-123.738231,44.261129],[-123.738242,44.261107],[-123.738252,44.261085],[-123.738264,44.261063],[-123.738275,44.261041],[-123.738288,44.261019],[-123.738301,44.260998],[-123.738314,44.260977],[-123.738328,44.260956],[-123.738342,44.260935],[-123.738357,44.260914],[-123.738373,44.260893],[-123.738388,44.260873],[-123.738405,44.260853],[-123.738422,44.260833],[-123.738439,44.260813],[-123.738457,44.260794],[-123.738475,44.260774],[-123.738776,44.260576],[-123.739067,44.260382],[-123.739442,44.260225],[-123.739452,44.26022],[-123.739462,44.260216],[-123.739472,44.260211],[-123.739482,44.260207],[-123.739491,44.260202],[-123.739501,44.260197],[-123.73951,44.260192],[-123.73952,44.260187],[-123.739529,44.260181],[-123.739538,44.260176],[-123.739547,44.26017],[-123.739555,44.260165],[-123.739564,44.260159],[-123.739573,44.260153],[-123.739581,44.260147],[-123.739589,44.260141],[-123.739597,44.260135],[-123.739605,44.260129],[-123.739613,44.260123],[-123.73962,44.260116],[-123.739628,44.26011],[-123.739635,44.260103],[-123.739642,44.260096],[-123.739649,44.260089],[-123.739656,44.260083],[-123.739662,44.260076],[-123.739669,44.260069],[-123.739672,44.260065],[-123.740038,44.259649],[-123.74004,44.259648],[-123.740044,44.259643],[-123.740048,44.259639],[-123.740052,44.259635],[-123.740056,44.25963],[-123.740061,44.259626],[-123.740065,44.259622],[-123.74007,44.259618],[-123.740075,44.259614],[-123.74008,44.25961],[-123.740084,44.259606],[-123.740089,44.259602],[-123.740095,44.259598],[-123.7401,44.259594],[-123.740105,44.259591],[-123.74011,44.259587],[-123.740116,44.259584],[-123.740121,44.25958],[-123.740127,44.259577],[-123.740133,44.259574],[-123.740139,44.25957],[-123.740144,44.259567],[-123.740333,44.259467],[-123.740585,44.259334],[-123.740435,44.259188],[-123.740335,44.259242]]],[[[-123.771775,44.233162],[-123.771771,44.233177],[-123.771768,44.233191],[-123.771765,44.233205],[-123.771762,44.233219],[-123.77176,44.233233],[-123.771758,44.233248],[-123.771757,44.233262],[-123.771756,44.233276],[-123.771756,44.233279],[-123.772062,44.233276],[-123.772063,44.233266],[-123.772064,44.233255],[-123.772065,44.233245],[-123.772067,44.233235],[-123.772069,44.233224],[-123.772072,44.233214],[-123.772074,44.233203],[-123.772077,44.233193],[-123.77204,44.233187],[-123.772042,44.233182],[-123.772045,44.233171],[-123.772049,44.233161],[-123.772052,44.23315],[-123.772057,44.233139],[-123.772061,44.233129],[-123.772066,44.233118],[-123.772071,44.233108],[-123.772076,44.233097],[-123.772081,44.233087],[-123.772087,44.233077],[-123.772093,44.233067],[-123.772099,44.233057],[-123.772105,44.233047],[-123.772112,44.233037],[-123.772119,44.233027],[-123.772126,44.233017],[-123.772134,44.233008],[-123.772141,44.232998],[-123.772149,44.232989],[-123.772157,44.232979],[-123.772165,44.23297],[-123.772174,44.232961],[-123.772183,44.232952],[-123.772191,44.232943],[-123.772201,44.232934],[-123.77221,44.232925],[-123.77222,44.232917],[-123.772229,44.232908],[-123.772239,44.2329],[-123.77225,44.232892],[-123.77226,44.232884],[-123.772271,44.232876],[-123.772281,44.232868],[-123.772292,44.23286],[-123.772304,44.232853],[-123.772315,44.232845],[-123.772326,44.232838],[-123.772338,44.232831],[-123.77235,44.232824],[-123.772362,44.232817],[-123.772374,44.23281],[-123.772386,44.232804],[-123.772399,44.232798],[-123.772412,44.232791],[-123.772424,44.232785],[-123.772437,44.232779],[-123.772451,44.232774],[-123.772464,44.232768],[-123.775197,44.231646],[-123.775197,44.231646],[-123.775199,44.231455],[-123.77235,44.232625],[-123.772334,44.232632],[-123.772317,44.232639],[-123.772301,44.232647],[-123.772285,44.232655],[-123.772269,44.232662],[-123.772253,44.23267],[-123.772237,44.232679],[-123.772222,44.232687],[-123.772207,44.232696],[-123.772192,44.232704],[-123.772177,44.232713],[-123.772162,44.232722],[-123.772148,44.232732],[-123.772134,44.232741],[-123.77212,44.232751],[-123.772107,44.232761],[-123.772093,44.232771],[-123.77208,44.232781],[-123.772067,44.232791],[-123.772055,44.232802],[-123.772042,44.232813],[-123.77203,44.232823],[-123.772018,44.232834],[-123.772007,44.232845],[-123.771996,44.232857],[-123.771985,44.232868],[-123.771974,44.23288],[-123.771963,44.232891],[-123.771953,44.232903],[-123.771943,44.232915],[-123.771934,44.232927],[-123.771925,44.232939],[-123.771916,44.232952],[-123.771907,44.232964],[-123.771898,44.232976],[-123.77189,44.232989],[-123.771883,44.233002],[-123.771875,44.233015],[-123.771868,44.233027],[-123.771861,44.23304],[-123.771855,44.233054],[-123.771848,44.233067],[-123.771842,44.23308],[-123.771837,44.233093],[-123.771832,44.233107],[-123.771827,44.23312],[-123.771822,44.233133],[-123.771818,44.233147],[-123.771816,44.233154],[-123.771778,44.233148],[-123.771775,44.233162]]],[[[-123.792518,44.273235],[-123.792672,44.273272],[-123.792793,44.273318],[-123.79285,44.273364],[-123.792898,44.273442],[-123.792958,44.273541],[-123.792984,44.273621],[-123.793038,44.273864],[-123.793087,44.274152],[-123.793138,44.274476],[-123.793209,44.274667],[-123.793289,44.274806],[-123.793431,44.274956],[-123.793624,44.275096],[-123.793839,44.275273],[-123.793969,44.27537],[-123.794213,44.275563],[-123.794301,44.275631],[-123.79436,44.275704],[-123.794392,44.275766],[-123.794473,44.275972],[-123.794679,44.276496],[-123.794729,44.276624],[-123.794794,44.276728],[-123.794902,44.27685],[-123.794998,44.276931],[-123.795069,44.277],[-123.795072,44.277007],[-123.795086,44.277045],[-123.795091,44.277137],[-123.795114,44.277239],[-123.79514,44.27742],[-123.795181,44.277525],[-123.795199,44.277626],[-123.795228,44.27767],[-123.795228,44.27693],[-123.79515,44.276848],[-123.795056,44.276769],[-123.794962,44.276663],[-123.794909,44.276577],[-123.794863,44.276459],[-123.79467,44.275969],[-123.794574,44.275723],[-123.794533,44.275644],[-123.794456,44.275549],[-123.794353,44.27547],[-123.794109,44.275277],[-123.79398,44.27518],[-123.793764,44.275002],[-123.793578,44.274868],[-123.793458,44.274741],[-123.793391,44.274623],[-123.793326,44.27445],[-123.793277,44.274136],[-123.793227,44.273845],[-123.793172,44.273594],[-123.793139,44.273497],[-123.793072,44.273387],[-123.793012,44.273289],[-123.792913,44.273209],[-123.792748,44.273145],[-123.792562,44.273101],[-123.792339,44.273079],[-123.792168,44.273084],[-123.791973,44.27311],[-123.79176,44.273195],[-123.791603,44.273295],[-123.791448,44.273434],[-123.79121,44.273607],[-123.790979,44.273733],[-123.790779,44.273821],[-123.790645,44.273887],[-123.790517,44.273965],[-123.790432,44.274068],[-123.790394,44.274177],[-123.790308,44.274363],[-123.7902,44.274529],[-123.790139,44.274588],[-123.790108,44.274605],[-123.79007,44.274615],[-123.789959,44.274622],[-123.789863,44.274606],[-123.789681,44.274555],[-123.789403,44.274453],[-123.789195,44.274359],[-123.78908,44.274277],[-123.788976,44.274171],[-123.788901,44.274058],[-123.788837,44.273921],[-123.788763,44.273822],[-123.788667,44.273745],[-123.788495,44.273676],[-123.788251,44.273608],[-123.78763,44.273475],[-123.787378,44.273451],[-123.78719,44.273444],[-123.787049,44.273443],[-123.786901,44.273452],[-123.786719,44.273481],[-123.78653,44.273498],[-123.786383,44.273486],[-123.786164,44.273441],[-123.785582,44.273305],[-123.785333,44.273226],[-123.785216,44.273166],[-123.785076,44.273083],[-123.785072,44.273081],[-123.784984,44.273002],[-123.784905,44.272922],[-123.784825,44.272792],[-123.784761,44.272709],[-123.784679,44.272624],[-123.784573,44.272539],[-123.78442,44.272431],[-123.784382,44.272411],[-123.784218,44.272327],[-123.78402,44.272224],[-123.783816,44.272134],[-123.783477,44.271966],[-123.782687,44.271625],[-123.782544,44.271566],[-123.782522,44.27156],[-123.782432,44.271536],[-123.782314,44.271514],[-123.782201,44.271501],[-123.782042,44.271468],[-123.781875,44.271429],[-123.781685,44.271353],[-123.7814,44.271207],[-123.781313,44.271153],[-123.781242,44.271091],[-123.781153,44.271021],[-123.781097,44.270964],[-123.781005,44.270907],[-123.780932,44.270856],[-123.780773,44.270777],[-123.780607,44.270702],[-123.780369,44.270627],[-123.780162,44.270525],[-123.780009,44.270425],[-123.780003,44.27042],[-123.779796,44.270239],[-123.779139,44.269682],[-123.77847,44.268949],[-123.77842,44.268892],[-123.778334,44.268793],[-123.778174,44.268515],[-123.778014,44.268146],[-123.777945,44.267941],[-123.77781,44.267544],[-123.77775,44.267321],[-123.77774,44.267131],[-123.777783,44.266902],[-123.77785,44.266709],[-123.777989,44.266514],[-123.778125,44.266366],[-123.778193,44.266295],[-123.778262,44.266214],[-123.778329,44.266108],[-123.778463,44.265751],[-123.778504,44.265557],[-123.778504,44.265398],[-123.778505,44.265197],[-123.778481,44.264977],[-123.778406,44.26477],[-123.778129,44.264199],[-123.778085,44.26411],[-123.778006,44.264049],[-123.777869,44.263999],[-123.777606,44.263954],[-123.777145,44.263895],[-123.776734,44.263876],[-123.77641,44.263862],[-123.77624,44.263835],[-123.77608,44.263772],[-123.775957,44.263709],[-123.775846,44.263612],[-123.775724,44.263491],[-123.775584,44.263398],[-123.775406,44.263309],[-123.775327,44.263275],[-123.775209,44.263246],[-123.774977,44.263222],[-123.774975,44.263361],[-123.775164,44.26338],[-123.775245,44.2634],[-123.775303,44.263425],[-123.775464,44.263505],[-123.775581,44.263583],[-123.775695,44.263696],[-123.775826,44.26381],[-123.775979,44.263888],[-123.776172,44.263965],[-123.776384,44.263998],[-123.776722,44.264013],[-123.777122,44.264031],[-123.777567,44.264088],[-123.777803,44.264128],[-123.777889,44.26416],[-123.777918,44.264182],[-123.777949,44.264245],[-123.778223,44.26481],[-123.778292,44.265],[-123.778314,44.265202],[-123.778313,44.265398],[-123.778313,44.265547],[-123.778275,44.265723],[-123.778149,44.266061],[-123.778093,44.266149],[-123.778033,44.26622],[-123.777967,44.266289],[-123.777823,44.266445],[-123.77767,44.266661],[-123.777595,44.266876],[-123.777548,44.267124],[-123.77756,44.267337],[-123.777624,44.267573],[-123.77775,44.267944],[-123.77783,44.268182],[-123.777994,44.268562],[-123.778163,44.268856],[-123.778198,44.268896],[-123.778309,44.269023],[-123.778986,44.269764],[-123.77965,44.270327],[-123.77987,44.27052],[-123.78,44.270604],[-123.780044,44.270633],[-123.780276,44.270747],[-123.780518,44.270824],[-123.780668,44.270891],[-123.78081,44.270962],[-123.780876,44.271008],[-123.780954,44.271056],[-123.781003,44.271107],[-123.781098,44.271181],[-123.781176,44.271249],[-123.781282,44.271315],[-123.781583,44.271469],[-123.781798,44.271555],[-123.781986,44.271599],[-123.78216,44.271636],[-123.782275,44.271648],[-123.782374,44.271667],[-123.782463,44.271691],[-123.78259,44.271743],[-123.783373,44.272081],[-123.783712,44.272249],[-123.783914,44.272338],[-123.784066,44.272417],[-123.784107,44.272438],[-123.784296,44.272536],[-123.784435,44.272634],[-123.784529,44.272709],[-123.784599,44.272781],[-123.784654,44.272853],[-123.784738,44.272991],[-123.784832,44.273085],[-123.784936,44.273178],[-123.785082,44.273264],[-123.785099,44.273274],[-123.785238,44.273346],[-123.785513,44.273433],[-123.786108,44.273572],[-123.786346,44.273621],[-123.786531,44.273636],[-123.786752,44.273617],[-123.78693,44.273588],[-123.787056,44.27358],[-123.787185,44.273581],[-123.787361,44.273588],[-123.78759,44.27361],[-123.788189,44.273738],[-123.788414,44.2738],[-123.788546,44.273853],[-123.788605,44.273901],[-123.788661,44.273976],[-123.788723,44.274109],[-123.78881,44.274241],[-123.788933,44.274366],[-123.789076,44.274467],[-123.789308,44.274573],[-123.789603,44.27468],[-123.789806,44.274737],[-123.789946,44.27476],[-123.790112,44.27475],[-123.7902,44.274726],[-123.790276,44.274685],[-123.790365,44.274599],[-123.790486,44.274414],[-123.790577,44.274216],[-123.79061,44.274121],[-123.790665,44.274054],[-123.790761,44.273996],[-123.790883,44.273936],[-123.791087,44.273846],[-123.791336,44.27371],[-123.791591,44.273525],[-123.791742,44.273389],[-123.791871,44.273308],[-123.792039,44.27324],[-123.792189,44.273221],[-123.79233,44.273217],[-123.792518,44.273235]]]]}},{"type":"Feature","properties":{"MAPTAXLOT":"1509000000100","MAPNUMBER":"15090000","TAXLOT":"100","ACCTNO":"0024024","MAPACRES":12793.25339322},"geometry":{"type":"MultiPolygon","coordinates":[[[[-123.826017,44.257813],[-123.831066,44.257741],[-123.835684,44.257675],[-123.835963,44.257671],[-123.835963,44.257667],[-123.835954,44.254045],[-123.835944,44.250423],[-123.83594,44.248798],[-123.835935,44.246801],[-123.835926,44.24327],[-123.835926,44.243179],[-123.835901,44.239593],[-123.8359,44.239502],[-123.835875,44.235824],[-123.835926,44.232277],[-123.835928,44.232186],[-123.83598,44.228547],[-123.835987,44.225076],[-123.835988,44.224985],[-123.835995,44.221514],[-123.835995,44.221423],[-123.835977,44.217844],[-123.835976,44.217754],[-123.835958,44.214084],[-123.833978,44.214105],[-123.831065,44.214135],[-123.829058,44.214157],[-123.826204,44.214172],[-123.82384,44.214188],[-123.821156,44.214203],[-123.818811,44.214219],[-123.816107,44.214234],[-123.81378,44.214272],[-123.811292,44.214311],[-123.808922,44.214349],[-123.806477,44.214388],[-123.805766,44.22925],[-123.800434,44.229276],[-123.800533,44.221923],[-123.801358,44.214464],[-123.799207,44.214496],[-123.796239,44.21454],[-123.794319,44.214565],[-123.791206,44.214608],[-123.789232,44.214638],[-123.786203,44.214685],[-123.784913,44.214708],[-123.784285,44.21472],[-123.784186,44.214722],[-123.784152,44.214723],[-123.783315,44.214738],[-123.783181,44.21474],[-123.782343,44.214756],[-123.781057,44.214779],[-123.779174,44.214813],[-123.775888,44.214865],[-123.775881,44.218365],[-123.775858,44.221862],[-123.770825,44.221982],[-123.765792,44.222101],[-123.760758,44.222221],[-123.755725,44.22234],[-123.750674,44.222416],[-123.745623,44.222492],[-123.74559,44.218808],[-123.745556,44.215123],[-123.743809,44.215165],[-123.740486,44.215245],[-123.738859,44.215284],[-123.735415,44.215367],[-123.735145,44.215367],[-123.733908,44.215368],[-123.732671,44.21537],[-123.731451,44.215371],[-123.730405,44.215372],[-123.728961,44.215374],[-123.725396,44.215378],[-123.724013,44.215381],[-123.7204,44.215388],[-123.719318,44.215391],[-123.715405,44.215399],[-123.715393,44.219084],[-123.715382,44.222769],[-123.71537,44.226455],[-123.715358,44.23014],[-123.715348,44.233744],[-123.715337,44.237348],[-123.715326,44.240952],[-123.715315,44.244556],[-123.715304,44.248067],[-123.715294,44.251578],[-123.715284,44.255089],[-123.715274,44.2586],[-123.725367,44.258584],[-123.7254,44.265796],[-123.715281,44.265833],[-123.715256,44.26938],[-123.715231,44.272926],[-123.720332,44.272917],[-123.725433,44.272908],[-123.725417,44.269359],[-123.730451,44.269349],[-123.730425,44.265777],[-123.7304,44.262188],[-123.735415,44.262178],[-123.73538,44.258597],[-123.740341,44.258545],[-123.740335,44.259242],[-123.740435,44.259188],[-123.740585,44.259334],[-123.740333,44.259467],[-123.740279,44.265686],[-123.736129,44.265748],[-123.73593,44.265852],[-123.735913,44.265862],[-123.735896,44.265873],[-123.73588,44.265883],[-123.735864,44.265894],[-123.735848,44.265905],[-123.735833,44.265916],[-123.735817,44.265927],[-123.735802,44.265939],[-123.735788,44.265951],[-123.735773,44.265963],[-123.735759,44.265975],[-123.735745,44.265987],[-123.735732,44.265999],[-123.735718,44.266012],[-123.735705,44.266025],[-123.735693,44.266038],[-123.73568,44.266051],[-123.735676,44.266056],[-123.73555,44.266194],[-123.735455,44.266282],[-123.735485,44.269338],[-123.73552,44.272919],[-123.735507,44.276526],[-123.735495,44.280134],[-123.735473,44.283805],[-123.75435,44.283813],[-123.765263,44.283621],[-123.775587,44.283541],[-123.795275,44.283366],[-123.795229,44.279706],[-123.795228,44.27785],[-123.795228,44.27767],[-123.795199,44.277626],[-123.795181,44.277525],[-123.79514,44.27742],[-123.795114,44.277239],[-123.795091,44.277137],[-123.795086,44.277045],[-123.795072,44.277007],[-123.795069,44.277],[-123.794998,44.276931],[-123.794902,44.27685],[-123.794794,44.276728],[-123.794729,44.276624],[-123.794679,44.276496],[-123.794473,44.275972],[-123.79432,44.275974],[-123.785183,44.276098],[-123.785086,44.27338],[-123.785082,44.273264],[-123.784936,44.273178],[-123.784832,44.273085],[-123.784738,44.272991],[-123.784654,44.272853],[-123.784599,44.272781],[-123.784529,44.272709],[-123.784435,44.272634],[-123.784296,44.272536],[-123.784107,44.272438],[-123.784066,44.272417],[-123.783806,44.272422],[-123.779964,44.27249],[-123.779997,44.270727],[-123.78,44.270604],[-123.77987,44.27052],[-123.77965,44.270327],[-123.778986,44.269764],[-123.778309,44.269023],[-123.778198,44.268896],[-123.778086,44.268898],[-123.777481,44.268909],[-123.777446,44.26795],[-123.777467,44.264431],[-123.777467,44.264411],[-123.777394,44.264412],[-123.774925,44.264445],[-123.774962,44.263648],[-123.774975,44.263361],[-123.774926,44.263356],[-123.774782,44.263347],[-123.774686,44.263337],[-123.774607,44.26332],[-123.774536,44.263286],[-123.774442,44.263185],[-123.774357,44.263022],[-123.774269,44.262825],[-123.774207,44.262674],[-123.774132,44.262546],[-123.774042,44.262466],[-123.773946,44.262408],[-123.773819,44.262358],[-123.773345,44.26229],[-123.773179,44.262265],[-123.772966,44.262216],[-123.772772,44.262171],[-123.772501,44.26208],[-123.772083,44.261947],[-123.771655,44.261842],[-123.77129,44.261747],[-123.77104,44.261676],[-123.770855,44.261611],[-123.770788,44.261585],[-123.770723,44.26154],[-123.770668,44.261477],[-123.770627,44.261413],[-123.770561,44.261327],[-123.770477,44.261203],[-123.770348,44.261059],[-123.769852,44.260567],[-123.76978,44.260441],[-123.769741,44.260306],[-123.769752,44.259963],[-123.769809,44.259403],[-123.769929,44.258307],[-123.765103,44.258354],[-123.755222,44.258386],[-123.750262,44.258439],[-123.750267,44.254968],[-123.755235,44.254942],[-123.767552,44.254729],[-123.767556,44.251068],[-123.767563,44.247519],[-123.765106,44.247581],[-123.765107,44.244164],[-123.765363,44.238763],[-123.770313,44.238667],[-123.77043,44.233293],[-123.771756,44.233279],[-123.771756,44.233276],[-123.771757,44.233262],[-123.771758,44.233248],[-123.77176,44.233233],[-123.771762,44.233219],[-123.771765,44.233205],[-123.771768,44.233191],[-123.771771,44.233177],[-123.771775,44.233162],[-123.771778,44.233148],[-123.771816,44.233154],[-123.771818,44.233147],[-123.771822,44.233133],[-123.771827,44.23312],[-123.771832,44.233107],[-123.771837,44.233093],[-123.771842,44.23308],[-123.771848,44.233067],[-123.771855,44.233054],[-123.771861,44.23304],[-123.771868,44.233027],[-123.771875,44.233015],[-123.771883,44.233002],[-123.77189,44.232989],[-123.771898,44.232976],[-123.771907,44.232964],[-123.771916,44.232952],[-123.771925,44.232939],[-123.771934,44.232927],[-123.771943,44.232915],[-123.771953,44.232903],[-123.771963,44.232891],[-123.771974,44.23288],[-123.771985,44.232868],[-123.771996,44.232857],[-123.772007,44.232845],[-123.772018,44.232834],[-123.77203,44.232823],[-123.772042,44.232813],[-123.772055,44.232802],[-123.772067,44.232791],[-123.77208,44.232781],[-123.772093,44.232771],[-123.772107,44.232761],[-123.77212,44.232751],[-123.772134,44.232741],[-123.772148,44.232732],[-123.772162,44.232722],[-123.772177,44.232713],[-123.772192,44.232704],[-123.772207,44.232696],[-123.772222,44.232687],[-123.772237,44.232679],[-123.772253,44.23267],[-123.772269,44.232662],[-123.772285,44.232655],[-123.772301,44.232647],[-123.772317,44.232639],[-123.772334,44.232632],[-123.77235,44.232625],[-123.775199,44.231455],[-123.775197,44.231646],[-123.775197,44.231646],[-123.772464,44.232768],[-123.772451,44.232774],[-123.772437,44.232779],[-123.772424,44.232785],[-123.772412,44.232791],[-123.772399,44.232798],[-123.772386,44.232804],[-123.772374,44.23281],[-123.772362,44.232817],[-123.77235,44.232824],[-123.772338,44.232831],[-123.772326,44.232838],[-123.772315,44.232845],[-123.772304,44.232853],[-123.772292,44.23286],[-123.772281,44.232868],[-123.772271,44.232876],[-123.77226,44.232884],[-123.77225,44.232892],[-123.772239,44.2329],[-123.772229,44.232908],[-123.77222,44.232917],[-123.77221,44.232925],[-123.772201,44.232934],[-123.772191,44.232943],[-123.772183,44.232952],[-123.772174,44.232961],[-123.772165,44.23297],[-123.772157,44.232979],[-123.772149,44.232989],[-123.772141,44.232998],[-123.772134,44.233008],[-123.772126,44.233017],[-123.772119,44.233027],[-123.772112,44.233037],[-123.772105,44.233047],[-123.772099,44.233057],[-123.772093,44.233067],[-123.772087,44.233077],[-123.772081,44.233087],[-123.772076,44.233097],[-123.772071,44.233108],[-123.772066,44.233118],[-123.772061,44.233129],[-123.772057,44.233139],[-123.772052,44.23315],[-123.772049,44.233161],[-123.772045,44.233171],[-123.772042,44.233182],[-123.77204,44.233187],[-123.772077,44.233193],[-123.772074,44.233203],[-123.772072,44.233214],[-123.772069,44.233224],[-123.772067,44.233235],[-123.772065,44.233245],[-123.772064,44.233255],[-123.772063,44.233266],[-123.772062,44.233276],[-123.775177,44.233243],[-123.775133,44.236861],[-123.775147,44.237472],[-123.775193,44.239461],[-123.77529,44.243706],[-123.775248,44.247231],[-123.775247,44.247321],[-123.775204,44.250937],[-123.77268,44.251011],[-123.772672,44.252738],[-123.773432,44.25272],[-123.773423,44.254541],[-123.773422,44.254604],[-123.773412,44.255529],[-123.773588,44.255656],[-123.773129,44.256645],[-123.773126,44.257156],[-123.773117,44.258985],[-123.773504,44.259396],[-123.774199,44.259581],[-123.775113,44.259511],[-123.775101,44.2596],[-123.775027,44.261791],[-123.775027,44.261792],[-123.780166,44.261692],[-123.780133,44.263465],[-123.781331,44.263443],[-123.781248,44.26788],[-123.782585,44.267855],[-123.782567,44.268816],[-123.785119,44.268769],[-123.790171,44.268677],[-123.790138,44.272308],[-123.795225,44.272218],[-123.79628,44.272206],[-123.805503,44.272216],[-123.815769,44.27223],[-123.815608,44.265245],[-123.815704,44.257887],[-123.814908,44.257885],[-123.810583,44.257876],[-123.805462,44.257866],[-123.802902,44.25786],[-123.795222,44.257844],[-123.785316,44.258103],[-123.784392,44.258132],[-123.780231,44.258188],[-123.780241,44.254508],[-123.785234,44.25442],[-123.790226,44.254332],[-123.795218,44.254244],[-123.795215,44.250645],[-123.795207,44.243445],[-123.795146,44.236244],[-123.815847,44.236234],[-123.825843,44.23603],[-123.825867,44.243355],[-123.815849,44.24353],[-123.81571,44.257314],[-123.815704,44.257887],[-123.826017,44.257813]],[[-123.76484,44.27258],[-123.765124,44.27997],[-123.754487,44.280056],[-123.754761,44.272542],[-123.76484,44.27258]]],[[[-123.780032,44.268862],[-123.77842,44.268892],[-123.77847,44.268949],[-123.779139,44.269682],[-123.779796,44.270239],[-123.780003,44.27042],[-123.780003,44.270411],[-123.780032,44.268862]]],[[[-123.770138,44.255689],[-123.77013,44.257287],[-123.770129,44.257596],[-123.770156,44.257552],[-123.770569,44.2571],[-123.770675,44.256963],[-123.770739,44.256846],[-123.770777,44.256729],[-123.770796,44.256574],[-123.770815,44.256406],[-123.7708,44.25629],[-123.770778,44.256195],[-123.77075,44.256162],[-123.770709,44.256115],[-123.770514,44.255941],[-123.770243,44.255768],[-123.770139,44.255674],[-123.770138,44.255689]]],[[[-123.795228,44.27693],[-123.795227,44.275962],[-123.79467,44.275969],[-123.794863,44.276459],[-123.794909,44.276577],[-123.794962,44.276663],[-123.795056,44.276769],[-123.79515,44.276848],[-123.795228,44.27693]]],[[[-123.784905,44.272922],[-123.784984,44.273002],[-123.785072,44.273081],[-123.785076,44.273083],[-123.785052,44.272399],[-123.784382,44.272411],[-123.78442,44.272431],[-123.784573,44.272539],[-123.784679,44.272624],[-123.784761,44.272709],[-123.784825,44.272792],[-123.784905,44.272922]]],[[[-123.73553,44.265838],[-123.735547,44.265823],[-123.735565,44.265809],[-123.735583,44.265794],[-123.735602,44.26578],[-123.735621,44.265766],[-123.735635,44.265755],[-123.73545,44.265758],[-123.735452,44.265912],[-123.735463,44.2659],[-123.735479,44.265884],[-123.735496,44.265869],[-123.735512,44.265853],[-123.73553,44.265838]]]]}},{"type":"Feature","properties":{"MAPTAXLOT":"1509000000200","MAPNUMBER":"15090000","TAXLOT":"200","ACCTNO":"0024057","MAPACRES":118.67672569},"geometry":{"type":"MultiPolygon","coordinates":[[[[-123.792562,44.273101],[-123.792748,44.273145],[-123.792913,44.273209],[-123.793012,44.273289],[-123.793072,44.273387],[-123.793139,44.273497],[-123.793172,44.273594],[-123.793227,44.273845],[-123.793277,44.274136],[-123.793326,44.27445],[-123.793391,44.274623],[-123.793458,44.274741],[-123.793578,44.274868],[-123.793764,44.275002],[-123.79398,44.27518],[-123.794109,44.275277],[-123.794353,44.27547],[-123.794456,44.275549],[-123.794533,44.275644],[-123.794574,44.275723],[-123.79467,44.275969],[-123.795227,44.275962],[-123.795225,44.272218],[-123.790138,44.272308],[-123.790171,44.268677],[-123.785119,44.268769],[-123.785052,44.272399],[-123.785076,44.273083],[-123.785216,44.273166],[-123.785333,44.273226],[-123.785582,44.273305],[-123.786164,44.273441],[-123.786383,44.273486],[-123.78653,44.273498],[-123.786719,44.273481],[-123.786901,44.273452],[-123.787049,44.273443],[-123.78719,44.273444],[-123.787378,44.273451],[-123.78763,44.273475],[-123.788251,44.273608],[-123.788495,44.273676],[-123.788667,44.273745],[-123.788763,44.273822],[-123.788837,44.273921],[-123.788901,44.274058],[-123.788976,44.274171],[-123.78908,44.274277],[-123.789195,44.274359],[-123.789403,44.274453],[-123.789681,44.274555],[-123.789863,44.274606],[-123.789959,44.274622],[-123.79007,44.274615],[-123.790108,44.274605],[-123.790139,44.274588],[-123.7902,44.274529],[-123.790308,44.274363],[-123.790394,44.274177],[-123.790432,44.274068],[-123.790517,44.273965],[-123.790645,44.273887],[-123.790779,44.273821],[-123.790979,44.273733],[-123.79121,44.273607],[-123.791448,44.273434],[-123.791603,44.273295],[-123.79176,44.273195],[-123.791973,44.27311],[-123.792168,44.273084],[-123.792339,44.273079],[-123.792562,44.273101]]],[[[-123.785183,44.276098],[-123.79432,44.275974],[-123.794473,44.275972],[-123.794392,44.275766],[-123.79436,44.275704],[-123.794301,44.275631],[-123.794213,44.275563],[-123.793969,44.27537],[-123.793839,44.275273],[-123.793624,44.275096],[-123.793431,44.274956],[-123.793289,44.274806],[-123.793209,44.274667],[-123.793138,44.274476],[-123.793087,44.274152],[-123.793038,44.273864],[-123.792984,44.273621],[-123.792958,44.273541],[-123.792898,44.273442],[-123.79285,44.273364],[-123.792793,44.273318],[-123.792672,44.273272],[-123.792518,44.273235],[-123.79233,44.273217],[-123.792189,44.273221],[-123.792039,44.27324],[-123.791871,44.273308],[-123.791742,44.273389],[-123.791591,44.273525],[-123.791336,44.27371],[-123.791087,44.273846],[-123.790883,44.273936],[-123.790761,44.273996],[-123.790665,44.274054],[-123.79061,44.274121],[-123.790577,44.274216],[-123.790486,44.274414],[-123.790365,44.274599],[-123.790276,44.274685],[-123.7902,44.274726],[-123.790112,44.27475],[-123.789946,44.27476],[-123.789806,44.274737],[-123.789603,44.27468],[-123.789308,44.274573],[-123.789076,44.274467],[-123.788933,44.274366],[-123.78881,44.274241],[-123.788723,44.274109],[-123.788661,44.273976],[-123.788605,44.273901],[-123.788546,44.273853],[-123.788414,44.2738],[-123.788189,44.273738],[-123.78759,44.27361],[-123.787361,44.273588],[-123.787185,44.273581],[-123.787056,44.27358],[-123.78693,44.273588],[-123.786752,44.273617],[-123.786531,44.273636],[-123.786346,44.273621],[-123.786108,44.273572],[-123.785513,44.273433],[-123.785238,44.273346],[-123.785099,44.273274],[-123.785082,44.273264],[-123.785086,44.27338],[-123.785183,44.276098]]]]}},{"type":"Feature","properties":{"MAPTAXLOT":"1509000001000","MAPNUMBER":"15090000","TAXLOT":"1000","ACCTNO":"0024123","MAPACRES":59.4866311},"geometry":{"type":"MultiPolygon","coordinates":[[[[-123.774977,44.263222],[-123.775209,44.263246],[-123.775327,44.263275],[-123.775406,44.263309],[-123.775584,44.263398],[-123.775724,44.263491],[-123.775846,44.263612],[-123.775957,44.263709],[-123.77608,44.263772],[-123.77624,44.263835],[-123.77641,44.263862],[-123.776734,44.263876],[-123.777145,44.263895],[-123.777606,44.263954],[-123.777869,44.263999],[-123.778006,44.264049],[-123.778085,44.26411],[-123.778129,44.264199],[-123.778406,44.26477],[-123.778481,44.264977],[-123.778505,44.265197],[-123.778504,44.265398],[-123.778504,44.265557],[-123.778463,44.265751],[-123.778329,44.266108],[-123.778262,44.266214],[-123.778193,44.266295],[-123.778125,44.266366],[-123.777989,44.266514],[-123.77785,44.266709],[-123.777783,44.266902],[-123.77774,44.267131],[-123.77775,44.267321],[-123.77781,44.267544],[-123.777945,44.267941],[-123.781248,44.26788],[-123.781331,44.263443],[-123.780133,44.263465],[-123.780166,44.261692],[-123.775027,44.261792],[-123.774977,44.263222]]],[[[-123.774962,44.263648],[-123.774925,44.264445],[-123.777394,44.264412],[-123.777467,44.264411],[-123.777467,44.264431],[-123.777446,44.26795],[-123.777524,44.267948],[-123.77775,44.267944],[-123.777624,44.267573],[-123.77756,44.267337],[-123.777548,44.267124],[-123.777595,44.266876],[-123.77767,44.266661],[-123.777823,44.266445],[-123.777967,44.266289],[-123.778033,44.26622],[-123.778093,44.266149],[-123.778149,44.266061],[-123.778275,44.265723],[-123.778313,44.265547],[-123.778313,44.265398],[-123.778314,44.265202],[-123.778292,44.265],[-123.778223,44.26481],[-123.777949,44.264245],[-123.777918,44.264182],[-123.777889,44.26416],[-123.777803,44.264128],[-123.777567,44.264088],[-123.777122,44.264031],[-123.776722,44.264013],[-123.776384,44.263998],[-123.776172,44.263965],[-123.775979,44.263888],[-123.775826,44.26381],[-123.775695,44.263696],[-123.775581,44.263583],[-123.775464,44.263505],[-123.775303,44.263425],[-123.775245,44.2634],[-123.775164,44.26338],[-123.774975,44.263361],[-123.774962,44.263648]]]]}},{"type":"Feature","properties":{"MAPTAXLOT":"1509000001001","MAPNUMBER":"15090000","TAXLOT":"1001","ACCTNO":"1303385","MAPACRES":10.33697306},"geometry":{"type":"MultiPolygon","coordinates":[[[[-123.778014,44.268146],[-123.778174,44.268515],[-123.778334,44.268793],[-123.77842,44.268892],[-123.780032,44.268862],[-123.782567,44.268816],[-123.782585,44.267855],[-123.781248,44.26788],[-123.777945,44.267941],[-123.778014,44.268146]]],[[[-123.777481,44.268909],[-123.778086,44.268898],[-123.778198,44.268896],[-123.778163,44.268856],[-123.777994,44.268562],[-123.77783,44.268182],[-123.77775,44.267944],[-123.777524,44.267948],[-123.777446,44.26795],[-123.777481,44.268909]]]]}},{"type":"Feature","properties":{"MAPTAXLOT":"1509000001100","MAPNUMBER":"15090000","TAXLOT":"1100","ACCTNO":"0024131","MAPACRES":26.56697905},"geometry":{"type":"MultiPolygon","coordinates":[[[[-123.782522,44.27156],[-123.782544,44.271566],[-123.782687,44.271625],[-123.783477,44.271966],[-123.783816,44.272134],[-123.78402,44.272224],[-123.784218,44.272327],[-123.784382,44.272411],[-123.785052,44.272399],[-123.785119,44.268769],[-123.782567,44.268816],[-123.782522,44.27156]]],[[[-123.779997,44.270727],[-123.779964,44.27249],[-123.783806,44.272422],[-123.784066,44.272417],[-123.783914,44.272338],[-123.783712,44.272249],[-123.783373,44.272081],[-123.78259,44.271743],[-123.782463,44.271691],[-123.782374,44.271667],[-123.782275,44.271648],[-123.78216,44.271636],[-123.781986,44.271599],[-123.781798,44.271555],[-123.781583,44.271469],[-123.781282,44.271315],[-123.781176,44.271249],[-123.781098,44.271181],[-123.781003,44.271107],[-123.780954,44.271056],[-123.780876,44.271008],[-123.78081,44.270962],[-123.780668,44.270891],[-123.780518,44.270824],[-123.780276,44.270747],[-123.780044,44.270633],[-123.78,44.270604],[-123.779997,44.270727]]]]}},{"type":"Feature","properties":{"MAPTAXLOT":"1509000001101","MAPNUMBER":"15090000","TAXLOT":"1101","ACCTNO":"1032828","MAPACRES":12.38200348},"geometry":{"type":"Polygon","coordinates":[[[-123.780003,44.27042],[-123.780009,44.270425],[-123.780162,44.270525],[-123.780369,44.270627],[-123.780607,44.270702],[-123.780773,44.270777],[-123.780932,44.270856],[-123.781005,44.270907],[-123.781097,44.270964],[-123.781153,44.271021],[-123.781242,44.271091],[-123.781313,44.271153],[-123.7814,44.271207],[-123.781685,44.271353],[-123.781875,44.271429],[-123.782042,44.271468],[-123.782201,44.271501],[-123.782314,44.271514],[-123.782432,44.271536],[-123.782522,44.27156],[-123.782567,44.268816],[-123.780032,44.268862],[-123.780003,44.270411],[-123.780003,44.27042]]]}},{"type":"Feature","properties":{"MAPTAXLOT":"1509000001200","MAPNUMBER":"15090000","TAXLOT":"1200","ACCTNO":"0024149","MAPACRES":120.21382845},"geometry":{"type":"Polygon","coordinates":[[[-123.785316,44.258103],[-123.795222,44.257844],[-123.795218,44.254244],[-123.790226,44.254332],[-123.785234,44.25442],[-123.780241,44.254508],[-123.780231,44.258188],[-123.784392,44.258132],[-123.785316,44.258103]]]}},{"type":"Feature","properties":{"MAPTAXLOT":"1509000001800","MAPNUMBER":"15090000","TAXLOT":"1800","ACCTNO":"0024198","MAPACRES":489.18096961},"geometry":{"type":"Polygon","coordinates":[[[-123.815849,44.24353],[-123.825867,44.243355],[-123.825843,44.23603],[-123.815847,44.236234],[-123.795146,44.236244],[-123.795207,44.243445],[-123.815849,44.24353]]]}},{"type":"Feature","properties":{"MAPTAXLOT":"1509070000077","MAPNUMBER":"15090700","TAXLOT":"77","ACCTNO":"000None","MAPACRES":4.29923571},"geometry":{"type":"MultiPolygon","coordinates":[[[[-123.819661,44.279614],[-123.819749,44.27963],[-123.819812,44.279655],[-123.819889,44.279706],[-123.819999,44.279789],[-123.820237,44.279942],[-123.820473,44.28008],[-123.820549,44.280122],[-123.820684,44.280197],[-123.820868,44.280306],[-123.820907,44.280335],[-123.820963,44.280377],[-123.821019,44.280449],[-123.821065,44.280519],[-123.821092,44.280585],[-123.821087,44.280643],[-123.821049,44.280711],[-123.820951,44.280829],[-123.820923,44.280857],[-123.820853,44.280929],[-123.820657,44.281127],[-123.820465,44.281363],[-123.820327,44.281593],[-123.820292,44.28167],[-123.820268,44.281754],[-123.820271,44.281808],[-123.820254,44.281882],[-123.820217,44.281974],[-123.820196,44.282078],[-123.82018,44.282242],[-123.820192,44.282414],[-123.820228,44.282548],[-123.820283,44.28266],[-123.820338,44.28278],[-123.820449,44.282922],[-123.820456,44.282933],[-123.820708,44.282931],[-123.820651,44.282844],[-123.820549,44.282713],[-123.8205,44.282607],[-123.82045,44.282505],[-123.82042,44.282394],[-123.820409,44.282244],[-123.820424,44.282096],[-123.820441,44.282009],[-123.820478,44.281918],[-123.8205,44.281818],[-123.820498,44.281768],[-123.820513,44.281712],[-123.820542,44.281651],[-123.82067,44.281437],[-123.820849,44.281216],[-123.820932,44.281133],[-123.82104,44.281024],[-123.821143,44.280919],[-123.821255,44.280784],[-123.821314,44.280679],[-123.821323,44.280566],[-123.82128,44.28046],[-123.821222,44.280374],[-123.821149,44.280279],[-123.821064,44.280215],[-123.821024,44.280185],[-123.820826,44.280068],[-123.820689,44.279992],[-123.820615,44.279951],[-123.820386,44.279817],[-123.820159,44.27967],[-123.820049,44.279588],[-123.819947,44.279521],[-123.819835,44.279476],[-123.819696,44.279451],[-123.819547,44.279444],[-123.81928,44.279452],[-123.81904,44.279472],[-123.818845,44.279488],[-123.818804,44.279483],[-123.818763,44.279471],[-123.818667,44.279423],[-123.818596,44.27939],[-123.818477,44.279362],[-123.818309,44.279356],[-123.818168,44.279376],[-123.817878,44.27945],[-123.817696,44.279488],[-123.817554,44.279508],[-123.817432,44.279512],[-123.817225,44.279518],[-123.816904,44.279533],[-123.816649,44.27954],[-123.816404,44.279563],[-123.815825,44.279616],[-123.815828,44.279781],[-123.816433,44.279726],[-123.816668,44.279704],[-123.816916,44.279697],[-123.817237,44.279682],[-123.817442,44.279676],[-123.817582,44.279672],[-123.81775,44.279648],[-123.817949,44.279606],[-123.818228,44.279535],[-123.818325,44.279521],[-123.818435,44.279525],[-123.818496,44.279539],[-123.818538,44.279559],[-123.818653,44.279617],[-123.818743,44.279643],[-123.818839,44.279654],[-123.819066,44.279636],[-123.819298,44.279616],[-123.819545,44.279609],[-123.819661,44.279614]]],[[[-123.833925,44.272107],[-123.834229,44.272179],[-123.834831,44.272461],[-123.834825,44.272262],[-123.834328,44.272029],[-123.833981,44.271947],[-123.833634,44.271904],[-123.832298,44.271911],[-123.832223,44.272053],[-123.832887,44.271978],[-123.833925,44.272107]]]]}},{"type":"Feature","properties":{"MAPTAXLOT":"1509070000100","MAPNUMBER":"15090700","TAXLOT":"100","ACCTNO":"0024230","MAPACRES":42.20426994},"geometry":{"type":"MultiPolygon","coordinates":[[[[-123.816433,44.279726],[-123.815828,44.279781],[-123.81583,44.279851],[-123.815893,44.282971],[-123.820393,44.282934],[-123.820456,44.282933],[-123.820449,44.282922],[-123.820338,44.28278],[-123.820283,44.28266],[-123.820228,44.282548],[-123.820192,44.282414],[-123.82018,44.282242],[-123.820196,44.282078],[-123.820217,44.281974],[-123.820254,44.281882],[-123.820271,44.281808],[-123.820268,44.281754],[-123.820292,44.28167],[-123.820327,44.281593],[-123.820465,44.281363],[-123.820657,44.281127],[-123.820853,44.280929],[-123.820923,44.280857],[-123.82092,44.280749],[-123.820909,44.280407],[-123.820907,44.280335],[-123.820868,44.280306],[-123.820684,44.280197],[-123.820549,44.280122],[-123.820473,44.28008],[-123.820237,44.279942],[-123.819999,44.279789],[-123.819889,44.279706],[-123.819812,44.279655],[-123.819749,44.27963],[-123.819661,44.279614],[-123.819545,44.279609],[-123.819298,44.279616],[-123.819066,44.279636],[-123.818839,44.279654],[-123.818743,44.279643],[-123.818653,44.279617],[-123.818538,44.279559],[-123.818496,44.279539],[-123.818435,44.279525],[-123.818325,44.279521],[-123.818228,44.279535],[-123.817949,44.279606],[-123.81775,44.279648],[-123.817582,44.279672],[-123.817442,44.279676],[-123.817237,44.279682],[-123.816916,44.279697],[-123.816668,44.279704],[-123.816433,44.279726]]],[[[-123.819696,44.279451],[-123.819835,44.279476],[-123.819947,44.279521],[-123.820049,44.279588],[-123.820159,44.27967],[-123.820386,44.279817],[-123.820615,44.279951],[-123.820689,44.279992],[-123.820826,44.280068],[-123.821024,44.280185],[-123.821064,44.280215],[-123.823398,44.280198],[-123.823402,44.279293],[-123.81582,44.279349],[-123.815825,44.279616],[-123.816404,44.279563],[-123.816649,44.27954],[-123.816904,44.279533],[-123.817225,44.279518],[-123.817432,44.279512],[-123.817554,44.279508],[-123.817696,44.279488],[-123.817878,44.27945],[-123.818168,44.279376],[-123.818309,44.279356],[-123.818477,44.279362],[-123.818596,44.27939],[-123.818667,44.279423],[-123.818763,44.279471],[-123.818804,44.279483],[-123.818845,44.279488],[-123.81904,44.279472],[-123.81928,44.279452],[-123.819547,44.279444],[-123.819696,44.279451]]],[[[-123.820849,44.281216],[-123.82067,44.281437],[-123.820542,44.281651],[-123.820513,44.281712],[-123.820498,44.281768],[-123.8205,44.281818],[-123.820478,44.281918],[-123.820441,44.282009],[-123.820424,44.282096],[-123.820409,44.282244],[-123.82042,44.282394],[-123.82045,44.282505],[-123.8205,44.282607],[-123.820549,44.282713],[-123.820651,44.282844],[-123.820708,44.282931],[-123.820988,44.282929],[-123.820932,44.281133],[-123.820849,44.281216]]]]}},{"type":"Feature","properties":{"MAPTAXLOT":"1509070000200","MAPNUMBER":"15090700","TAXLOT":"200","ACCTNO":"0024248","MAPACRES":71.04656629},"geometry":{"type":"MultiPolygon","coordinates":[[[[-123.821149,44.280279],[-123.821222,44.280374],[-123.82128,44.28046],[-123.821323,44.280566],[-123.821314,44.280679],[-123.821255,44.280784],[-123.821143,44.280919],[-123.82104,44.281024],[-123.820932,44.281133],[-123.820988,44.282929],[-123.826147,44.282886],[-123.826095,44.279272],[-123.824666,44.279283],[-123.824678,44.277425],[-123.815807,44.27757],[-123.81582,44.279349],[-123.823402,44.279293],[-123.823398,44.280198],[-123.821064,44.280215],[-123.821149,44.280279]]],[[[-123.820909,44.280407],[-123.82092,44.280749],[-123.820923,44.280857],[-123.820951,44.280829],[-123.821049,44.280711],[-123.821087,44.280643],[-123.821092,44.280585],[-123.821065,44.280519],[-123.821019,44.280449],[-123.820963,44.280377],[-123.820907,44.280335],[-123.820909,44.280407]]]]}},{"type":"Feature","properties":{"MAPTAXLOT":"1509070000300","MAPNUMBER":"15090700","TAXLOT":"300","ACCTNO":"0024255","MAPACRES":361.51543451},"geometry":{"type":"MultiPolygon","coordinates":[[[[-123.815794,44.275781],[-123.815807,44.27757],[-123.824678,44.277425],[-123.824666,44.279283],[-123.826095,44.279272],[-123.826147,44.282886],[-123.836049,44.282803],[-123.836039,44.279197],[-123.835992,44.277392],[-123.835944,44.275545],[-123.835921,44.274654],[-123.835897,44.273741],[-123.835874,44.272828],[-123.835873,44.272805],[-123.834841,44.272811],[-123.834831,44.272461],[-123.834229,44.272179],[-123.833925,44.272107],[-123.832887,44.271978],[-123.832223,44.272053],[-123.832298,44.271911],[-123.831047,44.271918],[-123.825991,44.271944],[-123.815769,44.27223],[-123.815794,44.275781]]],[[[-123.833981,44.271947],[-123.834328,44.272029],[-123.834825,44.272262],[-123.834815,44.271898],[-123.833634,44.271904],[-123.833981,44.271947]]]]}},{"type":"Feature","properties":{"MAPTAXLOT":"1509080000077","MAPNUMBER":"15090800","TAXLOT":"77","ACCTNO":"000None","MAPACRES":8.23007032},"geometry":{"type":"MultiPolygon","coordinates":[[[[-123.800175,44.280908],[-123.800301,44.280924],[-123.800382,44.280947],[-123.800454,44.280978],[-123.80058,44.281051],[-123.800686,44.281127],[-123.800788,44.281205],[-123.800846,44.281277],[-123.800885,44.281361],[-123.80103,44.282203],[-123.801232,44.283251],[-123.801462,44.283247],[-123.801257,44.282181],[-123.80111,44.281324],[-123.801056,44.281208],[-123.800973,44.281106],[-123.80085,44.281013],[-123.800733,44.280929],[-123.800586,44.280843],[-123.800484,44.280799],[-123.800364,44.280765],[-123.800196,44.280743],[-123.800008,44.280742],[-123.799741,44.280755],[-123.799471,44.280775],[-123.799248,44.280792],[-123.799025,44.280791],[-123.798792,44.280786],[-123.798614,44.280779],[-123.798444,44.280768],[-123.798319,44.280772],[-123.798185,44.28077],[-123.797999,44.280781],[-123.797859,44.280788],[-123.797767,44.280798],[-123.797727,44.280804],[-123.797697,44.280807],[-123.797693,44.280807],[-123.797685,44.280806],[-123.797684,44.280806],[-123.797683,44.280805],[-123.797679,44.280802],[-123.797615,44.280719],[-123.797491,44.280563],[-123.797363,44.280387],[-123.797218,44.280157],[-123.797112,44.279965],[-123.796973,44.279742],[-123.796929,44.279676],[-123.796806,44.279491],[-123.796746,44.27942],[-123.796656,44.279336],[-123.796542,44.279226],[-123.796394,44.279093],[-123.796268,44.278976],[-123.796167,44.278861],[-123.796074,44.278734],[-123.795985,44.278565],[-123.795842,44.27828],[-123.795768,44.278121],[-123.795695,44.277961],[-123.795655,44.277895],[-123.7956,44.277824],[-123.795528,44.277725],[-123.795449,44.277622],[-123.795407,44.277556],[-123.795366,44.27749],[-123.795328,44.277394],[-123.795303,44.277221],[-123.795281,44.277123],[-123.795276,44.277025],[-123.795256,44.276972],[-123.79525,44.276953],[-123.795228,44.27693],[-123.795228,44.27767],[-123.795245,44.277696],[-123.795326,44.277802],[-123.795398,44.277901],[-123.795449,44.277969],[-123.795481,44.27802],[-123.795551,44.278173],[-123.795626,44.278334],[-123.79577,44.278621],[-123.795865,44.278802],[-123.795968,44.278943],[-123.79608,44.27907],[-123.796214,44.279195],[-123.796361,44.279327],[-123.796473,44.279436],[-123.796557,44.279513],[-123.796604,44.279569],[-123.796678,44.27968],[-123.796765,44.279812],[-123.7969,44.280029],[-123.797007,44.280221],[-123.797157,44.280459],[-123.79729,44.280642],[-123.797415,44.280799],[-123.797493,44.280901],[-123.797528,44.280927],[-123.797565,44.280949],[-123.797616,44.280964],[-123.797664,44.280971],[-123.797711,44.280972],[-123.797767,44.280966],[-123.797807,44.28096],[-123.797884,44.280952],[-123.798016,44.280945],[-123.798193,44.280935],[-123.798321,44.280936],[-123.798437,44.280933],[-123.798597,44.280944],[-123.798782,44.28095],[-123.799021,44.280956],[-123.79926,44.280957],[-123.799495,44.280938],[-123.79976,44.280919],[-123.800015,44.280907],[-123.800175,44.280908]]],[[[-123.8079,44.281385],[-123.807803,44.28154],[-123.807762,44.281657],[-123.807704,44.281761],[-123.807614,44.281867],[-123.807547,44.28198],[-123.807484,44.282143],[-123.807461,44.282331],[-123.807437,44.282428],[-123.807364,44.282568],[-123.807132,44.283138],[-123.807373,44.283133],[-123.807582,44.28262],[-123.807658,44.282471],[-123.807688,44.282353],[-123.807711,44.282172],[-123.807764,44.282035],[-123.807818,44.281943],[-123.807909,44.281836],[-123.807981,44.281708],[-123.80802,44.281594],[-123.808105,44.281459],[-123.808203,44.281333],[-123.808245,44.281303],[-123.808326,44.281271],[-123.808436,44.281251],[-123.808583,44.281237],[-123.808749,44.281243],[-123.808925,44.281257],[-123.809101,44.281266],[-123.809253,44.281265],[-123.809396,44.281236],[-123.80957,44.281163],[-123.809789,44.28107],[-123.809939,44.281003],[-123.810081,44.280915],[-123.810249,44.280791],[-123.810374,44.280736],[-123.810484,44.280703],[-123.810603,44.280689],[-123.810604,44.280689],[-123.81075,44.280685],[-123.810931,44.280668],[-123.811093,44.280644],[-123.811284,44.280609],[-123.811951,44.28049],[-123.812109,44.280468],[-123.812259,44.280452],[-123.81245,44.28044],[-123.812721,44.280403],[-123.81313,44.280337],[-123.813445,44.280255],[-123.814081,44.280101],[-123.814392,44.28002],[-123.814501,44.279991],[-123.814606,44.279983],[-123.814718,44.279979],[-123.814854,44.279961],[-123.814988,44.279932],[-123.815136,44.279891],[-123.81533,44.279841],[-123.815638,44.279798],[-123.815828,44.279781],[-123.815825,44.279616],[-123.815601,44.279636],[-123.81527,44.279682],[-123.815057,44.279737],[-123.814914,44.279776],[-123.814799,44.279801],[-123.814692,44.279815],[-123.814589,44.279818],[-123.814448,44.279829],[-123.814313,44.279866],[-123.814005,44.279945],[-123.81337,44.2801],[-123.813066,44.280178],[-123.812674,44.280242],[-123.812418,44.280277],[-123.812233,44.280289],[-123.812071,44.280306],[-123.811902,44.280329],[-123.811228,44.280449],[-123.811042,44.280484],[-123.810893,44.280505],[-123.81073,44.280521],[-123.810603,44.280525],[-123.81058,44.280525],[-123.81042,44.280543],[-123.81027,44.280589],[-123.810105,44.280661],[-123.809924,44.280795],[-123.809803,44.28087],[-123.80967,44.280929],[-123.809454,44.281021],[-123.809306,44.281083],[-123.809221,44.2811],[-123.809107,44.281101],[-123.808946,44.281094],[-123.808768,44.281079],[-123.808572,44.281072],[-123.808392,44.28109],[-123.808241,44.281117],[-123.808107,44.28117],[-123.808019,44.281233],[-123.8079,44.281385]]]]}},{"type":"Feature","properties":{"MAPTAXLOT":"1509080000100","MAPNUMBER":"15090800","TAXLOT":"100","ACCTNO":"0024263","MAPACRES":117.77915131},"geometry":{"type":"MultiPolygon","coordinates":[[[[-123.80111,44.281324],[-123.801257,44.282181],[-123.801462,44.283247],[-123.805323,44.283172],[-123.807074,44.283139],[-123.807132,44.283138],[-123.807364,44.282568],[-123.807437,44.282428],[-123.807461,44.282331],[-123.807484,44.282143],[-123.807547,44.28198],[-123.807614,44.281867],[-123.807704,44.281761],[-123.807762,44.281657],[-123.807803,44.28154],[-123.8079,44.281385],[-123.808019,44.281233],[-123.808107,44.28117],[-123.808241,44.281117],[-123.808392,44.28109],[-123.808572,44.281072],[-123.808768,44.281079],[-123.808946,44.281094],[-123.809107,44.281101],[-123.809221,44.2811],[-123.809306,44.281083],[-123.809454,44.281021],[-123.80967,44.280929],[-123.809803,44.28087],[-123.809924,44.280795],[-123.810105,44.280661],[-123.81027,44.280589],[-123.81042,44.280543],[-123.81058,44.280525],[-123.810603,44.280525],[-123.810601,44.279439],[-123.805383,44.279528],[-123.800305,44.279616],[-123.796929,44.279676],[-123.796973,44.279742],[-123.797112,44.279965],[-123.797218,44.280157],[-123.797363,44.280387],[-123.797491,44.280563],[-123.797615,44.280719],[-123.797679,44.280802],[-123.797683,44.280805],[-123.797684,44.280806],[-123.797685,44.280806],[-123.797693,44.280807],[-123.797697,44.280807],[-123.797727,44.280804],[-123.797767,44.280798],[-123.797859,44.280788],[-123.797999,44.280781],[-123.798185,44.28077],[-123.798319,44.280772],[-123.798444,44.280768],[-123.798614,44.280779],[-123.798792,44.280786],[-123.799025,44.280791],[-123.799248,44.280792],[-123.799471,44.280775],[-123.799741,44.280755],[-123.800008,44.280742],[-123.800196,44.280743],[-123.800364,44.280765],[-123.800484,44.280799],[-123.800586,44.280843],[-123.800733,44.280929],[-123.80085,44.281013],[-123.800973,44.281106],[-123.801056,44.281208],[-123.80111,44.281324]]],[[[-123.795275,44.283366],[-123.8003,44.283269],[-123.80111,44.283253],[-123.801232,44.283251],[-123.80103,44.282203],[-123.800885,44.281361],[-123.800846,44.281277],[-123.800788,44.281205],[-123.800686,44.281127],[-123.80058,44.281051],[-123.800454,44.280978],[-123.800382,44.280947],[-123.800301,44.280924],[-123.800175,44.280908],[-123.800015,44.280907],[-123.79976,44.280919],[-123.799495,44.280938],[-123.79926,44.280957],[-123.799021,44.280956],[-123.798782,44.28095],[-123.798597,44.280944],[-123.798437,44.280933],[-123.798321,44.280936],[-123.798193,44.280935],[-123.798016,44.280945],[-123.797884,44.280952],[-123.797807,44.28096],[-123.797767,44.280966],[-123.797711,44.280972],[-123.797664,44.280971],[-123.797616,44.280964],[-123.797565,44.280949],[-123.797528,44.280927],[-123.797493,44.280901],[-123.797415,44.280799],[-123.79729,44.280642],[-123.797157,44.280459],[-123.797007,44.280221],[-123.7969,44.280029],[-123.796765,44.279812],[-123.796678,44.27968],[-123.796588,44.279682],[-123.795229,44.279706],[-123.795275,44.283366]]],[[[-123.808245,44.281303],[-123.808203,44.281333],[-123.808105,44.281459],[-123.80802,44.281594],[-123.807981,44.281708],[-123.807909,44.281836],[-123.807818,44.281943],[-123.807764,44.282035],[-123.807711,44.282172],[-123.807688,44.282353],[-123.807658,44.282471],[-123.807582,44.28262],[-123.807373,44.283133],[-123.810608,44.283072],[-123.810604,44.28077],[-123.810604,44.280689],[-123.810603,44.280689],[-123.810484,44.280703],[-123.810374,44.280736],[-123.810249,44.280791],[-123.810081,44.280915],[-123.809939,44.281003],[-123.809789,44.28107],[-123.80957,44.281163],[-123.809396,44.281236],[-123.809253,44.281265],[-123.809101,44.281266],[-123.808925,44.281257],[-123.808749,44.281243],[-123.808583,44.281237],[-123.808436,44.281251],[-123.808326,44.281271],[-123.808245,44.281303]]]]}},{"type":"Feature","properties":{"MAPTAXLOT":"1509080000200","MAPNUMBER":"15090800","TAXLOT":"200","ACCTNO":"0024271","MAPACRES":131.48850925},"geometry":{"type":"Polygon","coordinates":[[[-123.810601,44.279439],[-123.810603,44.280525],[-123.81073,44.280521],[-123.810893,44.280505],[-123.811042,44.280484],[-123.811228,44.280449],[-123.811902,44.280329],[-123.812071,44.280306],[-123.812233,44.280289],[-123.812418,44.280277],[-123.812674,44.280242],[-123.813066,44.280178],[-123.81337,44.2801],[-123.814005,44.279945],[-123.814313,44.279866],[-123.814448,44.279829],[-123.814589,44.279818],[-123.814692,44.279815],[-123.814799,44.279801],[-123.814914,44.279776],[-123.815057,44.279737],[-123.81527,44.279682],[-123.815601,44.279636],[-123.815825,44.279616],[-123.81582,44.279349],[-123.815807,44.27757],[-123.815794,44.275781],[-123.800314,44.275917],[-123.800305,44.279616],[-123.805383,44.279528],[-123.810601,44.279439]]]}},{"type":"Feature","properties":{"MAPTAXLOT":"1509080000201","MAPNUMBER":"15090800","TAXLOT":"201","ACCTNO":"1178308","MAPACRES":31.78695599},"geometry":{"type":"Polygon","coordinates":[[[-123.810608,44.283072],[-123.815893,44.282971],[-123.81583,44.279851],[-123.815828,44.279781],[-123.815638,44.279798],[-123.81533,44.279841],[-123.815136,44.279891],[-123.814988,44.279932],[-123.814854,44.279961],[-123.814718,44.279979],[-123.814606,44.279983],[-123.814501,44.279991],[-123.814392,44.28002],[-123.814081,44.280101],[-123.813445,44.280255],[-123.81313,44.280337],[-123.812721,44.280403],[-123.81245,44.28044],[-123.812259,44.280452],[-123.812109,44.280468],[-123.811951,44.28049],[-123.811284,44.280609],[-123.811093,44.280644],[-123.810931,44.280668],[-123.81075,44.280685],[-123.810604,44.280689],[-123.810604,44.28077],[-123.810608,44.283072]]]}},{"type":"Feature","properties":{"MAPTAXLOT":"1509080000300","MAPNUMBER":"15090800","TAXLOT":"300","ACCTNO":"0024289","MAPACRES":204.83964067},"geometry":{"type":"MultiPolygon","coordinates":[[[[-123.795228,44.27693],[-123.79525,44.276953],[-123.795256,44.276972],[-123.795276,44.277025],[-123.795281,44.277123],[-123.795303,44.277221],[-123.795328,44.277394],[-123.795366,44.27749],[-123.795407,44.277556],[-123.795449,44.277622],[-123.795528,44.277725],[-123.7956,44.277824],[-123.795655,44.277895],[-123.795695,44.277961],[-123.795768,44.278121],[-123.795842,44.27828],[-123.795985,44.278565],[-123.796074,44.278734],[-123.796167,44.278861],[-123.796268,44.278976],[-123.796394,44.279093],[-123.796542,44.279226],[-123.796656,44.279336],[-123.796746,44.27942],[-123.796806,44.279491],[-123.796929,44.279676],[-123.800305,44.279616],[-123.800314,44.275917],[-123.815794,44.275781],[-123.815769,44.27223],[-123.805503,44.272216],[-123.79628,44.272206],[-123.795225,44.272218],[-123.795227,44.275962],[-123.795228,44.27693]]],[[[-123.795228,44.27785],[-123.795229,44.279706],[-123.796588,44.279682],[-123.796678,44.27968],[-123.796604,44.279569],[-123.796557,44.279513],[-123.796473,44.279436],[-123.796361,44.279327],[-123.796214,44.279195],[-123.79608,44.27907],[-123.795968,44.278943],[-123.795865,44.278802],[-123.79577,44.278621],[-123.795626,44.278334],[-123.795551,44.278173],[-123.795481,44.27802],[-123.795449,44.277969],[-123.795398,44.277901],[-123.795326,44.277802],[-123.795245,44.277696],[-123.795228,44.27767],[-123.795228,44.27785]]]]}},{"type":"Feature","properties":{"MAPTAXLOT":"1509180000077","MAPNUMBER":"15091800","TAXLOT":"77","ACCTNO":"000None","MAPACRES":9.73852903},"geometry":{"type":"MultiPolygon","coordinates":[[[[-123.832298,44.271911],[-123.833634,44.271904],[-123.833448,44.271881],[-123.832889,44.271811],[-123.832577,44.271846],[-123.832675,44.271662],[-123.832613,44.271507],[-123.832376,44.271445],[-123.831817,44.271298],[-123.831336,44.271059],[-123.8313,44.27105],[-123.831048,44.270986],[-123.830902,44.270948],[-123.830756,44.270658],[-123.830391,44.270546],[-123.82986,44.270492],[-123.829915,44.270408],[-123.830081,44.27021],[-123.830313,44.270126],[-123.830502,44.269981],[-123.830354,44.269829],[-123.830407,44.269652],[-123.830362,44.269423],[-123.830248,44.269262],[-123.830215,44.269101],[-123.830107,44.268927],[-123.829905,44.268663],[-123.829985,44.268483],[-123.830057,44.268339],[-123.829891,44.268148],[-123.829604,44.267992],[-123.829307,44.267863],[-123.828902,44.267768],[-123.828549,44.267747],[-123.828156,44.267724],[-123.827912,44.267707],[-123.827591,44.267649],[-123.827253,44.267618],[-123.826941,44.267603],[-123.826552,44.267606],[-123.825999,44.267484],[-123.825977,44.267479],[-123.825675,44.267507],[-123.825254,44.267381],[-123.825184,44.267262],[-123.82525,44.266982],[-123.825392,44.266558],[-123.825608,44.266146],[-123.826003,44.26554],[-123.82608,44.265422],[-123.826425,44.264994],[-123.82669,44.264867],[-123.827218,44.264738],[-123.827888,44.264806],[-123.828069,44.264856],[-123.828233,44.264902],[-123.828592,44.264864],[-123.829022,44.264821],[-123.829489,44.264716],[-123.829751,44.264662],[-123.830087,44.264537],[-123.830307,44.264479],[-123.830614,44.264314],[-123.830865,44.264218],[-123.831106,44.264141],[-123.831504,44.263942],[-123.831754,44.263924],[-123.831993,44.26398],[-123.832331,44.264054],[-123.832691,44.264086],[-123.833166,44.264225],[-123.833539,44.264327],[-123.833885,44.264423],[-123.834332,44.264454],[-123.835032,44.264526],[-123.835574,44.264479],[-123.835829,44.264469],[-123.835833,44.264304],[-123.835554,44.264315],[-123.835451,44.264324],[-123.835035,44.26436],[-123.834359,44.264291],[-123.833938,44.264261],[-123.833621,44.264173],[-123.83325,44.264072],[-123.832749,44.263926],[-123.832379,44.263893],[-123.832062,44.263823],[-123.831779,44.263757],[-123.831422,44.263782],[-123.830993,44.263997],[-123.830765,44.26407],[-123.830491,44.264174],[-123.830197,44.264333],[-123.829995,44.264385],[-123.829666,44.264508],[-123.829423,44.264558],[-123.828972,44.26466],[-123.828559,44.264701],[-123.828259,44.264733],[-123.828151,44.264703],[-123.827946,44.264646],[-123.827195,44.264569],[-123.826588,44.264718],[-123.826254,44.264878],[-123.826004,44.265188],[-123.825877,44.265346],[-123.825397,44.266082],[-123.825173,44.26651],[-123.825025,44.266949],[-123.824947,44.267282],[-123.825079,44.267507],[-123.825644,44.267676],[-123.825957,44.267647],[-123.825999,44.267656],[-123.826519,44.267771],[-123.826935,44.267767],[-123.827231,44.267782],[-123.827548,44.267811],[-123.827873,44.267869],[-123.828135,44.267888],[-123.82853,44.267911],[-123.828856,44.267931],[-123.829211,44.268014],[-123.829476,44.268129],[-123.829719,44.268261],[-123.829804,44.268359],[-123.829769,44.26843],[-123.829746,44.26848],[-123.829656,44.26868],[-123.829902,44.269],[-123.829993,44.269147],[-123.830027,44.269312],[-123.830044,44.269336],[-123.83014,44.269473],[-123.830175,44.269646],[-123.83011,44.269865],[-123.830208,44.269966],[-123.830173,44.269993],[-123.829919,44.270085],[-123.829713,44.270331],[-123.829522,44.270624],[-123.830329,44.270706],[-123.830575,44.270782],[-123.830724,44.271077],[-123.83123,44.271207],[-123.831711,44.271445],[-123.832297,44.271599],[-123.832425,44.271633],[-123.832434,44.271655],[-123.832298,44.271911]]],[[[-123.834831,44.272461],[-123.835027,44.272552],[-123.835152,44.272414],[-123.834825,44.272262],[-123.834831,44.272461]]]]}},{"type":"Feature","properties":{"MAPTAXLOT":"1509180000100","MAPNUMBER":"15091800","TAXLOT":"100","ACCTNO":"0024339","MAPACRES":579.94421041},"geometry":{"type":"MultiPolygon","coordinates":[[[[-123.815769,44.27223],[-123.825991,44.271944],[-123.831047,44.271918],[-123.832298,44.271911],[-123.832434,44.271655],[-123.832425,44.271633],[-123.832297,44.271599],[-123.831711,44.271445],[-123.83123,44.271207],[-123.830724,44.271077],[-123.830575,44.270782],[-123.830329,44.270706],[-123.829522,44.270624],[-123.829713,44.270331],[-123.829919,44.270085],[-123.830173,44.269993],[-123.830208,44.269966],[-123.83011,44.269865],[-123.830175,44.269646],[-123.83014,44.269473],[-123.830044,44.269336],[-123.825996,44.269397],[-123.824716,44.269424],[-123.824717,44.268572],[-123.822156,44.268619],[-123.822155,44.267743],[-123.823437,44.267719],[-123.823437,44.265966],[-123.82472,44.265941],[-123.824721,44.265064],[-123.826004,44.265038],[-123.826004,44.265188],[-123.826254,44.264878],[-123.826588,44.264718],[-123.827195,44.264569],[-123.827946,44.264646],[-123.828151,44.264703],[-123.828259,44.264733],[-123.828559,44.264701],[-123.828972,44.26466],[-123.829423,44.264558],[-123.829666,44.264508],[-123.829995,44.264385],[-123.830197,44.264333],[-123.830491,44.264174],[-123.830765,44.26407],[-123.830993,44.263997],[-123.831422,44.263782],[-123.831779,44.263757],[-123.832062,44.263823],[-123.832379,44.263893],[-123.832749,44.263926],[-123.83325,44.264072],[-123.833621,44.264173],[-123.833938,44.264261],[-123.834359,44.264291],[-123.835035,44.26436],[-123.835451,44.264324],[-123.835455,44.264109],[-123.835836,44.264112],[-123.835893,44.261255],[-123.835963,44.257671],[-123.835684,44.257675],[-123.831066,44.257741],[-123.826017,44.257813],[-123.815704,44.257887],[-123.815608,44.265245],[-123.815769,44.27223]]],[[[-123.834644,44.270144],[-123.834646,44.271022],[-123.835846,44.271011],[-123.835836,44.268367],[-123.835822,44.264842],[-123.835829,44.264469],[-123.835574,44.264479],[-123.835032,44.264526],[-123.834332,44.264454],[-123.833885,44.264423],[-123.833539,44.264327],[-123.833166,44.264225],[-123.832691,44.264086],[-123.832331,44.264054],[-123.831993,44.26398],[-123.831754,44.263924],[-123.831504,44.263942],[-123.831106,44.264141],[-123.830865,44.264218],[-123.830614,44.264314],[-123.830307,44.264479],[-123.830087,44.264537],[-123.829751,44.264662],[-123.829489,44.264716],[-123.829022,44.264821],[-123.828592,44.264864],[-123.828233,44.264902],[-123.828069,44.264856],[-123.827888,44.264806],[-123.827218,44.264738],[-123.82669,44.264867],[-123.826425,44.264994],[-123.82608,44.265422],[-123.826003,44.26554],[-123.825999,44.267484],[-123.826552,44.267606],[-123.826941,44.267603],[-123.827253,44.267618],[-123.827591,44.267649],[-123.827912,44.267707],[-123.828156,44.267724],[-123.828549,44.267747],[-123.828902,44.267768],[-123.829307,44.267863],[-123.829604,44.267992],[-123.829891,44.268148],[-123.830057,44.268339],[-123.829985,44.268483],[-123.829905,44.268663],[-123.830107,44.268927],[-123.830215,44.269101],[-123.830248,44.269262],[-123.830362,44.269423],[-123.830407,44.269652],[-123.830354,44.269829],[-123.830502,44.269981],[-123.830313,44.270126],[-123.830081,44.27021],[-123.829915,44.270408],[-123.82986,44.270492],[-123.830391,44.270546],[-123.830756,44.270658],[-123.830902,44.270948],[-123.831048,44.270986],[-123.831049,44.270187],[-123.834644,44.270144]]],[[[-123.825997,44.268549],[-123.829746,44.26848],[-123.829769,44.26843],[-123.829804,44.268359],[-123.829719,44.268261],[-123.829476,44.268129],[-123.829211,44.268014],[-123.828856,44.267931],[-123.82853,44.267911],[-123.828135,44.267888],[-123.827873,44.267869],[-123.827548,44.267811],[-123.827231,44.267782],[-123.826935,44.267767],[-123.826519,44.267771],[-123.825999,44.267656],[-123.825997,44.268549]]],[[[-123.833448,44.271881],[-123.833447,44.271032],[-123.8313,44.27105],[-123.831336,44.271059],[-123.831817,44.271298],[-123.832376,44.271445],[-123.832613,44.271507],[-123.832675,44.271662],[-123.832577,44.271846],[-123.832889,44.271811],[-123.833448,44.271881]]]]}},{"type":"Feature","properties":{"MAPTAXLOT":"1509180000101","MAPNUMBER":"15091800","TAXLOT":"101","ACCTNO":"0024347","MAPACRES":13.4219433},"geometry":{"type":"Polygon","coordinates":[[[-123.834841,44.272811],[-123.835873,44.272805],[-123.835849,44.271893],[-123.835846,44.271011],[-123.834646,44.271022],[-123.834644,44.270144],[-123.831049,44.270187],[-123.831048,44.270986],[-123.8313,44.27105],[-123.833447,44.271032],[-123.833448,44.271881],[-123.833634,44.271904],[-123.834815,44.271898],[-123.834825,44.272262],[-123.835152,44.272414],[-123.835027,44.272552],[-123.834831,44.272461],[-123.834841,44.272811]]]}},{"type":"Feature","properties":{"MAPTAXLOT":"1509180000200","MAPNUMBER":"15091800","TAXLOT":"200","ACCTNO":"0024354","MAPACRES":0.16870281},"geometry":{"type":"Polygon","coordinates":[[[-123.835455,44.264109],[-123.835451,44.264324],[-123.835554,44.264315],[-123.835833,44.264304],[-123.835836,44.264112],[-123.835455,44.264109]]]}},{"type":"Feature","properties":{"MAPTAXLOT":"1509180000300","MAPNUMBER":"15091800","TAXLOT":"300","ACCTNO":"0024362","MAPACRES":27.87676678},"geometry":{"type":"MultiPolygon","coordinates":[[[[-123.822156,44.268619],[-123.824717,44.268572],[-123.824716,44.269424],[-123.825996,44.269397],[-123.830044,44.269336],[-123.830027,44.269312],[-123.829993,44.269147],[-123.829902,44.269],[-123.829656,44.26868],[-123.829746,44.26848],[-123.825997,44.268549],[-123.825999,44.267656],[-123.825957,44.267647],[-123.825644,44.267676],[-123.825079,44.267507],[-123.824947,44.267282],[-123.825025,44.266949],[-123.825173,44.26651],[-123.825397,44.266082],[-123.825877,44.265346],[-123.826004,44.265188],[-123.826004,44.265038],[-123.824721,44.265064],[-123.82472,44.265941],[-123.823437,44.265966],[-123.823437,44.267719],[-123.822155,44.267743],[-123.822156,44.268619]]],[[[-123.825675,44.267507],[-123.825977,44.267479],[-123.825999,44.267484],[-123.826003,44.26554],[-123.825608,44.266146],[-123.825392,44.266558],[-123.82525,44.266982],[-123.825184,44.267262],[-123.825254,44.267381],[-123.825675,44.267507]]]]}},{"type":"Feature","properties":{"MAPTAXLOT":"1509200000100","MAPNUMBER":"15092000","TAXLOT":"100","ACCTNO":"0024370","MAPACRES":60.59244687},"geometry":{"type":"Polygon","coordinates":[[[-123.805462,44.257866],[-123.810583,44.257876],[-123.810609,44.254285],[-123.805478,44.254272],[-123.802913,44.254265],[-123.802902,44.25786],[-123.805462,44.257866]]]}},{"type":"Feature","properties":{"MAPTAXLOT":"1509200000101","MAPNUMBER":"15092000","TAXLOT":"101","ACCTNO":"0024388","MAPACRES":141.67560243},"geometry":{"type":"Polygon","coordinates":[[[-123.795222,44.257844],[-123.802902,44.25786],[-123.802913,44.254265],[-123.805478,44.254272],[-123.805495,44.250677],[-123.800355,44.250661],[-123.795215,44.250645],[-123.795218,44.254244],[-123.795222,44.257844]]]}},{"type":"Feature","properties":{"MAPTAXLOT":"1509200000200","MAPNUMBER":"15092000","TAXLOT":"200","ACCTNO":"0024396","MAPACRES":445.14172479},"geometry":{"type":"Polygon","coordinates":[[[-123.810583,44.257876],[-123.814908,44.257885],[-123.814909,44.257313],[-123.81571,44.257314],[-123.815849,44.24353],[-123.795207,44.243445],[-123.795215,44.250645],[-123.800355,44.250661],[-123.805495,44.250677],[-123.805478,44.254272],[-123.810609,44.254285],[-123.810583,44.257876]]]}},{"type":"Feature","properties":{"MAPTAXLOT":"1509200000300","MAPNUMBER":"15092000","TAXLOT":"300","ACCTNO":"0024404","MAPACRES":1.00266984},"geometry":{"type":"Polygon","coordinates":[[[-123.814908,44.257885],[-123.815704,44.257887],[-123.81571,44.257314],[-123.814909,44.257313],[-123.814908,44.257885]]]}},{"type":"Feature","properties":{"MAPTAXLOT":"1510000000200","MAPNUMBER":"15100000","TAXLOT":"200","ACCTNO":"0024453","MAPACRES":10358.60660277},"geometry":{"type":"Polygon","coordinates":[[[-123.85631,44.235675],[-123.865488,44.235955],[-123.865453,44.243503],[-123.856428,44.243022],[-123.846113,44.24319],[-123.846017,44.235841],[-123.835875,44.235824],[-123.8359,44.239502],[-123.835901,44.239593],[-123.835926,44.243179],[-123.835926,44.24327],[-123.835935,44.246801],[-123.83594,44.248798],[-123.835944,44.250423],[-123.835954,44.254045],[-123.835963,44.257667],[-123.835963,44.257671],[-123.835893,44.261255],[-123.835836,44.264112],[-123.835833,44.264304],[-123.835829,44.264469],[-123.835822,44.264842],[-123.835836,44.268367],[-123.835846,44.271011],[-123.835849,44.271893],[-123.837066,44.271877],[-123.838261,44.271862],[-123.84065,44.271831],[-123.845405,44.271769],[-123.850689,44.271827],[-123.855926,44.271884],[-123.855934,44.275477],[-123.855943,44.279032],[-123.855906,44.282794],[-123.877084,44.282686],[-123.877087,44.282295],[-123.877111,44.279103],[-123.876765,44.275751],[-123.871599,44.275683],[-123.871311,44.272258],[-123.871285,44.268623],[-123.86612,44.26853],[-123.866049,44.264913],[-123.865979,44.261308],[-123.871033,44.261348],[-123.876077,44.261387],[-123.875695,44.257728],[-123.880799,44.257774],[-123.885887,44.257819],[-123.890982,44.257864],[-123.89223,44.257875],[-123.893534,44.25787],[-123.896074,44.257861],[-123.896082,44.256358],[-123.896076,44.25421],[-123.896071,44.252386],[-123.896069,44.251474],[-123.898645,44.251445],[-123.89993,44.25143],[-123.899931,44.250514],[-123.902504,44.250484],[-123.9025,44.252318],[-123.901214,44.252332],[-123.89993,44.252345],[-123.899929,44.254175],[-123.898646,44.254187],[-123.898643,44.257843],[-123.900869,44.257828],[-123.901205,44.257826],[-123.906327,44.257791],[-123.907896,44.257771],[-123.916408,44.257661],[-123.936701,44.257774],[-123.941184,44.257758],[-123.941184,44.25773],[-123.941168,44.256084],[-123.941168,44.256057],[-123.94115,44.254106],[-123.941149,44.254078],[-123.941135,44.252557],[-123.941135,44.252529],[-123.941115,44.250454],[-123.941115,44.250427],[-123.941116,44.248884],[-123.941116,44.248857],[-123.941118,44.246763],[-123.941118,44.246735],[-123.94112,44.245212],[-123.94112,44.245184],[-123.941122,44.243071],[-123.941121,44.243044],[-123.941107,44.241553],[-123.941107,44.241527],[-123.94108,44.239468],[-123.94108,44.239443],[-123.941066,44.237921],[-123.941065,44.237897],[-123.941041,44.235864],[-123.941041,44.235841],[-123.941028,44.234334],[-123.941028,44.234312],[-123.941004,44.232255],[-123.941003,44.232233],[-123.940991,44.230748],[-123.94099,44.230727],[-123.940966,44.228645],[-123.940965,44.228626],[-123.940953,44.227161],[-123.940926,44.22495],[-123.940915,44.223576],[-123.940875,44.221259],[-123.940863,44.220002],[-123.940818,44.21758],[-123.940808,44.21643],[-123.940798,44.215882],[-123.94076,44.213902],[-123.938439,44.213913],[-123.936325,44.213923],[-123.933369,44.213932],[-123.931175,44.21394],[-123.9283,44.213949],[-123.926024,44.213957],[-123.923182,44.213994],[-123.921048,44.214022],[-123.918065,44.214061],[-123.916071,44.214088],[-123.912947,44.214102],[-123.911052,44.214111],[-123.907828,44.214125],[-123.906033,44.214133],[-123.902993,44.214147],[-123.901013,44.214157],[-123.898159,44.21417],[-123.895993,44.21418],[-123.893323,44.214193],[-123.890928,44.214205],[-123.888488,44.214218],[-123.885864,44.214232],[-123.883529,44.214208],[-123.880795,44.214179],[-123.87857,44.214154],[-123.875723,44.214122],[-123.87361,44.214107],[-123.870734,44.214087],[-123.868651,44.214072],[-123.865745,44.214052],[-123.863652,44.214054],[-123.860776,44.214056],[-123.858695,44.214058],[-123.857832,44.214059],[-123.857557,44.214059],[-123.855806,44.21406],[-123.856147,44.221246],[-123.856149,44.221336],[-123.85629,44.228457],[-123.84601,44.228512],[-123.846017,44.235841],[-123.85631,44.235675]],[[-123.885825,44.215975],[-123.885767,44.218594],[-123.880708,44.21853],[-123.880726,44.217659],[-123.876928,44.217612],[-123.876948,44.216741],[-123.875676,44.216726],[-123.875691,44.215855],[-123.885825,44.215975]]]}},{"type":"Feature","properties":{"MAPTAXLOT":"1510000000900","MAPNUMBER":"15100000","TAXLOT":"900","ACCTNO":"0024529","MAPACRES":166.13081507},"geometry":{"type":"Polygon","coordinates":[[[-123.846113,44.24319],[-123.856428,44.243022],[-123.85631,44.235675],[-123.846017,44.235841],[-123.846113,44.24319]]]}},{"type":"Feature","properties":{"MAPTAXLOT":"1510120000100","MAPNUMBER":"15101200","TAXLOT":"100","ACCTNO":"0024651","MAPACRES":414.30992352},"geometry":{"type":"Polygon","coordinates":[[[-123.850958,44.282815],[-123.855906,44.282794],[-123.855943,44.279032],[-123.855934,44.275477],[-123.855926,44.271884],[-123.850689,44.271827],[-123.845405,44.271769],[-123.84065,44.271831],[-123.838261,44.271862],[-123.837066,44.271877],[-123.837092,44.272815],[-123.838289,44.272802],[-123.838316,44.27372],[-123.840713,44.273699],[-123.840743,44.274622],[-123.840774,44.275545],[-123.8432,44.275534],[-123.843277,44.277345],[-123.843316,44.278251],[-123.844541,44.278242],[-123.844583,44.279126],[-123.843354,44.279136],[-123.842124,44.279147],[-123.84209,44.27826],[-123.840865,44.278269],[-123.840834,44.277361],[-123.840804,44.276453],[-123.8396,44.276459],[-123.839572,44.27555],[-123.83837,44.275556],[-123.838343,44.274638],[-123.837143,44.274646],[-123.837117,44.27373],[-123.835897,44.273741],[-123.835921,44.274654],[-123.835944,44.275545],[-123.835992,44.277392],[-123.836039,44.279197],[-123.836049,44.282803],[-123.841016,44.28282],[-123.842264,44.282819],[-123.842229,44.281906],[-123.843472,44.281903],[-123.843433,44.280988],[-123.843394,44.280072],[-123.845835,44.280056],[-123.847119,44.280048],[-123.847244,44.282817],[-123.848482,44.282816],[-123.850958,44.282815]]]}},{"type":"Feature","properties":{"MAPTAXLOT":"1510120000200","MAPNUMBER":"15101200","TAXLOT":"200","ACCTNO":"0024669","MAPACRES":24.95423817},"geometry":{"type":"Polygon","coordinates":[[[-123.845977,44.282796],[-123.847244,44.282817],[-123.847119,44.280048],[-123.845835,44.280056],[-123.843394,44.280072],[-123.843433,44.280988],[-123.843472,44.281903],[-123.842229,44.281906],[-123.842264,44.282819],[-123.843511,44.282819],[-123.845977,44.282796]]]}},{"type":"Feature","properties":{"MAPTAXLOT":"1510120000300","MAPNUMBER":"15101200","TAXLOT":"300","ACCTNO":"0024677","MAPACRES":41.16475037},"geometry":{"type":"Polygon","coordinates":[[[-123.843354,44.279136],[-123.844583,44.279126],[-123.844541,44.278242],[-123.843316,44.278251],[-123.843277,44.277345],[-123.8432,44.275534],[-123.840774,44.275545],[-123.840743,44.274622],[-123.840713,44.273699],[-123.838316,44.27372],[-123.838289,44.272802],[-123.837092,44.272815],[-123.837066,44.271877],[-123.835849,44.271893],[-123.835873,44.272805],[-123.835874,44.272828],[-123.835897,44.273741],[-123.837117,44.27373],[-123.837143,44.274646],[-123.838343,44.274638],[-123.83837,44.275556],[-123.839572,44.27555],[-123.8396,44.276459],[-123.840804,44.276453],[-123.840834,44.277361],[-123.840865,44.278269],[-123.84209,44.27826],[-123.842124,44.279147],[-123.843354,44.279136]]]}}]}