{"type":"FeatureCollection","features":[{"type":"Feature","properties":{"MAPTAXLOT":"1601000000900","MAPNUMBER":"16010000","TAXLOT":"900","ACCTNO":"0027589","MAPACRES":731.52686678},"geometry":{"type":"Polygon","coordinates":[[[-122.8038,44.175563],[-122.803802,44.175563],[-122.803718,44.171914],[-122.803743,44.168264],[-122.803768,44.164616],[-122.803831,44.157317],[-122.80383,44.157317],[-122.783586,44.15728],[-122.78358,44.164607],[-122.783568,44.168271],[-122.783556,44.171936],[-122.793589,44.172008],[-122.793572,44.175598],[-122.8038,44.175563]]]}},{"type":"Feature","properties":{"MAPTAXLOT":"1601000001000","MAPNUMBER":"16010000","TAXLOT":"1000","ACCTNO":"0027597","MAPACRES":358.60249074},"geometry":{"type":"Polygon","coordinates":[[[-122.778607,44.171926],[-122.783556,44.171936],[-122.783568,44.168271],[-122.78358,44.164607],[-122.783586,44.15728],[-122.763875,44.156637],[-122.763868,44.160251],[-122.773711,44.160595],[-122.773694,44.164235],[-122.778635,44.16442],[-122.77862,44.168171],[-122.773676,44.168074],[-122.773659,44.171912],[-122.773659,44.171914],[-122.773663,44.171914],[-122.778607,44.171926]]]}},{"type":"Feature","properties":{"MAPTAXLOT":"1601000001100","MAPNUMBER":"16010000","TAXLOT":"1100","ACCTNO":"0027605","MAPACRES":280.46710101},"geometry":{"type":"Polygon","coordinates":[[[-122.76385,44.171103],[-122.773659,44.171914],[-122.773659,44.171912],[-122.773676,44.168074],[-122.77862,44.168171],[-122.778635,44.16442],[-122.773694,44.164235],[-122.773711,44.160595],[-122.763868,44.160251],[-122.763862,44.163868],[-122.76385,44.171103]]]}},{"type":"Feature","properties":{"MAPTAXLOT":"1601000001200","MAPNUMBER":"16010000","TAXLOT":"1200","ACCTNO":"0027613","MAPACRES":430.8187996},"geometry":{"type":"Polygon","coordinates":[[[-122.744175,44.171029],[-122.754007,44.171066],[-122.76385,44.171103],[-122.763862,44.163868],[-122.763858,44.163868],[-122.758922,44.163852],[-122.758924,44.167468],[-122.753997,44.167451],[-122.753976,44.160219],[-122.753966,44.156604],[-122.744063,44.156571],[-122.744091,44.160185],[-122.744119,44.1638],[-122.744147,44.167414],[-122.744175,44.171029]]]}},{"type":"Feature","properties":{"MAPTAXLOT":"1601000001300","MAPNUMBER":"16010000","TAXLOT":"1300","ACCTNO":"0027621","MAPACRES":78.60106366},"geometry":{"type":"Polygon","coordinates":[[[-122.753976,44.160219],[-122.763868,44.160251],[-122.763875,44.156637],[-122.753966,44.156604],[-122.753976,44.160219]]]}},{"type":"Feature","properties":{"MAPTAXLOT":"1601000001301","MAPNUMBER":"16010000","TAXLOT":"1301","ACCTNO":"1494614","MAPACRES":117.68588967},"geometry":{"type":"Polygon","coordinates":[[[-122.753997,44.167451],[-122.758924,44.167468],[-122.758922,44.163852],[-122.763858,44.163868],[-122.763862,44.163868],[-122.763868,44.160251],[-122.753976,44.160219],[-122.753997,44.167451]]]}},{"type":"Feature","properties":{"MAPTAXLOT":"1601000001400","MAPNUMBER":"16010000","TAXLOT":"1400","ACCTNO":"0027647","MAPACRES":476.27907021},"geometry":{"type":"Polygon","coordinates":[[[-122.753966,44.156604],[-122.763875,44.156637],[-122.764083,44.149408],[-122.764188,44.145781],[-122.764185,44.145781],[-122.74415,44.145697],[-122.744149,44.145697],[-122.744064,44.149324],[-122.744064,44.149324],[-122.744064,44.149325],[-122.744064,44.15274],[-122.744064,44.152948],[-122.744063,44.156571],[-122.753966,44.156604]]]}},{"type":"Feature","properties":{"MAPTAXLOT":"1601000001500","MAPNUMBER":"16010000","TAXLOT":"1500","ACCTNO":"0027654","MAPACRES":159.41084038},"geometry":{"type":"Polygon","coordinates":[[[-122.744149,44.145697],[-122.744149,44.145697],[-122.74415,44.145697],[-122.764185,44.145781],[-122.764188,44.145781],[-122.764292,44.14217],[-122.744235,44.14207],[-122.744149,44.145697]]]}},{"type":"Feature","properties":{"MAPTAXLOT":"1601000001600","MAPNUMBER":"16010000","TAXLOT":"1600","ACCTNO":"0027670","MAPACRES":638.29907764},"geometry":{"type":"Polygon","coordinates":[[[-122.763875,44.156637],[-122.783586,44.15728],[-122.784399,44.142592],[-122.764292,44.14217],[-122.764188,44.145781],[-122.764083,44.149408],[-122.763875,44.156637]]]}},{"type":"Feature","properties":{"MAPTAXLOT":"1601000001700","MAPNUMBER":"16010000","TAXLOT":"1700","ACCTNO":"0027688","MAPACRES":648.90817263},"geometry":{"type":"Polygon","coordinates":[[[-122.783586,44.15728],[-122.80383,44.157317],[-122.803831,44.157317],[-122.804162,44.150016],[-122.804492,44.142722],[-122.804492,44.142722],[-122.784399,44.142592],[-122.783586,44.15728]]]}},{"type":"Feature","properties":{"MAPTAXLOT":"1601000003300","MAPNUMBER":"16010000","TAXLOT":"3300","ACCTNO":"0027878","MAPACRES":323.10365381},"geometry":{"type":"Polygon","coordinates":[[[-122.784399,44.142592],[-122.804492,44.142722],[-122.804465,44.135428],[-122.804465,44.135424],[-122.804459,44.135424],[-122.784412,44.135238],[-122.784399,44.142592]]]}},{"type":"Feature","properties":{"MAPTAXLOT":"1601000003400","MAPNUMBER":"16010000","TAXLOT":"3400","ACCTNO":"0027886","MAPACRES":321.29001657},"geometry":{"type":"Polygon","coordinates":[[[-122.784425,44.127901],[-122.784412,44.135238],[-122.804459,44.135424],[-122.804465,44.135424],[-122.804436,44.128134],[-122.804434,44.128134],[-122.800639,44.128101],[-122.799447,44.128091],[-122.794455,44.128047],[-122.789441,44.127974],[-122.789439,44.127974],[-122.784425,44.127901]]]}},{"type":"Feature","properties":{"MAPTAXLOT":"1601000003600","MAPNUMBER":"16010000","TAXLOT":"3600","ACCTNO":"0027902","MAPACRES":641.97089845},"geometry":{"type":"Polygon","coordinates":[[[-122.764454,44.127706],[-122.764292,44.14217],[-122.784399,44.142592],[-122.784412,44.135238],[-122.784425,44.127901],[-122.784423,44.127901],[-122.77943,44.127853],[-122.774438,44.127804],[-122.769445,44.127755],[-122.764454,44.127706]]]}},{"type":"Feature","properties":{"MAPTAXLOT":"1601000003700","MAPNUMBER":"16010000","TAXLOT":"3700","ACCTNO":"0027910","MAPACRES":639.95724652},"geometry":{"type":"Polygon","coordinates":[[[-122.744235,44.14207],[-122.764292,44.14217],[-122.764454,44.127706],[-122.764452,44.127706],[-122.759424,44.127664],[-122.754395,44.127622],[-122.749367,44.12758],[-122.74434,44.127539],[-122.744339,44.127539],[-122.744313,44.131158],[-122.744313,44.131169],[-122.744313,44.13117],[-122.744313,44.13117],[-122.744313,44.131172],[-122.744287,44.134805],[-122.744261,44.138437],[-122.744261,44.138437],[-122.744235,44.14207]]]}},{"type":"Feature","properties":{"MAPTAXLOT":"1615000002600","MAPNUMBER":"16150000","TAXLOT":"2600","ACCTNO":"0076750","MAPACRES":250.5050996},"geometry":{"type":"Polygon","coordinates":[[[-122.729112,44.157151],[-122.727271,44.164216],[-122.744119,44.1638],[-122.744091,44.160185],[-122.744063,44.156571],[-122.740448,44.156654],[-122.736866,44.156735],[-122.729112,44.157151]]]}},{"type":"Feature","properties":{"MAPTAXLOT":"1615000002601","MAPNUMBER":"16150000","TAXLOT":"2601","ACCTNO":"1406782","MAPACRES":278.62561958},"geometry":{"type":"Polygon","coordinates":[[[-122.739366,44.171092],[-122.744175,44.171029],[-122.744147,44.167414],[-122.744119,44.1638],[-122.727271,44.164216],[-122.725429,44.17128],[-122.734721,44.171153],[-122.739366,44.171092]]]}},{"type":"Feature","properties":{"MAPTAXLOT":"1615000004400","MAPNUMBER":"16150000","TAXLOT":"4400","ACCTNO":"0077006","MAPACRES":473.16333249},"geometry":{"type":"Polygon","coordinates":[[[-122.72913,44.153546],[-122.729127,44.154185],[-122.729112,44.157151],[-122.736866,44.156735],[-122.740448,44.156654],[-122.744063,44.156571],[-122.744064,44.152948],[-122.744064,44.15274],[-122.744064,44.149325],[-122.744064,44.149324],[-122.744064,44.149324],[-122.744149,44.145697],[-122.744149,44.145697],[-122.744235,44.14207],[-122.740549,44.142233],[-122.736758,44.1424],[-122.733047,44.142563],[-122.729176,44.142732],[-122.729148,44.149941],[-122.729136,44.152407],[-122.72913,44.153546]]]}},{"type":"Feature","properties":{"MAPTAXLOT":"1615000004500","MAPNUMBER":"16150000","TAXLOT":"4500","ACCTNO":"0077014","MAPACRES":63.96986089},"geometry":{"type":"Polygon","coordinates":[[[-122.740002,44.134904],[-122.740549,44.142233],[-122.744235,44.14207],[-122.744261,44.138437],[-122.744261,44.138437],[-122.744287,44.134805],[-122.740002,44.134904]]]}},{"type":"Feature","properties":{"MAPTAXLOT":"1615000004600","MAPNUMBER":"16150000","TAXLOT":"4600","ACCTNO":"0077022","MAPACRES":517.68371683},"geometry":{"type":"Polygon","coordinates":[[[-122.726505,44.135218],[-122.728018,44.139475],[-122.729176,44.142732],[-122.733047,44.142563],[-122.736758,44.1424],[-122.740549,44.142233],[-122.740002,44.134904],[-122.744287,44.134805],[-122.744313,44.131172],[-122.744313,44.13117],[-122.744313,44.13117],[-122.744313,44.131169],[-122.744313,44.131158],[-122.744339,44.127539],[-122.744339,44.127539],[-122.739576,44.127542],[-122.739453,44.127542],[-122.734383,44.127544],[-122.734132,44.127544],[-122.729419,44.127617],[-122.728983,44.127624],[-122.724455,44.127693],[-122.723834,44.127703],[-122.726505,44.135218]]]}},{"type":"Feature","properties":{"MAPTAXLOT":"1701000000100","MAPNUMBER":"17010000","TAXLOT":"100","ACCTNO":"0094779","MAPACRES":314.76248839},"geometry":{"type":"Polygon","coordinates":[[[-122.744339,44.127539],[-122.74434,44.127539],[-122.749367,44.12758],[-122.754395,44.127622],[-122.754395,44.12762],[-122.754365,44.124023],[-122.754334,44.120425],[-122.754273,44.113228],[-122.744489,44.11306],[-122.744489,44.11306],[-122.744452,44.11668],[-122.744452,44.11668],[-122.744414,44.1203],[-122.744414,44.1203],[-122.744376,44.123919],[-122.744376,44.123919],[-122.744376,44.123919],[-122.744376,44.123919],[-122.744339,44.127539]]]}},{"type":"Feature","properties":{"MAPTAXLOT":"1701000000200","MAPNUMBER":"17010000","TAXLOT":"200","ACCTNO":"0094787","MAPACRES":312.86202916},"geometry":{"type":"Polygon","coordinates":[[[-122.754395,44.127622],[-122.759424,44.127664],[-122.764452,44.127706],[-122.764452,44.127704],[-122.764352,44.12411],[-122.764253,44.12055],[-122.764057,44.113393],[-122.754273,44.113228],[-122.754334,44.120425],[-122.754365,44.124023],[-122.754395,44.12762],[-122.754395,44.127622]]]}},{"type":"Feature","properties":{"MAPTAXLOT":"1701000000300","MAPNUMBER":"17010000","TAXLOT":"300","ACCTNO":"0094795","MAPACRES":316.46896458},"geometry":{"type":"Polygon","coordinates":[[[-122.764057,44.113393],[-122.764253,44.12055],[-122.764352,44.12411],[-122.764452,44.127704],[-122.764452,44.127706],[-122.764454,44.127706],[-122.769445,44.127755],[-122.774438,44.127804],[-122.774438,44.127802],[-122.774309,44.12412],[-122.773926,44.113119],[-122.764057,44.113393]]]}},{"type":"Feature","properties":{"MAPTAXLOT":"1701000000400","MAPNUMBER":"17010000","TAXLOT":"400","ACCTNO":"0094803","MAPACRES":81.68600885},"geometry":{"type":"Polygon","coordinates":[[[-122.774438,44.127802],[-122.774438,44.127804],[-122.77943,44.127853],[-122.784423,44.127901],[-122.784423,44.1279],[-122.784266,44.124129],[-122.774309,44.12412],[-122.774438,44.127802]]]}},{"type":"Feature","properties":{"MAPTAXLOT":"1701000000500","MAPNUMBER":"17010000","TAXLOT":"500","ACCTNO":"0094811","MAPACRES":242.88211817},"geometry":{"type":"Polygon","coordinates":[[[-122.774309,44.12412],[-122.784266,44.124129],[-122.784108,44.120356],[-122.783795,44.112846],[-122.778861,44.112982],[-122.773926,44.113119],[-122.774309,44.12412]]]}},{"type":"Feature","properties":{"MAPTAXLOT":"1701000000600","MAPNUMBER":"17010000","TAXLOT":"600","ACCTNO":"0094829","MAPACRES":491.84225413},"geometry":{"type":"Polygon","coordinates":[[[-122.784108,44.120356],[-122.784266,44.124129],[-122.784423,44.1279],[-122.784423,44.127901],[-122.784425,44.127901],[-122.789439,44.127974],[-122.789441,44.127974],[-122.794455,44.128047],[-122.799447,44.128091],[-122.800639,44.128101],[-122.804434,44.128134],[-122.804434,44.128134],[-122.80435,44.127041],[-122.803935,44.126524],[-122.80428,44.126137],[-122.804153,44.12449],[-122.799248,44.124401],[-122.79906,44.120781],[-122.794232,44.120644],[-122.79412,44.116931],[-122.799087,44.117093],[-122.799115,44.113404],[-122.794008,44.113218],[-122.783795,44.112846],[-122.784108,44.120356]]]}},{"type":"Feature","properties":{"MAPTAXLOT":"1701000000701","MAPNUMBER":"17010000","TAXLOT":"701","ACCTNO":"1092145","MAPACRES":112.47919677},"geometry":{"type":"Polygon","coordinates":[[[-122.799087,44.117093],[-122.79412,44.116931],[-122.794232,44.120644],[-122.79906,44.120781],[-122.799248,44.124401],[-122.804153,44.12449],[-122.803964,44.12195],[-122.803958,44.121867],[-122.803653,44.121815],[-122.803216,44.121843],[-122.803183,44.121848],[-122.802275,44.122001],[-122.802313,44.121816],[-122.80187,44.121726],[-122.801831,44.121534],[-122.801957,44.121305],[-122.802066,44.121106],[-122.802411,44.120477],[-122.803899,44.120649],[-122.8039,44.120649],[-122.804054,44.117254],[-122.799087,44.117093]]]}},{"type":"Feature","properties":{"MAPTAXLOT":"1701000000800","MAPNUMBER":"17010000","TAXLOT":"800","ACCTNO":"0094845","MAPACRES":40.74171312},"geometry":{"type":"Polygon","coordinates":[[[-122.799087,44.117093],[-122.804054,44.117254],[-122.804055,44.117253],[-122.804221,44.11359],[-122.799115,44.113404],[-122.799087,44.117093]]]}},{"type":"Feature","properties":{"MAPTAXLOT":"1701000000900","MAPNUMBER":"17010000","TAXLOT":"900","ACCTNO":"0094852","MAPACRES":628.49159062},"geometry":{"type":"Polygon","coordinates":[[[-122.799115,44.113404],[-122.804221,44.11359],[-122.804415,44.110149],[-122.804609,44.106709],[-122.804598,44.099471],[-122.794494,44.099233],[-122.78446,44.098903],[-122.784128,44.105874],[-122.783795,44.112846],[-122.794008,44.113218],[-122.799115,44.113404]]]}},{"type":"Feature","properties":{"MAPTAXLOT":"1701000001200","MAPNUMBER":"17010000","TAXLOT":"1200","ACCTNO":"0094886","MAPACRES":461.47216411},"geometry":{"type":"Polygon","coordinates":[[[-122.779013,44.109476],[-122.778861,44.112982],[-122.783795,44.112846],[-122.784128,44.105874],[-122.78446,44.098903],[-122.774475,44.09901],[-122.76449,44.099115],[-122.764273,44.106254],[-122.769237,44.106159],[-122.769114,44.109708],[-122.774063,44.109591],[-122.779013,44.109476]]]}},{"type":"Feature","properties":{"MAPTAXLOT":"1701000001300","MAPNUMBER":"17010000","TAXLOT":"1300","ACCTNO":"0094894","MAPACRES":153.94223226},"geometry":{"type":"Polygon","coordinates":[[[-122.764273,44.106254],[-122.764057,44.113393],[-122.773926,44.113119],[-122.778861,44.112982],[-122.779013,44.109476],[-122.774063,44.109591],[-122.769114,44.109708],[-122.769237,44.106159],[-122.764273,44.106254]]]}},{"type":"Feature","properties":{"MAPTAXLOT":"1701000001400","MAPNUMBER":"17010000","TAXLOT":"1400","ACCTNO":"0094902","MAPACRES":467.22728464},"geometry":{"type":"Polygon","coordinates":[[[-122.744656,44.098583],[-122.744614,44.102202],[-122.744614,44.102202],[-122.744572,44.105822],[-122.744572,44.105822],[-122.744531,44.109441],[-122.744531,44.109441],[-122.744489,44.11306],[-122.754273,44.113228],[-122.764057,44.113393],[-122.764273,44.106254],[-122.754423,44.106038],[-122.754572,44.098849],[-122.744656,44.098583],[-122.744656,44.098583]]]}},{"type":"Feature","properties":{"MAPTAXLOT":"1701000001500","MAPNUMBER":"17010000","TAXLOT":"1500","ACCTNO":"0094910","MAPACRES":155.7818907},"geometry":{"type":"Polygon","coordinates":[[[-122.754423,44.106038],[-122.764273,44.106254],[-122.76449,44.099115],[-122.759531,44.098982],[-122.754572,44.098849],[-122.754423,44.106038]]]}},{"type":"Feature","properties":{"MAPTAXLOT":"1715000000202","MAPNUMBER":"17150000","TAXLOT":"202","ACCTNO":"0545432","MAPACRES":642.29831882},"geometry":{"type":"Polygon","coordinates":[[[-122.724455,44.127693],[-122.728983,44.127624],[-122.729419,44.127617],[-122.734132,44.127544],[-122.734383,44.127544],[-122.739453,44.127542],[-122.739576,44.127542],[-122.744339,44.127539],[-122.744339,44.127539],[-122.744376,44.123919],[-122.744376,44.123919],[-122.744376,44.123919],[-122.744376,44.123919],[-122.744414,44.1203],[-122.744414,44.1203],[-122.744452,44.11668],[-122.744452,44.11668],[-122.744489,44.11306],[-122.73955,44.113009],[-122.734518,44.112956],[-122.724452,44.112775],[-122.72446,44.120022],[-122.724457,44.123645],[-122.724455,44.127693]]]}},{"type":"Feature","properties":{"MAPTAXLOT":"1715000000203","MAPNUMBER":"17150000","TAXLOT":"203","ACCTNO":"0545440","MAPACRES":318.2669712},"geometry":{"type":"Polygon","coordinates":[[[-122.734518,44.112956],[-122.73955,44.113009],[-122.744489,44.11306],[-122.744489,44.11306],[-122.744531,44.109441],[-122.744531,44.109441],[-122.744572,44.105822],[-122.744572,44.105822],[-122.744614,44.102202],[-122.744614,44.102202],[-122.744656,44.098583],[-122.739623,44.098542],[-122.734613,44.098502],[-122.734518,44.112956]]]}},{"type":"Feature","properties":{"MAPTAXLOT":"1715000000205","MAPNUMBER":"17150000","TAXLOT":"205","ACCTNO":"1411055","MAPACRES":318.28904408},"geometry":{"type":"Polygon","coordinates":[[[-122.724452,44.112775],[-122.734518,44.112956],[-122.734613,44.098502],[-122.729603,44.098454],[-122.728913,44.098447],[-122.724592,44.098405],[-122.724562,44.10139],[-122.724556,44.101997],[-122.72452,44.10559],[-122.724452,44.112775]]]}}]}