{"type":"FeatureCollection","features":[{"type":"Feature","properties":{"MAPTAXLOT":"1545000000100","MAPNUMBER":"15450000","TAXLOT":"100","ACCTNO":"0027365","MAPACRES":6738.10762701},"geometry":{"type":"MultiPolygon","coordinates":[[[[-122.263899,44.22377],[-122.263901,44.224878],[-122.263905,44.227388],[-122.26391,44.231006],[-122.263915,44.234624],[-122.263921,44.238241],[-122.263923,44.239359],[-122.263928,44.241863],[-122.263934,44.245485],[-122.263941,44.249107],[-122.263948,44.252729],[-122.284016,44.252768],[-122.304059,44.252776],[-122.32402,44.252776],[-122.327464,44.252768],[-122.328461,44.251775],[-122.328711,44.250737],[-122.330254,44.248617],[-122.330585,44.247667],[-122.331588,44.245979],[-122.331478,44.245103],[-122.331945,44.244156],[-122.332601,44.243515],[-122.332502,44.242636],[-122.331816,44.241294],[-122.330498,44.239611],[-122.328162,44.238265],[-122.326408,44.237246],[-122.328764,44.2347],[-122.327329,44.231202],[-122.330732,44.229424],[-122.331416,44.227695],[-122.336824,44.226851],[-122.339968,44.224618],[-122.340055,44.223744],[-122.340238,44.221897],[-122.344115,44.221518],[-122.344251,44.221521],[-122.344331,44.213467],[-122.344169,44.213366],[-122.343622,44.213026],[-122.343031,44.213673],[-122.338319,44.211398],[-122.338325,44.211391],[-122.339036,44.210615],[-122.339011,44.210603],[-122.336464,44.209382],[-122.334211,44.209367],[-122.334147,44.209366],[-122.324307,44.209298],[-122.32398,44.209297],[-122.31911,44.209297],[-122.31424,44.209297],[-122.309207,44.209297],[-122.304173,44.209297],[-122.303966,44.209294],[-122.299026,44.209293],[-122.294086,44.209292],[-122.289039,44.209291],[-122.283992,44.20929],[-122.264476,44.209287],[-122.264479,44.20929],[-122.26456,44.209431],[-122.264611,44.209616],[-122.264616,44.209802],[-122.264622,44.209998],[-122.26458,44.210141],[-122.26451,44.210317],[-122.264515,44.210514],[-122.264535,44.210677],[-122.2646,44.210807],[-122.264696,44.210959],[-122.264744,44.211057],[-122.264806,44.21111],[-122.264841,44.211263],[-122.264816,44.211449],[-122.26476,44.211603],[-122.264703,44.211746],[-122.264647,44.2119],[-122.264589,44.211977],[-122.264561,44.212087],[-122.264458,44.212187],[-122.264385,44.212275],[-122.264265,44.212343],[-122.264176,44.212421],[-122.264056,44.212488],[-122.263906,44.212534],[-122.263887,44.212548],[-122.263888,44.212907],[-122.263888,44.212999],[-122.26389,44.214789],[-122.263932,44.214982],[-122.264016,44.215243],[-122.264098,44.215461],[-122.26415,44.215679],[-122.2642,44.215842],[-122.264237,44.21606],[-122.264272,44.216223],[-122.264322,44.216376],[-122.26439,44.216626],[-122.26447,44.216756],[-122.26455,44.216886],[-122.2646,44.217038],[-122.264665,44.217168],[-122.264686,44.217376],[-122.264737,44.217561],[-122.264742,44.217736],[-122.264776,44.217866],[-122.264825,44.217975],[-122.264873,44.21804],[-122.264965,44.218093],[-122.264956,44.21829],[-122.265006,44.218442],[-122.265101,44.218583],[-122.265181,44.218713],[-122.265292,44.218875],[-122.265434,44.219048],[-122.265544,44.219177],[-122.265641,44.219362],[-122.265737,44.219524],[-122.265772,44.219698],[-122.265791,44.219807],[-122.265765,44.21995],[-122.265678,44.220093],[-122.26559,44.220204],[-122.265547,44.220303],[-122.265397,44.220382],[-122.265217,44.220461],[-122.265097,44.220518],[-122.26505,44.220541],[-122.265073,44.22059],[-122.265149,44.220791],[-122.265006,44.220926],[-122.264658,44.22114],[-122.264248,44.22133],[-122.263926,44.221448],[-122.263897,44.221462],[-122.263899,44.22377]]],[[[-122.263892,44.216528],[-122.263894,44.219005],[-122.263945,44.21908],[-122.26431,44.219503],[-122.26467,44.219907],[-122.264903,44.220225],[-122.26502,44.220477],[-122.26515,44.22042],[-122.26528,44.220336],[-122.265346,44.220287],[-122.265411,44.220266],[-122.265468,44.220258],[-122.265504,44.220176],[-122.265615,44.220065],[-122.265613,44.219989],[-122.265573,44.219922],[-122.265589,44.219819],[-122.265615,44.219729],[-122.265583,44.219627],[-122.265503,44.219485],[-122.265414,44.219377],[-122.265268,44.219263],[-122.265227,44.219181],[-122.265215,44.219072],[-122.265153,44.218916],[-122.265073,44.218773],[-122.264993,44.218651],[-122.264922,44.218509],[-122.264843,44.218394],[-122.264772,44.218251],[-122.264722,44.218163],[-122.264681,44.218061],[-122.264687,44.217931],[-122.264636,44.217822],[-122.264613,44.217699],[-122.264591,44.21757],[-122.264558,44.21742],[-122.264545,44.217317],[-122.264465,44.217189],[-122.264347,44.21704],[-122.264257,44.216911],[-122.264197,44.216796],[-122.264225,44.216782],[-122.264144,44.216612],[-122.264118,44.216387],[-122.264075,44.216196],[-122.264041,44.216018],[-122.263998,44.215862],[-122.263964,44.215678],[-122.263891,44.215446],[-122.263892,44.216528]]],[[[-122.263885,44.210394],[-122.263887,44.212327],[-122.264035,44.212236],[-122.264137,44.212152],[-122.26422,44.212055],[-122.264303,44.211965],[-122.264423,44.211861],[-122.264495,44.211709],[-122.264567,44.211578],[-122.264611,44.21144],[-122.264626,44.211324],[-122.264575,44.211188],[-122.264501,44.21095],[-122.264409,44.210732],[-122.264308,44.210535],[-122.264295,44.210419],[-122.264341,44.210343],[-122.264386,44.210267],[-122.264422,44.210198],[-122.26441,44.210116],[-122.26438,44.210069],[-122.264351,44.210042],[-122.264359,44.209994],[-122.264404,44.209891],[-122.264449,44.209801],[-122.264445,44.209685],[-122.264402,44.209494],[-122.26435,44.209372],[-122.264302,44.209287],[-122.263884,44.209287],[-122.263885,44.210394]]],[[[-122.263895,44.220149],[-122.263896,44.220781],[-122.264161,44.220771],[-122.264283,44.220714],[-122.264472,44.22067],[-122.264698,44.220598],[-122.264906,44.22054],[-122.264927,44.220535],[-122.264798,44.220258],[-122.264571,44.219948],[-122.264213,44.219547],[-122.263896,44.21918],[-122.263894,44.219178],[-122.263895,44.220149]]],[[[-122.264855,44.220623],[-122.264714,44.22068],[-122.264535,44.220738],[-122.264318,44.220802],[-122.264139,44.22086],[-122.263968,44.220862],[-122.263896,44.220875],[-122.263897,44.221366],[-122.264191,44.221258],[-122.264589,44.221074],[-122.264922,44.220869],[-122.265024,44.220773],[-122.264964,44.220614],[-122.264946,44.220576],[-122.264855,44.220623]]]]}}]}