{"type":"FeatureCollection","features":[{"type":"Feature","properties":{"MAPTAXLOT":"2325000001100","MAPNUMBER":"23250000","TAXLOT":"1100","ACCTNO":"0975563","MAPACRES":11524.77959864},"geometry":{"type":"Polygon","coordinates":[[[-122.5682,43.585486],[-122.568218,43.585486],[-122.588081,43.585448],[-122.588081,43.585266],[-122.5881,43.572796],[-122.587777,43.573084],[-122.583395,43.570499],[-122.583545,43.570364],[-122.584825,43.569221],[-122.584688,43.56914],[-122.584266,43.568891],[-122.584416,43.568757],[-122.585697,43.567613],[-122.58688,43.568311],[-122.58689,43.56818],[-122.588107,43.568238],[-122.588107,43.568031],[-122.588126,43.556496],[-122.588142,43.542006],[-122.588158,43.542006],[-122.608035,43.541992],[-122.608004,43.553638],[-122.608003,43.553816],[-122.610227,43.553524],[-122.610551,43.554945],[-122.61059,43.555112],[-122.609577,43.555238],[-122.609277,43.555276],[-122.611979,43.556611],[-122.612116,43.556499],[-122.613444,43.555404],[-122.615079,43.556466],[-122.615351,43.556465],[-122.617966,43.556456],[-122.62283,43.556438],[-122.62283,43.556282],[-122.622836,43.553956],[-122.62285,43.549199],[-122.622853,43.546718],[-122.622866,43.54196],[-122.622869,43.539479],[-122.622881,43.534722],[-122.622884,43.532241],[-122.622896,43.527485],[-122.618003,43.527489],[-122.613039,43.527494],[-122.608075,43.527498],[-122.60311,43.527503],[-122.598144,43.527508],[-122.593179,43.527513],[-122.588214,43.527518],[-122.583248,43.527514],[-122.578282,43.52751],[-122.57332,43.527506],[-122.573316,43.527506],[-122.56835,43.527502],[-122.563383,43.527508],[-122.558415,43.527513],[-122.553448,43.527519],[-122.54848,43.527525],[-122.543514,43.527529],[-122.538548,43.527534],[-122.533582,43.527539],[-122.528616,43.527544],[-122.523655,43.52754],[-122.518695,43.527535],[-122.513734,43.527531],[-122.508853,43.527527],[-122.508774,43.527527],[-122.508695,43.531892],[-122.508645,43.534644],[-122.508642,43.534793],[-122.50854,43.541698],[-122.508614,43.548882],[-122.508745,43.555476],[-122.508755,43.555986],[-122.508755,43.555992],[-122.508886,43.563092],[-122.508889,43.563182],[-122.508798,43.570199],[-122.508837,43.577344],[-122.508837,43.577415],[-122.508889,43.584225],[-122.508896,43.584225],[-122.518694,43.584224],[-122.528132,43.584172],[-122.528137,43.585404],[-122.538149,43.585416],[-122.548161,43.585428],[-122.548161,43.585114],[-122.548158,43.581807],[-122.548162,43.581807],[-122.568195,43.581863],[-122.5682,43.585247],[-122.5682,43.585486]]]}},{"type":"Feature","properties":{"MAPTAXLOT":"2335000000077","MAPNUMBER":"23350000","TAXLOT":"77","ACCTNO":"000None","MAPACRES":41.3663727},"geometry":{"type":"MultiPolygon","coordinates":[[[[-122.445526,43.52771],[-122.445567,43.527928],[-122.445587,43.528033],[-122.445673,43.528361],[-122.445742,43.528585],[-122.445804,43.528783],[-122.445899,43.529179],[-122.44596,43.529573],[-122.445972,43.529652],[-122.445983,43.529981],[-122.445965,43.530196],[-122.445953,43.530306],[-122.445878,43.530502],[-122.445747,43.530838],[-122.445586,43.531305],[-122.445506,43.531705],[-122.445462,43.53217],[-122.445456,43.532554],[-122.445448,43.533047],[-122.445614,43.534309],[-122.445668,43.534708],[-122.445722,43.535084],[-122.445782,43.535418],[-122.44588,43.53586],[-122.445894,43.535921],[-122.445987,43.53634],[-122.446018,43.536429],[-122.446287,43.537015],[-122.446407,43.53766],[-122.446468,43.537927],[-122.446561,43.538327],[-122.446646,43.538603],[-122.446737,43.5389],[-122.446742,43.538925],[-122.446825,43.539323],[-122.446966,43.53973],[-122.447182,43.540034],[-122.447486,43.540299],[-122.447864,43.540669],[-122.44793,43.540723],[-122.448291,43.541019],[-122.448594,43.541308],[-122.448625,43.541338],[-122.448981,43.54164],[-122.449026,43.541696],[-122.449185,43.541893],[-122.449443,43.542213],[-122.449688,43.542584],[-122.449806,43.542736],[-122.449902,43.542861],[-122.449966,43.542949],[-122.449988,43.54298],[-122.450019,43.543023],[-122.450271,43.543317],[-122.450617,43.543701],[-122.45098,43.54406],[-122.451274,43.544318],[-122.452105,43.544973],[-122.45271,43.545381],[-122.452836,43.545472],[-122.452957,43.545565],[-122.453073,43.545662],[-122.453183,43.545763],[-122.453288,43.545866],[-122.453388,43.545972],[-122.453481,43.546081],[-122.453569,43.546193],[-122.453651,43.546307],[-122.453726,43.546423],[-122.453796,43.546541],[-122.453859,43.546661],[-122.453915,43.546783],[-122.454214,43.547567],[-122.454323,43.54777],[-122.45456,43.548108],[-122.454856,43.548504],[-122.455514,43.549317],[-122.455996,43.549922],[-122.45616,43.550239],[-122.456241,43.550493],[-122.456242,43.550495],[-122.456326,43.550834],[-122.456434,43.551387],[-122.456501,43.551942],[-122.456577,43.552572],[-122.456579,43.552589],[-122.456639,43.552924],[-122.456827,43.553602],[-122.456994,43.554151],[-122.45717,43.554695],[-122.457275,43.554916],[-122.457375,43.555127],[-122.45743,43.555317],[-122.457482,43.555485],[-122.457493,43.555521],[-122.457497,43.555531],[-122.457588,43.55593],[-122.457589,43.555933],[-122.457631,43.556238],[-122.457648,43.556563],[-122.457669,43.557032],[-122.457645,43.557371],[-122.45765,43.557547],[-122.457643,43.557898],[-122.457652,43.558225],[-122.457658,43.558776],[-122.457706,43.559636],[-122.457737,43.560186],[-122.457802,43.560789],[-122.457803,43.561139],[-122.457836,43.561704],[-122.457847,43.561898],[-122.457906,43.562209],[-122.457962,43.562435],[-122.457992,43.562509],[-122.458029,43.562582],[-122.458071,43.562653],[-122.45812,43.562722],[-122.458174,43.562789],[-122.458234,43.562853],[-122.458299,43.562914],[-122.45837,43.562973],[-122.458445,43.563028],[-122.458525,43.563079],[-122.458609,43.563127],[-122.458697,43.563171],[-122.459408,43.563438],[-122.459477,43.563464],[-122.459484,43.563467],[-122.460014,43.563666],[-122.460201,43.563756],[-122.460519,43.563948],[-122.460672,43.56411],[-122.460771,43.564276],[-122.460857,43.564481],[-122.460915,43.564683],[-122.460948,43.564799],[-122.461,43.564934],[-122.461002,43.564945],[-122.461019,43.565068],[-122.460998,43.565188],[-122.460961,43.565356],[-122.460916,43.565514],[-122.460748,43.566097],[-122.460631,43.566504],[-122.460324,43.567572],[-122.460092,43.568318],[-122.459896,43.568841],[-122.459824,43.569033],[-122.459612,43.569596],[-122.459504,43.570021],[-122.459355,43.570613],[-122.459231,43.57108],[-122.459001,43.571845],[-122.458957,43.572001],[-122.458891,43.572233],[-122.458772,43.572587],[-122.458653,43.572942],[-122.458627,43.573022],[-122.45847,43.573507],[-122.458402,43.573789],[-122.458306,43.574137],[-122.458141,43.57474],[-122.458035,43.575173],[-122.457993,43.575345],[-122.457804,43.5759],[-122.457584,43.576451],[-122.457392,43.57693],[-122.457213,43.577324],[-122.457035,43.577745],[-122.456759,43.578254],[-122.456523,43.578843],[-122.456318,43.579378],[-122.456169,43.57976],[-122.455991,43.58017],[-122.455731,43.580701],[-122.455553,43.581147],[-122.455382,43.58158],[-122.455189,43.582018],[-122.45475,43.582965],[-122.454636,43.583254],[-122.454536,43.583505],[-122.454409,43.583779],[-122.454299,43.584017],[-122.454211,43.584213],[-122.454075,43.584518],[-122.453729,43.58533],[-122.453451,43.586067],[-122.453107,43.586942],[-122.452759,43.587678],[-122.452267,43.588874],[-122.452241,43.588938],[-122.452197,43.589046],[-122.45216,43.589156],[-122.45213,43.589267],[-122.452107,43.589379],[-122.452091,43.589491],[-122.452082,43.589604],[-122.452081,43.589717],[-122.452086,43.58983],[-122.452127,43.590963],[-122.452132,43.591123],[-122.452134,43.591211],[-122.452143,43.591299],[-122.452159,43.591386],[-122.452182,43.591472],[-122.452212,43.591558],[-122.452249,43.591642],[-122.452292,43.591724],[-122.452342,43.591804],[-122.452399,43.591882],[-122.452462,43.591957],[-122.45253,43.59203],[-122.452605,43.592099],[-122.452685,43.592165],[-122.45277,43.592228],[-122.45286,43.592286],[-122.452955,43.592341],[-122.453054,43.592392],[-122.453157,43.592438],[-122.453264,43.59248],[-122.454632,43.593252],[-122.454851,43.593377],[-122.454947,43.593439],[-122.455039,43.593505],[-122.455125,43.593575],[-122.455205,43.593648],[-122.455279,43.593724],[-122.455347,43.593804],[-122.455409,43.593886],[-122.455464,43.593971],[-122.455512,43.594058],[-122.455553,43.594147],[-122.455587,43.594237],[-122.455614,43.594329],[-122.455633,43.594419],[-122.455645,43.59451],[-122.45565,43.594601],[-122.455647,43.594692],[-122.455638,43.594783],[-122.455622,43.594874],[-122.455598,43.594963],[-122.455568,43.595052],[-122.455531,43.595139],[-122.455487,43.595224],[-122.455437,43.595308],[-122.45538,43.595389],[-122.455318,43.595468],[-122.455249,43.595544],[-122.455174,43.595617],[-122.455094,43.595687],[-122.454761,43.596082],[-122.454427,43.596554],[-122.454115,43.596963],[-122.453693,43.597547],[-122.453691,43.597551],[-122.453367,43.597957],[-122.453224,43.598135],[-122.453046,43.598393],[-122.452929,43.598562],[-122.452535,43.599038],[-122.451753,43.600138],[-122.451662,43.600256],[-122.451577,43.600363],[-122.451277,43.60074],[-122.45089,43.601198],[-122.450475,43.601715],[-122.449946,43.60234],[-122.449658,43.602729],[-122.449457,43.602966],[-122.449411,43.603021],[-122.449391,43.603045],[-122.448033,43.604779],[-122.447685,43.605227],[-122.447366,43.605606],[-122.446873,43.606196],[-122.446809,43.606282],[-122.44674,43.606365],[-122.446665,43.606446],[-122.446585,43.606524],[-122.4465,43.606599],[-122.446409,43.606671],[-122.446314,43.60674],[-122.445859,43.607105],[-122.445782,43.607171],[-122.445711,43.607241],[-122.445646,43.607313],[-122.445586,43.607388],[-122.445534,43.607466],[-122.445488,43.607546],[-122.445448,43.607627],[-122.445416,43.607711],[-122.445391,43.607795],[-122.445373,43.607881],[-122.445362,43.607967],[-122.445359,43.608054],[-122.445363,43.608137],[-122.445373,43.60822],[-122.44539,43.608303],[-122.445414,43.608384],[-122.445444,43.608465],[-122.445481,43.608544],[-122.445686,43.609007],[-122.445722,43.609098],[-122.445751,43.60919],[-122.445772,43.609282],[-122.445786,43.609376],[-122.445793,43.609469],[-122.445792,43.609563],[-122.445785,43.609657],[-122.44577,43.60975],[-122.445748,43.609842],[-122.445719,43.609934],[-122.445682,43.610024],[-122.445639,43.610112],[-122.44559,43.610199],[-122.445533,43.610283],[-122.44547,43.610365],[-122.44519,43.610711],[-122.444809,43.61118],[-122.444751,43.611247],[-122.444695,43.611315],[-122.444609,43.611427],[-122.444529,43.611543],[-122.444457,43.61166],[-122.444391,43.61178],[-122.444332,43.611902],[-122.444281,43.612025],[-122.444236,43.61215],[-122.444199,43.612276],[-122.444196,43.612288],[-122.444168,43.612368],[-122.444128,43.612495],[-122.444071,43.612688],[-122.444223,43.612688],[-122.444301,43.612495],[-122.444352,43.612365],[-122.444398,43.612259],[-122.444459,43.612104],[-122.444524,43.611951],[-122.444574,43.611844],[-122.44463,43.61174],[-122.444692,43.611637],[-122.444758,43.611535],[-122.44483,43.611436],[-122.444908,43.611338],[-122.44499,43.611243],[-122.445468,43.610653],[-122.445653,43.610425],[-122.445695,43.610373],[-122.445733,43.610319],[-122.445791,43.61023],[-122.445843,43.610139],[-122.445887,43.610046],[-122.445924,43.609951],[-122.445954,43.609855],[-122.445976,43.609758],[-122.445991,43.60966],[-122.445999,43.609562],[-122.445999,43.609463],[-122.445991,43.609365],[-122.445977,43.609267],[-122.445954,43.60917],[-122.445934,43.609103],[-122.445911,43.609036],[-122.445884,43.608971],[-122.445678,43.608504],[-122.445644,43.608431],[-122.445615,43.608356],[-122.445593,43.60828],[-122.445577,43.608203],[-122.445567,43.608126],[-122.445564,43.608048],[-122.445568,43.607968],[-122.445578,43.607889],[-122.445594,43.607811],[-122.445617,43.607733],[-122.445647,43.607656],[-122.445683,43.607581],[-122.445726,43.607508],[-122.445774,43.607437],[-122.445828,43.607368],[-122.445888,43.607301],[-122.445954,43.607237],[-122.446024,43.607177],[-122.446474,43.606815],[-122.446573,43.606743],[-122.446667,43.606667],[-122.446756,43.606589],[-122.44684,43.606507],[-122.446918,43.606422],[-122.44699,43.606335],[-122.447057,43.606246],[-122.447547,43.605656],[-122.447869,43.605275],[-122.448219,43.604822],[-122.44941,43.603302],[-122.449433,43.603272],[-122.449456,43.603244],[-122.449576,43.603094],[-122.449844,43.602778],[-122.450133,43.602389],[-122.45066,43.601766],[-122.451076,43.60125],[-122.451463,43.600791],[-122.45185,43.600306],[-122.45192,43.600214],[-122.452722,43.599087],[-122.453117,43.59861],[-122.453269,43.598391],[-122.453412,43.598184],[-122.453594,43.597956],[-122.45388,43.597598],[-122.453914,43.59755],[-122.454303,43.597013],[-122.454615,43.596605],[-122.454947,43.596135],[-122.45527,43.595751],[-122.455354,43.595678],[-122.455432,43.595601],[-122.455503,43.595521],[-122.455569,43.595438],[-122.455628,43.595353],[-122.455681,43.595265],[-122.455727,43.595175],[-122.455766,43.595084],[-122.455798,43.594991],[-122.455823,43.594898],[-122.455841,43.594803],[-122.455851,43.594708],[-122.455854,43.594612],[-122.45585,43.594517],[-122.455839,43.594421],[-122.45582,43.594327],[-122.455795,43.594234],[-122.455763,43.594143],[-122.455724,43.594053],[-122.455678,43.593965],[-122.455626,43.593879],[-122.455567,43.593795],[-122.455503,43.593714],[-122.455432,43.593636],[-122.455356,43.593561],[-122.455275,43.593488],[-122.455188,43.593419],[-122.455096,43.593354],[-122.455,43.593292],[-122.454779,43.593167],[-122.453399,43.592388],[-122.453298,43.592349],[-122.453201,43.592306],[-122.453108,43.592259],[-122.453019,43.592207],[-122.452934,43.592153],[-122.452853,43.592094],[-122.452778,43.592032],[-122.452708,43.591967],[-122.452643,43.591899],[-122.452584,43.591828],[-122.452531,43.591755],[-122.452484,43.59168],[-122.452444,43.591603],[-122.452409,43.591524],[-122.452382,43.591444],[-122.452361,43.591364],[-122.452347,43.591284],[-122.452339,43.591204],[-122.452337,43.591123],[-122.452331,43.59095],[-122.452291,43.589826],[-122.452285,43.589717],[-122.452287,43.589609],[-122.452295,43.589501],[-122.45231,43.589393],[-122.452332,43.589286],[-122.452361,43.58918],[-122.452397,43.589074],[-122.452439,43.58897],[-122.452957,43.587712],[-122.453305,43.586975],[-122.45365,43.586096],[-122.453928,43.585361],[-122.454273,43.584552],[-122.454424,43.584213],[-122.454496,43.584052],[-122.454622,43.583779],[-122.454734,43.583538],[-122.454847,43.583254],[-122.454948,43.582998],[-122.455387,43.582053],[-122.455581,43.581612],[-122.455752,43.581178],[-122.455929,43.580735],[-122.456188,43.580205],[-122.456368,43.579792],[-122.456517,43.579408],[-122.456722,43.578873],[-122.456956,43.57829],[-122.457232,43.577782],[-122.457411,43.577358],[-122.457591,43.576962],[-122.457783,43.576482],[-122.458004,43.575929],[-122.458194,43.575369],[-122.458344,43.57476],[-122.458509,43.574159],[-122.458605,43.573809],[-122.458673,43.573529],[-122.458854,43.572968],[-122.458973,43.572613],[-122.459093,43.572257],[-122.459204,43.571868],[-122.459433,43.571101],[-122.459557,43.570633],[-122.459679,43.570021],[-122.459759,43.56962],[-122.459761,43.569613],[-122.45998,43.569033],[-122.460042,43.568869],[-122.460238,43.568344],[-122.460471,43.567594],[-122.460785,43.566505],[-122.460902,43.566098],[-122.46107,43.565514],[-122.46111,43.565375],[-122.461148,43.565202],[-122.461171,43.565068],[-122.461149,43.564912],[-122.461095,43.564772],[-122.461068,43.56468],[-122.461003,43.564453],[-122.460913,43.564237],[-122.460862,43.564152],[-122.460804,43.564056],[-122.460632,43.563874],[-122.460292,43.563668],[-122.460091,43.563571],[-122.459482,43.563342],[-122.459475,43.56334],[-122.459405,43.563314],[-122.458773,43.563076],[-122.458687,43.563032],[-122.458605,43.562984],[-122.458527,43.562933],[-122.458455,43.562877],[-122.458387,43.562819],[-122.458326,43.562757],[-122.45827,43.562692],[-122.45822,43.562625],[-122.458176,43.562555],[-122.45814,43.562484],[-122.458109,43.562411],[-122.458054,43.562191],[-122.458047,43.562149],[-122.457997,43.561887],[-122.457986,43.56169],[-122.457953,43.561136],[-122.457953,43.560784],[-122.457887,43.560179],[-122.457856,43.55963],[-122.457809,43.558773],[-122.457802,43.558223],[-122.457794,43.557897],[-122.457801,43.557546],[-122.457796,43.557372],[-122.45782,43.557032],[-122.457799,43.556558],[-122.457781,43.55623],[-122.45774,43.555932],[-122.457739,43.555918],[-122.457648,43.555523],[-122.457645,43.55551],[-122.457631,43.555467],[-122.457577,43.555293],[-122.45752,43.555097],[-122.457315,43.554665],[-122.457141,43.554126],[-122.456975,43.553579],[-122.456788,43.552906],[-122.456729,43.552577],[-122.456726,43.552556],[-122.456651,43.551932],[-122.456584,43.551374],[-122.456475,43.550817],[-122.45639,43.550477],[-122.456389,43.550471],[-122.456304,43.550207],[-122.456132,43.549875],[-122.456078,43.549806],[-122.455644,43.549262],[-122.454988,43.54845],[-122.454694,43.548057],[-122.454461,43.547725],[-122.454358,43.547532],[-122.45426,43.547275],[-122.45406,43.546752],[-122.454009,43.546641],[-122.453952,43.546531],[-122.453891,43.546422],[-122.453825,43.546316],[-122.453747,43.546203],[-122.453665,43.546092],[-122.453576,43.545984],[-122.453483,43.545878],[-122.453384,43.545774],[-122.453279,43.545674],[-122.45317,43.545576],[-122.453056,43.545481],[-122.452937,43.54539],[-122.452813,43.545301],[-122.452212,43.544895],[-122.451387,43.544246],[-122.451099,43.543993],[-122.450741,43.543638],[-122.450398,43.543258],[-122.45015,43.542968],[-122.450035,43.542808],[-122.449993,43.542755],[-122.449971,43.542726],[-122.449821,43.542533],[-122.449811,43.542517],[-122.449577,43.542162],[-122.449316,43.541837],[-122.449195,43.541687],[-122.449104,43.541576],[-122.448778,43.541299],[-122.448743,43.541269],[-122.448408,43.540949],[-122.44812,43.540714],[-122.447981,43.540599],[-122.447604,43.540231],[-122.447309,43.539973],[-122.447108,43.539691],[-122.447005,43.539394],[-122.446973,43.539302],[-122.446891,43.538904],[-122.446886,43.538879],[-122.446794,43.538582],[-122.446709,43.538306],[-122.446617,43.537907],[-122.446556,43.537644],[-122.446435,43.536995],[-122.446181,43.536451],[-122.446135,43.536318],[-122.446042,43.5359],[-122.446029,43.535843],[-122.445932,43.535403],[-122.445872,43.535072],[-122.445818,43.534697],[-122.445764,43.534298],[-122.445599,43.533043],[-122.445613,43.532174],[-122.445656,43.531716],[-122.445734,43.531326],[-122.445893,43.530867],[-122.446023,43.530532],[-122.446102,43.530326],[-122.446116,43.530205],[-122.446134,43.529983],[-122.446123,43.529645],[-122.446049,43.529164],[-122.445952,43.528762],[-122.445891,43.528566],[-122.445821,43.528339],[-122.445736,43.528016],[-122.445716,43.527909],[-122.445676,43.527698],[-122.445671,43.527651],[-122.445617,43.527651],[-122.445519,43.527651],[-122.445526,43.52771]]],[[[-122.46058,43.599668],[-122.46047,43.599958],[-122.460293,43.600281],[-122.460155,43.600589],[-122.46001,43.600805],[-122.459838,43.600944],[-122.459661,43.60104],[-122.459371,43.601174],[-122.458959,43.60136],[-122.45878,43.601455],[-122.458508,43.601616],[-122.458205,43.601933],[-122.45784,43.602322],[-122.457468,43.602787],[-122.457113,43.603154],[-122.456886,43.603441],[-122.45667,43.603634],[-122.456484,43.603776],[-122.45615,43.603941],[-122.455773,43.604108],[-122.455485,43.604222],[-122.455165,43.604409],[-122.454994,43.604543],[-122.454935,43.60459],[-122.454776,43.604765],[-122.454613,43.605001],[-122.454421,43.605302],[-122.454346,43.605489],[-122.454256,43.605696],[-122.454098,43.605896],[-122.453995,43.606023],[-122.453993,43.606025],[-122.453953,43.606043],[-122.453763,43.606124],[-122.453505,43.606249],[-122.453319,43.606471],[-122.453253,43.60665],[-122.45319,43.606809],[-122.453092,43.606944],[-122.452937,43.607092],[-122.452562,43.607311],[-122.452191,43.607583],[-122.451961,43.607759],[-122.451637,43.607962],[-122.451466,43.60812],[-122.45124,43.608399],[-122.451095,43.608658],[-122.450991,43.608916],[-122.4509,43.609265],[-122.450829,43.609575],[-122.450805,43.609832],[-122.450804,43.609911],[-122.450802,43.610092],[-122.450868,43.61032],[-122.450878,43.610357],[-122.450858,43.610678],[-122.450838,43.61102],[-122.45079,43.611379],[-122.450615,43.611807],[-122.450463,43.612173],[-122.450348,43.612444],[-122.450177,43.61267],[-122.450342,43.612669],[-122.450478,43.612492],[-122.450625,43.61216],[-122.450761,43.611837],[-122.450938,43.611403],[-122.450988,43.611028],[-122.451009,43.610683],[-122.45103,43.610346],[-122.45102,43.610311],[-122.450953,43.61008],[-122.450955,43.609898],[-122.450956,43.609836],[-122.450978,43.609589],[-122.451048,43.609286],[-122.451137,43.608945],[-122.451237,43.608698],[-122.451375,43.608453],[-122.451589,43.608187],[-122.451746,43.608044],[-122.452064,43.607844],[-122.452299,43.607664],[-122.452664,43.607396],[-122.453048,43.607172],[-122.45322,43.607006],[-122.453331,43.606854],[-122.453398,43.606683],[-122.45346,43.606518],[-122.453618,43.606328],[-122.453847,43.606217],[-122.454106,43.606106],[-122.45423,43.605953],[-122.454396,43.605742],[-122.454491,43.605524],[-122.454563,43.605342],[-122.454749,43.60505],[-122.454908,43.604821],[-122.455056,43.604658],[-122.455271,43.604488],[-122.455572,43.604312],[-122.455852,43.604202],[-122.456235,43.604032],[-122.456584,43.603859],[-122.456785,43.603705],[-122.457012,43.603503],[-122.457242,43.603212],[-122.457597,43.602845],[-122.457968,43.60238],[-122.458331,43.601993],[-122.458622,43.601689],[-122.458875,43.601539],[-122.459046,43.601449],[-122.459454,43.601264],[-122.459749,43.601127],[-122.459942,43.601023],[-122.460137,43.600865],[-122.460295,43.600629],[-122.460435,43.600317],[-122.460614,43.599992],[-122.460723,43.599706],[-122.460843,43.599527],[-122.460706,43.599481],[-122.46058,43.599668]]]]}},{"type":"Feature","properties":{"MAPTAXLOT":"2335000001000","MAPNUMBER":"23350000","TAXLOT":"1000","ACCTNO":"0975951","MAPACRES":7825.56864611},"geometry":{"type":"MultiPolygon","coordinates":[[[[-122.429993,43.591281],[-122.429963,43.597973],[-122.429961,43.598417],[-122.449396,43.598421],[-122.449429,43.598421],[-122.449432,43.597985],[-122.449481,43.591319],[-122.44953,43.584217],[-122.454109,43.584213],[-122.454211,43.584213],[-122.454299,43.584017],[-122.454409,43.583779],[-122.454536,43.583505],[-122.454636,43.583254],[-122.45475,43.582965],[-122.455189,43.582018],[-122.455382,43.58158],[-122.455553,43.581147],[-122.455731,43.580701],[-122.455991,43.58017],[-122.456169,43.57976],[-122.456318,43.579378],[-122.456523,43.578843],[-122.456759,43.578254],[-122.457035,43.577745],[-122.457213,43.577324],[-122.457392,43.57693],[-122.457584,43.576451],[-122.457804,43.5759],[-122.457993,43.575345],[-122.458035,43.575173],[-122.458141,43.57474],[-122.458306,43.574137],[-122.458402,43.573789],[-122.45847,43.573507],[-122.458627,43.573022],[-122.458653,43.572942],[-122.458772,43.572587],[-122.458891,43.572233],[-122.458957,43.572001],[-122.459001,43.571845],[-122.459231,43.57108],[-122.459355,43.570613],[-122.459504,43.570021],[-122.459486,43.570021],[-122.459437,43.570021],[-122.454565,43.570013],[-122.454568,43.569415],[-122.454584,43.566481],[-122.454518,43.566481],[-122.449628,43.566469],[-122.44963,43.565862],[-122.449643,43.562923],[-122.449658,43.559377],[-122.449661,43.55877],[-122.449673,43.555831],[-122.449541,43.555837],[-122.444833,43.55603],[-122.444846,43.555412],[-122.445135,43.541883],[-122.448607,43.541716],[-122.449026,43.541696],[-122.448981,43.54164],[-122.448625,43.541338],[-122.448594,43.541308],[-122.448291,43.541019],[-122.44793,43.540723],[-122.447864,43.540669],[-122.447486,43.540299],[-122.447182,43.540034],[-122.446966,43.53973],[-122.446825,43.539323],[-122.446742,43.538925],[-122.446737,43.5389],[-122.446646,43.538603],[-122.446561,43.538327],[-122.446468,43.537927],[-122.446407,43.53766],[-122.446287,43.537015],[-122.446018,43.536429],[-122.445987,43.53634],[-122.445894,43.535921],[-122.44588,43.53586],[-122.445782,43.535418],[-122.445722,43.535084],[-122.445668,43.534708],[-122.445614,43.534309],[-122.445448,43.533047],[-122.445456,43.532554],[-122.445462,43.53217],[-122.445506,43.531705],[-122.445586,43.531305],[-122.445747,43.530838],[-122.445878,43.530502],[-122.445953,43.530306],[-122.445965,43.530196],[-122.445983,43.529981],[-122.445972,43.529652],[-122.44596,43.529573],[-122.445899,43.529179],[-122.445804,43.528783],[-122.445742,43.528585],[-122.445673,43.528361],[-122.445587,43.528033],[-122.445567,43.527928],[-122.445526,43.52771],[-122.445519,43.527651],[-122.445456,43.527651],[-122.439958,43.527643],[-122.430081,43.527624],[-122.430187,43.53483],[-122.430304,43.542027],[-122.420311,43.542021],[-122.420306,43.541431],[-122.420276,43.538418],[-122.420164,43.538418],[-122.410306,43.538405],[-122.410304,43.537857],[-122.410294,43.534796],[-122.410281,43.531187],[-122.410269,43.527578],[-122.410183,43.527577],[-122.405323,43.527552],[-122.400378,43.527526],[-122.395432,43.5275],[-122.390486,43.527474],[-122.39048,43.531098],[-122.390474,43.534721],[-122.390467,43.538344],[-122.390467,43.538534],[-122.390467,43.538538],[-122.390461,43.541967],[-122.390461,43.542161],[-122.390458,43.54557],[-122.390458,43.545764],[-122.390455,43.548989],[-122.390454,43.549365],[-122.390451,43.552966],[-122.390448,43.555812],[-122.390447,43.556568],[-122.39028,43.570295],[-122.390271,43.570978],[-122.390233,43.573915],[-122.390187,43.577536],[-122.390141,43.581156],[-122.390094,43.584777],[-122.390086,43.585422],[-122.391155,43.591177],[-122.391155,43.594798],[-122.391155,43.597916],[-122.391155,43.598419],[-122.410215,43.59842],[-122.410398,43.59842],[-122.410394,43.597959],[-122.410268,43.584254],[-122.429903,43.584199],[-122.430006,43.584199],[-122.429993,43.591281]],[[-122.410324,43.55652],[-122.410244,43.55652],[-122.400396,43.55655],[-122.400396,43.555759],[-122.400394,43.552933],[-122.405359,43.552912],[-122.405357,43.549292],[-122.410239,43.549268],[-122.410321,43.549267],[-122.410324,43.555784],[-122.410324,43.55652],[-122.430165,43.556625],[-122.430308,43.556626],[-122.430101,43.570228],[-122.410281,43.570309],[-122.410278,43.573796],[-122.400232,43.574024],[-122.400276,43.570309],[-122.400293,43.570309],[-122.410211,43.570309],[-122.410281,43.570309],[-122.410283,43.569719],[-122.410324,43.55652]]],[[[-122.459557,43.570633],[-122.459433,43.571101],[-122.459204,43.571868],[-122.459093,43.572257],[-122.458973,43.572613],[-122.458854,43.572968],[-122.458673,43.573529],[-122.458605,43.573809],[-122.458509,43.574159],[-122.458344,43.57476],[-122.458194,43.575369],[-122.458004,43.575929],[-122.457783,43.576482],[-122.457591,43.576962],[-122.457411,43.577358],[-122.457232,43.577782],[-122.456956,43.57829],[-122.456722,43.578873],[-122.456517,43.579408],[-122.456368,43.579792],[-122.456188,43.580205],[-122.455929,43.580735],[-122.455752,43.581178],[-122.455581,43.581612],[-122.455387,43.582053],[-122.454948,43.582998],[-122.454847,43.583254],[-122.454734,43.583538],[-122.454622,43.583779],[-122.454496,43.584052],[-122.454424,43.584213],[-122.454614,43.584213],[-122.458013,43.58421],[-122.459617,43.58421],[-122.460112,43.58421],[-122.464889,43.584188],[-122.464942,43.584188],[-122.469842,43.584175],[-122.469884,43.584175],[-122.469858,43.583715],[-122.469853,43.583618],[-122.469491,43.577162],[-122.469492,43.577038],[-122.469527,43.570027],[-122.469499,43.570027],[-122.466567,43.570018],[-122.465721,43.570017],[-122.464127,43.570019],[-122.463077,43.57002],[-122.459774,43.570021],[-122.459679,43.570021],[-122.459557,43.570633]]],[[[-122.445952,43.528762],[-122.446049,43.529164],[-122.446123,43.529645],[-122.446134,43.529983],[-122.446116,43.530205],[-122.446102,43.530326],[-122.446023,43.530532],[-122.445893,43.530867],[-122.445734,43.531326],[-122.445656,43.531716],[-122.445613,43.532174],[-122.445599,43.533043],[-122.445764,43.534298],[-122.445818,43.534697],[-122.445872,43.535072],[-122.445932,43.535403],[-122.446029,43.535843],[-122.446042,43.5359],[-122.446135,43.536318],[-122.446181,43.536451],[-122.446435,43.536995],[-122.446556,43.537644],[-122.446617,43.537907],[-122.446709,43.538306],[-122.446794,43.538582],[-122.446886,43.538879],[-122.446891,43.538904],[-122.446973,43.539302],[-122.447005,43.539394],[-122.447108,43.539691],[-122.447309,43.539973],[-122.447604,43.540231],[-122.447981,43.540599],[-122.44812,43.540714],[-122.448408,43.540949],[-122.448743,43.541269],[-122.448778,43.541299],[-122.449104,43.541576],[-122.449195,43.541687],[-122.449217,43.541686],[-122.449637,43.541666],[-122.449853,43.541656],[-122.449926,43.541652],[-122.450017,43.541648],[-122.450015,43.541508],[-122.449996,43.54104],[-122.44999,43.54091],[-122.449981,43.540674],[-122.449971,43.54043],[-122.449955,43.54004],[-122.449953,43.540004],[-122.449948,43.539864],[-122.449947,43.53985],[-122.44973,43.534555],[-122.449846,43.527659],[-122.449429,43.527658],[-122.449323,43.527658],[-122.449279,43.527658],[-122.448986,43.527658],[-122.448939,43.527658],[-122.448486,43.527657],[-122.445738,43.527651],[-122.445671,43.527651],[-122.445676,43.527698],[-122.445716,43.527909],[-122.445736,43.528016],[-122.445821,43.528339],[-122.445891,43.528566],[-122.445952,43.528762]]]]}},{"type":"Feature","properties":{"MAPTAXLOT":"2335000002200","MAPNUMBER":"23350000","TAXLOT":"2200","ACCTNO":"0976074","MAPACRES":1443.08244465},"geometry":{"type":"Polygon","coordinates":[[[-122.498607,43.556129],[-122.508663,43.555988],[-122.508755,43.555986],[-122.508745,43.555476],[-122.508614,43.548882],[-122.50854,43.541698],[-122.508507,43.541698],[-122.498601,43.541543],[-122.498609,43.541134],[-122.498739,43.534559],[-122.498815,43.53099],[-122.498759,43.530989],[-122.4939,43.530951],[-122.493789,43.534486],[-122.488839,43.534411],[-122.488857,43.533996],[-122.488985,43.530912],[-122.48912,43.527413],[-122.489008,43.527414],[-122.484186,43.527454],[-122.479253,43.527496],[-122.47432,43.527537],[-122.469387,43.527578],[-122.469415,43.53469],[-122.469446,43.541197],[-122.469449,43.541802],[-122.479445,43.541853],[-122.488874,43.541713],[-122.489023,43.541711],[-122.488963,43.548991],[-122.488904,43.555405],[-122.488899,43.555969],[-122.498607,43.556129]]]}},{"type":"Feature","properties":{"MAPTAXLOT":"2335000002300","MAPNUMBER":"23350000","TAXLOT":"2300","ACCTNO":"0976082","MAPACRES":426.47069908},"geometry":{"type":"Polygon","coordinates":[[[-122.498601,43.541543],[-122.508507,43.541698],[-122.50854,43.541698],[-122.508642,43.534793],[-122.508645,43.534644],[-122.508695,43.531892],[-122.508774,43.527527],[-122.503786,43.527472],[-122.498898,43.52742],[-122.494013,43.527416],[-122.48912,43.527413],[-122.488985,43.530912],[-122.488857,43.533996],[-122.488839,43.534411],[-122.493789,43.534486],[-122.4939,43.530951],[-122.498759,43.530989],[-122.498815,43.53099],[-122.498739,43.534559],[-122.498609,43.541134],[-122.498601,43.541543]]]}},{"type":"Feature","properties":{"MAPTAXLOT":"2335000002400","MAPNUMBER":"23350000","TAXLOT":"2400","ACCTNO":"0976090","MAPACRES":459.51058447},"geometry":{"type":"Polygon","coordinates":[[[-122.459769,43.541727],[-122.469284,43.5418],[-122.469449,43.541802],[-122.469446,43.541197],[-122.469415,43.53469],[-122.469387,43.527578],[-122.469184,43.527578],[-122.46446,43.527577],[-122.459533,43.527576],[-122.45469,43.527617],[-122.454886,43.54108],[-122.454895,43.541687],[-122.459769,43.541727]]]}},{"type":"Feature","properties":{"MAPTAXLOT":"2335000002401","MAPNUMBER":"23350000","TAXLOT":"2401","ACCTNO":"0976108","MAPACRES":154.37227534},"geometry":{"type":"Polygon","coordinates":[[[-122.452603,43.541668],[-122.454895,43.541687],[-122.454886,43.54108],[-122.45469,43.527617],[-122.454534,43.527619],[-122.449846,43.527659],[-122.44973,43.534555],[-122.449947,43.53985],[-122.449948,43.539864],[-122.449953,43.540004],[-122.449955,43.54004],[-122.449971,43.54043],[-122.449981,43.540674],[-122.44999,43.54091],[-122.449996,43.54104],[-122.450015,43.541508],[-122.450017,43.541648],[-122.450154,43.541649],[-122.450574,43.541652],[-122.451127,43.541656],[-122.451624,43.54166],[-122.451742,43.541661],[-122.452603,43.541668]]]}},{"type":"Feature","properties":{"MAPTAXLOT":"2425000000100","MAPNUMBER":"24250000","TAXLOT":"100","ACCTNO":"0976207","MAPACRES":22100.89018319},"geometry":{"type":"Polygon","coordinates":[[[-122.618003,43.527489],[-122.622896,43.527485],[-122.622885,43.525002],[-122.622889,43.523485],[-122.622904,43.519861],[-122.622911,43.517708],[-122.622909,43.516239],[-122.62291,43.512615],[-122.622909,43.510424],[-122.622921,43.508991],[-122.622955,43.505367],[-122.622975,43.503155],[-122.622968,43.501744],[-122.622953,43.498119],[-122.622945,43.495927],[-122.622936,43.494494],[-122.622918,43.490868],[-122.622905,43.488658],[-122.622903,43.487243],[-122.622904,43.483617],[-122.622902,43.481521],[-122.62286,43.479989],[-122.622764,43.476362],[-122.622713,43.474459],[-122.622709,43.472737],[-122.622702,43.46911],[-122.622698,43.467274],[-122.622707,43.465483],[-122.622723,43.461857],[-122.622732,43.460108],[-122.622736,43.458232],[-122.622741,43.454605],[-122.622746,43.452781],[-122.62275,43.45098],[-122.622758,43.447355],[-122.622763,43.445378],[-122.622783,43.44373],[-122.622829,43.440105],[-122.618281,43.44011],[-122.608331,43.440135],[-122.588402,43.440219],[-122.56847,43.440305],[-122.548539,43.440351],[-122.528613,43.440401],[-122.508694,43.440457],[-122.508693,43.441499],[-122.508693,43.447705],[-122.508693,43.448746],[-122.508693,43.454953],[-122.508692,43.455994],[-122.508678,43.462203],[-122.508678,43.463245],[-122.508665,43.469453],[-122.508663,43.470495],[-122.508671,43.476707],[-122.508671,43.477749],[-122.508678,43.483721],[-122.508678,43.483961],[-122.508741,43.491096],[-122.508741,43.491216],[-122.508806,43.498471],[-122.508811,43.505716],[-122.508812,43.505845],[-122.508863,43.509454],[-122.508912,43.512962],[-122.508912,43.513063],[-122.508771,43.520223],[-122.50877,43.520308],[-122.508774,43.527527],[-122.508853,43.527527],[-122.513734,43.527531],[-122.518695,43.527535],[-122.523655,43.52754],[-122.528616,43.527544],[-122.533582,43.527539],[-122.538548,43.527534],[-122.543514,43.527529],[-122.54848,43.527525],[-122.553448,43.527519],[-122.558415,43.527513],[-122.563383,43.527508],[-122.56835,43.527502],[-122.573316,43.527506],[-122.57332,43.527506],[-122.578282,43.52751],[-122.583248,43.527514],[-122.588214,43.527518],[-122.593179,43.527513],[-122.598144,43.527508],[-122.60311,43.527503],[-122.608075,43.527498],[-122.613039,43.527494],[-122.618003,43.527489]]]}},{"type":"Feature","properties":{"MAPTAXLOT":"2435000000300","MAPNUMBER":"24350000","TAXLOT":"300","ACCTNO":"0976231","MAPACRES":628.87575002},"geometry":{"type":"Polygon","coordinates":[[[-122.46446,43.527577],[-122.469184,43.527578],[-122.469387,43.527578],[-122.469363,43.523895],[-122.469354,43.520273],[-122.469383,43.513048],[-122.469255,43.513049],[-122.459631,43.513104],[-122.449782,43.513172],[-122.449796,43.516945],[-122.449798,43.517294],[-122.449798,43.517458],[-122.449802,43.518398],[-122.449804,43.519017],[-122.449805,43.519123],[-122.449809,43.520342],[-122.44981,43.52053],[-122.449811,43.520627],[-122.449813,43.521093],[-122.449815,43.521385],[-122.449827,43.524008],[-122.449828,43.524095],[-122.449831,43.524646],[-122.449843,43.527049],[-122.449846,43.527659],[-122.454534,43.527619],[-122.45469,43.527617],[-122.459533,43.527576],[-122.46446,43.527577]]]}},{"type":"Feature","properties":{"MAPTAXLOT":"2435000000400","MAPNUMBER":"24350000","TAXLOT":"400","ACCTNO":"0976249","MAPACRES":556.58714592},"geometry":{"type":"Polygon","coordinates":[[[-122.484186,43.527454],[-122.489008,43.527414],[-122.48912,43.527413],[-122.489116,43.523781],[-122.489116,43.520165],[-122.489133,43.512923],[-122.484196,43.512954],[-122.484194,43.516581],[-122.474319,43.516646],[-122.474321,43.513015],[-122.469383,43.513048],[-122.469354,43.520273],[-122.469363,43.523895],[-122.469387,43.527578],[-122.47432,43.527537],[-122.479253,43.527496],[-122.484186,43.527454]]]}},{"type":"Feature","properties":{"MAPTAXLOT":"2435000000500","MAPNUMBER":"24350000","TAXLOT":"500","ACCTNO":"0976256","MAPACRES":14415.10225603},"geometry":{"type":"MultiPolygon","coordinates":[[[[-122.469606,43.491284],[-122.479565,43.491173],[-122.479556,43.498464],[-122.469587,43.498527],[-122.469383,43.513048],[-122.474321,43.513015],[-122.474319,43.516646],[-122.484194,43.516581],[-122.484196,43.512954],[-122.489133,43.512923],[-122.489522,43.498398],[-122.499426,43.498421],[-122.499116,43.509361],[-122.508863,43.509454],[-122.508812,43.505845],[-122.508811,43.505716],[-122.508806,43.498471],[-122.508741,43.491216],[-122.508741,43.491096],[-122.508678,43.483961],[-122.508678,43.483721],[-122.508671,43.477749],[-122.508671,43.476707],[-122.508663,43.470495],[-122.508665,43.469453],[-122.508678,43.463245],[-122.508678,43.462203],[-122.508692,43.455994],[-122.508693,43.454953],[-122.508693,43.448746],[-122.508693,43.447705],[-122.508693,43.441499],[-122.50475,43.441498],[-122.499778,43.441496],[-122.489828,43.441491],[-122.469895,43.441448],[-122.449965,43.441389],[-122.430023,43.441329],[-122.425059,43.441322],[-122.420099,43.441316],[-122.415133,43.441309],[-122.410169,43.441303],[-122.405265,43.441296],[-122.400362,43.441289],[-122.395458,43.441282],[-122.390554,43.441275],[-122.390551,43.444908],[-122.390551,43.445384],[-122.390499,43.448529],[-122.390492,43.44901],[-122.390442,43.452149],[-122.390434,43.452634],[-122.390384,43.45577],[-122.395385,43.455784],[-122.395361,43.459403],[-122.400345,43.459416],[-122.400321,43.463033],[-122.400298,43.466646],[-122.395319,43.466638],[-122.395299,43.470256],[-122.390338,43.470251],[-122.390338,43.47074],[-122.390321,43.474168],[-122.390321,43.474218],[-122.390303,43.477697],[-122.390308,43.481311],[-122.390312,43.484551],[-122.390313,43.484925],[-122.395284,43.484899],[-122.400257,43.484861],[-122.405229,43.484821],[-122.410164,43.48478],[-122.4102,43.484779],[-122.41019,43.488377],[-122.410181,43.491974],[-122.41017,43.495571],[-122.410159,43.498709],[-122.410158,43.499172],[-122.414977,43.499183],[-122.415067,43.499183],[-122.419978,43.499193],[-122.424891,43.499199],[-122.429661,43.499198],[-122.429808,43.499198],[-122.42981,43.498803],[-122.429852,43.491944],[-122.429977,43.484714],[-122.439909,43.484751],[-122.449792,43.484788],[-122.449839,43.484789],[-122.449832,43.491256],[-122.449822,43.498026],[-122.449821,43.498531],[-122.46952,43.498527],[-122.469587,43.498527],[-122.469606,43.491284]]],[[[-122.39534,43.463022],[-122.390357,43.46301],[-122.390357,43.463499],[-122.390348,43.466631],[-122.395319,43.466638],[-122.39534,43.463022]]]]}},{"type":"Feature","properties":{"MAPTAXLOT":"2435000000600","MAPNUMBER":"24350000","TAXLOT":"600","ACCTNO":"0976264","MAPACRES":631.06050678},"geometry":{"type":"Polygon","coordinates":[[[-122.503786,43.527472],[-122.508774,43.527527],[-122.50877,43.520308],[-122.508771,43.520223],[-122.508912,43.513063],[-122.503958,43.513036],[-122.499008,43.513007],[-122.489133,43.512923],[-122.489116,43.520165],[-122.489116,43.523781],[-122.48912,43.527413],[-122.494013,43.527416],[-122.498898,43.52742],[-122.503786,43.527472]]]}},{"type":"Feature","properties":{"MAPTAXLOT":"2435000000700","MAPNUMBER":"24350000","TAXLOT":"700","ACCTNO":"0976272","MAPACRES":398.7835793},"geometry":{"type":"Polygon","coordinates":[[[-122.503958,43.513036],[-122.508912,43.513063],[-122.508912,43.512962],[-122.508863,43.509454],[-122.499116,43.509361],[-122.499426,43.498421],[-122.489522,43.498398],[-122.489133,43.512923],[-122.499008,43.513007],[-122.503958,43.513036]]]}},{"type":"Feature","properties":{"MAPTAXLOT":"2435000000800","MAPNUMBER":"24350000","TAXLOT":"800","ACCTNO":"0976280","MAPACRES":636.92896348},"geometry":{"type":"Polygon","coordinates":[[[-122.469255,43.513049],[-122.469383,43.513048],[-122.469587,43.498527],[-122.46952,43.498527],[-122.449821,43.498531],[-122.449783,43.512536],[-122.449782,43.513172],[-122.459631,43.513104],[-122.469255,43.513049]]]}},{"type":"Feature","properties":{"MAPTAXLOT":"2435000001400","MAPNUMBER":"24350000","TAXLOT":"1400","ACCTNO":"0976355","MAPACRES":160.74930605},"geometry":{"type":"Polygon","coordinates":[[[-122.469587,43.498527],[-122.479556,43.498464],[-122.479565,43.491173],[-122.469606,43.491284],[-122.469587,43.498527]]]}}]}