{"type":"FeatureCollection","features":[{"type":"Feature","properties":{"MAPTAXLOT":"2005000002000","MAPNUMBER":"20050000","TAXLOT":"2000","ACCTNO":"0922573","MAPACRES":654.01143743},"geometry":{"type":"Polygon","coordinates":[[[-123.342995,43.823725],[-123.348286,43.823746],[-123.348256,43.820102],[-123.348226,43.816458],[-123.348206,43.812834],[-123.348185,43.80921],[-123.342954,43.809165],[-123.337918,43.809121],[-123.32791,43.809112],[-123.327907,43.809506],[-123.327906,43.809671],[-123.327884,43.812764],[-123.327865,43.815262],[-123.327859,43.816166],[-123.327857,43.816417],[-123.327875,43.817293],[-123.327931,43.820052],[-123.328005,43.823687],[-123.333001,43.823696],[-123.337996,43.823706],[-123.342995,43.823725]]]}},{"type":"Feature","properties":{"MAPTAXLOT":"2005000002700","MAPNUMBER":"20050000","TAXLOT":"2700","ACCTNO":"0922664","MAPACRES":242.2961751},"geometry":{"type":"Polygon","coordinates":[[[-123.292615,43.80881],[-123.297643,43.808856],[-123.297663,43.805208],[-123.297683,43.801561],[-123.29267,43.801506],[-123.292697,43.797874],[-123.292725,43.794241],[-123.287727,43.794191],[-123.287694,43.797821],[-123.28766,43.801451],[-123.287623,43.805107],[-123.287587,43.808763],[-123.292615,43.80881]]]}},{"type":"Feature","properties":{"MAPTAXLOT":"2005000003000","MAPNUMBER":"20050000","TAXLOT":"3000","ACCTNO":"0922672","MAPACRES":40.36067654},"geometry":{"type":"Polygon","coordinates":[[[-123.297683,43.801561],[-123.302709,43.801615],[-123.302727,43.797979],[-123.297703,43.797926],[-123.297683,43.801561]]]}},{"type":"Feature","properties":{"MAPTAXLOT":"2005000003100","MAPNUMBER":"20050000","TAXLOT":"3100","ACCTNO":"0922680","MAPACRES":363.33630622},"geometry":{"type":"Polygon","coordinates":[[[-123.302671,43.808901],[-123.307699,43.808946],[-123.307717,43.805308],[-123.307734,43.801669],[-123.307751,43.798031],[-123.307769,43.794393],[-123.302746,43.794342],[-123.297723,43.79429],[-123.292725,43.794241],[-123.292697,43.797874],[-123.29267,43.801506],[-123.297683,43.801561],[-123.297703,43.797926],[-123.302727,43.797979],[-123.302709,43.801615],[-123.297683,43.801561],[-123.297663,43.805208],[-123.297643,43.808856],[-123.302671,43.808901]]]}},{"type":"Feature","properties":{"MAPTAXLOT":"2005000003200","MAPNUMBER":"20050000","TAXLOT":"3200","ACCTNO":"0922698","MAPACRES":203.98802952},"geometry":{"type":"Polygon","coordinates":[[[-123.312779,43.808996],[-123.31786,43.809045],[-123.317854,43.801739],[-123.312794,43.801704],[-123.312802,43.798063],[-123.307751,43.798031],[-123.307734,43.801669],[-123.307717,43.805308],[-123.307699,43.808946],[-123.312779,43.808996]]]}},{"type":"Feature","properties":{"MAPTAXLOT":"2005000003400","MAPNUMBER":"20050000","TAXLOT":"3400","ACCTNO":"1387321","MAPACRES":162.30872779},"geometry":{"type":"Polygon","coordinates":[[[-123.31786,43.809045],[-123.321479,43.809069],[-123.321732,43.809071],[-123.322885,43.809078],[-123.324808,43.809091],[-123.32791,43.809112],[-123.32792,43.801808],[-123.322887,43.801774],[-123.317854,43.801739],[-123.31786,43.809045]]]}},{"type":"Feature","properties":{"MAPTAXLOT":"2005000003500","MAPNUMBER":"20050000","TAXLOT":"3500","ACCTNO":"0922722","MAPACRES":162.39471201},"geometry":{"type":"Polygon","coordinates":[[[-123.322887,43.801774],[-123.32792,43.801808],[-123.327929,43.794504],[-123.322889,43.794476],[-123.317849,43.794449],[-123.317852,43.798094],[-123.317854,43.801739],[-123.322887,43.801774]]]}},{"type":"Feature","properties":{"MAPTAXLOT":"2005000003600","MAPNUMBER":"20050000","TAXLOT":"3600","ACCTNO":"0922730","MAPACRES":40.69183135},"geometry":{"type":"Polygon","coordinates":[[[-123.312794,43.801704],[-123.317854,43.801739],[-123.317852,43.798094],[-123.312802,43.798063],[-123.312794,43.801704]]]}},{"type":"Feature","properties":{"MAPTAXLOT":"2005000003700","MAPNUMBER":"20050000","TAXLOT":"3700","ACCTNO":"0922748","MAPACRES":40.57641956},"geometry":{"type":"Polygon","coordinates":[[[-123.307751,43.798031],[-123.312802,43.798063],[-123.312809,43.794421],[-123.307769,43.794393],[-123.307751,43.798031]]]}},{"type":"Feature","properties":{"MAPTAXLOT":"2005000003800","MAPNUMBER":"20050000","TAXLOT":"3800","ACCTNO":"0922755","MAPACRES":322.83432416},"geometry":{"type":"Polygon","coordinates":[[[-123.32791,43.809112],[-123.337918,43.809121],[-123.337935,43.80552],[-123.337953,43.801879],[-123.33797,43.79824],[-123.337988,43.794599],[-123.327929,43.794504],[-123.32792,43.801808],[-123.32791,43.809112]]]}},{"type":"Feature","properties":{"MAPTAXLOT":"2005000003900","MAPNUMBER":"20050000","TAXLOT":"3900","ACCTNO":"0922763","MAPACRES":164.25820761},"geometry":{"type":"Polygon","coordinates":[[[-123.342954,43.809165],[-123.348185,43.80921],[-123.348189,43.80558],[-123.348193,43.80195],[-123.343125,43.801915],[-123.342985,43.801914],[-123.337953,43.801879],[-123.337935,43.80552],[-123.337918,43.809121],[-123.342954,43.809165]]]}},{"type":"Feature","properties":{"MAPTAXLOT":"2005000004000","MAPNUMBER":"20050000","TAXLOT":"4000","ACCTNO":"0922789","MAPACRES":164.14404768},"geometry":{"type":"Polygon","coordinates":[[[-123.33797,43.79824],[-123.337953,43.801879],[-123.342985,43.801914],[-123.343125,43.801915],[-123.348193,43.80195],[-123.348195,43.798324],[-123.348196,43.794698],[-123.343114,43.794648],[-123.343016,43.794647],[-123.337988,43.794599],[-123.33797,43.79824]]]}},{"type":"Feature","properties":{"MAPTAXLOT":"2005000004200","MAPNUMBER":"20050000","TAXLOT":"4200","ACCTNO":"0922805","MAPACRES":648.71147709},"geometry":{"type":"Polygon","coordinates":[[[-123.327983,43.783625],[-123.327965,43.787251],[-123.327947,43.790878],[-123.327929,43.794504],[-123.337988,43.794599],[-123.343016,43.794647],[-123.343114,43.794648],[-123.348196,43.794698],[-123.348172,43.791075],[-123.348148,43.787452],[-123.348171,43.783799],[-123.348194,43.780146],[-123.342925,43.780107],[-123.337955,43.780071],[-123.332978,43.780035],[-123.328001,43.779998],[-123.327983,43.783625]]]}},{"type":"Feature","properties":{"MAPTAXLOT":"2005000004300","MAPNUMBER":"20050000","TAXLOT":"4300","ACCTNO":"0922821","MAPACRES":564.65701655},"geometry":{"type":"Polygon","coordinates":[[[-123.312802,43.798063],[-123.317852,43.798094],[-123.317849,43.794449],[-123.322889,43.794476],[-123.327929,43.794504],[-123.327947,43.790878],[-123.322918,43.79085],[-123.322947,43.787224],[-123.322976,43.783597],[-123.323005,43.77995],[-123.318009,43.779903],[-123.313002,43.779895],[-123.307995,43.779888],[-123.307938,43.783514],[-123.307882,43.78714],[-123.307769,43.794393],[-123.312809,43.794421],[-123.312802,43.798063]]]}},{"type":"Feature","properties":{"MAPTAXLOT":"2005000004400","MAPNUMBER":"20050000","TAXLOT":"4400","ACCTNO":"0922847","MAPACRES":120.62156217},"geometry":{"type":"Polygon","coordinates":[[[-123.322918,43.79085],[-123.327947,43.790878],[-123.327965,43.787251],[-123.327983,43.783625],[-123.328001,43.779998],[-123.323005,43.77995],[-123.322976,43.783597],[-123.322947,43.787224],[-123.322918,43.79085]]]}},{"type":"Feature","properties":{"MAPTAXLOT":"2005000004500","MAPNUMBER":"20050000","TAXLOT":"4500","ACCTNO":"0922854","MAPACRES":639.7911822},"geometry":{"type":"Polygon","coordinates":[[[-123.302746,43.794342],[-123.307769,43.794393],[-123.307882,43.78714],[-123.307938,43.783514],[-123.307995,43.779888],[-123.302954,43.779874],[-123.297913,43.77986],[-123.292896,43.779846],[-123.287879,43.779825],[-123.287865,43.783372],[-123.287839,43.786923],[-123.287783,43.790557],[-123.287727,43.794191],[-123.292725,43.794241],[-123.297723,43.79429],[-123.302746,43.794342]]]}},{"type":"Feature","properties":{"MAPTAXLOT":"2005200000077","MAPNUMBER":"20052000","TAXLOT":"77","ACCTNO":"000None","MAPACRES":15.76732952},"geometry":{"type":"Polygon","coordinates":[[[-123.323708,43.823648],[-123.324148,43.823652],[-123.324144,43.82365],[-123.324109,43.823634],[-123.324036,43.8236],[-123.323964,43.823568],[-123.323909,43.823543],[-123.323844,43.823515],[-123.323778,43.823488],[-123.323709,43.823462],[-123.32306,43.823235],[-123.323016,43.823219],[-123.322986,43.823209],[-123.322932,43.823191],[-123.322877,43.823174],[-123.322816,43.823155],[-123.322761,43.82314],[-123.322705,43.823125],[-123.322643,43.823109],[-123.322583,43.823094],[-123.322525,43.823078],[-123.32248,43.823066],[-123.322427,43.823052],[-123.322433,43.823031],[-123.322452,43.822961],[-123.322636,43.822437],[-123.322778,43.822067],[-123.322791,43.822035],[-123.322801,43.82201],[-123.322845,43.821908],[-123.322865,43.821865],[-123.322899,43.821797],[-123.322923,43.821747],[-123.322944,43.821699],[-123.323581,43.820185],[-123.323598,43.820146],[-123.323611,43.820113],[-123.32362,43.82009],[-123.323638,43.820044],[-123.323652,43.820011],[-123.323657,43.819997],[-123.323664,43.819982],[-123.323686,43.819928],[-123.323696,43.819906],[-123.323709,43.819876],[-123.324165,43.818888],[-123.324396,43.81843],[-123.324483,43.818258],[-123.324496,43.818233],[-123.324527,43.818173],[-123.324565,43.818108],[-123.324595,43.818059],[-123.324628,43.818013],[-123.324657,43.817973],[-123.324712,43.817901],[-123.324954,43.817572],[-123.324971,43.817547],[-123.324993,43.817509],[-123.325011,43.81747],[-123.325028,43.817426],[-123.32504,43.817383],[-123.325046,43.817345],[-123.325047,43.817323],[-123.325049,43.817301],[-123.325046,43.817254],[-123.325039,43.817207],[-123.325031,43.817179],[-123.325014,43.817133],[-123.324993,43.817088],[-123.324965,43.817039],[-123.324924,43.816982],[-123.324882,43.816932],[-123.324864,43.816912],[-123.324832,43.816878],[-123.324791,43.816838],[-123.32474,43.81679],[-123.324685,43.816738],[-123.324629,43.816685],[-123.324576,43.816634],[-123.324528,43.816589],[-123.324496,43.816558],[-123.324442,43.816501],[-123.324413,43.816468],[-123.324184,43.816188],[-123.324157,43.816152],[-123.324142,43.81613],[-123.324127,43.81611],[-123.324105,43.816074],[-123.324083,43.816034],[-123.324062,43.815995],[-123.324044,43.815957],[-123.324025,43.815914],[-123.324009,43.815873],[-123.323988,43.815815],[-123.323974,43.815771],[-123.323964,43.815736],[-123.323955,43.815703],[-123.323842,43.81531],[-123.323832,43.815275],[-123.323828,43.815264],[-123.323818,43.815234],[-123.323806,43.815197],[-123.323802,43.815183],[-123.32379,43.815145],[-123.323779,43.815107],[-123.323764,43.815046],[-123.323753,43.814996],[-123.323744,43.814938],[-123.323665,43.814358],[-123.323662,43.814344],[-123.323571,43.813868],[-123.323555,43.81379],[-123.323535,43.813721],[-123.323516,43.813665],[-123.323498,43.813619],[-123.323461,43.813541],[-123.323436,43.813493],[-123.323411,43.813451],[-123.323379,43.813399],[-123.323351,43.813359],[-123.323314,43.81331],[-123.323264,43.813249],[-123.323231,43.813212],[-123.322938,43.812931],[-123.322735,43.812731],[-123.322723,43.812718],[-123.322673,43.812668],[-123.322629,43.812615],[-123.322589,43.81256],[-123.322555,43.812503],[-123.322526,43.812445],[-123.322345,43.812019],[-123.322322,43.811955],[-123.322305,43.81189],[-123.322294,43.811824],[-123.32229,43.811758],[-123.322293,43.811692],[-123.322302,43.811626],[-123.322318,43.811561],[-123.322445,43.811126],[-123.322491,43.811035],[-123.322506,43.81098],[-123.322516,43.810924],[-123.32252,43.810867],[-123.322519,43.810811],[-123.322512,43.810754],[-123.322494,43.810619],[-123.322535,43.810506],[-123.322441,43.810377],[-123.322429,43.810315],[-123.322411,43.810255],[-123.322386,43.810196],[-123.322355,43.810138],[-123.322318,43.810082],[-123.322231,43.809965],[-123.322151,43.809833],[-123.322217,43.809784],[-123.32228,43.809767],[-123.3248,43.809961],[-123.325401,43.810007],[-123.326045,43.809923],[-123.326421,43.8098],[-123.326544,43.80976],[-123.327589,43.809657],[-123.327906,43.809671],[-123.327907,43.809506],[-123.32758,43.809492],[-123.326481,43.809601],[-123.325977,43.809764],[-123.325392,43.809841],[-123.324801,43.809795],[-123.322061,43.809585],[-123.322048,43.809547],[-123.321732,43.809071],[-123.321479,43.809069],[-123.321832,43.809603],[-123.321892,43.80978],[-123.321918,43.809848],[-123.32195,43.809914],[-123.321988,43.809979],[-123.322031,43.810043],[-123.322117,43.81016],[-123.322146,43.810204],[-123.322171,43.81025],[-123.322191,43.810297],[-123.322205,43.810344],[-123.322215,43.810393],[-123.322248,43.810635],[-123.322268,43.810776],[-123.322274,43.810831],[-123.322273,43.810886],[-123.322265,43.81094],[-123.322251,43.810995],[-123.322095,43.811526],[-123.322079,43.811594],[-123.322068,43.811662],[-123.322063,43.81173],[-123.322064,43.811798],[-123.322071,43.811866],[-123.322084,43.811934],[-123.322103,43.812001],[-123.322128,43.812067],[-123.322309,43.812493],[-123.322337,43.812551],[-123.32237,43.812607],[-123.322407,43.812662],[-123.322449,43.812716],[-123.322476,43.812748],[-123.322512,43.812786],[-123.322551,43.812826],[-123.322755,43.81303],[-123.323045,43.813308],[-123.323072,43.813336],[-123.323117,43.813392],[-123.32315,43.813435],[-123.323174,43.81347],[-123.323203,43.813516],[-123.323225,43.813555],[-123.323248,43.813597],[-123.323281,43.813668],[-123.323296,43.813707],[-123.323313,43.813757],[-123.323331,43.81382],[-123.323346,43.813892],[-123.323439,43.814378],[-123.323518,43.814955],[-123.323528,43.815018],[-123.323539,43.815074],[-123.323556,43.815139],[-123.323568,43.815179],[-123.323585,43.815234],[-123.323597,43.815272],[-123.32361,43.815311],[-123.32362,43.815344],[-123.323732,43.815736],[-123.323741,43.81577],[-123.323753,43.815807],[-123.323767,43.815854],[-123.32379,43.815916],[-123.323807,43.815961],[-123.323828,43.816008],[-123.323848,43.816051],[-123.323871,43.816094],[-123.323896,43.816139],[-123.323923,43.816181],[-123.323956,43.816229],[-123.323987,43.81627],[-123.324077,43.81638],[-123.324219,43.816553],[-123.324252,43.816591],[-123.324312,43.816654],[-123.324347,43.816688],[-123.324395,43.816734],[-123.324448,43.816785],[-123.324504,43.816838],[-123.32456,43.816891],[-123.324609,43.816937],[-123.324647,43.816974],[-123.324676,43.817004],[-123.32469,43.81702],[-123.324726,43.817063],[-123.324759,43.817109],[-123.32478,43.817146],[-123.324797,43.817181],[-123.32481,43.817215],[-123.324814,43.817232],[-123.32482,43.817267],[-123.324821,43.817301],[-123.324819,43.817331],[-123.324815,43.817356],[-123.324806,43.817388],[-123.324794,43.817421],[-123.32478,43.817451],[-123.324763,43.81748],[-123.324752,43.817497],[-123.324512,43.817822],[-123.324457,43.817894],[-123.324425,43.817937],[-123.32439,43.817988],[-123.324357,43.818042],[-123.324316,43.818112],[-123.324283,43.818175],[-123.324269,43.818201],[-123.323951,43.818833],[-123.323492,43.819826],[-123.32348,43.819856],[-123.323469,43.819879],[-123.323447,43.819933],[-123.32344,43.819948],[-123.32342,43.819999],[-123.323416,43.820008],[-123.323402,43.820044],[-123.323392,43.820067],[-123.32338,43.820099],[-123.323364,43.820136],[-123.322727,43.82165],[-123.322708,43.821694],[-123.322684,43.821742],[-123.32265,43.821811],[-123.322629,43.821856],[-123.322583,43.821963],[-123.322572,43.821991],[-123.322559,43.822022],[-123.322416,43.822395],[-123.32223,43.822925],[-123.322213,43.822989],[-123.322207,43.823008],[-123.322173,43.823002],[-123.3221,43.822991],[-123.322057,43.822985],[-123.321997,43.822978],[-123.321948,43.822973],[-123.321893,43.822968],[-123.321839,43.822965],[-123.3218,43.822963],[-123.321754,43.822961],[-123.321699,43.82296],[-123.321638,43.822959],[-123.321586,43.822958],[-123.32076,43.822945],[-123.320603,43.822943],[-123.320443,43.822937],[-123.320292,43.822929],[-123.320192,43.822922],[-123.320072,43.822912],[-123.319939,43.8229],[-123.31979,43.822884],[-123.319668,43.822869],[-123.319567,43.822855],[-123.319474,43.822841],[-123.319375,43.822821],[-123.318851,43.822702],[-123.318767,43.822684],[-123.31872,43.822673],[-123.318658,43.82266],[-123.318602,43.822646],[-123.31856,43.822635],[-123.318506,43.822619],[-123.318467,43.822606],[-123.318437,43.822596],[-123.318388,43.822577],[-123.31834,43.822558],[-123.318308,43.822545],[-123.318276,43.822532],[-123.317863,43.822361],[-123.317855,43.822358],[-123.317823,43.822346],[-123.317748,43.822315],[-123.317677,43.822288],[-123.317587,43.822258],[-123.317487,43.82223],[-123.317388,43.822208],[-123.31728,43.822187],[-123.317178,43.822172],[-123.31705,43.822157],[-123.316923,43.822146],[-123.316843,43.822141],[-123.316783,43.822138],[-123.314574,43.822031],[-123.314453,43.822025],[-123.31441,43.822023],[-123.314377,43.822022],[-123.314357,43.822021],[-123.314336,43.82202],[-123.31431,43.822019],[-123.314289,43.822018],[-123.314267,43.822017],[-123.314249,43.822016],[-123.314222,43.822015],[-123.314211,43.822015],[-123.3142,43.822014],[-123.314189,43.822013],[-123.314172,43.822012],[-123.314154,43.822011],[-123.314129,43.82201],[-123.314101,43.822008],[-123.314074,43.822007],[-123.314055,43.822005],[-123.314031,43.822004],[-123.312701,43.82191],[-123.312618,43.821903],[-123.312541,43.821896],[-123.312472,43.821889],[-123.312433,43.821884],[-123.31232,43.82187],[-123.312264,43.821862],[-123.312147,43.821842],[-123.312091,43.821832],[-123.311982,43.82181],[-123.311964,43.821806],[-123.311873,43.821786],[-123.311805,43.82177],[-123.311706,43.821745],[-123.311641,43.821727],[-123.311578,43.821709],[-123.311042,43.821552],[-123.310934,43.82152],[-123.31085,43.821494],[-123.310719,43.821453],[-123.310623,43.821423],[-123.310545,43.8214],[-123.310487,43.821384],[-123.310278,43.82133],[-123.30973,43.821187],[-123.309672,43.821171],[-123.309618,43.821157],[-123.309593,43.82115],[-123.309539,43.821136],[-123.309503,43.821127],[-123.309447,43.821113],[-123.309381,43.821099],[-123.309345,43.821091],[-123.309281,43.82108],[-123.309208,43.821068],[-123.309133,43.821058],[-123.309053,43.821049],[-123.308983,43.821041],[-123.308921,43.821035],[-123.308862,43.82103],[-123.307753,43.820922],[-123.307753,43.821088],[-123.308321,43.821143],[-123.308833,43.821193],[-123.30889,43.821198],[-123.30895,43.821204],[-123.309019,43.821212],[-123.309094,43.82122],[-123.309163,43.82123],[-123.30923,43.82124],[-123.309286,43.82125],[-123.309317,43.821256],[-123.309377,43.82127],[-123.309429,43.821282],[-123.309463,43.821291],[-123.309515,43.821305],[-123.30954,43.821311],[-123.309593,43.821325],[-123.309652,43.821341],[-123.310202,43.821485],[-123.310278,43.821505],[-123.310408,43.821539],[-123.310461,43.821554],[-123.310535,43.821575],[-123.310629,43.821605],[-123.310761,43.821646],[-123.310847,43.821671],[-123.310956,43.821704],[-123.311494,43.821862],[-123.31156,43.821881],[-123.311628,43.821899],[-123.311732,43.821926],[-123.311804,43.821943],[-123.311888,43.821962],[-123.311919,43.821969],[-123.312033,43.821991],[-123.312094,43.822002],[-123.312216,43.822022],[-123.312277,43.822031],[-123.312394,43.822047],[-123.312438,43.822052],[-123.312511,43.822059],[-123.312591,43.822067],[-123.312678,43.822074],[-123.313308,43.822118],[-123.314011,43.822168],[-123.314035,43.822169],[-123.314054,43.822171],[-123.314082,43.822172],[-123.314111,43.822174],[-123.314135,43.822175],[-123.314155,43.822177],[-123.314173,43.822177],[-123.314182,43.822178],[-123.314196,43.822179],[-123.314211,43.822179],[-123.314231,43.82218],[-123.314246,43.822181],[-123.314274,43.822183],[-123.314297,43.822184],[-123.314323,43.822185],[-123.314343,43.822186],[-123.314365,43.822186],[-123.314399,43.822188],[-123.31444,43.822189],[-123.314574,43.822196],[-123.31593,43.822262],[-123.316767,43.822302],[-123.316825,43.822305],[-123.3169,43.82231],[-123.317019,43.82232],[-123.317137,43.822334],[-123.317228,43.822348],[-123.317325,43.822366],[-123.317412,43.822386],[-123.317499,43.82241],[-123.317577,43.822435],[-123.317639,43.822459],[-123.317713,43.82249],[-123.317752,43.822505],[-123.317855,43.822548],[-123.318164,43.822675],[-123.318197,43.822689],[-123.31823,43.822702],[-123.31828,43.822722],[-123.318334,43.822742],[-123.318369,43.822755],[-123.318416,43.822771],[-123.318478,43.822789],[-123.318528,43.822802],[-123.318589,43.822816],[-123.318654,43.822831],[-123.318702,43.822841],[-123.318784,43.822859],[-123.31931,43.822979],[-123.31942,43.823001],[-123.319523,43.823016],[-123.319627,43.823031],[-123.319754,43.823046],[-123.319907,43.823063],[-123.320045,43.823076],[-123.320169,43.823086],[-123.320273,43.823093],[-123.320429,43.823101],[-123.320594,43.823107],[-123.320755,43.82311],[-123.321581,43.823123],[-123.321633,43.823123],[-123.321692,43.823125],[-123.321745,43.823126],[-123.321786,43.823127],[-123.321821,43.823129],[-123.32187,43.823132],[-123.321919,43.823136],[-123.321962,43.823141],[-123.322017,43.823147],[-123.322056,43.823152],[-123.322124,43.823163],[-123.322174,43.823171],[-123.322211,43.823177],[-123.322255,43.823185],[-123.3223,43.823195],[-123.322345,43.823206],[-123.322401,43.82322],[-123.322446,43.823232],[-123.322505,43.823249],[-123.322567,43.823264],[-123.322628,43.82328],[-123.32268,43.823294],[-123.322731,43.823308],[-123.322788,43.823325],[-123.32284,43.823342],[-123.32289,43.823358],[-123.322918,43.823368],[-123.322962,43.823383],[-123.323608,43.823609],[-123.32367,43.823633],[-123.323708,43.823648]]]}},{"type":"Feature","properties":{"MAPTAXLOT":"2005200000200","MAPNUMBER":"20052000","TAXLOT":"200","ACCTNO":"1387602","MAPACRES":27.00592851},"geometry":{"type":"Polygon","coordinates":[[[-123.307751,43.819857],[-123.307751,43.820193],[-123.307753,43.820876],[-123.307753,43.820877],[-123.307753,43.820922],[-123.308862,43.82103],[-123.308921,43.821035],[-123.308983,43.821041],[-123.309053,43.821049],[-123.309133,43.821058],[-123.309208,43.821068],[-123.309281,43.82108],[-123.309345,43.821091],[-123.309381,43.821099],[-123.309447,43.821113],[-123.309503,43.821127],[-123.309539,43.821136],[-123.309593,43.82115],[-123.309618,43.821157],[-123.309672,43.821171],[-123.30973,43.821187],[-123.310278,43.82133],[-123.310278,43.821309],[-123.310278,43.821308],[-123.310272,43.818156],[-123.310268,43.816246],[-123.307744,43.816221],[-123.307751,43.819857]]]}},{"type":"Feature","properties":{"MAPTAXLOT":"2005200000300","MAPNUMBER":"20052000","TAXLOT":"300","ACCTNO":"0924116","MAPACRES":28.30417579},"geometry":{"type":"Polygon","coordinates":[[[-123.310272,43.818156],[-123.310278,43.821308],[-123.310278,43.821309],[-123.310278,43.82133],[-123.310487,43.821384],[-123.310545,43.8214],[-123.310623,43.821423],[-123.310719,43.821453],[-123.31085,43.821494],[-123.310934,43.82152],[-123.311042,43.821552],[-123.311578,43.821709],[-123.311641,43.821727],[-123.311706,43.821745],[-123.311805,43.82177],[-123.311873,43.821786],[-123.311964,43.821806],[-123.311977,43.821776],[-123.311977,43.821776],[-123.312799,43.819906],[-123.312798,43.818851],[-123.312793,43.81627],[-123.310268,43.816246],[-123.310272,43.818156]]]}},{"type":"Feature","properties":{"MAPTAXLOT":"2005200000402","MAPNUMBER":"20052000","TAXLOT":"402","ACCTNO":"1387677","MAPACRES":11.70957927},"geometry":{"type":"Polygon","coordinates":[[[-123.311964,43.821806],[-123.311982,43.82181],[-123.312091,43.821832],[-123.312147,43.821842],[-123.312264,43.821862],[-123.31232,43.82187],[-123.312433,43.821884],[-123.312472,43.821889],[-123.312541,43.821896],[-123.312618,43.821903],[-123.312701,43.82191],[-123.314031,43.822004],[-123.314055,43.822005],[-123.314074,43.822007],[-123.314101,43.822008],[-123.314129,43.82201],[-123.314154,43.822011],[-123.314172,43.822012],[-123.314189,43.822013],[-123.3142,43.822014],[-123.314211,43.822015],[-123.314222,43.822015],[-123.314249,43.822016],[-123.314267,43.822017],[-123.314289,43.822018],[-123.31431,43.822019],[-123.314336,43.82202],[-123.314357,43.822021],[-123.314377,43.822022],[-123.31441,43.822023],[-123.314453,43.822025],[-123.314574,43.822031],[-123.314586,43.821995],[-123.314586,43.821995],[-123.315325,43.81993],[-123.312799,43.819906],[-123.311977,43.821776],[-123.311977,43.821776],[-123.311964,43.821806]]]}},{"type":"Feature","properties":{"MAPTAXLOT":"2005200000403","MAPNUMBER":"20052000","TAXLOT":"403","ACCTNO":"1387685","MAPACRES":14.10789089},"geometry":{"type":"Polygon","coordinates":[[[-123.314574,43.822031],[-123.316783,43.822138],[-123.316843,43.822141],[-123.316923,43.822146],[-123.31705,43.822157],[-123.317178,43.822172],[-123.31728,43.822187],[-123.317388,43.822208],[-123.317487,43.82223],[-123.317587,43.822258],[-123.317677,43.822288],[-123.317748,43.822315],[-123.317823,43.822346],[-123.317855,43.822358],[-123.317856,43.819955],[-123.315325,43.81993],[-123.314586,43.821995],[-123.314586,43.821995],[-123.314574,43.822031]]]}},{"type":"Feature","properties":{"MAPTAXLOT":"2005200000500","MAPNUMBER":"20052000","TAXLOT":"500","ACCTNO":"1387693","MAPACRES":77.3351886},"geometry":{"type":"MultiPolygon","coordinates":[[[[-123.323638,43.820044],[-123.32362,43.82009],[-123.323611,43.820113],[-123.323598,43.820146],[-123.323581,43.820185],[-123.322944,43.821699],[-123.322923,43.821747],[-123.322899,43.821797],[-123.322865,43.821865],[-123.322845,43.821908],[-123.322801,43.82201],[-123.322791,43.822035],[-123.322778,43.822067],[-123.322636,43.822437],[-123.322452,43.822961],[-123.322433,43.823031],[-123.322427,43.823052],[-123.32248,43.823066],[-123.322525,43.823078],[-123.322583,43.823094],[-123.322643,43.823109],[-123.322705,43.823125],[-123.322761,43.82314],[-123.322816,43.823155],[-123.322877,43.823174],[-123.322932,43.823191],[-123.322986,43.823209],[-123.323016,43.823219],[-123.32306,43.823235],[-123.323709,43.823462],[-123.323778,43.823488],[-123.323844,43.823515],[-123.323909,43.823543],[-123.323964,43.823568],[-123.324036,43.8236],[-123.324109,43.823634],[-123.324144,43.82365],[-123.324148,43.823652],[-123.324182,43.823652],[-123.324185,43.823652],[-123.328005,43.823687],[-123.327931,43.820052],[-123.323652,43.820011],[-123.323638,43.820044]]],[[[-123.317855,43.822358],[-123.317863,43.822361],[-123.318276,43.822532],[-123.318308,43.822545],[-123.31834,43.822558],[-123.318388,43.822577],[-123.318437,43.822596],[-123.318467,43.822606],[-123.318506,43.822619],[-123.31856,43.822635],[-123.318602,43.822646],[-123.318658,43.82266],[-123.31872,43.822673],[-123.318767,43.822684],[-123.318851,43.822702],[-123.319375,43.822821],[-123.319474,43.822841],[-123.319567,43.822855],[-123.319668,43.822869],[-123.31979,43.822884],[-123.319939,43.8229],[-123.320072,43.822912],[-123.320192,43.822922],[-123.320292,43.822929],[-123.320443,43.822937],[-123.320603,43.822943],[-123.32076,43.822945],[-123.321586,43.822958],[-123.321638,43.822959],[-123.321699,43.82296],[-123.321754,43.822961],[-123.3218,43.822963],[-123.321839,43.822965],[-123.321893,43.822968],[-123.321948,43.822973],[-123.321997,43.822978],[-123.322057,43.822985],[-123.3221,43.822991],[-123.322173,43.823002],[-123.322207,43.823008],[-123.322213,43.822989],[-123.32223,43.822925],[-123.322416,43.822395],[-123.322559,43.822022],[-123.322572,43.821991],[-123.322583,43.821963],[-123.322629,43.821856],[-123.32265,43.821811],[-123.322684,43.821742],[-123.322708,43.821694],[-123.322727,43.82165],[-123.323364,43.820136],[-123.32338,43.820099],[-123.323392,43.820067],[-123.323402,43.820044],[-123.323416,43.820008],[-123.322919,43.820004],[-123.317856,43.819955],[-123.317855,43.822358]]],[[[-123.317855,43.823595],[-123.32293,43.823641],[-123.323708,43.823648],[-123.32367,43.823633],[-123.323608,43.823609],[-123.322962,43.823383],[-123.322918,43.823368],[-123.32289,43.823358],[-123.32284,43.823342],[-123.322788,43.823325],[-123.322731,43.823308],[-123.32268,43.823294],[-123.322628,43.82328],[-123.322567,43.823264],[-123.322505,43.823249],[-123.322446,43.823232],[-123.322401,43.82322],[-123.322345,43.823206],[-123.3223,43.823195],[-123.322255,43.823185],[-123.322211,43.823177],[-123.322174,43.823171],[-123.322124,43.823163],[-123.322056,43.823152],[-123.322017,43.823147],[-123.321962,43.823141],[-123.321919,43.823136],[-123.32187,43.823132],[-123.321821,43.823129],[-123.321786,43.823127],[-123.321745,43.823126],[-123.321692,43.823125],[-123.321633,43.823123],[-123.321581,43.823123],[-123.320755,43.82311],[-123.320594,43.823107],[-123.320429,43.823101],[-123.320273,43.823093],[-123.320169,43.823086],[-123.320045,43.823076],[-123.319907,43.823063],[-123.319754,43.823046],[-123.319627,43.823031],[-123.319523,43.823016],[-123.31942,43.823001],[-123.31931,43.822979],[-123.318784,43.822859],[-123.318702,43.822841],[-123.318654,43.822831],[-123.318589,43.822816],[-123.318528,43.822802],[-123.318478,43.822789],[-123.318416,43.822771],[-123.318369,43.822755],[-123.318334,43.822742],[-123.31828,43.822722],[-123.31823,43.822702],[-123.318197,43.822689],[-123.318164,43.822675],[-123.317855,43.822548],[-123.317855,43.823595]]]]}},{"type":"Feature","properties":{"MAPTAXLOT":"2005200000600","MAPNUMBER":"20052000","TAXLOT":"600","ACCTNO":"0924140","MAPACRES":10.3334646},"geometry":{"type":"Polygon","coordinates":[[[-123.323828,43.815264],[-123.326764,43.815292],[-123.326765,43.815251],[-123.327865,43.815262],[-123.327884,43.812764],[-123.32652,43.812752],[-123.326064,43.814037],[-123.325652,43.8152],[-123.323802,43.815183],[-123.323806,43.815197],[-123.323818,43.815234],[-123.323828,43.815264]]]}},{"type":"Feature","properties":{"MAPTAXLOT":"2005200000601","MAPNUMBER":"20052000","TAXLOT":"601","ACCTNO":"1387701","MAPACRES":6.14793538},"geometry":{"type":"Polygon","coordinates":[[[-123.324396,43.81843],[-123.32713,43.81852],[-123.327105,43.817301],[-123.325047,43.817323],[-123.325046,43.817345],[-123.32504,43.817383],[-123.325028,43.817426],[-123.325011,43.81747],[-123.324993,43.817509],[-123.324971,43.817547],[-123.324954,43.817572],[-123.324712,43.817901],[-123.324657,43.817973],[-123.324628,43.818013],[-123.324595,43.818059],[-123.324565,43.818108],[-123.324527,43.818173],[-123.324496,43.818233],[-123.324483,43.818258],[-123.324396,43.81843]]]}},{"type":"Feature","properties":{"MAPTAXLOT":"2005200000603","MAPNUMBER":"20052000","TAXLOT":"603","ACCTNO":"1364783","MAPACRES":5.18621779},"geometry":{"type":"Polygon","coordinates":[[[-123.323802,43.815183],[-123.325652,43.8152],[-123.326064,43.814037],[-123.324249,43.814021],[-123.324411,43.814111],[-123.323915,43.814301],[-123.323662,43.814344],[-123.323665,43.814358],[-123.323744,43.814938],[-123.323753,43.814996],[-123.323764,43.815046],[-123.323779,43.815107],[-123.32379,43.815145],[-123.323802,43.815183]]]}},{"type":"Feature","properties":{"MAPTAXLOT":"2005200000604","MAPNUMBER":"20052000","TAXLOT":"604","ACCTNO":"1371374","MAPACRES":8.95715156},"geometry":{"type":"Polygon","coordinates":[[[-123.322723,43.812718],[-123.322735,43.812731],[-123.322938,43.812931],[-123.323231,43.813212],[-123.323264,43.813249],[-123.323314,43.81331],[-123.323351,43.813359],[-123.323379,43.813399],[-123.323411,43.813451],[-123.323436,43.813493],[-123.323461,43.813541],[-123.323498,43.813619],[-123.323516,43.813665],[-123.323535,43.813721],[-123.323555,43.81379],[-123.323571,43.813868],[-123.323662,43.814344],[-123.323915,43.814301],[-123.324411,43.814111],[-123.324249,43.814021],[-123.326064,43.814037],[-123.32652,43.812752],[-123.326396,43.812751],[-123.324776,43.812736],[-123.322896,43.81272],[-123.322723,43.812718]]]}},{"type":"Feature","properties":{"MAPTAXLOT":"2005200000605","MAPNUMBER":"20052000","TAXLOT":"605","ACCTNO":"1568458","MAPACRES":8.21070147},"geometry":{"type":"Polygon","coordinates":[[[-123.327105,43.817301],[-123.327875,43.817293],[-123.327857,43.816417],[-123.327859,43.816166],[-123.324142,43.81613],[-123.324157,43.816152],[-123.324184,43.816188],[-123.324413,43.816468],[-123.324442,43.816501],[-123.324496,43.816558],[-123.324528,43.816589],[-123.324576,43.816634],[-123.324629,43.816685],[-123.324685,43.816738],[-123.32474,43.81679],[-123.324791,43.816838],[-123.324832,43.816878],[-123.324864,43.816912],[-123.324882,43.816932],[-123.324924,43.816982],[-123.324965,43.817039],[-123.324993,43.817088],[-123.325014,43.817133],[-123.325031,43.817179],[-123.325039,43.817207],[-123.325046,43.817254],[-123.325049,43.817301],[-123.325047,43.817323],[-123.327105,43.817301]]]}},{"type":"Feature","properties":{"MAPTAXLOT":"2005200000606","MAPNUMBER":"20052000","TAXLOT":"606","ACCTNO":"1424934","MAPACRES":15.45999185},"geometry":{"type":"Polygon","coordinates":[[[-123.323652,43.820011],[-123.327931,43.820052],[-123.327875,43.817293],[-123.327105,43.817301],[-123.32713,43.81852],[-123.324396,43.81843],[-123.324165,43.818888],[-123.323709,43.819876],[-123.323696,43.819906],[-123.323686,43.819928],[-123.323664,43.819982],[-123.323657,43.819997],[-123.323652,43.820011]]]}},{"type":"Feature","properties":{"MAPTAXLOT":"2005200000607","MAPNUMBER":"20052000","TAXLOT":"607","ACCTNO":"1461399","MAPACRES":7.53939198},"geometry":{"type":"Polygon","coordinates":[[[-123.324142,43.81613],[-123.327859,43.816166],[-123.327865,43.815262],[-123.326765,43.815251],[-123.326764,43.815292],[-123.323828,43.815264],[-123.323832,43.815275],[-123.323842,43.81531],[-123.323955,43.815703],[-123.323964,43.815736],[-123.323974,43.815771],[-123.323988,43.815815],[-123.324009,43.815873],[-123.324025,43.815914],[-123.324044,43.815957],[-123.324062,43.815995],[-123.324083,43.816034],[-123.324105,43.816074],[-123.324127,43.81611],[-123.324142,43.81613]]]}},{"type":"Feature","properties":{"MAPTAXLOT":"2005200000608","MAPNUMBER":"20052000","TAXLOT":"608","ACCTNO":"1476223","MAPACRES":50.75983288},"geometry":{"type":"Polygon","coordinates":[[[-123.322919,43.820004],[-123.323416,43.820008],[-123.32342,43.819999],[-123.32344,43.819948],[-123.323447,43.819933],[-123.323469,43.819879],[-123.32348,43.819856],[-123.323492,43.819826],[-123.323951,43.818833],[-123.324269,43.818201],[-123.324283,43.818175],[-123.324316,43.818112],[-123.324357,43.818042],[-123.32439,43.817988],[-123.324425,43.817937],[-123.324457,43.817894],[-123.324512,43.817822],[-123.324752,43.817497],[-123.324763,43.81748],[-123.32478,43.817451],[-123.324794,43.817421],[-123.324806,43.817388],[-123.324815,43.817356],[-123.324819,43.817331],[-123.324821,43.817301],[-123.32482,43.817267],[-123.324814,43.817232],[-123.32481,43.817215],[-123.324797,43.817181],[-123.32478,43.817146],[-123.324759,43.817109],[-123.324726,43.817063],[-123.32469,43.81702],[-123.324676,43.817004],[-123.324647,43.816974],[-123.324609,43.816937],[-123.32456,43.816891],[-123.324504,43.816838],[-123.324448,43.816785],[-123.324395,43.816734],[-123.324347,43.816688],[-123.324312,43.816654],[-123.324252,43.816591],[-123.324219,43.816553],[-123.324077,43.81638],[-123.322907,43.816369],[-123.317857,43.81632],[-123.317856,43.819955],[-123.322919,43.820004]]]}},{"type":"Feature","properties":{"MAPTAXLOT":"2005200000609","MAPNUMBER":"20052000","TAXLOT":"609","ACCTNO":"1476231","MAPACRES":44.7103098},"geometry":{"type":"Polygon","coordinates":[[[-123.322907,43.816369],[-123.324077,43.81638],[-123.323987,43.81627],[-123.323956,43.816229],[-123.323923,43.816181],[-123.323896,43.816139],[-123.323871,43.816094],[-123.323848,43.816051],[-123.323828,43.816008],[-123.323807,43.815961],[-123.32379,43.815916],[-123.323767,43.815854],[-123.323753,43.815807],[-123.323741,43.81577],[-123.323732,43.815736],[-123.32362,43.815344],[-123.32361,43.815311],[-123.323597,43.815272],[-123.323585,43.815234],[-123.323568,43.815179],[-123.323556,43.815139],[-123.323539,43.815074],[-123.323528,43.815018],[-123.323518,43.814955],[-123.323439,43.814378],[-123.323346,43.813892],[-123.323331,43.81382],[-123.323313,43.813757],[-123.323296,43.813707],[-123.323281,43.813668],[-123.323248,43.813597],[-123.323225,43.813555],[-123.323203,43.813516],[-123.323174,43.81347],[-123.32315,43.813435],[-123.323117,43.813392],[-123.323072,43.813336],[-123.323045,43.813308],[-123.322755,43.81303],[-123.322551,43.812826],[-123.322512,43.812786],[-123.322476,43.812748],[-123.322449,43.812716],[-123.317858,43.812675],[-123.317857,43.81632],[-123.322907,43.816369]]]}},{"type":"Feature","properties":{"MAPTAXLOT":"2005200000800","MAPNUMBER":"20052000","TAXLOT":"800","ACCTNO":"1655800","MAPACRES":162.87945147},"geometry":{"type":"Polygon","coordinates":[[[-123.312793,43.81627],[-123.317857,43.81632],[-123.317858,43.812675],[-123.317859,43.812111],[-123.31786,43.809045],[-123.312779,43.808996],[-123.307699,43.808946],[-123.307722,43.812583],[-123.307744,43.816221],[-123.310268,43.816246],[-123.312793,43.81627]]]}},{"type":"Feature","properties":{"MAPTAXLOT":"2005200000801","MAPNUMBER":"20052000","TAXLOT":"801","ACCTNO":"1655818","MAPACRES":40.62989952},"geometry":{"type":"Polygon","coordinates":[[[-123.315325,43.81993],[-123.317856,43.819955],[-123.317857,43.81632],[-123.312793,43.81627],[-123.312798,43.818851],[-123.312799,43.819906],[-123.315325,43.81993]]]}},{"type":"Feature","properties":{"MAPTAXLOT":"2005200000900","MAPNUMBER":"20052000","TAXLOT":"900","ACCTNO":"0924181","MAPACRES":3.85304814},"geometry":{"type":"Polygon","coordinates":[[[-123.324801,43.809795],[-123.325392,43.809841],[-123.325977,43.809764],[-123.326481,43.809601],[-123.32758,43.809492],[-123.327907,43.809506],[-123.32791,43.809112],[-123.324808,43.809091],[-123.324801,43.809795]]]}},{"type":"Feature","properties":{"MAPTAXLOT":"2005200000901","MAPNUMBER":"20052000","TAXLOT":"901","ACCTNO":"1371390","MAPACRES":10.01959508},"geometry":{"type":"Polygon","coordinates":[[[-123.32652,43.812752],[-123.327884,43.812764],[-123.327906,43.809671],[-123.327589,43.809657],[-123.326544,43.80976],[-123.326421,43.8098],[-123.326396,43.812751],[-123.32652,43.812752]]]}},{"type":"Feature","properties":{"MAPTAXLOT":"2005200000902","MAPNUMBER":"20052000","TAXLOT":"902","ACCTNO":"1402344","MAPACRES":20.91002273},"geometry":{"type":"Polygon","coordinates":[[[-123.31786,43.809045],[-123.317859,43.812111],[-123.318368,43.812065],[-123.321658,43.810615],[-123.322248,43.810635],[-123.322215,43.810393],[-123.322205,43.810344],[-123.322191,43.810297],[-123.322171,43.81025],[-123.322146,43.810204],[-123.322117,43.81016],[-123.322031,43.810043],[-123.321988,43.809979],[-123.32195,43.809914],[-123.321918,43.809848],[-123.321892,43.80978],[-123.321832,43.809603],[-123.321479,43.809069],[-123.31786,43.809045]]]}},{"type":"Feature","properties":{"MAPTAXLOT":"2005200000903","MAPNUMBER":"20052000","TAXLOT":"903","ACCTNO":"1412475","MAPACRES":10.00162618},"geometry":{"type":"Polygon","coordinates":[[[-123.324776,43.812736],[-123.326396,43.812751],[-123.326421,43.8098],[-123.326045,43.809923],[-123.325401,43.810007],[-123.3248,43.809961],[-123.324776,43.812736]]]}},{"type":"Feature","properties":{"MAPTAXLOT":"2005200000904","MAPNUMBER":"20052000","TAXLOT":"904","ACCTNO":"1387719","MAPACRES":14.98600618},"geometry":{"type":"Polygon","coordinates":[[[-123.322723,43.812718],[-123.322896,43.81272],[-123.324776,43.812736],[-123.3248,43.809961],[-123.32228,43.809767],[-123.322217,43.809784],[-123.322151,43.809833],[-123.322231,43.809965],[-123.322318,43.810082],[-123.322355,43.810138],[-123.322386,43.810196],[-123.322411,43.810255],[-123.322429,43.810315],[-123.322441,43.810377],[-123.322535,43.810506],[-123.322494,43.810619],[-123.322512,43.810754],[-123.322519,43.810811],[-123.32252,43.810867],[-123.322516,43.810924],[-123.322506,43.81098],[-123.322491,43.811035],[-123.322445,43.811126],[-123.322318,43.811561],[-123.322302,43.811626],[-123.322293,43.811692],[-123.32229,43.811758],[-123.322294,43.811824],[-123.322305,43.81189],[-123.322322,43.811955],[-123.322345,43.812019],[-123.322526,43.812445],[-123.322555,43.812503],[-123.322589,43.81256],[-123.322629,43.812615],[-123.322673,43.812668],[-123.322723,43.812718]]]}},{"type":"Feature","properties":{"MAPTAXLOT":"2005200000905","MAPNUMBER":"20052000","TAXLOT":"905","ACCTNO":"1577533","MAPACRES":3.86650676},"geometry":{"type":"Polygon","coordinates":[[[-123.322061,43.809585],[-123.324801,43.809795],[-123.324808,43.809091],[-123.322885,43.809078],[-123.321732,43.809071],[-123.322048,43.809547],[-123.322061,43.809585]]]}},{"type":"Feature","properties":{"MAPTAXLOT":"2005200000906","MAPNUMBER":"20052000","TAXLOT":"906","ACCTNO":"1811890","MAPACRES":12.97895885},"geometry":{"type":"Polygon","coordinates":[[[-123.317858,43.812675],[-123.322449,43.812716],[-123.322407,43.812662],[-123.32237,43.812607],[-123.322337,43.812551],[-123.322309,43.812493],[-123.322128,43.812067],[-123.322103,43.812001],[-123.322084,43.811934],[-123.322071,43.811866],[-123.322064,43.811798],[-123.322063,43.81173],[-123.322068,43.811662],[-123.322079,43.811594],[-123.322095,43.811526],[-123.322251,43.810995],[-123.322265,43.81094],[-123.322273,43.810886],[-123.322274,43.810831],[-123.322268,43.810776],[-123.322248,43.810635],[-123.321658,43.810615],[-123.318368,43.812065],[-123.317859,43.812111],[-123.317858,43.812675]]]}},{"type":"Feature","properties":{"MAPTAXLOT":"2005210000077","MAPNUMBER":"20052100","TAXLOT":"77","ACCTNO":"000None","MAPACRES":5.80925672},"geometry":{"type":"Polygon","coordinates":[[[-123.302708,43.820219],[-123.302982,43.820246],[-123.303072,43.820255],[-123.303192,43.820267],[-123.303316,43.82028],[-123.303423,43.820292],[-123.303485,43.820299],[-123.303549,43.820307],[-123.303612,43.820315],[-123.303665,43.820323],[-123.303727,43.820334],[-123.30379,43.820346],[-123.303873,43.820365],[-123.30462,43.820552],[-123.304684,43.820568],[-123.304791,43.820594],[-123.304849,43.820608],[-123.30496,43.820634],[-123.30507,43.820659],[-123.30518,43.820684],[-123.30526,43.820702],[-123.305358,43.820723],[-123.305435,43.820739],[-123.305542,43.820761],[-123.305618,43.820776],[-123.30646,43.820939],[-123.306524,43.820951],[-123.306601,43.820965],[-123.30666,43.820974],[-123.306727,43.820984],[-123.306828,43.820997],[-123.306903,43.821005],[-123.306971,43.821012],[-123.307019,43.821017],[-123.307098,43.821024],[-123.307152,43.821029],[-123.307753,43.821088],[-123.307753,43.820922],[-123.307182,43.820866],[-123.307127,43.820861],[-123.307048,43.820853],[-123.307001,43.820849],[-123.306936,43.820842],[-123.306866,43.820835],[-123.306769,43.820822],[-123.306707,43.820813],[-123.306652,43.820804],[-123.306579,43.820791],[-123.306518,43.82078],[-123.305677,43.820617],[-123.305604,43.820603],[-123.305498,43.820581],[-123.305422,43.820565],[-123.305326,43.820544],[-123.305247,43.820527],[-123.305138,43.820502],[-123.305029,43.820477],[-123.30492,43.820451],[-123.304863,43.820438],[-123.304757,43.820412],[-123.304694,43.820396],[-123.303944,43.820209],[-123.303854,43.820188],[-123.303783,43.820174],[-123.303715,43.820163],[-123.303656,43.820154],[-123.303589,43.820145],[-123.303522,43.820136],[-123.303458,43.820129],[-123.303349,43.820117],[-123.303224,43.820104],[-123.303104,43.820092],[-123.303013,43.820083],[-123.302707,43.820052],[-123.301957,43.819978],[-123.301813,43.819963],[-123.301738,43.819956],[-123.301667,43.819948],[-123.301607,43.81994],[-123.301606,43.81994],[-123.301534,43.819931],[-123.301463,43.81992],[-123.301399,43.81991],[-123.301339,43.8199],[-123.301293,43.819891],[-123.301282,43.819889],[-123.301281,43.819889],[-123.301207,43.819873],[-123.301125,43.819853],[-123.301024,43.819826],[-123.300937,43.819798],[-123.300869,43.819773],[-123.300836,43.81976],[-123.300784,43.819737],[-123.300616,43.819661],[-123.300355,43.819543],[-123.300142,43.819447],[-123.300061,43.819411],[-123.299849,43.819315],[-123.298051,43.818504],[-123.297982,43.818473],[-123.297892,43.818435],[-123.297799,43.818398],[-123.297711,43.818366],[-123.297666,43.818351],[-123.297626,43.818338],[-123.297555,43.818317],[-123.29747,43.818294],[-123.29742,43.818282],[-123.297362,43.81827],[-123.295768,43.817934],[-123.295705,43.817922],[-123.295622,43.817908],[-123.295525,43.817896],[-123.295436,43.817888],[-123.295326,43.817881],[-123.29527,43.817879],[-123.294519,43.81785],[-123.292631,43.817777],[-123.292631,43.817942],[-123.295257,43.818043],[-123.29531,43.818045],[-123.295412,43.818052],[-123.295492,43.818059],[-123.295577,43.818069],[-123.295649,43.818081],[-123.295706,43.818093],[-123.297299,43.818428],[-123.297354,43.81844],[-123.297396,43.81845],[-123.297472,43.81847],[-123.297535,43.818489],[-123.297612,43.818514],[-123.297667,43.818534],[-123.297694,43.818544],[-123.297781,43.818578],[-123.297865,43.818614],[-123.297931,43.818644],[-123.299718,43.81945],[-123.29993,43.819546],[-123.300011,43.819582],[-123.300224,43.819678],[-123.300665,43.819878],[-123.300723,43.819902],[-123.300762,43.819918],[-123.30084,43.819947],[-123.300938,43.819978],[-123.301048,43.820009],[-123.30114,43.82003],[-123.301219,43.820047],[-123.301234,43.82005],[-123.301284,43.82006],[-123.301325,43.820067],[-123.301348,43.820071],[-123.301401,43.820079],[-123.301416,43.820082],[-123.301492,43.820093],[-123.301569,43.820103],[-123.301631,43.82011],[-123.301705,43.820118],[-123.301781,43.820126],[-123.301926,43.820141],[-123.302708,43.820219]]]}},{"type":"Feature","properties":{"MAPTAXLOT":"2005210000100","MAPNUMBER":"20052100","TAXLOT":"100","ACCTNO":"0924199","MAPACRES":81.10788387},"geometry":{"type":"Polygon","coordinates":[[[-123.292641,43.823399],[-123.297679,43.823427],[-123.297674,43.821607],[-123.297674,43.82156],[-123.29767,43.819788],[-123.292635,43.819753],[-123.287601,43.819718],[-123.287604,43.823371],[-123.292641,43.823399]]]}},{"type":"Feature","properties":{"MAPTAXLOT":"2005210000200","MAPNUMBER":"20052100","TAXLOT":"200","ACCTNO":"1387727","MAPACRES":22.9196297},"geometry":{"type":"Polygon","coordinates":[[[-123.29767,43.819788],[-123.297674,43.82156],[-123.297674,43.821607],[-123.297932,43.821609],[-123.301066,43.82163],[-123.30123,43.821631],[-123.302712,43.821641],[-123.302708,43.820219],[-123.301926,43.820141],[-123.301781,43.820126],[-123.301705,43.820118],[-123.301631,43.82011],[-123.301569,43.820103],[-123.301492,43.820093],[-123.301416,43.820082],[-123.301401,43.820079],[-123.301348,43.820071],[-123.301325,43.820067],[-123.301284,43.82006],[-123.301234,43.82005],[-123.301219,43.820047],[-123.30114,43.82003],[-123.301048,43.820009],[-123.300938,43.819978],[-123.30084,43.819947],[-123.300762,43.819918],[-123.300723,43.819902],[-123.300665,43.819878],[-123.300224,43.819678],[-123.300011,43.819582],[-123.29993,43.819546],[-123.299718,43.81945],[-123.297931,43.818644],[-123.297865,43.818614],[-123.297781,43.818578],[-123.297694,43.818544],[-123.297667,43.818534],[-123.29767,43.819788]]]}},{"type":"Feature","properties":{"MAPTAXLOT":"2005210000201","MAPNUMBER":"20052100","TAXLOT":"201","ACCTNO":"1858370","MAPACRES":6.479432},"geometry":{"type":"Polygon","coordinates":[[[-123.300616,43.819661],[-123.300784,43.819737],[-123.300836,43.81976],[-123.300869,43.819773],[-123.300937,43.819798],[-123.301024,43.819826],[-123.301125,43.819853],[-123.301207,43.819873],[-123.301281,43.819889],[-123.301282,43.819889],[-123.301293,43.819891],[-123.301339,43.8199],[-123.301399,43.81991],[-123.301463,43.81992],[-123.301534,43.819931],[-123.301606,43.81994],[-123.301607,43.81994],[-123.301667,43.819948],[-123.301738,43.819956],[-123.301813,43.819963],[-123.301957,43.819978],[-123.302707,43.820052],[-123.302707,43.819978],[-123.302707,43.819978],[-123.302706,43.819822],[-123.302706,43.819801],[-123.302706,43.819632],[-123.3027,43.818002],[-123.301031,43.81799],[-123.3009,43.817989],[-123.300897,43.817991],[-123.300777,43.818084],[-123.300667,43.818222],[-123.300808,43.818314],[-123.30146,43.818169],[-123.301703,43.818247],[-123.301766,43.818684],[-123.301457,43.818748],[-123.301347,43.818866],[-123.301429,43.81916],[-123.301248,43.81945],[-123.300898,43.819386],[-123.300663,43.819345],[-123.30052,43.819413],[-123.30051,43.819473],[-123.300664,43.819572],[-123.300616,43.819661]]]}},{"type":"Feature","properties":{"MAPTAXLOT":"2005210000202","MAPNUMBER":"20052100","TAXLOT":"202","ACCTNO":"1863123","MAPACRES":9.04481231},"geometry":{"type":"Polygon","coordinates":[[[-123.300061,43.819411],[-123.300142,43.819447],[-123.300355,43.819543],[-123.300616,43.819661],[-123.300664,43.819572],[-123.30051,43.819473],[-123.30052,43.819413],[-123.300663,43.819345],[-123.300898,43.819386],[-123.301248,43.81945],[-123.301429,43.81916],[-123.301347,43.818866],[-123.301457,43.818748],[-123.301766,43.818684],[-123.301703,43.818247],[-123.30146,43.818169],[-123.300808,43.818314],[-123.300667,43.818222],[-123.300777,43.818084],[-123.300897,43.817991],[-123.3009,43.817989],[-123.300781,43.817988],[-123.300756,43.817988],[-123.300507,43.817986],[-123.297665,43.817965],[-123.297666,43.818302],[-123.297666,43.818351],[-123.297711,43.818366],[-123.297799,43.818398],[-123.297892,43.818435],[-123.297982,43.818473],[-123.298051,43.818504],[-123.299849,43.819315],[-123.300061,43.819411]]]}},{"type":"Feature","properties":{"MAPTAXLOT":"2005210000301","MAPNUMBER":"20052100","TAXLOT":"301","ACCTNO":"1914017","MAPACRES":3.48710497},"geometry":{"type":"Polygon","coordinates":[[[-123.292628,43.816104],[-123.292631,43.817733],[-123.292631,43.817734],[-123.292631,43.817777],[-123.294519,43.81785],[-123.292628,43.816104]]]}},{"type":"Feature","properties":{"MAPTAXLOT":"2005210000302","MAPNUMBER":"20052100","TAXLOT":"302","ACCTNO":"1914020","MAPACRES":18.36384842},"geometry":{"type":"Polygon","coordinates":[[[-123.292635,43.819753],[-123.29767,43.819788],[-123.297667,43.818534],[-123.297612,43.818514],[-123.297535,43.818489],[-123.297472,43.81847],[-123.297396,43.81845],[-123.297354,43.81844],[-123.297299,43.818428],[-123.295706,43.818093],[-123.295649,43.818081],[-123.295577,43.818069],[-123.295492,43.818059],[-123.295412,43.818052],[-123.29531,43.818045],[-123.295257,43.818043],[-123.292631,43.817942],[-123.292635,43.819753]]]}},{"type":"Feature","properties":{"MAPTAXLOT":"2005210000303","MAPNUMBER":"20052100","TAXLOT":"303","ACCTNO":"1914023","MAPACRES":84.98816625},"geometry":{"type":"Polygon","coordinates":[[[-123.300507,43.817986],[-123.300756,43.817988],[-123.300781,43.817988],[-123.3009,43.817989],[-123.301031,43.81799],[-123.3027,43.818002],[-123.302706,43.819632],[-123.302706,43.819801],[-123.302706,43.819822],[-123.302707,43.819978],[-123.302707,43.819978],[-123.302707,43.820052],[-123.303013,43.820083],[-123.303104,43.820092],[-123.303224,43.820104],[-123.303349,43.820117],[-123.303458,43.820129],[-123.303522,43.820136],[-123.303589,43.820145],[-123.303656,43.820154],[-123.303715,43.820163],[-123.303783,43.820174],[-123.303854,43.820188],[-123.303944,43.820209],[-123.304694,43.820396],[-123.304757,43.820412],[-123.304863,43.820438],[-123.30492,43.820451],[-123.305029,43.820477],[-123.305138,43.820502],[-123.305247,43.820527],[-123.305326,43.820544],[-123.305422,43.820565],[-123.305498,43.820581],[-123.305604,43.820603],[-123.305677,43.820617],[-123.306518,43.82078],[-123.306579,43.820791],[-123.306652,43.820804],[-123.306707,43.820813],[-123.306769,43.820822],[-123.306866,43.820835],[-123.306936,43.820842],[-123.307001,43.820849],[-123.307048,43.820853],[-123.307127,43.820861],[-123.307182,43.820866],[-123.307753,43.820922],[-123.307753,43.820877],[-123.307753,43.820876],[-123.307751,43.820193],[-123.307751,43.819857],[-123.307744,43.816221],[-123.302695,43.816182],[-123.297661,43.816143],[-123.295855,43.816129],[-123.295467,43.816126],[-123.292628,43.816104],[-123.294519,43.81785],[-123.29527,43.817879],[-123.295326,43.817881],[-123.295436,43.817888],[-123.295525,43.817896],[-123.295622,43.817908],[-123.295705,43.817922],[-123.295768,43.817934],[-123.297362,43.81827],[-123.29742,43.818282],[-123.29747,43.818294],[-123.297555,43.818317],[-123.297626,43.818338],[-123.297666,43.818351],[-123.297666,43.818302],[-123.297665,43.817965],[-123.300507,43.817986]]]}},{"type":"Feature","properties":{"MAPTAXLOT":"2005210000400","MAPNUMBER":"20052100","TAXLOT":"400","ACCTNO":"0924223","MAPACRES":283.47547823},"geometry":{"type":"Polygon","coordinates":[[[-123.292628,43.816104],[-123.295467,43.816126],[-123.295855,43.816129],[-123.297661,43.816143],[-123.302695,43.816182],[-123.307744,43.816221],[-123.307722,43.812583],[-123.307699,43.808946],[-123.302671,43.808901],[-123.297643,43.808856],[-123.292615,43.80881],[-123.287587,43.808763],[-123.287593,43.812414],[-123.292621,43.812456],[-123.292625,43.81428],[-123.292627,43.815586],[-123.292627,43.815775],[-123.292628,43.816104]]]}},{"type":"Feature","properties":{"MAPTAXLOT":"2005210000500","MAPNUMBER":"20052100","TAXLOT":"500","ACCTNO":"0924231","MAPACRES":20.2670857},"geometry":{"type":"Polygon","coordinates":[[[-123.287596,43.814239],[-123.292625,43.81428],[-123.292621,43.812456],[-123.287593,43.812414],[-123.287596,43.814239]]]}},{"type":"Feature","properties":{"MAPTAXLOT":"2005210000501","MAPNUMBER":"20052100","TAXLOT":"501","ACCTNO":"1245677","MAPACRES":19.46393117},"geometry":{"type":"MultiPolygon","coordinates":[[[[-123.287596,43.814759],[-123.287599,43.816065],[-123.287599,43.816065],[-123.290281,43.816086],[-123.292627,43.815586],[-123.292625,43.81428],[-123.287596,43.814239],[-123.287596,43.814759]]],[[[-123.291145,43.816092],[-123.292628,43.816104],[-123.292627,43.815775],[-123.291145,43.816092]]]]}},{"type":"Feature","properties":{"MAPTAXLOT":"2005210000602","MAPNUMBER":"20052100","TAXLOT":"602","ACCTNO":"1917107","MAPACRES":0.80400179},"geometry":{"type":"Polygon","coordinates":[[[-123.290281,43.816086],[-123.291145,43.816092],[-123.292627,43.815775],[-123.292627,43.815586],[-123.290281,43.816086]]]}},{"type":"Feature","properties":{"MAPTAXLOT":"2005220000077","MAPNUMBER":"20052200","TAXLOT":"77","ACCTNO":"000None","MAPACRES":13.31735746},"geometry":{"type":"MultiPolygon","coordinates":[[[[-123.277566,43.81619],[-123.27747,43.816236],[-123.277275,43.81633],[-123.277183,43.816377],[-123.277093,43.816428],[-123.276987,43.816493],[-123.276886,43.816562],[-123.276789,43.816635],[-123.276699,43.816711],[-123.276614,43.816791],[-123.276535,43.816874],[-123.276084,43.817373],[-123.276036,43.817424],[-123.275984,43.817473],[-123.275928,43.817519],[-123.275869,43.817564],[-123.27585,43.817578],[-123.275836,43.817588],[-123.2758,43.817609],[-123.275772,43.817623],[-123.275771,43.817624],[-123.275704,43.817652],[-123.275659,43.817668],[-123.27559,43.817695],[-123.275511,43.817731],[-123.275279,43.81785],[-123.275243,43.817871],[-123.275234,43.817876],[-123.275182,43.817915],[-123.275151,43.817945],[-123.275122,43.817979],[-123.2751,43.818009],[-123.275079,43.818043],[-123.275067,43.818067],[-123.275053,43.818097],[-123.275035,43.818142],[-123.275024,43.818176],[-123.275008,43.818232],[-123.274905,43.818595],[-123.274881,43.818671],[-123.274851,43.818746],[-123.274815,43.81882],[-123.274773,43.818892],[-123.274725,43.818962],[-123.274671,43.819029],[-123.274612,43.819095],[-123.274548,43.819158],[-123.274479,43.819218],[-123.274442,43.819248],[-123.274337,43.819333],[-123.274262,43.819397],[-123.274192,43.819463],[-123.274126,43.819532],[-123.274065,43.819603],[-123.273971,43.819717],[-123.273917,43.81978],[-123.273859,43.819842],[-123.273798,43.819901],[-123.273746,43.819948],[-123.273692,43.819994],[-123.273484,43.820164],[-123.273121,43.82046],[-123.272867,43.820667],[-123.27275,43.820764],[-123.272637,43.820863],[-123.272526,43.820963],[-123.272386,43.821097],[-123.271915,43.821546],[-123.271855,43.821614],[-123.27169,43.8218],[-123.271616,43.821883],[-123.271575,43.821929],[-123.271526,43.821997],[-123.271458,43.822093],[-123.271437,43.822124],[-123.271419,43.822151],[-123.27139,43.822207],[-123.271379,43.82223],[-123.271356,43.822289],[-123.271347,43.82232],[-123.271336,43.822368],[-123.271331,43.822393],[-123.271327,43.822436],[-123.271326,43.822459],[-123.271325,43.822493],[-123.271327,43.822618],[-123.271331,43.822912],[-123.271338,43.823004],[-123.271338,43.823008],[-123.271342,43.823027],[-123.271349,43.823071],[-123.271355,43.823102],[-123.271377,43.823195],[-123.271532,43.823198],[-123.271495,43.823031],[-123.27149,43.823009],[-123.27149,43.823001],[-123.271485,43.822592],[-123.271485,43.822561],[-123.271487,43.822541],[-123.27149,43.822502],[-123.271494,43.822483],[-123.271504,43.822439],[-123.271512,43.822413],[-123.271531,43.82236],[-123.27154,43.822343],[-123.271567,43.822292],[-123.271582,43.822269],[-123.271601,43.82224],[-123.271714,43.822082],[-123.272048,43.821707],[-123.272493,43.821268],[-123.272524,43.821238],[-123.272525,43.821237],[-123.272533,43.821229],[-123.272569,43.821194],[-123.272719,43.821052],[-123.272875,43.820912],[-123.273037,43.820776],[-123.273862,43.820104],[-123.273945,43.820032],[-123.274024,43.819958],[-123.274098,43.819881],[-123.274167,43.819801],[-123.27426,43.819687],[-123.274316,43.819623],[-123.274376,43.81956],[-123.274439,43.8195],[-123.274507,43.819442],[-123.274649,43.819327],[-123.274726,43.81926],[-123.274799,43.819189],[-123.274865,43.819115],[-123.274925,43.819039],[-123.274979,43.81896],[-123.275027,43.818879],[-123.275067,43.818796],[-123.275101,43.818712],[-123.275128,43.818626],[-123.275135,43.8186],[-123.275231,43.818265],[-123.275246,43.818212],[-123.275255,43.818185],[-123.275271,43.818146],[-123.275282,43.818121],[-123.27529,43.818106],[-123.275305,43.818082],[-123.27532,43.81806],[-123.27534,43.818037],[-123.275356,43.818022],[-123.275387,43.817998],[-123.275415,43.817982],[-123.275638,43.817868],[-123.275704,43.817838],[-123.275766,43.817814],[-123.275813,43.817796],[-123.275893,43.817763],[-123.275937,43.817741],[-123.27594,43.817739],[-123.275985,43.817712],[-123.276011,43.817695],[-123.276029,43.81768],[-123.276097,43.81763],[-123.27616,43.817576],[-123.276219,43.817521],[-123.276275,43.817463],[-123.276725,43.816964],[-123.276794,43.816891],[-123.276868,43.816822],[-123.276946,43.816755],[-123.277029,43.816691],[-123.277117,43.81663],[-123.277208,43.816572],[-123.277303,43.816518],[-123.277402,43.816467],[-123.277566,43.816387],[-123.277595,43.816373],[-123.277869,43.816243],[-123.277897,43.816229],[-123.278014,43.816174],[-123.278053,43.816157],[-123.278084,43.816147],[-123.278097,43.816143],[-123.278143,43.816131],[-123.278174,43.816124],[-123.278212,43.816116],[-123.278241,43.816111],[-123.278266,43.816107],[-123.278292,43.816103],[-123.27832,43.8161],[-123.278337,43.816098],[-123.278381,43.816096],[-123.281768,43.816074],[-123.281795,43.816073],[-123.282583,43.816068],[-123.283834,43.816063],[-123.284106,43.816062],[-123.284142,43.816033],[-123.284344,43.815871],[-123.284531,43.81572],[-123.284564,43.815696],[-123.284593,43.815671],[-123.284613,43.81565],[-123.284625,43.815635],[-123.28462,43.815631],[-123.284539,43.815576],[-123.284534,43.815584],[-123.284517,43.815606],[-123.284502,43.815621],[-123.28448,43.81564],[-123.284449,43.815663],[-123.284263,43.815813],[-123.284158,43.815898],[-123.284081,43.815898],[-123.28383,43.815899],[-123.283823,43.815899],[-123.282583,43.815903],[-123.281793,43.815909],[-123.281427,43.815911],[-123.278653,43.81593],[-123.278373,43.815932],[-123.278316,43.815934],[-123.278287,43.815937],[-123.278252,43.815941],[-123.278218,43.815946],[-123.278188,43.815951],[-123.278153,43.815957],[-123.27811,43.815966],[-123.278071,43.815975],[-123.278061,43.815977],[-123.278016,43.815989],[-123.277993,43.815996],[-123.277947,43.816011],[-123.277894,43.816034],[-123.277772,43.816092],[-123.277566,43.81619]]],[[[-123.283974,43.81786],[-123.283898,43.817884],[-123.283711,43.817944],[-123.283527,43.818014],[-123.283339,43.818104],[-123.283192,43.818194],[-123.283084,43.818272],[-123.282957,43.818376],[-123.282796,43.818525],[-123.282661,43.81866],[-123.282594,43.818728],[-123.281999,43.819334],[-123.28185,43.81949],[-123.281783,43.819568],[-123.281697,43.819668],[-123.281691,43.819674],[-123.281554,43.81985],[-123.281428,43.820028],[-123.281331,43.820182],[-123.281192,43.82044],[-123.281135,43.820562],[-123.281093,43.820663],[-123.280955,43.821015],[-123.280896,43.821145],[-123.280813,43.821289],[-123.280735,43.821401],[-123.280625,43.821538],[-123.280555,43.821614],[-123.280456,43.821714],[-123.280328,43.82183],[-123.280162,43.821968],[-123.280039,43.822062],[-123.279925,43.822144],[-123.278687,43.823024],[-123.278526,43.823135],[-123.278379,43.82323],[-123.278272,43.823298],[-123.278612,43.823301],[-123.27868,43.823256],[-123.278845,43.823142],[-123.280086,43.822261],[-123.280202,43.822176],[-123.28033,43.822079],[-123.280503,43.821936],[-123.280637,43.821814],[-123.280743,43.821708],[-123.280818,43.821625],[-123.280935,43.821479],[-123.281019,43.821358],[-123.281109,43.821203],[-123.281173,43.821064],[-123.281311,43.820709],[-123.281352,43.820611],[-123.281405,43.820496],[-123.28154,43.820246],[-123.281632,43.820099],[-123.281754,43.819928],[-123.281887,43.819758],[-123.281963,43.81967],[-123.282041,43.81958],[-123.282185,43.819428],[-123.282595,43.81901],[-123.282845,43.818756],[-123.282978,43.818624],[-123.283132,43.818481],[-123.283249,43.818385],[-123.283347,43.818315],[-123.283476,43.818235],[-123.283643,43.818155],[-123.283809,43.818092],[-123.283988,43.818035],[-123.284869,43.817765],[-123.284983,43.817733],[-123.285098,43.817705],[-123.285237,43.817678],[-123.285375,43.817656],[-123.28552,43.81763],[-123.285647,43.817627],[-123.285722,43.817622],[-123.285858,43.817616],[-123.286027,43.817613],[-123.286224,43.817617],[-123.286374,43.817625],[-123.286533,43.817639],[-123.289171,43.817902],[-123.289272,43.817911],[-123.289469,43.817927],[-123.289717,43.817942],[-123.289925,43.817951],[-123.289965,43.817952],[-123.289965,43.817952],[-123.290135,43.817958],[-123.290358,43.817964],[-123.290552,43.817965],[-123.290767,43.817962],[-123.290929,43.817954],[-123.291268,43.817932],[-123.291468,43.817922],[-123.291598,43.817918],[-123.291812,43.817917],[-123.292068,43.817921],[-123.292262,43.817927],[-123.292631,43.817942],[-123.292631,43.817777],[-123.292273,43.817763],[-123.292076,43.817756],[-123.291813,43.817752],[-123.291592,43.817754],[-123.291455,43.817758],[-123.29125,43.817768],[-123.290911,43.81779],[-123.290757,43.817798],[-123.290551,43.817801],[-123.290364,43.817799],[-123.290145,43.817793],[-123.289975,43.817788],[-123.289937,43.817786],[-123.289733,43.817777],[-123.289491,43.817763],[-123.2893,43.817748],[-123.289201,43.817738],[-123.286562,43.817475],[-123.286396,43.817461],[-123.286236,43.817453],[-123.286028,43.817448],[-123.285848,43.817451],[-123.285704,43.817458],[-123.285633,43.817463],[-123.285488,43.817466],[-123.285323,43.817496],[-123.285182,43.817518],[-123.285032,43.817548],[-123.284905,43.817578],[-123.284783,43.817613],[-123.283974,43.81786]]]]}},{"type":"Feature","properties":{"MAPTAXLOT":"2005220000400","MAPNUMBER":"20052200","TAXLOT":"400","ACCTNO":"1387750","MAPACRES":81.41697749},"geometry":{"type":"MultiPolygon","coordinates":[[[[-123.282614,43.823332],[-123.287604,43.823371],[-123.287601,43.819718],[-123.292635,43.819753],[-123.292631,43.817942],[-123.292262,43.817927],[-123.292068,43.817921],[-123.291812,43.817917],[-123.291598,43.817918],[-123.291468,43.817922],[-123.291268,43.817932],[-123.290929,43.817954],[-123.290767,43.817962],[-123.290552,43.817965],[-123.290358,43.817964],[-123.290135,43.817958],[-123.289965,43.817952],[-123.289965,43.817952],[-123.289925,43.817951],[-123.289717,43.817942],[-123.289469,43.817927],[-123.289272,43.817911],[-123.289171,43.817902],[-123.286533,43.817639],[-123.286374,43.817625],[-123.286224,43.817617],[-123.286027,43.817613],[-123.285858,43.817616],[-123.285722,43.817622],[-123.285647,43.817627],[-123.28552,43.81763],[-123.285375,43.817656],[-123.285237,43.817678],[-123.285098,43.817705],[-123.284983,43.817733],[-123.284869,43.817765],[-123.283988,43.818035],[-123.283809,43.818092],[-123.283643,43.818155],[-123.283476,43.818235],[-123.283347,43.818315],[-123.283249,43.818385],[-123.283132,43.818481],[-123.282978,43.818624],[-123.282845,43.818756],[-123.282595,43.81901],[-123.282598,43.819675],[-123.282614,43.823332]]],[[[-123.282594,43.818709],[-123.282594,43.818728],[-123.282661,43.81866],[-123.282796,43.818525],[-123.282957,43.818376],[-123.283084,43.818272],[-123.283192,43.818194],[-123.283339,43.818104],[-123.283527,43.818014],[-123.283711,43.817944],[-123.283898,43.817884],[-123.283974,43.81786],[-123.283859,43.817859],[-123.282597,43.817849],[-123.28259,43.817849],[-123.282594,43.818709]]]]}},{"type":"Feature","properties":{"MAPTAXLOT":"2005220000600","MAPNUMBER":"20052200","TAXLOT":"600","ACCTNO":"1387768","MAPACRES":20.75022889},"geometry":{"type":"Polygon","coordinates":[[[-123.283974,43.81786],[-123.284783,43.817613],[-123.284905,43.817578],[-123.285032,43.817548],[-123.285182,43.817518],[-123.285323,43.817496],[-123.285488,43.817466],[-123.285633,43.817463],[-123.285704,43.817458],[-123.285848,43.817451],[-123.286028,43.817448],[-123.286236,43.817453],[-123.286396,43.817461],[-123.286562,43.817475],[-123.289201,43.817738],[-123.2893,43.817748],[-123.289491,43.817763],[-123.289733,43.817777],[-123.289937,43.817786],[-123.289975,43.817788],[-123.290145,43.817793],[-123.290364,43.817799],[-123.290551,43.817801],[-123.290757,43.817798],[-123.290911,43.81779],[-123.29125,43.817768],[-123.291455,43.817758],[-123.291592,43.817754],[-123.291813,43.817752],[-123.292076,43.817756],[-123.292273,43.817763],[-123.292631,43.817777],[-123.292631,43.817734],[-123.292631,43.817733],[-123.292628,43.816104],[-123.291145,43.816092],[-123.290544,43.816218],[-123.288725,43.8166],[-123.288463,43.816655],[-123.288249,43.816699],[-123.288033,43.816739],[-123.287817,43.816776],[-123.2876,43.81681],[-123.287467,43.816829],[-123.282589,43.817488],[-123.28259,43.817849],[-123.282597,43.817849],[-123.283859,43.817859],[-123.283974,43.81786]]]}},{"type":"Feature","properties":{"MAPTAXLOT":"2005220000602","MAPNUMBER":"20052200","TAXLOT":"602","ACCTNO":"1495819","MAPACRES":11.81635708},"geometry":{"type":"Polygon","coordinates":[[[-123.282583,43.816068],[-123.282583,43.81608],[-123.282588,43.817304],[-123.283403,43.817194],[-123.28742,43.816652],[-123.287599,43.816625],[-123.287866,43.816582],[-123.288131,43.816535],[-123.288393,43.816482],[-123.290281,43.816086],[-123.287599,43.816065],[-123.287599,43.816065],[-123.284142,43.816033],[-123.284106,43.816062],[-123.283834,43.816063],[-123.282583,43.816068]]]}},{"type":"Feature","properties":{"MAPTAXLOT":"2005220001402","MAPNUMBER":"20052200","TAXLOT":"1402","ACCTNO":"1917108","MAPACRES":3.32385081},"geometry":{"type":"Polygon","coordinates":[[[-123.282588,43.817304],[-123.282589,43.817488],[-123.287467,43.816829],[-123.2876,43.81681],[-123.287817,43.816776],[-123.288033,43.816739],[-123.288249,43.816699],[-123.288463,43.816655],[-123.288725,43.8166],[-123.290544,43.816218],[-123.291145,43.816092],[-123.290281,43.816086],[-123.288393,43.816482],[-123.288131,43.816535],[-123.287866,43.816582],[-123.287599,43.816625],[-123.28742,43.816652],[-123.283403,43.817194],[-123.282588,43.817304]]]}},{"type":"Feature","properties":{"MAPTAXLOT":"2006000003900","MAPNUMBER":"20060000","TAXLOT":"3900","ACCTNO":"0925378","MAPACRES":450.88851459},"geometry":{"type":"Polygon","coordinates":[[[-123.358372,43.823689],[-123.368459,43.823633],[-123.36849,43.816283],[-123.368267,43.812552],[-123.363225,43.812623],[-123.363082,43.808917],[-123.358119,43.809016],[-123.358182,43.812694],[-123.353194,43.812764],[-123.353235,43.816415],[-123.353282,43.820066],[-123.348256,43.820102],[-123.348286,43.823746],[-123.353329,43.823718],[-123.358372,43.823689]]]}},{"type":"Feature","properties":{"MAPTAXLOT":"2006000004100","MAPNUMBER":"20060000","TAXLOT":"4100","ACCTNO":"0925394","MAPACRES":160.88363472},"geometry":{"type":"Polygon","coordinates":[[[-123.348256,43.820102],[-123.353282,43.820066],[-123.353235,43.816415],[-123.353194,43.812764],[-123.358182,43.812694],[-123.358119,43.809016],[-123.353152,43.809113],[-123.348185,43.80921],[-123.348206,43.812834],[-123.348226,43.816458],[-123.348256,43.820102]]]}}]}