{"type":"FeatureCollection","features":[{"type":"Feature","properties":{"MAPTAXLOT":"1555000000077","MAPNUMBER":"15550000","TAXLOT":"77","ACCTNO":"000None","MAPACRES":13.24427491},"geometry":{"type":"MultiPolygon","coordinates":[[[[-122.263867,44.221377],[-122.263256,44.221681],[-122.262664,44.221894],[-122.262195,44.222129],[-122.261722,44.222343],[-122.261374,44.222651],[-122.261039,44.223113],[-122.260643,44.223594],[-122.260311,44.224027],[-122.25976,44.22451],[-122.259426,44.224834],[-122.259034,44.225093],[-122.258671,44.225341],[-122.258278,44.225589],[-122.257869,44.225813],[-122.257505,44.225969],[-122.257106,44.226149],[-122.256688,44.226355],[-122.256351,44.226584],[-122.256095,44.226799],[-122.255826,44.227073],[-122.255544,44.227427],[-122.255371,44.227666],[-122.255264,44.227939],[-122.25519,44.22817],[-122.25507,44.228389],[-122.254949,44.228584],[-122.254816,44.228741],[-122.254668,44.228829],[-122.25442,44.228935],[-122.254118,44.229031],[-122.253735,44.229176],[-122.253145,44.229359],[-122.252619,44.22954],[-122.252059,44.229711],[-122.251752,44.229821],[-122.251439,44.229958],[-122.251257,44.23012],[-122.251114,44.230312],[-122.250927,44.230583],[-122.250804,44.230817],[-122.250666,44.231027],[-122.250528,44.231261],[-122.250342,44.231543],[-122.250175,44.231845],[-122.24999,44.232077],[-122.249822,44.232296],[-122.249641,44.232443],[-122.249428,44.232558],[-122.249117,44.232664],[-122.248816,44.232737],[-122.248608,44.232787],[-122.248253,44.232874],[-122.247927,44.232973],[-122.247695,44.233086],[-122.247514,44.233221],[-122.247354,44.23339],[-122.247211,44.233557],[-122.247098,44.233741],[-122.247055,44.233992],[-122.247029,44.234214],[-122.247021,44.234491],[-122.246966,44.234763],[-122.246863,44.234944],[-122.246743,44.235114],[-122.246594,44.235237],[-122.246394,44.235352],[-122.246097,44.235482],[-122.245763,44.235602],[-122.245414,44.235746],[-122.24518,44.235817],[-122.244874,44.23588],[-122.244613,44.235979],[-122.244353,44.236077],[-122.244123,44.236213],[-122.243897,44.236394],[-122.243706,44.236586],[-122.243592,44.236733],[-122.243515,44.236948],[-122.24344,44.237172],[-122.243397,44.237372],[-122.243371,44.237568],[-122.243313,44.237738],[-122.24324,44.237884],[-122.243133,44.238022],[-122.243058,44.238124],[-122.24294,44.238224],[-122.242774,44.238315],[-122.242539,44.238409],[-122.242029,44.23859],[-122.241567,44.238771],[-122.241323,44.238857],[-122.241123,44.23897],[-122.240913,44.239151],[-122.240722,44.239343],[-122.240565,44.239568],[-122.240192,44.240049],[-122.239916,44.240467],[-122.239715,44.240641],[-122.239484,44.240861],[-122.239267,44.240977],[-122.238984,44.241142],[-122.238685,44.241273],[-122.238453,44.241378],[-122.238189,44.241426],[-122.237919,44.241476],[-122.237659,44.241504],[-122.237428,44.241567],[-122.237138,44.241653],[-122.236891,44.24174],[-122.236738,44.24183],[-122.236606,44.241954],[-122.236495,44.242109],[-122.236341,44.242306],[-122.236155,44.242504],[-122.236031,44.242633],[-122.235877,44.242783],[-122.235677,44.242921],[-122.235407,44.243076],[-122.235072,44.243316],[-122.234754,44.243578],[-122.234551,44.243777],[-122.234297,44.243967],[-122.234058,44.244219],[-122.233913,44.244438],[-122.233869,44.24467],[-122.233892,44.244897],[-122.233965,44.245134],[-122.234085,44.245343],[-122.234222,44.24562],[-122.234357,44.245848],[-122.23446,44.246098],[-122.23453,44.246325],[-122.234552,44.246562],[-122.234542,44.246756],[-122.234516,44.246952],[-122.234475,44.247168],[-122.234387,44.247372],[-122.234249,44.247568],[-122.234096,44.247788],[-122.233926,44.247975],[-122.233773,44.248147],[-122.233584,44.248277],[-122.233426,44.248443],[-122.23322,44.248621],[-122.233044,44.248838],[-122.2329,44.249106],[-122.232907,44.249323],[-122.232931,44.249615],[-122.233006,44.249975],[-122.233046,44.250238],[-122.233051,44.250431],[-122.233026,44.250621],[-122.232938,44.250812],[-122.232815,44.250974],[-122.232722,44.251128],[-122.232636,44.251267],[-122.232598,44.251328],[-122.232506,44.251515],[-122.232386,44.25172],[-122.232217,44.251893],[-122.232064,44.252055],[-122.2318,44.252241],[-122.231501,44.25243],[-122.231153,44.252643],[-122.230801,44.252847],[-122.230529,44.253075],[-122.230246,44.253334],[-122.229917,44.253616],[-122.22965,44.253811],[-122.229611,44.25384],[-122.229771,44.25384],[-122.230002,44.253671],[-122.230335,44.253386],[-122.230617,44.253127],[-122.230881,44.252906],[-122.231226,44.252706],[-122.231576,44.252492],[-122.231878,44.252301],[-122.232152,44.252108],[-122.232311,44.25194],[-122.232487,44.25176],[-122.232613,44.251545],[-122.232704,44.251358],[-122.232755,44.251276],[-122.232827,44.251161],[-122.232918,44.25101],[-122.233044,44.250844],[-122.233138,44.250638],[-122.233166,44.250434],[-122.23316,44.250233],[-122.23312,44.249964],[-122.233045,44.249607],[-122.233021,44.24932],[-122.233015,44.24912],[-122.233147,44.248874],[-122.233314,44.248669],[-122.233517,44.248493],[-122.233672,44.24833],[-122.233862,44.248199],[-122.234022,44.248019],[-122.234195,44.247829],[-122.234352,44.247605],[-122.234493,44.247403],[-122.234587,44.247186],[-122.234629,44.246961],[-122.234656,44.246762],[-122.234667,44.246561],[-122.234643,44.246313],[-122.234571,44.246078],[-122.234465,44.245821],[-122.234329,44.24559],[-122.234192,44.245314],[-122.234075,44.245109],[-122.234005,44.244885],[-122.233984,44.244672],[-122.234024,44.244462],[-122.234157,44.24426],[-122.234387,44.244019],[-122.234639,44.24383],[-122.234843,44.243629],[-122.235155,44.243372],[-122.235483,44.243138],[-122.235753,44.242983],[-122.235964,44.242837],[-122.236124,44.242681],[-122.23625,44.242551],[-122.236439,44.242349],[-122.236596,44.242148],[-122.236703,44.241998],[-122.236821,44.241887],[-122.236953,44.24181],[-122.237185,44.241728],[-122.237471,44.241643],[-122.237688,44.241584],[-122.237942,44.241557],[-122.238218,44.241506],[-122.238499,44.241454],[-122.238745,44.241343],[-122.23905,44.24121],[-122.239338,44.241042],[-122.239566,44.24092],[-122.239805,44.240692],[-122.240013,44.240512],[-122.240294,44.240087],[-122.240666,44.239607],[-122.24082,44.239386],[-122.241004,44.239202],[-122.241203,44.239029],[-122.241384,44.238927],[-122.241619,44.238844],[-122.242082,44.238663],[-122.242593,44.238482],[-122.242836,44.238384],[-122.243019,44.238284],[-122.243153,44.238171],[-122.243233,44.238062],[-122.243344,44.237918],[-122.243423,44.237761],[-122.243484,44.237582],[-122.243511,44.237383],[-122.243553,44.237188],[-122.243626,44.236968],[-122.243699,44.236764],[-122.243803,44.23663],[-122.243987,44.236445],[-122.244202,44.236272],[-122.244416,44.236146],[-122.244666,44.236051],[-122.244916,44.235957],[-122.245219,44.235895],[-122.245465,44.23582],[-122.245817,44.235675],[-122.246152,44.235554],[-122.24646,44.235419],[-122.246673,44.235296],[-122.246839,44.23516],[-122.246967,44.234978],[-122.247078,44.234785],[-122.247136,44.234498],[-122.247144,44.234219],[-122.247169,44.234],[-122.247209,44.233763],[-122.247312,44.233596],[-122.24745,44.233434],[-122.247603,44.233274],[-122.247769,44.233149],[-122.247982,44.233046],[-122.248294,44.232951],[-122.248644,44.232865],[-122.248852,44.232815],[-122.24916,44.23274],[-122.249487,44.232628],[-122.249719,44.232504],[-122.249916,44.232344],[-122.250089,44.232118],[-122.250278,44.231881],[-122.250447,44.231575],[-122.250632,44.231295],[-122.25077,44.231061],[-122.25091,44.230849],[-122.251032,44.230616],[-122.251216,44.230349],[-122.251352,44.230166],[-122.251516,44.230021],[-122.251808,44.229894],[-122.252107,44.229786],[-122.252666,44.229615],[-122.253193,44.229434],[-122.253785,44.229251],[-122.254168,44.229106],[-122.254472,44.229008],[-122.254734,44.228897],[-122.254903,44.228795],[-122.25505,44.228623],[-122.255176,44.228421],[-122.2553,44.228195],[-122.255375,44.22796],[-122.255478,44.227697],[-122.255645,44.227467],[-122.255923,44.227117],[-122.256186,44.22685],[-122.256434,44.22664],[-122.25676,44.226419],[-122.257169,44.226218],[-122.257565,44.226039],[-122.257933,44.225882],[-122.25835,44.225653],[-122.258748,44.225402],[-122.259112,44.225153],[-122.259511,44.224889],[-122.259851,44.22456],[-122.260406,44.224074],[-122.260743,44.223635],[-122.261139,44.223153],[-122.26147,44.222697],[-122.261799,44.222405],[-122.262258,44.222197],[-122.262722,44.221965],[-122.263315,44.221752],[-122.263894,44.221464],[-122.263897,44.221462],[-122.263897,44.221366],[-122.263867,44.221377]]],[[[-122.263074,44.210961],[-122.262842,44.211669],[-122.262608,44.212308],[-122.262468,44.21295],[-122.262427,44.213724],[-122.262385,44.214428],[-122.262401,44.214998],[-122.262484,44.215679],[-122.262631,44.21636],[-122.262876,44.217152],[-122.263113,44.217717],[-122.263284,44.218146],[-122.263554,44.218689],[-122.263844,44.21912],[-122.263894,44.219178],[-122.263894,44.219005],[-122.263892,44.219002],[-122.263659,44.218657],[-122.263393,44.218121],[-122.263223,44.217694],[-122.262986,44.217132],[-122.262743,44.216345],[-122.262598,44.215669],[-122.262516,44.214993],[-122.262499,44.214429],[-122.262541,44.213727],[-122.262582,44.212958],[-122.26272,44.212325],[-122.262953,44.211688],[-122.263184,44.210983],[-122.26345,44.210407],[-122.263456,44.210394],[-122.263456,44.210394],[-122.263336,44.210394],[-122.263335,44.210394],[-122.263074,44.210961]]]]}},{"type":"Feature","properties":{"MAPTAXLOT":"1555000000088","MAPNUMBER":"15550000","TAXLOT":"88","ACCTNO":"000None","MAPACRES":18.07542525},"geometry":{"type":"MultiPolygon","coordinates":[[[[-122.231853,44.251304],[-122.231752,44.251443],[-122.23166,44.25154],[-122.231568,44.251651],[-122.231456,44.251734],[-122.231345,44.251845],[-122.231216,44.251998],[-122.231133,44.252095],[-122.230994,44.252213],[-122.230873,44.252311],[-122.230667,44.25243],[-122.230498,44.252515],[-122.230319,44.252572],[-122.230131,44.25265],[-122.23002,44.252741],[-122.229908,44.252845],[-122.22974,44.25295],[-122.229629,44.253068],[-122.229481,44.253214],[-122.229417,44.253304],[-122.229308,44.253476],[-122.229162,44.253684],[-122.229052,44.25384],[-122.229204,44.25384],[-122.229304,44.253682],[-122.229424,44.253536],[-122.229608,44.253308],[-122.229783,44.253107],[-122.230042,44.252857],[-122.230257,44.252717],[-122.230539,44.252589],[-122.230755,44.252504],[-122.230932,44.252378],[-122.231129,44.252266],[-122.231286,44.252113],[-122.231416,44.251981],[-122.231499,44.251884],[-122.231666,44.251752],[-122.231823,44.251585],[-122.231943,44.25146],[-122.232023,44.251274],[-122.232125,44.25117],[-122.232212,44.251217],[-122.232395,44.251289],[-122.232598,44.251328],[-122.232636,44.251267],[-122.23245,44.25122],[-122.232315,44.25114],[-122.232236,44.251052],[-122.232261,44.250929],[-122.232391,44.250824],[-122.232503,44.250754],[-122.232636,44.250718],[-122.232747,44.250607],[-122.232773,44.250525],[-122.232752,44.25047],[-122.232732,44.250423],[-122.232767,44.250319],[-122.232792,44.250217],[-122.232808,44.2501],[-122.232853,44.25001],[-122.232822,44.249908],[-122.232788,44.249717],[-122.232736,44.249574],[-122.232712,44.249417],[-122.232717,44.249267],[-122.232761,44.249109],[-122.232813,44.248951],[-122.232895,44.248806],[-122.233014,44.248647],[-122.2332,44.248494],[-122.233339,44.248375],[-122.233478,44.248257],[-122.233662,44.248028],[-122.233829,44.247869],[-122.233976,44.247695],[-122.234141,44.247467],[-122.234278,44.247281],[-122.234339,44.247088],[-122.234381,44.246889],[-122.234384,44.24667],[-122.234397,44.246472],[-122.234365,44.246322],[-122.234352,44.246219],[-122.234329,44.246083],[-122.234259,44.245954],[-122.234208,44.245831],[-122.234157,44.24573],[-122.234075,44.245532],[-122.234005,44.245404],[-122.233877,44.245262],[-122.233818,44.245181],[-122.233748,44.245065],[-122.233744,44.244915],[-122.233778,44.244778],[-122.233735,44.244621],[-122.23376,44.244484],[-122.233813,44.244367],[-122.233913,44.244194],[-122.233996,44.24409],[-122.234097,44.243959],[-122.234236,44.243854],[-122.234329,44.243778],[-122.234459,44.243653],[-122.23457,44.243541],[-122.234738,44.24343],[-122.234877,44.243297],[-122.235054,44.243185],[-122.235241,44.243053],[-122.235419,44.242954],[-122.23554,44.242877],[-122.235717,44.242724],[-122.235893,44.242585],[-122.236078,44.242384],[-122.236207,44.242245],[-122.236307,44.242079],[-122.236362,44.241996],[-122.236453,44.241851],[-122.236565,44.241768],[-122.236724,44.241676],[-122.236902,44.241598],[-122.237062,44.241528],[-122.237241,44.24147],[-122.23741,44.241406],[-122.237637,44.241355],[-122.237827,44.241318],[-122.238016,44.241281],[-122.238185,44.241223],[-122.238345,44.241146],[-122.238476,44.241062],[-122.238644,44.24097],[-122.238823,44.240886],[-122.238992,44.240815],[-122.239189,44.240723],[-122.239311,44.240666],[-122.239441,44.240548],[-122.239553,44.240464],[-122.239748,44.240318],[-122.239794,44.240262],[-122.239886,44.240131],[-122.23991,44.239994],[-122.239927,44.239912],[-122.240019,44.239828],[-122.240123,44.239792],[-122.240234,44.239668],[-122.240336,44.23957],[-122.240475,44.239452],[-122.240623,44.23932],[-122.240715,44.239188],[-122.240834,44.239029],[-122.240924,44.238877],[-122.241016,44.23876],[-122.241203,44.238634],[-122.241285,44.238523],[-122.241396,44.238419],[-122.241499,44.238335],[-122.241657,44.23823],[-122.241771,44.238208],[-122.241951,44.238192],[-122.242207,44.238167],[-122.242427,44.238178],[-122.242588,44.238182],[-122.242712,44.238174],[-122.242882,44.23813],[-122.242994,44.238067],[-122.243068,44.237977],[-122.243112,44.237867],[-122.243128,44.237764],[-122.243154,44.237661],[-122.24316,44.237538],[-122.243167,44.237455],[-122.243192,44.237352],[-122.243247,44.237256],[-122.243262,44.237119],[-122.243314,44.236967],[-122.243386,44.236823],[-122.243468,44.236671],[-122.243539,44.236526],[-122.243602,44.236395],[-122.243684,44.236271],[-122.243767,44.236188],[-122.243822,44.236084],[-122.243894,44.23596],[-122.243959,44.235891],[-122.244082,44.235882],[-122.244195,44.235853],[-122.244394,44.235816],[-122.244583,44.235758],[-122.244763,44.235742],[-122.244952,44.235712],[-122.245208,44.235653],[-122.245387,44.235609],[-122.245538,44.235552],[-122.245602,44.235483],[-122.245809,44.235405],[-122.245987,44.235313],[-122.246166,44.235249],[-122.246307,44.235165],[-122.246485,44.235087],[-122.246643,44.234954],[-122.246726,44.234864],[-122.246799,44.23474],[-122.246796,44.234665],[-122.246784,44.234556],[-122.246827,44.234418],[-122.246814,44.234275],[-122.24681,44.234145],[-122.246825,44.234021],[-122.246821,44.233878],[-122.246808,44.233741],[-122.246852,44.233638],[-122.246934,44.233507],[-122.247017,44.233403],[-122.247052,44.2333],[-122.247116,44.233217],[-122.2472,44.233161],[-122.247312,44.233084],[-122.247424,44.233014],[-122.247575,44.232977],[-122.247716,44.232921],[-122.247885,44.232843],[-122.248046,44.232799],[-122.248206,44.232763],[-122.248338,44.232727],[-122.248509,44.232697],[-122.248708,44.232666],[-122.248916,44.232643],[-122.249085,44.232565],[-122.249274,44.232528],[-122.249377,44.232458],[-122.249489,44.232395],[-122.249573,44.232318],[-122.249675,44.232241],[-122.249768,44.232172],[-122.249861,44.232074],[-122.249962,44.231957],[-122.249987,44.231854],[-122.250032,44.23175],[-122.250105,44.231653],[-122.250197,44.231543],[-122.250279,44.231411],[-122.250352,44.231301],[-122.250416,44.231204],[-122.250488,44.23108],[-122.25056,44.230942],[-122.250595,44.230832],[-122.250649,44.230736],[-122.250703,44.230618],[-122.250738,44.230502],[-122.250791,44.230378],[-122.250855,44.230267],[-122.250918,44.230157],[-122.250981,44.23004],[-122.251064,44.229936],[-122.251136,44.229812],[-122.25121,44.229728],[-122.251302,44.229618],[-122.251394,44.229527],[-122.251564,44.229477],[-122.251705,44.229406],[-122.251866,44.229383],[-122.252036,44.229353],[-122.252159,44.229324],[-122.252301,44.229308],[-122.252453,44.229299],[-122.252595,44.229283],[-122.252747,44.229247],[-122.252878,44.229204],[-122.253068,44.229187],[-122.253257,44.22915],[-122.253427,44.2291],[-122.253559,44.229057],[-122.253785,44.228985],[-122.253918,44.228956],[-122.254049,44.228899],[-122.254134,44.22887],[-122.254257,44.228841],[-122.254389,44.228812],[-122.254493,44.228776],[-122.254586,44.228706],[-122.25466,44.228644],[-122.254734,44.228581],[-122.25478,44.228498],[-122.254815,44.228409],[-122.254822,44.22832],[-122.254847,44.228217],[-122.254882,44.228107],[-122.254879,44.228004],[-122.254904,44.227874],[-122.254947,44.22773],[-122.254962,44.227586],[-122.254969,44.227483],[-122.255032,44.227379],[-122.255077,44.227297],[-122.255114,44.227228],[-122.25517,44.227193],[-122.255217,44.227171],[-122.255291,44.227129],[-122.255347,44.227074],[-122.255412,44.227011],[-122.255466,44.226935],[-122.255521,44.226859],[-122.255586,44.226796],[-122.255603,44.226707],[-122.255619,44.226604],[-122.255673,44.226528],[-122.255699,44.226419],[-122.255649,44.226344],[-122.255646,44.226255],[-122.255663,44.226159],[-122.255688,44.226056],[-122.255752,44.225959],[-122.255787,44.225843],[-122.25585,44.225746],[-122.255914,44.225649],[-122.255997,44.225559],[-122.256128,44.225489],[-122.256212,44.225426],[-122.256296,44.225384],[-122.256458,44.225367],[-122.25661,44.225379],[-122.25679,44.225349],[-122.256942,44.225326],[-122.257054,44.225283],[-122.257187,44.225247],[-122.257309,44.225204],[-122.257412,44.225161],[-122.257525,44.225105],[-122.2576,44.225063],[-122.257771,44.225053],[-122.257856,44.225032],[-122.257988,44.224989],[-122.258053,44.224947],[-122.258157,44.224938],[-122.258281,44.224929],[-122.258452,44.22492],[-122.258594,44.224891],[-122.258717,44.224868],[-122.258829,44.224825],[-122.258941,44.224748],[-122.259072,44.224658],[-122.259137,44.224616],[-122.259173,44.224526],[-122.259245,44.224416],[-122.259366,44.224311],[-122.259411,44.224215],[-122.259494,44.224145],[-122.259616,44.224088],[-122.259729,44.224025],[-122.259842,44.223989],[-122.259936,44.223961],[-122.260069,44.223938],[-122.260134,44.223896],[-122.26018,44.223841],[-122.260225,44.223758],[-122.26027,44.223668],[-122.260334,44.223565],[-122.260388,44.223482],[-122.260443,44.223399],[-122.260488,44.22333],[-122.260601,44.223266],[-122.260675,44.223197],[-122.26072,44.223114],[-122.260803,44.223044],[-122.260867,44.222955],[-122.260939,44.222817],[-122.261022,44.222713],[-122.261151,44.222567],[-122.261234,44.22247],[-122.261317,44.222394],[-122.261371,44.222297],[-122.261444,44.22218],[-122.261499,44.222124],[-122.261555,44.222069],[-122.261639,44.222013],[-122.261731,44.221922],[-122.261833,44.221805],[-122.261982,44.221713],[-122.262112,44.221602],[-122.262299,44.221496],[-122.262477,44.221412],[-122.262636,44.22132],[-122.262824,44.221215],[-122.263031,44.22115],[-122.26322,44.221099],[-122.263371,44.221056],[-122.263559,44.220978],[-122.2637,44.220935],[-122.263841,44.220885],[-122.263896,44.220875],[-122.263896,44.220781],[-122.263677,44.220785],[-122.263432,44.220891],[-122.26315,44.220991],[-122.26282,44.221106],[-122.262586,44.221225],[-122.2624,44.221358],[-122.262241,44.221449],[-122.262072,44.221534],[-122.261905,44.221667],[-122.261802,44.221737],[-122.261718,44.221793],[-122.261616,44.221883],[-122.261495,44.221987],[-122.261374,44.222078],[-122.261237,44.222272],[-122.261128,44.222417],[-122.261045,44.222528],[-122.260926,44.222666],[-122.260862,44.222784],[-122.260761,44.222888],[-122.26065,44.222992],[-122.260482,44.223111],[-122.26041,44.223242],[-122.260299,44.223374],[-122.260207,44.223478],[-122.26008,44.223678],[-122.260054,44.223774],[-122.259904,44.223845],[-122.259688,44.223916],[-122.25948,44.223961],[-122.259303,44.2241],[-122.259202,44.224218],[-122.25912,44.22437],[-122.258992,44.224536],[-122.258891,44.224667],[-122.258761,44.224751],[-122.258647,44.22478],[-122.258469,44.224845],[-122.25824,44.224848],[-122.258061,44.224885],[-122.25789,44.224908],[-122.257739,44.224944],[-122.257456,44.22501],[-122.257277,44.225088],[-122.257089,44.225153],[-122.256872,44.225238],[-122.256702,44.225254],[-122.256455,44.225279],[-122.256256,44.225302],[-122.256105,44.225345],[-122.255993,44.225415],[-122.255862,44.225506],[-122.255771,44.225624],[-122.255689,44.225748],[-122.255579,44.225887],[-122.255545,44.226045],[-122.25553,44.226182],[-122.255525,44.226325],[-122.25552,44.226476],[-122.255458,44.226627],[-122.255423,44.226765],[-122.255313,44.226896],[-122.255231,44.227021],[-122.255082,44.227112],[-122.254933,44.227224],[-122.254861,44.227361],[-122.254789,44.227527],[-122.254785,44.227691],[-122.25474,44.227808],[-122.254736,44.227986],[-122.254721,44.228136],[-122.254669,44.228308],[-122.254617,44.22848],[-122.25446,44.22864],[-122.254368,44.228737],[-122.254122,44.228782],[-122.253904,44.228826],[-122.253697,44.228884],[-122.253461,44.228942],[-122.253224,44.228973],[-122.253053,44.229003],[-122.252854,44.22902],[-122.252731,44.229056],[-122.252579,44.229044],[-122.252323,44.229062],[-122.252095,44.229086],[-122.251764,44.229152],[-122.251416,44.229288],[-122.251305,44.229405],[-122.251177,44.229578],[-122.251057,44.229703],[-122.250957,44.229862],[-122.250884,44.229973],[-122.250775,44.230145],[-122.250721,44.230256],[-122.250621,44.230401],[-122.250595,44.230511],[-122.25059,44.230654],[-122.250545,44.230744],[-122.250434,44.230862],[-122.250363,44.231013],[-122.250318,44.23113],[-122.250246,44.231261],[-122.250163,44.231352],[-122.250081,44.231455],[-122.250008,44.231586],[-122.249917,44.231718],[-122.249854,44.231856],[-122.249772,44.231966],[-122.249633,44.232085],[-122.249503,44.23221],[-122.24941,44.232273],[-122.249391,44.232287],[-122.249204,44.232378],[-122.249035,44.232456],[-122.248799,44.232535],[-122.248448,44.232568],[-122.248154,44.232613],[-122.247805,44.232707],[-122.247692,44.232757],[-122.247608,44.232813],[-122.247484,44.232787],[-122.247192,44.232901],[-122.247025,44.233027],[-122.246812,44.233242],[-122.246702,44.23338],[-122.246592,44.233526],[-122.246464,44.233719],[-122.246402,44.23385],[-122.246406,44.234],[-122.246494,44.234081],[-122.246642,44.23425],[-122.246665,44.234386],[-122.246698,44.234557],[-122.246683,44.234708],[-122.246639,44.234811],[-122.246509,44.234909],[-122.246378,44.235],[-122.24619,44.235071],[-122.246049,44.235141],[-122.245956,44.235211],[-122.245787,44.235282],[-122.245646,44.235332],[-122.245467,44.235417],[-122.245364,44.235473],[-122.245194,44.23551],[-122.245033,44.235533],[-122.244834,44.235563],[-122.244578,44.235608],[-122.244313,44.235639],[-122.243991,44.235706],[-122.24386,44.235755],[-122.243739,44.235853],[-122.243649,44.236032],[-122.243586,44.23617],[-122.24344,44.236371],[-122.243377,44.236495],[-122.243278,44.236681],[-122.243215,44.236812],[-122.243105,44.236964],[-122.243032,44.237067],[-122.242989,44.237239],[-122.242964,44.237356],[-122.242921,44.237514],[-122.242943,44.237616],[-122.242965,44.237705],[-122.242969,44.237841],[-122.242877,44.237959],[-122.242688,44.238017],[-122.242546,44.238019],[-122.242384,44.238007],[-122.242193,44.23801],[-122.241975,44.238041],[-122.241795,44.238044],[-122.241511,44.238096],[-122.241379,44.238152],[-122.24123,44.23825],[-122.241167,44.238374],[-122.241047,44.23852],[-122.24091,44.238713],[-122.240801,44.238893],[-122.240709,44.23899],[-122.240638,44.239155],[-122.240527,44.23928],[-122.240388,44.239426],[-122.240258,44.239517],[-122.240109,44.239622],[-122.239978,44.239699],[-122.239923,44.239782],[-122.239848,44.239831],[-122.239804,44.239961],[-122.239742,44.240113],[-122.239613,44.240238],[-122.239474,44.240383],[-122.239315,44.240475],[-122.239176,44.2406],[-122.238989,44.240712],[-122.238858,44.240783],[-122.23866,44.240861],[-122.238538,44.240931],[-122.238379,44.241009],[-122.238229,44.241079],[-122.238107,44.241156],[-122.237947,44.241213],[-122.237777,44.241243],[-122.237588,44.24128],[-122.237342,44.241339],[-122.237134,44.241403],[-122.23689,44.241503],[-122.236636,44.241623],[-122.236468,44.241707],[-122.236375,44.241784],[-122.236311,44.241894],[-122.236202,44.24206],[-122.236091,44.242178],[-122.236018,44.242296],[-122.235946,44.24242],[-122.235779,44.242559],[-122.235657,44.242622],[-122.235593,44.242726],[-122.235424,44.242817],[-122.235247,44.242936],[-122.235107,44.24302],[-122.234966,44.243091],[-122.234808,44.243223],[-122.234715,44.243307],[-122.234632,44.24337],[-122.234538,44.243412],[-122.234398,44.243523],[-122.234231,44.24367],[-122.23412,44.243788],[-122.233944,44.243961],[-122.233787,44.244121],[-122.233697,44.244286],[-122.233665,44.244492],[-122.233604,44.244705],[-122.233617,44.244814],[-122.23362,44.24493],[-122.233653,44.245074],[-122.233772,44.245229],[-122.233872,44.245406],[-122.234001,44.245602],[-122.234091,44.245751],[-122.234162,44.245907],[-122.234197,44.246112],[-122.234258,44.246262],[-122.234281,44.246405],[-122.234268,44.24661],[-122.234274,44.246815],[-122.234231,44.246967],[-122.234179,44.247152],[-122.234099,44.247345],[-122.23398,44.247518],[-122.233843,44.247691],[-122.233732,44.247808],[-122.233603,44.247968],[-122.233465,44.248141],[-122.233289,44.248301],[-122.23314,44.248399],[-122.232972,44.248524],[-122.232823,44.248643],[-122.232724,44.248815],[-122.232642,44.248946],[-122.232608,44.249097],[-122.232565,44.249249],[-122.232579,44.249406],[-122.23261,44.249501],[-122.232623,44.249617],[-122.232645,44.249733],[-122.232638,44.249822],[-122.232689,44.249917],[-122.232711,44.25004],[-122.232678,44.250198],[-122.232663,44.250348],[-122.232573,44.250514],[-122.23248,44.250618],[-122.232389,44.250736],[-122.232239,44.250827],[-122.232091,44.250973],[-122.231981,44.251125],[-122.231853,44.251304]]],[[[-122.263679,44.212433],[-122.263549,44.212537],[-122.263436,44.21258],[-122.263316,44.212691],[-122.263255,44.212877],[-122.263192,44.213008],[-122.263187,44.213165],[-122.263221,44.213356],[-122.263266,44.213574],[-122.263279,44.213711],[-122.263311,44.213827],[-122.263324,44.21395],[-122.263348,44.214107],[-122.263392,44.214304],[-122.263482,44.214454],[-122.263532,44.214555],[-122.263612,44.214677],[-122.263644,44.214793],[-122.263646,44.214862],[-122.263705,44.21495],[-122.263766,44.215085],[-122.263789,44.215195],[-122.263821,44.215324],[-122.263891,44.215446],[-122.26389,44.214789],[-122.263844,44.214579],[-122.263764,44.214438],[-122.263714,44.214286],[-122.263649,44.214145],[-122.263615,44.214014],[-122.263579,44.213818],[-122.263529,44.213688],[-122.263554,44.213501],[-122.263549,44.213316],[-122.263545,44.213185],[-122.263541,44.213064],[-122.263583,44.212922],[-122.263639,44.212779],[-122.263787,44.212623],[-122.263887,44.212548],[-122.263887,44.212327],[-122.263679,44.212433]]],[[[-122.232704,44.251358],[-122.232884,44.251419],[-122.233066,44.251471],[-122.233259,44.251543],[-122.233423,44.251623],[-122.233549,44.25171],[-122.233648,44.251839],[-122.23368,44.251961],[-122.233702,44.252063],[-122.233763,44.252186],[-122.233869,44.252239],[-122.233799,44.25211],[-122.233794,44.25196],[-122.233732,44.251776],[-122.233584,44.251607],[-122.233439,44.251507],[-122.233208,44.251435],[-122.233055,44.251389],[-122.232881,44.251316],[-122.232755,44.251276],[-122.232704,44.251358]]]]}},{"type":"Feature","properties":{"MAPTAXLOT":"1555000000100","MAPNUMBER":"15550000","TAXLOT":"100","ACCTNO":"0027480","MAPACRES":11138.30777997},"geometry":{"type":"MultiPolygon","coordinates":[[[[-122.14673,44.24298],[-122.14673,44.2466],[-122.14673,44.25022],[-122.14673,44.25384],[-122.166877,44.25384],[-122.187024,44.25384],[-122.207171,44.25384],[-122.227318,44.253839],[-122.229052,44.25384],[-122.229162,44.253684],[-122.229308,44.253476],[-122.229417,44.253304],[-122.229481,44.253214],[-122.229629,44.253068],[-122.22974,44.25295],[-122.229908,44.252845],[-122.23002,44.252741],[-122.230131,44.25265],[-122.230319,44.252572],[-122.230498,44.252515],[-122.230667,44.25243],[-122.230873,44.252311],[-122.230994,44.252213],[-122.231133,44.252095],[-122.231216,44.251998],[-122.231345,44.251845],[-122.231456,44.251734],[-122.231568,44.251651],[-122.23166,44.25154],[-122.231752,44.251443],[-122.231853,44.251304],[-122.231981,44.251125],[-122.232091,44.250973],[-122.232239,44.250827],[-122.232389,44.250736],[-122.23248,44.250618],[-122.232573,44.250514],[-122.232663,44.250348],[-122.232678,44.250198],[-122.232711,44.25004],[-122.232689,44.249917],[-122.232638,44.249822],[-122.232645,44.249733],[-122.232623,44.249617],[-122.23261,44.249501],[-122.232579,44.249406],[-122.232565,44.249249],[-122.232608,44.249097],[-122.232642,44.248946],[-122.232724,44.248815],[-122.232823,44.248643],[-122.232972,44.248524],[-122.23314,44.248399],[-122.233289,44.248301],[-122.233465,44.248141],[-122.233603,44.247968],[-122.233732,44.247808],[-122.233843,44.247691],[-122.23398,44.247518],[-122.234099,44.247345],[-122.234179,44.247152],[-122.234231,44.246967],[-122.234274,44.246815],[-122.234268,44.24661],[-122.234281,44.246405],[-122.234258,44.246262],[-122.234197,44.246112],[-122.234162,44.245907],[-122.234091,44.245751],[-122.234001,44.245602],[-122.233872,44.245406],[-122.233772,44.245229],[-122.233653,44.245074],[-122.23362,44.24493],[-122.233617,44.244814],[-122.233604,44.244705],[-122.233665,44.244492],[-122.233697,44.244286],[-122.233787,44.244121],[-122.233944,44.243961],[-122.23412,44.243788],[-122.234231,44.24367],[-122.234398,44.243523],[-122.234538,44.243412],[-122.234632,44.24337],[-122.234715,44.243307],[-122.234808,44.243223],[-122.234966,44.243091],[-122.235107,44.24302],[-122.235247,44.242936],[-122.235424,44.242817],[-122.235593,44.242726],[-122.235657,44.242622],[-122.235779,44.242559],[-122.235946,44.24242],[-122.236018,44.242296],[-122.236091,44.242178],[-122.236202,44.24206],[-122.236311,44.241894],[-122.236375,44.241784],[-122.236468,44.241707],[-122.236636,44.241623],[-122.23689,44.241503],[-122.237134,44.241403],[-122.237342,44.241339],[-122.237588,44.24128],[-122.237777,44.241243],[-122.237947,44.241213],[-122.238107,44.241156],[-122.238229,44.241079],[-122.238379,44.241009],[-122.238538,44.240931],[-122.23866,44.240861],[-122.238858,44.240783],[-122.238989,44.240712],[-122.239176,44.2406],[-122.239315,44.240475],[-122.239474,44.240383],[-122.239613,44.240238],[-122.239742,44.240113],[-122.239804,44.239961],[-122.239848,44.239831],[-122.239923,44.239782],[-122.239978,44.239699],[-122.240109,44.239622],[-122.240258,44.239517],[-122.240388,44.239426],[-122.240527,44.23928],[-122.240638,44.239155],[-122.240709,44.23899],[-122.240801,44.238893],[-122.24091,44.238713],[-122.241047,44.23852],[-122.241167,44.238374],[-122.24123,44.23825],[-122.241379,44.238152],[-122.241511,44.238096],[-122.241795,44.238044],[-122.241975,44.238041],[-122.242193,44.23801],[-122.242384,44.238007],[-122.242546,44.238019],[-122.242688,44.238017],[-122.242877,44.237959],[-122.242969,44.237841],[-122.242965,44.237705],[-122.242943,44.237616],[-122.242921,44.237514],[-122.242964,44.237356],[-122.242989,44.237239],[-122.243032,44.237067],[-122.243105,44.236964],[-122.243215,44.236812],[-122.243278,44.236681],[-122.243377,44.236495],[-122.24344,44.236371],[-122.243586,44.23617],[-122.243649,44.236032],[-122.243739,44.235853],[-122.24386,44.235755],[-122.243991,44.235706],[-122.244313,44.235639],[-122.244578,44.235608],[-122.244834,44.235563],[-122.245033,44.235533],[-122.245194,44.23551],[-122.245364,44.235473],[-122.245467,44.235417],[-122.245646,44.235332],[-122.245787,44.235282],[-122.245956,44.235211],[-122.246049,44.235141],[-122.24619,44.235071],[-122.246378,44.235],[-122.246509,44.234909],[-122.246639,44.234811],[-122.246683,44.234708],[-122.246698,44.234557],[-122.246665,44.234386],[-122.246642,44.23425],[-122.246494,44.234081],[-122.246406,44.234],[-122.246402,44.23385],[-122.246464,44.233719],[-122.246592,44.233526],[-122.246702,44.23338],[-122.246812,44.233242],[-122.247025,44.233027],[-122.247192,44.232901],[-122.247484,44.232787],[-122.247608,44.232813],[-122.247692,44.232757],[-122.247805,44.232707],[-122.248154,44.232613],[-122.248448,44.232568],[-122.248799,44.232535],[-122.249035,44.232456],[-122.249204,44.232378],[-122.249391,44.232287],[-122.24941,44.232273],[-122.249503,44.23221],[-122.249633,44.232085],[-122.249772,44.231966],[-122.249854,44.231856],[-122.249917,44.231718],[-122.250008,44.231586],[-122.250081,44.231455],[-122.250163,44.231352],[-122.250246,44.231261],[-122.250318,44.23113],[-122.250363,44.231013],[-122.250434,44.230862],[-122.250545,44.230744],[-122.25059,44.230654],[-122.250595,44.230511],[-122.250621,44.230401],[-122.250721,44.230256],[-122.250775,44.230145],[-122.250884,44.229973],[-122.250957,44.229862],[-122.251057,44.229703],[-122.251177,44.229578],[-122.251305,44.229405],[-122.251416,44.229288],[-122.251764,44.229152],[-122.252095,44.229086],[-122.252323,44.229062],[-122.252579,44.229044],[-122.252731,44.229056],[-122.252854,44.22902],[-122.253053,44.229003],[-122.253224,44.228973],[-122.253461,44.228942],[-122.253697,44.228884],[-122.253904,44.228826],[-122.254122,44.228782],[-122.254368,44.228737],[-122.25446,44.22864],[-122.254617,44.22848],[-122.254669,44.228308],[-122.254721,44.228136],[-122.254736,44.227986],[-122.25474,44.227808],[-122.254785,44.227691],[-122.254789,44.227527],[-122.254861,44.227361],[-122.254933,44.227224],[-122.255082,44.227112],[-122.255231,44.227021],[-122.255313,44.226896],[-122.255423,44.226765],[-122.255458,44.226627],[-122.25552,44.226476],[-122.255525,44.226325],[-122.25553,44.226182],[-122.255545,44.226045],[-122.255579,44.225887],[-122.255689,44.225748],[-122.255771,44.225624],[-122.255862,44.225506],[-122.255993,44.225415],[-122.256105,44.225345],[-122.256256,44.225302],[-122.256455,44.225279],[-122.256702,44.225254],[-122.256872,44.225238],[-122.257089,44.225153],[-122.257277,44.225088],[-122.257456,44.22501],[-122.257739,44.224944],[-122.25789,44.224908],[-122.258061,44.224885],[-122.25824,44.224848],[-122.258469,44.224845],[-122.258647,44.22478],[-122.258761,44.224751],[-122.258891,44.224667],[-122.258992,44.224536],[-122.25912,44.22437],[-122.259202,44.224218],[-122.259303,44.2241],[-122.25948,44.223961],[-122.259688,44.223916],[-122.259904,44.223845],[-122.260054,44.223774],[-122.26008,44.223678],[-122.260207,44.223478],[-122.260299,44.223374],[-122.26041,44.223242],[-122.260482,44.223111],[-122.26065,44.222992],[-122.260761,44.222888],[-122.260862,44.222784],[-122.260926,44.222666],[-122.261045,44.222528],[-122.261128,44.222417],[-122.261237,44.222272],[-122.261374,44.222078],[-122.261495,44.221987],[-122.261616,44.221883],[-122.261718,44.221793],[-122.261802,44.221737],[-122.261905,44.221667],[-122.262072,44.221534],[-122.262241,44.221449],[-122.2624,44.221358],[-122.262586,44.221225],[-122.26282,44.221106],[-122.26315,44.220991],[-122.263432,44.220891],[-122.263677,44.220785],[-122.263896,44.220781],[-122.263895,44.220149],[-122.263894,44.219178],[-122.263844,44.21912],[-122.263554,44.218689],[-122.263284,44.218146],[-122.263113,44.217717],[-122.262876,44.217152],[-122.262631,44.21636],[-122.262484,44.215679],[-122.262401,44.214998],[-122.262385,44.214428],[-122.262427,44.213724],[-122.262468,44.21295],[-122.262608,44.212308],[-122.262842,44.211669],[-122.263074,44.210961],[-122.263335,44.210394],[-122.256812,44.210394],[-122.254296,44.210394],[-122.247391,44.210394],[-122.241716,44.210394],[-122.236683,44.210394],[-122.23165,44.210394],[-122.227259,44.210394],[-122.226617,44.210394],[-122.221583,44.210394],[-122.21655,44.210394],[-122.211517,44.210394],[-122.207127,44.210394],[-122.206484,44.210394],[-122.201451,44.210394],[-122.196418,44.210395],[-122.191385,44.210395],[-122.186994,44.210395],[-122.186352,44.210395],[-122.181319,44.210395],[-122.176286,44.210395],[-122.171253,44.210395],[-122.166862,44.210395],[-122.16622,44.210395],[-122.161186,44.210395],[-122.14673,44.210395],[-122.14673,44.224879],[-122.14673,44.228499],[-122.14673,44.232119],[-122.14673,44.235739],[-122.14673,44.239359],[-122.14673,44.24298]]],[[[-122.231878,44.252301],[-122.231576,44.252492],[-122.231226,44.252706],[-122.230881,44.252906],[-122.230617,44.253127],[-122.230335,44.253386],[-122.230002,44.253671],[-122.229771,44.25384],[-122.247465,44.253839],[-122.26395,44.253839],[-122.263948,44.252729],[-122.263941,44.249107],[-122.263934,44.245485],[-122.263928,44.241863],[-122.263923,44.239359],[-122.263921,44.238241],[-122.263915,44.234624],[-122.26391,44.231006],[-122.263905,44.227388],[-122.263901,44.224878],[-122.263899,44.22377],[-122.263897,44.221462],[-122.263894,44.221464],[-122.263315,44.221752],[-122.262722,44.221965],[-122.262258,44.222197],[-122.261799,44.222405],[-122.26147,44.222697],[-122.261139,44.223153],[-122.260743,44.223635],[-122.260406,44.224074],[-122.259851,44.22456],[-122.259511,44.224889],[-122.259112,44.225153],[-122.258748,44.225402],[-122.25835,44.225653],[-122.257933,44.225882],[-122.257565,44.226039],[-122.257169,44.226218],[-122.25676,44.226419],[-122.256434,44.22664],[-122.256186,44.22685],[-122.255923,44.227117],[-122.255645,44.227467],[-122.255478,44.227697],[-122.255375,44.22796],[-122.2553,44.228195],[-122.255176,44.228421],[-122.25505,44.228623],[-122.254903,44.228795],[-122.254734,44.228897],[-122.254472,44.229008],[-122.254168,44.229106],[-122.253785,44.229251],[-122.253193,44.229434],[-122.252666,44.229615],[-122.252107,44.229786],[-122.251808,44.229894],[-122.251516,44.230021],[-122.251352,44.230166],[-122.251216,44.230349],[-122.251032,44.230616],[-122.25091,44.230849],[-122.25077,44.231061],[-122.250632,44.231295],[-122.250447,44.231575],[-122.250278,44.231881],[-122.250089,44.232118],[-122.249916,44.232344],[-122.249719,44.232504],[-122.249487,44.232628],[-122.24916,44.23274],[-122.248852,44.232815],[-122.248644,44.232865],[-122.248294,44.232951],[-122.247982,44.233046],[-122.247769,44.233149],[-122.247603,44.233274],[-122.24745,44.233434],[-122.247312,44.233596],[-122.247209,44.233763],[-122.247169,44.234],[-122.247144,44.234219],[-122.247136,44.234498],[-122.247078,44.234785],[-122.246967,44.234978],[-122.246839,44.23516],[-122.246673,44.235296],[-122.24646,44.235419],[-122.246152,44.235554],[-122.245817,44.235675],[-122.245465,44.23582],[-122.245219,44.235895],[-122.244916,44.235957],[-122.244666,44.236051],[-122.244416,44.236146],[-122.244202,44.236272],[-122.243987,44.236445],[-122.243803,44.23663],[-122.243699,44.236764],[-122.243626,44.236968],[-122.243553,44.237188],[-122.243511,44.237383],[-122.243484,44.237582],[-122.243423,44.237761],[-122.243344,44.237918],[-122.243233,44.238062],[-122.243153,44.238171],[-122.243019,44.238284],[-122.242836,44.238384],[-122.242593,44.238482],[-122.242082,44.238663],[-122.241619,44.238844],[-122.241384,44.238927],[-122.241203,44.239029],[-122.241004,44.239202],[-122.24082,44.239386],[-122.240666,44.239607],[-122.240294,44.240087],[-122.240013,44.240512],[-122.239805,44.240692],[-122.239566,44.24092],[-122.239338,44.241042],[-122.23905,44.24121],[-122.238745,44.241343],[-122.238499,44.241454],[-122.238218,44.241506],[-122.237942,44.241557],[-122.237688,44.241584],[-122.237471,44.241643],[-122.237185,44.241728],[-122.236953,44.24181],[-122.236821,44.241887],[-122.236703,44.241998],[-122.236596,44.242148],[-122.236439,44.242349],[-122.23625,44.242551],[-122.236124,44.242681],[-122.235964,44.242837],[-122.235753,44.242983],[-122.235483,44.243138],[-122.235155,44.243372],[-122.234843,44.243629],[-122.234639,44.24383],[-122.234387,44.244019],[-122.234157,44.24426],[-122.234024,44.244462],[-122.233984,44.244672],[-122.234005,44.244885],[-122.234075,44.245109],[-122.234192,44.245314],[-122.234329,44.24559],[-122.234465,44.245821],[-122.234571,44.246078],[-122.234643,44.246313],[-122.234667,44.246561],[-122.234656,44.246762],[-122.234629,44.246961],[-122.234587,44.247186],[-122.234493,44.247403],[-122.234352,44.247605],[-122.234195,44.247829],[-122.234022,44.248019],[-122.233862,44.248199],[-122.233672,44.24833],[-122.233517,44.248493],[-122.233314,44.248669],[-122.233147,44.248874],[-122.233015,44.24912],[-122.233021,44.24932],[-122.233045,44.249607],[-122.23312,44.249964],[-122.23316,44.250233],[-122.233166,44.250434],[-122.233138,44.250638],[-122.233044,44.250844],[-122.232918,44.25101],[-122.232827,44.251161],[-122.232755,44.251276],[-122.232881,44.251316],[-122.233055,44.251389],[-122.233208,44.251435],[-122.233439,44.251507],[-122.233584,44.251607],[-122.233732,44.251776],[-122.233794,44.25196],[-122.233799,44.25211],[-122.233869,44.252239],[-122.233763,44.252186],[-122.233702,44.252063],[-122.23368,44.251961],[-122.233648,44.251839],[-122.233549,44.25171],[-122.233423,44.251623],[-122.233259,44.251543],[-122.233066,44.251471],[-122.232884,44.251419],[-122.232704,44.251358],[-122.232613,44.251545],[-122.232487,44.25176],[-122.232311,44.25194],[-122.232152,44.252108],[-122.231878,44.252301]]],[[[-122.241951,44.238192],[-122.241771,44.238208],[-122.241657,44.23823],[-122.241499,44.238335],[-122.241396,44.238419],[-122.241285,44.238523],[-122.241203,44.238634],[-122.241016,44.23876],[-122.240924,44.238877],[-122.240834,44.239029],[-122.240715,44.239188],[-122.240623,44.23932],[-122.240475,44.239452],[-122.240336,44.23957],[-122.240234,44.239668],[-122.240123,44.239792],[-122.240019,44.239828],[-122.239927,44.239912],[-122.23991,44.239994],[-122.239886,44.240131],[-122.239794,44.240262],[-122.239748,44.240318],[-122.239553,44.240464],[-122.239441,44.240548],[-122.239311,44.240666],[-122.239189,44.240723],[-122.238992,44.240815],[-122.238823,44.240886],[-122.238644,44.24097],[-122.238476,44.241062],[-122.238345,44.241146],[-122.238185,44.241223],[-122.238016,44.241281],[-122.237827,44.241318],[-122.237637,44.241355],[-122.23741,44.241406],[-122.237241,44.24147],[-122.237062,44.241528],[-122.236902,44.241598],[-122.236724,44.241676],[-122.236565,44.241768],[-122.236453,44.241851],[-122.236362,44.241996],[-122.236307,44.242079],[-122.236207,44.242245],[-122.236078,44.242384],[-122.235893,44.242585],[-122.235717,44.242724],[-122.23554,44.242877],[-122.235419,44.242954],[-122.235241,44.243053],[-122.235054,44.243185],[-122.234877,44.243297],[-122.234738,44.24343],[-122.23457,44.243541],[-122.234459,44.243653],[-122.234329,44.243778],[-122.234236,44.243854],[-122.234097,44.243959],[-122.233996,44.24409],[-122.233913,44.244194],[-122.233813,44.244367],[-122.23376,44.244484],[-122.233735,44.244621],[-122.233778,44.244778],[-122.233744,44.244915],[-122.233748,44.245065],[-122.233818,44.245181],[-122.233877,44.245262],[-122.234005,44.245404],[-122.234075,44.245532],[-122.234157,44.24573],[-122.234208,44.245831],[-122.234259,44.245954],[-122.234329,44.246083],[-122.234352,44.246219],[-122.234365,44.246322],[-122.234397,44.246472],[-122.234384,44.24667],[-122.234381,44.246889],[-122.234339,44.247088],[-122.234278,44.247281],[-122.234141,44.247467],[-122.233976,44.247695],[-122.233829,44.247869],[-122.233662,44.248028],[-122.233478,44.248257],[-122.233339,44.248375],[-122.2332,44.248494],[-122.233014,44.248647],[-122.232895,44.248806],[-122.232813,44.248951],[-122.232761,44.249109],[-122.232717,44.249267],[-122.232712,44.249417],[-122.232736,44.249574],[-122.232788,44.249717],[-122.232822,44.249908],[-122.232853,44.25001],[-122.232808,44.2501],[-122.232792,44.250217],[-122.232767,44.250319],[-122.232732,44.250423],[-122.232752,44.25047],[-122.232773,44.250525],[-122.232747,44.250607],[-122.232636,44.250718],[-122.232503,44.250754],[-122.232391,44.250824],[-122.232261,44.250929],[-122.232236,44.251052],[-122.232315,44.25114],[-122.23245,44.25122],[-122.232636,44.251267],[-122.232722,44.251128],[-122.232815,44.250974],[-122.232938,44.250812],[-122.233026,44.250621],[-122.233051,44.250431],[-122.233046,44.250238],[-122.233006,44.249975],[-122.232931,44.249615],[-122.232907,44.249323],[-122.2329,44.249106],[-122.233044,44.248838],[-122.23322,44.248621],[-122.233426,44.248443],[-122.233584,44.248277],[-122.233773,44.248147],[-122.233926,44.247975],[-122.234096,44.247788],[-122.234249,44.247568],[-122.234387,44.247372],[-122.234475,44.247168],[-122.234516,44.246952],[-122.234542,44.246756],[-122.234552,44.246562],[-122.23453,44.246325],[-122.23446,44.246098],[-122.234357,44.245848],[-122.234222,44.24562],[-122.234085,44.245343],[-122.233965,44.245134],[-122.233892,44.244897],[-122.233869,44.24467],[-122.233913,44.244438],[-122.234058,44.244219],[-122.234297,44.243967],[-122.234551,44.243777],[-122.234754,44.243578],[-122.235072,44.243316],[-122.235407,44.243076],[-122.235677,44.242921],[-122.235877,44.242783],[-122.236031,44.242633],[-122.236155,44.242504],[-122.236341,44.242306],[-122.236495,44.242109],[-122.236606,44.241954],[-122.236738,44.24183],[-122.236891,44.24174],[-122.237138,44.241653],[-122.237428,44.241567],[-122.237659,44.241504],[-122.237919,44.241476],[-122.238189,44.241426],[-122.238453,44.241378],[-122.238685,44.241273],[-122.238984,44.241142],[-122.239267,44.240977],[-122.239484,44.240861],[-122.239715,44.240641],[-122.239916,44.240467],[-122.240192,44.240049],[-122.240565,44.239568],[-122.240722,44.239343],[-122.240913,44.239151],[-122.241123,44.23897],[-122.241323,44.238857],[-122.241567,44.238771],[-122.242029,44.23859],[-122.242539,44.238409],[-122.242774,44.238315],[-122.24294,44.238224],[-122.243058,44.238124],[-122.243133,44.238022],[-122.24324,44.237884],[-122.243313,44.237738],[-122.243371,44.237568],[-122.243397,44.237372],[-122.24344,44.237172],[-122.243515,44.236948],[-122.243592,44.236733],[-122.243706,44.236586],[-122.243897,44.236394],[-122.244123,44.236213],[-122.244353,44.236077],[-122.244613,44.235979],[-122.244874,44.23588],[-122.24518,44.235817],[-122.245414,44.235746],[-122.245763,44.235602],[-122.246097,44.235482],[-122.246394,44.235352],[-122.246594,44.235237],[-122.246743,44.235114],[-122.246863,44.234944],[-122.246966,44.234763],[-122.247021,44.234491],[-122.247029,44.234214],[-122.247055,44.233992],[-122.247098,44.233741],[-122.247211,44.233557],[-122.247354,44.23339],[-122.247514,44.233221],[-122.247695,44.233086],[-122.247927,44.232973],[-122.248253,44.232874],[-122.248608,44.232787],[-122.248816,44.232737],[-122.249117,44.232664],[-122.249428,44.232558],[-122.249641,44.232443],[-122.249822,44.232296],[-122.24999,44.232077],[-122.250175,44.231845],[-122.250342,44.231543],[-122.250528,44.231261],[-122.250666,44.231027],[-122.250804,44.230817],[-122.250927,44.230583],[-122.251114,44.230312],[-122.251257,44.23012],[-122.251439,44.229958],[-122.251752,44.229821],[-122.252059,44.229711],[-122.252619,44.22954],[-122.253145,44.229359],[-122.253735,44.229176],[-122.254118,44.229031],[-122.25442,44.228935],[-122.254668,44.228829],[-122.254816,44.228741],[-122.254949,44.228584],[-122.25507,44.228389],[-122.25519,44.22817],[-122.255264,44.227939],[-122.255371,44.227666],[-122.255544,44.227427],[-122.255826,44.227073],[-122.256095,44.226799],[-122.256351,44.226584],[-122.256688,44.226355],[-122.257106,44.226149],[-122.257505,44.225969],[-122.257869,44.225813],[-122.258278,44.225589],[-122.258671,44.225341],[-122.259034,44.225093],[-122.259426,44.224834],[-122.25976,44.22451],[-122.260311,44.224027],[-122.260643,44.223594],[-122.261039,44.223113],[-122.261374,44.222651],[-122.261722,44.222343],[-122.262195,44.222129],[-122.262664,44.221894],[-122.263256,44.221681],[-122.263867,44.221377],[-122.263897,44.221366],[-122.263896,44.220875],[-122.263841,44.220885],[-122.2637,44.220935],[-122.263559,44.220978],[-122.263371,44.221056],[-122.26322,44.221099],[-122.263031,44.22115],[-122.262824,44.221215],[-122.262636,44.22132],[-122.262477,44.221412],[-122.262299,44.221496],[-122.262112,44.221602],[-122.261982,44.221713],[-122.261833,44.221805],[-122.261731,44.221922],[-122.261639,44.222013],[-122.261555,44.222069],[-122.261499,44.222124],[-122.261444,44.22218],[-122.261371,44.222297],[-122.261317,44.222394],[-122.261234,44.22247],[-122.261151,44.222567],[-122.261022,44.222713],[-122.260939,44.222817],[-122.260867,44.222955],[-122.260803,44.223044],[-122.26072,44.223114],[-122.260675,44.223197],[-122.260601,44.223266],[-122.260488,44.22333],[-122.260443,44.223399],[-122.260388,44.223482],[-122.260334,44.223565],[-122.26027,44.223668],[-122.260225,44.223758],[-122.26018,44.223841],[-122.260134,44.223896],[-122.260069,44.223938],[-122.259936,44.223961],[-122.259842,44.223989],[-122.259729,44.224025],[-122.259616,44.224088],[-122.259494,44.224145],[-122.259411,44.224215],[-122.259366,44.224311],[-122.259245,44.224416],[-122.259173,44.224526],[-122.259137,44.224616],[-122.259072,44.224658],[-122.258941,44.224748],[-122.258829,44.224825],[-122.258717,44.224868],[-122.258594,44.224891],[-122.258452,44.22492],[-122.258281,44.224929],[-122.258157,44.224938],[-122.258053,44.224947],[-122.257988,44.224989],[-122.257856,44.225032],[-122.257771,44.225053],[-122.2576,44.225063],[-122.257525,44.225105],[-122.257412,44.225161],[-122.257309,44.225204],[-122.257187,44.225247],[-122.257054,44.225283],[-122.256942,44.225326],[-122.25679,44.225349],[-122.25661,44.225379],[-122.256458,44.225367],[-122.256296,44.225384],[-122.256212,44.225426],[-122.256128,44.225489],[-122.255997,44.225559],[-122.255914,44.225649],[-122.25585,44.225746],[-122.255787,44.225843],[-122.255752,44.225959],[-122.255688,44.226056],[-122.255663,44.226159],[-122.255646,44.226255],[-122.255649,44.226344],[-122.255699,44.226419],[-122.255673,44.226528],[-122.255619,44.226604],[-122.255603,44.226707],[-122.255586,44.226796],[-122.255521,44.226859],[-122.255466,44.226935],[-122.255412,44.227011],[-122.255347,44.227074],[-122.255291,44.227129],[-122.255217,44.227171],[-122.25517,44.227193],[-122.255114,44.227228],[-122.255077,44.227297],[-122.255032,44.227379],[-122.254969,44.227483],[-122.254962,44.227586],[-122.254947,44.22773],[-122.254904,44.227874],[-122.254879,44.228004],[-122.254882,44.228107],[-122.254847,44.228217],[-122.254822,44.22832],[-122.254815,44.228409],[-122.25478,44.228498],[-122.254734,44.228581],[-122.25466,44.228644],[-122.254586,44.228706],[-122.254493,44.228776],[-122.254389,44.228812],[-122.254257,44.228841],[-122.254134,44.22887],[-122.254049,44.228899],[-122.253918,44.228956],[-122.253785,44.228985],[-122.253559,44.229057],[-122.253427,44.2291],[-122.253257,44.22915],[-122.253068,44.229187],[-122.252878,44.229204],[-122.252747,44.229247],[-122.252595,44.229283],[-122.252453,44.229299],[-122.252301,44.229308],[-122.252159,44.229324],[-122.252036,44.229353],[-122.251866,44.229383],[-122.251705,44.229406],[-122.251564,44.229477],[-122.251394,44.229527],[-122.251302,44.229618],[-122.25121,44.229728],[-122.251136,44.229812],[-122.251064,44.229936],[-122.250981,44.23004],[-122.250918,44.230157],[-122.250855,44.230267],[-122.250791,44.230378],[-122.250738,44.230502],[-122.250703,44.230618],[-122.250649,44.230736],[-122.250595,44.230832],[-122.25056,44.230942],[-122.250488,44.23108],[-122.250416,44.231204],[-122.250352,44.231301],[-122.250279,44.231411],[-122.250197,44.231543],[-122.250105,44.231653],[-122.250032,44.23175],[-122.249987,44.231854],[-122.249962,44.231957],[-122.249861,44.232074],[-122.249768,44.232172],[-122.249675,44.232241],[-122.249573,44.232318],[-122.249489,44.232395],[-122.249377,44.232458],[-122.249274,44.232528],[-122.249085,44.232565],[-122.248916,44.232643],[-122.248708,44.232666],[-122.248509,44.232697],[-122.248338,44.232727],[-122.248206,44.232763],[-122.248046,44.232799],[-122.247885,44.232843],[-122.247716,44.232921],[-122.247575,44.232977],[-122.247424,44.233014],[-122.247312,44.233084],[-122.2472,44.233161],[-122.247116,44.233217],[-122.247052,44.2333],[-122.247017,44.233403],[-122.246934,44.233507],[-122.246852,44.233638],[-122.246808,44.233741],[-122.246821,44.233878],[-122.246825,44.234021],[-122.24681,44.234145],[-122.246814,44.234275],[-122.246827,44.234418],[-122.246784,44.234556],[-122.246796,44.234665],[-122.246799,44.23474],[-122.246726,44.234864],[-122.246643,44.234954],[-122.246485,44.235087],[-122.246307,44.235165],[-122.246166,44.235249],[-122.245987,44.235313],[-122.245809,44.235405],[-122.245602,44.235483],[-122.245538,44.235552],[-122.245387,44.235609],[-122.245208,44.235653],[-122.244952,44.235712],[-122.244763,44.235742],[-122.244583,44.235758],[-122.244394,44.235816],[-122.244195,44.235853],[-122.244082,44.235882],[-122.243959,44.235891],[-122.243894,44.23596],[-122.243822,44.236084],[-122.243767,44.236188],[-122.243684,44.236271],[-122.243602,44.236395],[-122.243539,44.236526],[-122.243468,44.236671],[-122.243386,44.236823],[-122.243314,44.236967],[-122.243262,44.237119],[-122.243247,44.237256],[-122.243192,44.237352],[-122.243167,44.237455],[-122.24316,44.237538],[-122.243154,44.237661],[-122.243128,44.237764],[-122.243112,44.237867],[-122.243068,44.237977],[-122.242994,44.238067],[-122.242882,44.23813],[-122.242712,44.238174],[-122.242588,44.238182],[-122.242427,44.238178],[-122.242207,44.238167],[-122.241951,44.238192]]],[[[-122.26345,44.210407],[-122.263184,44.210983],[-122.262953,44.211688],[-122.26272,44.212325],[-122.262582,44.212958],[-122.262541,44.213727],[-122.262499,44.214429],[-122.262516,44.214993],[-122.262598,44.215669],[-122.262743,44.216345],[-122.262986,44.217132],[-122.263223,44.217694],[-122.263393,44.218121],[-122.263659,44.218657],[-122.263892,44.219002],[-122.263894,44.219005],[-122.263892,44.216528],[-122.263891,44.215446],[-122.263821,44.215324],[-122.263789,44.215195],[-122.263766,44.215085],[-122.263705,44.21495],[-122.263646,44.214862],[-122.263644,44.214793],[-122.263612,44.214677],[-122.263532,44.214555],[-122.263482,44.214454],[-122.263392,44.214304],[-122.263348,44.214107],[-122.263324,44.21395],[-122.263311,44.213827],[-122.263279,44.213711],[-122.263266,44.213574],[-122.263221,44.213356],[-122.263187,44.213165],[-122.263192,44.213008],[-122.263255,44.212877],[-122.263316,44.212691],[-122.263436,44.21258],[-122.263549,44.212537],[-122.263679,44.212433],[-122.263887,44.212327],[-122.263885,44.210394],[-122.263456,44.210394],[-122.26345,44.210407]]],[[[-122.232023,44.251274],[-122.231943,44.25146],[-122.231823,44.251585],[-122.231666,44.251752],[-122.231499,44.251884],[-122.231416,44.251981],[-122.231286,44.252113],[-122.231129,44.252266],[-122.230932,44.252378],[-122.230755,44.252504],[-122.230539,44.252589],[-122.230257,44.252717],[-122.230042,44.252857],[-122.229783,44.253107],[-122.229608,44.253308],[-122.229424,44.253536],[-122.229304,44.253682],[-122.229204,44.25384],[-122.229611,44.25384],[-122.22965,44.253811],[-122.229917,44.253616],[-122.230246,44.253334],[-122.230529,44.253075],[-122.230801,44.252847],[-122.231153,44.252643],[-122.231501,44.25243],[-122.2318,44.252241],[-122.232064,44.252055],[-122.232217,44.251893],[-122.232386,44.25172],[-122.232506,44.251515],[-122.232598,44.251328],[-122.232395,44.251289],[-122.232212,44.251217],[-122.232125,44.25117],[-122.232023,44.251274]]],[[[-122.263787,44.212623],[-122.263639,44.212779],[-122.263583,44.212922],[-122.263541,44.213064],[-122.263545,44.213185],[-122.263549,44.213316],[-122.263554,44.213501],[-122.263529,44.213688],[-122.263579,44.213818],[-122.263615,44.214014],[-122.263649,44.214145],[-122.263714,44.214286],[-122.263764,44.214438],[-122.263844,44.214579],[-122.26389,44.214789],[-122.263888,44.212999],[-122.263888,44.212907],[-122.263887,44.212548],[-122.263787,44.212623]]]]}}]}