{"type":"FeatureCollection","features":[{"type":"Feature","properties":{"MAPTAXLOT":"1585000000100","MAPNUMBER":"15850000","TAXLOT":"100","ACCTNO":"1857323","MAPACRES":4197.56248677},"geometry":{"type":"MultiPolygon","coordinates":[[[[-121.789984,44.249532],[-121.790365,44.249852],[-121.791203,44.250481],[-121.792538,44.251214],[-121.793301,44.251718],[-121.793904,44.252701],[-121.794413,44.253091],[-121.794954,44.253274],[-121.79683,44.254281],[-121.797307,44.254625],[-121.798767,44.257576],[-121.799339,44.258285],[-121.812545,44.258271],[-121.81302,44.258265],[-121.813269,44.258141],[-121.813815,44.257869],[-121.814601,44.257448],[-121.8154,44.257055],[-121.816588,44.256457],[-121.817357,44.256064],[-121.817777,44.255858],[-121.818391,44.255531],[-121.819056,44.255186],[-121.819442,44.255021],[-121.820236,44.254623],[-121.821587,44.253967],[-121.822246,44.253619],[-121.822794,44.253314],[-121.823016,44.253193],[-121.824431,44.252518],[-121.824802,44.252306],[-121.825562,44.2519],[-121.826102,44.251635],[-121.826379,44.251523],[-121.826725,44.251344],[-121.827132,44.251122],[-121.827988,44.2507],[-121.828321,44.250539],[-121.828771,44.25034],[-121.829174,44.250148],[-121.829738,44.249937],[-121.830138,44.2498],[-121.831467,44.249358],[-121.833308,44.24876],[-121.833576,44.248708],[-121.833719,44.248683],[-121.833853,44.248664],[-121.834255,44.248667],[-121.834417,44.248674],[-121.834621,44.248705],[-121.834811,44.248758],[-121.834917,44.248831],[-121.835645,44.249338],[-121.835832,44.249429],[-121.835985,44.249486],[-121.836146,44.249534],[-121.836317,44.249561],[-121.836423,44.249573],[-121.836555,44.249572],[-121.836656,44.24956],[-121.836674,44.249558],[-121.836674,44.247911],[-121.836674,44.244291],[-121.836674,44.24067],[-121.836674,44.23705],[-121.836674,44.23343],[-121.836674,44.22981],[-121.836674,44.22619],[-121.836673,44.22257],[-121.836673,44.21895],[-121.83164,44.21895],[-121.83147,44.21895],[-121.827995,44.21895],[-121.822618,44.21895],[-121.817584,44.21895],[-121.816369,44.21895],[-121.81255,44.21895],[-121.807516,44.21895],[-121.807516,44.21895],[-121.802482,44.21895],[-121.797448,44.21895],[-121.796233,44.21895],[-121.792414,44.21895],[-121.78738,44.21895],[-121.782346,44.21895],[-121.777808,44.21895],[-121.777783,44.219149],[-121.777909,44.22011],[-121.778668,44.222969],[-121.778985,44.223519],[-121.779683,44.22416],[-121.781399,44.225213],[-121.782321,44.225351],[-121.783815,44.225924],[-121.784196,44.226336],[-121.785782,44.229379],[-121.78594,44.2305],[-121.785779,44.231163],[-121.786127,44.232444],[-121.787397,44.234618],[-121.78784,44.236219],[-121.787965,44.237866],[-121.787836,44.238621],[-121.787833,44.241091],[-121.788944,44.242715],[-121.790055,44.24402],[-121.790468,44.244683],[-121.790499,44.245187],[-121.790403,44.245575],[-121.789383,44.247427],[-121.789446,44.247907],[-121.789698,44.248982],[-121.789984,44.249532]]],[[[-121.836674,44.258253],[-121.836674,44.255151],[-121.836674,44.251531],[-121.836674,44.249725],[-121.836575,44.249736],[-121.836406,44.249738],[-121.836274,44.249722],[-121.836077,44.249691],[-121.835889,44.249635],[-121.835715,44.249571],[-121.8355,44.249466],[-121.834759,44.24895],[-121.834686,44.2489],[-121.834555,44.248864],[-121.834386,44.248837],[-121.834247,44.248832],[-121.833874,44.248829],[-121.833769,44.248844],[-121.833634,44.248868],[-121.833385,44.248915],[-121.831562,44.249507],[-121.830235,44.249949],[-121.82984,44.250084],[-121.829291,44.25029],[-121.828894,44.250479],[-121.828444,44.250678],[-121.828116,44.250836],[-121.827266,44.251255],[-121.826861,44.251477],[-121.826502,44.251662],[-121.826223,44.251775],[-121.825695,44.252034],[-121.824942,44.252436],[-121.824566,44.252651],[-121.823149,44.253327],[-121.822933,44.253445],[-121.822384,44.253751],[-121.821719,44.254101],[-121.820366,44.254759],[-121.819566,44.255159],[-121.819181,44.255324],[-121.818526,44.255663],[-121.81791,44.255992],[-121.817488,44.256199],[-121.81672,44.256591],[-121.81553,44.25719],[-121.814735,44.257582],[-121.813948,44.258002],[-121.813431,44.25826],[-121.814455,44.258249],[-121.836674,44.258253]]]]}},{"type":"Feature","properties":{"MAPTAXLOT":"1686000000100","MAPNUMBER":"16860000","TAXLOT":"100","ACCTNO":"1857356","MAPACRES":8602.59997975},"geometry":{"type":"Polygon","coordinates":[[[-121.777808,44.21895],[-121.782346,44.21895],[-121.78738,44.21895],[-121.792414,44.21895],[-121.796233,44.21895],[-121.797448,44.21895],[-121.802482,44.21895],[-121.807516,44.21895],[-121.807516,44.21895],[-121.81255,44.21895],[-121.816369,44.21895],[-121.817584,44.21895],[-121.822618,44.21895],[-121.827995,44.21895],[-121.827995,44.21895],[-121.827995,44.215329],[-121.827995,44.211578],[-121.827995,44.211579],[-121.827995,44.211396],[-121.827995,44.207776],[-121.827995,44.204156],[-121.827995,44.200536],[-121.827995,44.196916],[-121.827995,44.193296],[-121.827995,44.189676],[-121.827995,44.186056],[-121.827995,44.182436],[-121.827995,44.178815],[-121.827995,44.175195],[-121.827995,44.171575],[-121.827995,44.167955],[-121.827995,44.164335],[-121.827995,44.160715],[-121.827995,44.157094],[-121.827995,44.153474],[-121.827995,44.149854],[-121.827995,44.146234],[-121.827995,44.142613],[-121.827995,44.138993],[-121.822488,44.138993],[-121.817461,44.138993],[-121.812434,44.138993],[-121.807407,44.138993],[-121.80238,44.138993],[-121.797353,44.138993],[-121.792325,44.138993],[-121.787298,44.138993],[-121.782271,44.138993],[-121.777244,44.138993],[-121.772681,44.138993],[-121.772543,44.139554],[-121.772891,44.140127],[-121.774128,44.140928],[-121.77895,44.144958],[-121.77987,44.145347],[-121.7826,44.146242],[-121.783869,44.14734],[-121.784154,44.14821],[-121.783739,44.149353],[-121.783674,44.150291],[-121.783356,44.150885],[-121.783037,44.151731],[-121.783099,44.152463],[-121.783289,44.152966],[-121.783828,44.15363],[-121.783827,44.154064],[-121.783604,44.154384],[-121.783192,44.154407],[-121.781475,44.155046],[-121.78103,44.155457],[-121.780807,44.155823],[-121.780997,44.15612],[-121.780996,44.156989],[-121.780962,44.158087],[-121.781247,44.158705],[-121.781723,44.159071],[-121.782008,44.15962],[-121.781913,44.159849],[-121.781499,44.160146],[-121.780132,44.160602],[-121.779116,44.16067],[-121.777941,44.16044],[-121.776766,44.160119],[-121.776225,44.160096],[-121.775971,44.16021],[-121.772885,44.162883],[-121.772471,44.163523],[-121.77247,44.163843],[-121.772818,44.164941],[-121.772785,44.165559],[-121.772435,44.166245],[-121.771861,44.166953],[-121.771829,44.167342],[-121.771955,44.167754],[-121.772463,44.168166],[-121.772843,44.16915],[-121.773477,44.169768],[-121.774652,44.170569],[-121.776398,44.17128],[-121.777509,44.171898],[-121.778302,44.172631],[-121.779063,44.174164],[-121.779506,44.175422],[-121.779504,44.176268],[-121.779409,44.176588],[-121.778485,44.177548],[-121.777466,44.179285],[-121.776891,44.180726],[-121.77479,44.183194],[-121.773866,44.184657],[-121.773578,44.185343],[-121.773514,44.1858],[-121.773736,44.18612],[-121.774466,44.186807],[-121.774401,44.187859],[-121.774015,44.190283],[-121.77411,44.190558],[-121.774332,44.19081],[-121.776365,44.191703],[-121.777635,44.192665],[-121.778491,44.193924],[-121.778936,44.194267],[-121.779254,44.194359],[-121.78078,44.194154],[-121.781193,44.194178],[-121.781701,44.194361],[-121.781796,44.194773],[-121.781541,44.195093],[-121.780523,44.195481],[-121.780237,44.195732],[-121.780236,44.195983],[-121.781379,44.197014],[-121.782077,44.197815],[-121.782236,44.198226],[-121.782108,44.198775],[-121.780929,44.200146],[-121.780578,44.200878],[-121.780418,44.201564],[-121.780609,44.201907],[-121.781053,44.202228],[-121.782102,44.202549],[-121.782356,44.202892],[-121.781336,44.204378],[-121.781176,44.204881],[-121.781494,44.205316],[-121.781939,44.205408],[-121.783814,44.205432],[-121.784036,44.205981],[-121.784735,44.206188],[-121.784894,44.206302],[-121.78483,44.206942],[-121.785115,44.207194],[-121.785718,44.208109],[-121.785717,44.20859],[-121.785303,44.209184],[-121.784826,44.209252],[-121.7833,44.20916],[-121.783141,44.209251],[-121.783109,44.209411],[-121.783267,44.209708],[-121.783871,44.210143],[-121.784569,44.211288],[-121.785361,44.213118],[-121.785232,44.214582],[-121.784563,44.215359],[-121.78329,44.215906],[-121.778772,44.217206],[-121.77788,44.218372],[-121.777808,44.21895]]]}}]}