{"type":"FeatureCollection","features":[{"type":"Feature","properties":{"MAPTAXLOT":"2055000000200","MAPNUMBER":"20550000","TAXLOT":"200","ACCTNO":"0928315","MAPACRES":15266.03503555},"geometry":{"type":"Polygon","coordinates":[[[-122.267033,43.839907],[-122.271303,43.839897],[-122.271309,43.836275],[-122.271315,43.832652],[-122.27132,43.829029],[-122.271326,43.825406],[-122.271332,43.821783],[-122.271338,43.818161],[-122.271344,43.814538],[-122.27135,43.810916],[-122.271355,43.807293],[-122.27136,43.80367],[-122.271366,43.800048],[-122.271371,43.796425],[-122.271377,43.792802],[-122.271384,43.78918],[-122.27139,43.785557],[-122.271397,43.781935],[-122.26701,43.781941],[-122.262011,43.781949],[-122.257011,43.781958],[-122.252012,43.781966],[-122.247011,43.781972],[-122.242011,43.781978],[-122.23701,43.781984],[-122.23201,43.781989],[-122.227008,43.781988],[-122.222007,43.781986],[-122.217006,43.781985],[-122.212004,43.781984],[-122.207,43.781983],[-122.201996,43.781982],[-122.196993,43.781982],[-122.191989,43.781981],[-122.186986,43.781979],[-122.181984,43.781976],[-122.176981,43.781974],[-122.171978,43.781971],[-122.166977,43.781973],[-122.161975,43.781975],[-122.156973,43.781977],[-122.151971,43.781979],[-122.151969,43.7856],[-122.151967,43.789221],[-122.151965,43.792843],[-122.151963,43.796464],[-122.151961,43.800086],[-122.151959,43.803707],[-122.151957,43.807329],[-122.151955,43.81095],[-122.151953,43.814571],[-122.151951,43.818193],[-122.151949,43.821814],[-122.151947,43.825435],[-122.151945,43.829056],[-122.151943,43.832677],[-122.151941,43.836297],[-122.151939,43.839918],[-122.171956,43.839922],[-122.19197,43.839959],[-122.212005,43.840014],[-122.231996,43.839972],[-122.252032,43.839936],[-122.262032,43.839919],[-122.267033,43.839907]],[[-122.241162,43.836263],[-122.240974,43.836255],[-122.240786,43.83628],[-122.240631,43.836317],[-122.240492,43.836398],[-122.240369,43.836468],[-122.240277,43.836537],[-122.240137,43.836585],[-122.240013,43.836609],[-122.239872,43.836612],[-122.239714,43.83658],[-122.239525,43.836549],[-122.239415,43.836528],[-122.239289,43.836507],[-122.239162,43.836464],[-122.23902,43.836398],[-122.23894,43.836342],[-122.23886,43.836287],[-122.238733,43.836221],[-122.238638,43.836199],[-122.238512,43.83619],[-122.238385,43.836124],[-122.238274,43.836057],[-122.238192,43.835934],[-122.23811,43.83581],[-122.237997,43.835687],[-122.237899,43.835541],[-122.237832,43.835418],[-122.237783,43.835328],[-122.237718,43.835272],[-122.237684,43.83517],[-122.237666,43.835069],[-122.237678,43.834955],[-122.237676,43.834876],[-122.237642,43.834797],[-122.237577,43.834696],[-122.237497,43.83464],[-122.237432,43.834585],[-122.237432,43.834562],[-122.237478,43.834516],[-122.237552,43.83439],[-122.237627,43.834264],[-122.237687,43.834173],[-122.237731,43.834081],[-122.237714,43.834025],[-122.237697,43.833968],[-122.237694,43.833889],[-122.237772,43.833854],[-122.237848,43.833796],[-122.237799,43.833717],[-122.237719,43.83365],[-122.237607,43.833573],[-122.23748,43.833495],[-122.237384,43.83344],[-122.237304,43.833385],[-122.237286,43.833305],[-122.237331,43.833225],[-122.237392,43.833179],[-122.23739,43.833111],[-122.237435,43.833031],[-122.237544,43.833018],[-122.237701,43.833027],[-122.237858,43.833047],[-122.237951,43.832989],[-122.238027,43.83292],[-122.238025,43.832841],[-122.238117,43.832783],[-122.238209,43.832713],[-122.238285,43.832633],[-122.238392,43.83254],[-122.238564,43.832527],[-122.238688,43.832479],[-122.238814,43.8325],[-122.238893,43.832533],[-122.239018,43.832531],[-122.239143,43.832495],[-122.239269,43.832516],[-122.239394,43.832525],[-122.239537,43.83258],[-122.239695,43.832657],[-122.23987,43.832745],[-122.239982,43.832811],[-122.240093,43.832866],[-122.240221,43.832955],[-122.240255,43.833057],[-122.24035,43.833089],[-122.240478,43.833178],[-122.240606,43.83329],[-122.240672,43.833391],[-122.240673,43.833425],[-122.240659,43.833482],[-122.240707,43.833515],[-122.240724,43.833571],[-122.240775,43.833707],[-122.24078,43.833888],[-122.240785,43.834047],[-122.240773,43.834194],[-122.240762,43.834342],[-122.24075,43.834467],[-122.240723,43.834603],[-122.240727,43.834762],[-122.240716,43.834921],[-122.240689,43.835069],[-122.240692,43.835193],[-122.240696,43.835307],[-122.240698,43.835397],[-122.240731,43.835442],[-122.240734,43.835544],[-122.240785,43.835691],[-122.240851,43.835803],[-122.240933,43.835927],[-122.240964,43.835977],[-122.240999,43.836033],[-122.241029,43.836061],[-122.241049,43.83609],[-122.241092,43.8361],[-122.241139,43.836138],[-122.24115,43.836197],[-122.241142,43.836231],[-122.241162,43.836263]]]}},{"type":"Feature","properties":{"MAPTAXLOT":"2155000000100","MAPNUMBER":"21550000","TAXLOT":"100","ACCTNO":"0966422","MAPACRES":22667.44132233},"geometry":{"type":"MultiPolygon","coordinates":[[[[-122.152001,43.699662],[-122.151997,43.703286],[-122.151993,43.70691],[-122.15199,43.710522],[-122.15199,43.710535],[-122.15199,43.714157],[-122.15199,43.71778],[-122.15199,43.721403],[-122.15199,43.725004],[-122.15199,43.725025],[-122.151989,43.728648],[-122.151988,43.73227],[-122.151987,43.735893],[-122.151986,43.739486],[-122.151986,43.739515],[-122.151985,43.743137],[-122.151984,43.746759],[-122.151984,43.750381],[-122.151983,43.753968],[-122.151983,43.754003],[-122.151982,43.757625],[-122.15198,43.761247],[-122.151979,43.764869],[-122.151977,43.76845],[-122.151977,43.76849],[-122.151976,43.772112],[-122.151974,43.775733],[-122.151972,43.779354],[-122.151971,43.781979],[-122.156973,43.781977],[-122.161975,43.781975],[-122.166977,43.781973],[-122.171978,43.781971],[-122.176981,43.781974],[-122.181984,43.781976],[-122.186986,43.781979],[-122.191989,43.781981],[-122.196993,43.781982],[-122.201996,43.781982],[-122.207,43.781983],[-122.212004,43.781984],[-122.217006,43.781985],[-122.222007,43.781986],[-122.227008,43.781988],[-122.23201,43.781989],[-122.23701,43.781984],[-122.242011,43.781978],[-122.247011,43.781972],[-122.252012,43.781966],[-122.257011,43.781958],[-122.262011,43.781949],[-122.26701,43.781941],[-122.271397,43.781935],[-122.27139,43.779307],[-122.271376,43.775683],[-122.271362,43.772058],[-122.271347,43.768434],[-122.271335,43.76481],[-122.271322,43.761187],[-122.27131,43.757563],[-122.271297,43.75394],[-122.271289,43.750315],[-122.271282,43.74669],[-122.271274,43.743065],[-122.271266,43.73944],[-122.271271,43.735815],[-122.271276,43.732191],[-122.271281,43.728566],[-122.271286,43.724941],[-122.271305,43.721318],[-122.271325,43.717695],[-122.271345,43.714072],[-122.271365,43.710449],[-122.271375,43.706845],[-122.271386,43.70324],[-122.271396,43.699919],[-122.270383,43.699341],[-122.26955,43.698821],[-122.267716,43.697769],[-122.266156,43.696788],[-122.2651,43.696037],[-122.261933,43.696039],[-122.251939,43.69604],[-122.231926,43.69604],[-122.211919,43.696036],[-122.191965,43.696056],[-122.171968,43.69605],[-122.152005,43.696038],[-122.152001,43.699662]]],[[[-122.268198,43.697346],[-122.270031,43.698398],[-122.270864,43.698917],[-122.271398,43.699193],[-122.271405,43.697071],[-122.271283,43.697008],[-122.269355,43.696033],[-122.266926,43.696035],[-122.266293,43.696036],[-122.268198,43.697346]]],[[[-122.271407,43.69641],[-122.271407,43.696255],[-122.271408,43.696031],[-122.271408,43.696031],[-122.27097,43.696032],[-122.270627,43.696032],[-122.271407,43.69641]]]]}}]}