{"type":"FeatureCollection","features":[{"type":"Feature","properties":{"MAPTAXLOT":"2125000001700","MAPNUMBER":"21250000","TAXLOT":"1700","ACCTNO":"0945228","MAPACRES":142.45430791},"geometry":{"type":"Polygon","coordinates":[[[-122.548838,43.752484],[-122.558739,43.752485],[-122.558684,43.745724],[-122.549065,43.74604],[-122.548838,43.752484]]]}},{"type":"Feature","properties":{"MAPTAXLOT":"2125000001800","MAPNUMBER":"21250000","TAXLOT":"1800","ACCTNO":"0945236","MAPACRES":439.91349191},"geometry":{"type":"Polygon","coordinates":[[[-122.558739,43.752485],[-122.568473,43.752429],[-122.568454,43.747346],[-122.568451,43.745226],[-122.568433,43.740143],[-122.568432,43.738901],[-122.55925,43.738963],[-122.55863,43.738963],[-122.548828,43.739034],[-122.549065,43.74604],[-122.558684,43.745724],[-122.558739,43.752485]]]}},{"type":"Feature","properties":{"MAPTAXLOT":"2125000001900","MAPNUMBER":"21250000","TAXLOT":"1900","ACCTNO":"0945277","MAPACRES":569.93928416},"geometry":{"type":"Polygon","coordinates":[[[-122.588281,43.754673],[-122.589334,43.754674],[-122.589262,43.74021],[-122.569249,43.740144],[-122.568433,43.740143],[-122.568451,43.745226],[-122.568454,43.747346],[-122.568473,43.752429],[-122.573425,43.752431],[-122.578376,43.752432],[-122.579331,43.752432],[-122.583325,43.752433],[-122.588278,43.752434],[-122.588281,43.754673]]]}},{"type":"Feature","properties":{"MAPTAXLOT":"2125000002000","MAPNUMBER":"21250000","TAXLOT":"2000","ACCTNO":"0945285","MAPACRES":635.57303021},"geometry":{"type":"Polygon","coordinates":[[[-122.589334,43.754674],[-122.609253,43.754694],[-122.609145,43.740271],[-122.589262,43.74021],[-122.589334,43.754674]]]}},{"type":"Feature","properties":{"MAPTAXLOT":"2125000002300","MAPNUMBER":"21250000","TAXLOT":"2300","ACCTNO":"0945327","MAPACRES":633.64587974},"geometry":{"type":"Polygon","coordinates":[[[-122.589262,43.74021],[-122.609145,43.740271],[-122.609025,43.725844],[-122.589221,43.72576],[-122.589262,43.74021]]]}},{"type":"Feature","properties":{"MAPTAXLOT":"2125000002400","MAPNUMBER":"21250000","TAXLOT":"2400","ACCTNO":"0945335","MAPACRES":638.24322333},"geometry":{"type":"Polygon","coordinates":[[[-122.569249,43.740144],[-122.589262,43.74021],[-122.589221,43.72576],[-122.569261,43.725716],[-122.569249,43.740144]]]}},{"type":"Feature","properties":{"MAPTAXLOT":"2125000002500","MAPNUMBER":"21250000","TAXLOT":"2500","ACCTNO":"0945343","MAPACRES":599.89562447},"geometry":{"type":"Polygon","coordinates":[[[-122.568433,43.740143],[-122.569249,43.740144],[-122.569261,43.725716],[-122.549255,43.725666],[-122.548877,43.725666],[-122.548945,43.731868],[-122.54892,43.732907],[-122.548828,43.739034],[-122.55863,43.738963],[-122.55925,43.738963],[-122.568432,43.738901],[-122.568433,43.740143]]]}},{"type":"Feature","properties":{"MAPTAXLOT":"2125000002600","MAPNUMBER":"21250000","TAXLOT":"2600","ACCTNO":"0945350","MAPACRES":461.02587137},"geometry":{"type":"Polygon","coordinates":[[[-122.539146,43.731943],[-122.53898,43.739227],[-122.548828,43.739034],[-122.54892,43.732907],[-122.548945,43.731868],[-122.548877,43.725666],[-122.548876,43.724663],[-122.539312,43.724659],[-122.529636,43.724655],[-122.529835,43.731572],[-122.539146,43.731943]]]}},{"type":"Feature","properties":{"MAPTAXLOT":"2125000002700","MAPNUMBER":"21250000","TAXLOT":"2700","ACCTNO":"0945368","MAPACRES":154.07858658},"geometry":{"type":"Polygon","coordinates":[[[-122.534255,43.739169],[-122.53898,43.739227],[-122.539146,43.731943],[-122.529835,43.731572],[-122.52953,43.738557],[-122.52953,43.73911],[-122.534255,43.739169],[-122.534255,43.739169]]]}},{"type":"Feature","properties":{"MAPTAXLOT":"2125000002800","MAPNUMBER":"21250000","TAXLOT":"2800","ACCTNO":"0945376","MAPACRES":614.17816183},"geometry":{"type":"Polygon","coordinates":[[[-122.524635,43.738574],[-122.52953,43.738557],[-122.529835,43.731572],[-122.529636,43.724655],[-122.529368,43.724654],[-122.5197,43.724602],[-122.509817,43.72447],[-122.50985,43.728008],[-122.509883,43.731546],[-122.509916,43.735084],[-122.509949,43.738622],[-122.514845,43.738608],[-122.519739,43.73859],[-122.524635,43.738574]]]}},{"type":"Feature","properties":{"MAPTAXLOT":"2125000002900","MAPNUMBER":"21250000","TAXLOT":"2900","ACCTNO":"0945384","MAPACRES":580.62759126},"geometry":{"type":"Polygon","coordinates":[[[-122.5197,43.724602],[-122.529368,43.724654],[-122.529382,43.718422],[-122.529401,43.711198],[-122.519434,43.711238],[-122.509683,43.711277],[-122.509677,43.717664],[-122.509694,43.718508],[-122.509817,43.72447],[-122.5197,43.724602]]]}},{"type":"Feature","properties":{"MAPTAXLOT":"2125000003000","MAPNUMBER":"21250000","TAXLOT":"3000","ACCTNO":"0945392","MAPACRES":592.95258884},"geometry":{"type":"Polygon","coordinates":[[[-122.548877,43.725666],[-122.549255,43.725666],[-122.549285,43.711202],[-122.529401,43.711198],[-122.529382,43.718422],[-122.529368,43.724654],[-122.529636,43.724655],[-122.539312,43.724659],[-122.548876,43.724663],[-122.548877,43.725666]]]}},{"type":"Feature","properties":{"MAPTAXLOT":"2125000003100","MAPNUMBER":"21250000","TAXLOT":"3100","ACCTNO":"0945400","MAPACRES":638.93023122},"geometry":{"type":"Polygon","coordinates":[[[-122.549255,43.725666],[-122.569261,43.725716],[-122.569231,43.711263],[-122.549285,43.711202],[-122.549255,43.725666]]]}},{"type":"Feature","properties":{"MAPTAXLOT":"2125000003200","MAPNUMBER":"21250000","TAXLOT":"3200","ACCTNO":"0945418","MAPACRES":638.15465459},"geometry":{"type":"Polygon","coordinates":[[[-122.569261,43.725716],[-122.589221,43.72576],[-122.589186,43.711304],[-122.569231,43.711263],[-122.569261,43.725716]]]}},{"type":"Feature","properties":{"MAPTAXLOT":"2125000003300","MAPNUMBER":"21250000","TAXLOT":"3300","ACCTNO":"0945426","MAPACRES":635.08124008},"geometry":{"type":"Polygon","coordinates":[[[-122.589221,43.72576],[-122.609025,43.725844],[-122.609084,43.711376],[-122.589186,43.711304],[-122.589221,43.72576]]]}},{"type":"Feature","properties":{"MAPTAXLOT":"2125000003600","MAPNUMBER":"21250000","TAXLOT":"3600","ACCTNO":"0945459","MAPACRES":638.52964772},"geometry":{"type":"Polygon","coordinates":[[[-122.589186,43.711304],[-122.609084,43.711376],[-122.609117,43.696889],[-122.589168,43.696823],[-122.589186,43.711304]]]}},{"type":"Feature","properties":{"MAPTAXLOT":"2125000003700","MAPNUMBER":"21250000","TAXLOT":"3700","ACCTNO":"0945467","MAPACRES":638.95836714},"geometry":{"type":"Polygon","coordinates":[[[-122.569231,43.711263],[-122.589186,43.711304],[-122.589168,43.696823],[-122.569231,43.696789],[-122.569231,43.711263]]]}},{"type":"Feature","properties":{"MAPTAXLOT":"2125000003800","MAPNUMBER":"21250000","TAXLOT":"3800","ACCTNO":"0945475","MAPACRES":636.90991517},"geometry":{"type":"Polygon","coordinates":[[[-122.549285,43.711202],[-122.569231,43.711263],[-122.569231,43.696789],[-122.559263,43.696826],[-122.549299,43.696748],[-122.549298,43.696748],[-122.549285,43.711202]]]}},{"type":"Feature","properties":{"MAPTAXLOT":"2125000003900","MAPNUMBER":"21250000","TAXLOT":"3900","ACCTNO":"0945483","MAPACRES":636.00614604},"geometry":{"type":"Polygon","coordinates":[[[-122.529401,43.711198],[-122.549285,43.711202],[-122.549298,43.696748],[-122.529404,43.696748],[-122.529401,43.711198]]]}},{"type":"Feature","properties":{"MAPTAXLOT":"2125000004000","MAPNUMBER":"21250000","TAXLOT":"4000","ACCTNO":"0945491","MAPACRES":633.49262764},"geometry":{"type":"Polygon","coordinates":[[[-122.519434,43.711238],[-122.529401,43.711198],[-122.529404,43.696748],[-122.529386,43.696748],[-122.509521,43.696842],[-122.509538,43.700439],[-122.509555,43.704035],[-122.509555,43.704058],[-122.509619,43.707552],[-122.509684,43.711044],[-122.509683,43.711277],[-122.519434,43.711238]]]}},{"type":"Feature","properties":{"MAPTAXLOT":"2125130000077","MAPNUMBER":"21251300","TAXLOT":"77","ACCTNO":"000None","MAPACRES":69.70413965},"geometry":{"type":"MultiPolygon","coordinates":[[[[-122.527103,43.746419],[-122.527185,43.746479],[-122.527266,43.746539],[-122.527451,43.746688],[-122.527633,43.746839],[-122.527811,43.746992],[-122.527985,43.747148],[-122.528344,43.747468],[-122.528432,43.747547],[-122.529024,43.747206],[-122.528577,43.746807],[-122.52846,43.746702],[-122.528341,43.746597],[-122.528169,43.746451],[-122.527994,43.746306],[-122.527816,43.746163],[-122.52772,43.746091],[-122.527717,43.745735],[-122.527717,43.745735],[-122.527756,43.745735],[-122.527574,43.745615],[-122.527388,43.7455],[-122.527197,43.745389],[-122.527199,43.745386],[-122.527233,43.745337],[-122.52727,43.745289],[-122.527304,43.74524],[-122.52734,43.745192],[-122.527375,43.745142],[-122.527409,43.745095],[-122.527444,43.745047],[-122.52748,43.744999],[-122.527517,43.74495],[-122.527553,43.744902],[-122.527589,43.744853],[-122.527624,43.744805],[-122.527659,43.744757],[-122.527696,43.744709],[-122.527732,43.744661],[-122.527768,43.744613],[-122.527799,43.744571],[-122.527811,43.744576],[-122.527876,43.744605],[-122.527939,43.744634],[-122.528001,43.744662],[-122.528062,43.744692],[-122.528121,43.744723],[-122.528179,43.744755],[-122.528238,43.744788],[-122.528297,43.744822],[-122.528353,43.744856],[-122.52841,43.74489],[-122.528465,43.744926],[-122.528522,43.744962],[-122.528575,43.744999],[-122.528632,43.745037],[-122.528687,43.745074],[-122.528742,43.745111],[-122.528855,43.745186],[-122.528891,43.745209],[-122.528927,43.745234],[-122.528972,43.745265],[-122.529024,43.7453],[-122.529059,43.745322],[-122.529123,43.745364],[-122.52916,43.745387],[-122.529206,43.745416],[-122.529276,43.745455],[-122.529568,43.745617],[-122.529567,43.74541],[-122.529414,43.745325],[-122.529349,43.745288],[-122.529307,43.745262],[-122.529274,43.745241],[-122.52921,43.745199],[-122.529176,43.745177],[-122.529126,43.745144],[-122.529083,43.745115],[-122.529045,43.745089],[-122.529007,43.745064],[-122.528896,43.74499],[-122.528842,43.744953],[-122.528785,43.744916],[-122.52873,43.744879],[-122.528674,43.744841],[-122.528615,43.744803],[-122.528558,43.744766],[-122.528499,43.74473],[-122.528439,43.744694],[-122.528378,43.744659],[-122.528317,43.744625],[-122.528256,43.744591],[-122.528192,43.744558],[-122.528125,43.744525],[-122.52806,43.744495],[-122.527996,43.744466],[-122.527931,43.744436],[-122.527846,43.744398],[-122.527715,43.744341],[-122.527648,43.744313],[-122.527581,43.744286],[-122.527511,43.74426],[-122.52744,43.744235],[-122.527369,43.744211],[-122.5273,43.744188],[-122.527232,43.744166],[-122.527163,43.744143],[-122.527094,43.74412],[-122.527025,43.744097],[-122.526956,43.744074],[-122.526886,43.74405],[-122.526817,43.744028],[-122.526751,43.744006],[-122.526687,43.743983],[-122.526622,43.743958],[-122.52656,43.743932],[-122.526497,43.743905],[-122.526436,43.743877],[-122.526375,43.743847],[-122.526316,43.743817],[-122.526258,43.743785],[-122.526201,43.743752],[-122.526145,43.743718],[-122.526092,43.743683],[-122.52604,43.743646],[-122.525988,43.74361],[-122.52594,43.743571],[-122.525889,43.74353],[-122.525838,43.743489],[-122.525786,43.743448],[-122.525736,43.743408],[-122.525685,43.743367],[-122.525634,43.743326],[-122.525584,43.743285],[-122.525532,43.743244],[-122.525476,43.743201],[-122.525415,43.743161],[-122.525353,43.743123],[-122.525288,43.743088],[-122.525219,43.743055],[-122.525149,43.743024],[-122.525076,43.742997],[-122.525002,43.742973],[-122.524925,43.742951],[-122.524847,43.742932],[-122.524773,43.742918],[-122.524703,43.742902],[-122.524631,43.742886],[-122.524558,43.74287],[-122.524486,43.742853],[-122.524413,43.742837],[-122.524341,43.742821],[-122.524271,43.742804],[-122.5242,43.742788],[-122.52413,43.74277],[-122.524061,43.742752],[-122.523993,43.742732],[-122.523926,43.742712],[-122.523857,43.74269],[-122.52379,43.742668],[-122.523726,43.742645],[-122.52366,43.742621],[-122.523592,43.742595],[-122.523522,43.74257],[-122.523455,43.742545],[-122.523386,43.742521],[-122.523319,43.742497],[-122.523252,43.742472],[-122.523183,43.742448],[-122.523115,43.742424],[-122.523047,43.742399],[-122.52298,43.742375],[-122.522911,43.742351],[-122.522843,43.742326],[-122.522775,43.742302],[-122.522708,43.742278],[-122.522641,43.742253],[-122.52257,43.742229],[-122.522499,43.742205],[-122.522427,43.742182],[-122.522353,43.742161],[-122.52228,43.742141],[-122.522205,43.742122],[-122.522132,43.742105],[-122.522054,43.74209],[-122.52198,43.742075],[-122.521903,43.742063],[-122.521828,43.742051],[-122.521753,43.742039],[-122.521679,43.742028],[-122.521605,43.742017],[-122.521533,43.742005],[-122.521458,43.741993],[-122.521384,43.741982],[-122.52131,43.741971],[-122.521236,43.741959],[-122.521162,43.741948],[-122.521089,43.741936],[-122.521015,43.741924],[-122.520943,43.741912],[-122.520869,43.741899],[-122.520795,43.741886],[-122.520721,43.741874],[-122.520648,43.741861],[-122.520574,43.741849],[-122.5205,43.741836],[-122.520426,43.741824],[-122.520352,43.741811],[-122.520276,43.741799],[-122.5202,43.741788],[-122.520125,43.741778],[-122.520047,43.741769],[-122.519971,43.74176],[-122.519894,43.741753],[-122.51982,43.741745],[-122.519742,43.741738],[-122.519666,43.741732],[-122.519587,43.741727],[-122.519509,43.741724],[-122.519431,43.741721],[-122.519353,43.74172],[-122.519276,43.74172],[-122.519199,43.74172],[-122.51912,43.741721],[-122.519039,43.741725],[-122.518959,43.741731],[-122.518881,43.74174],[-122.518801,43.741751],[-122.518722,43.741765],[-122.518647,43.741781],[-122.518573,43.741798],[-122.518563,43.741795],[-122.518529,43.741786],[-122.518484,43.741773],[-122.518457,43.741766],[-122.518412,43.741752],[-122.518393,43.741745],[-122.518351,43.74173],[-122.518319,43.741718],[-122.518292,43.741707],[-122.518269,43.741697],[-122.518241,43.741681],[-122.518227,43.741672],[-122.518196,43.741648],[-122.518183,43.741637],[-122.517661,43.741102],[-122.517538,43.741165],[-122.518063,43.741703],[-122.518082,43.74172],[-122.518121,43.74175],[-122.518145,43.741766],[-122.518183,43.741787],[-122.518217,43.741802],[-122.518248,43.741814],[-122.518281,43.741827],[-122.518328,43.741844],[-122.51835,43.741852],[-122.518377,43.74186],[-122.518349,43.74187],[-122.518277,43.741899],[-122.518209,43.741929],[-122.518144,43.741961],[-122.51808,43.741992],[-122.518019,43.742023],[-122.517956,43.742054],[-122.517894,43.742084],[-122.517831,43.742115],[-122.517769,43.742146],[-122.517707,43.742177],[-122.517643,43.742208],[-122.517581,43.742239],[-122.517518,43.74227],[-122.517457,43.7423],[-122.517396,43.74233],[-122.517336,43.742357],[-122.517273,43.742383],[-122.517209,43.742407],[-122.517147,43.742428],[-122.517081,43.742447],[-122.517013,43.742465],[-122.516944,43.742481],[-122.516875,43.742497],[-122.516805,43.742511],[-122.516733,43.742524],[-122.516662,43.742537],[-122.516592,43.742548],[-122.516519,43.742557],[-122.516446,43.742566],[-122.516375,43.742573],[-122.516301,43.742579],[-122.516228,43.742585],[-122.516156,43.742589],[-122.516085,43.742591],[-122.516013,43.742592],[-122.515941,43.74259],[-122.515869,43.742587],[-122.515799,43.742582],[-122.515727,43.742575],[-122.515654,43.742566],[-122.515578,43.742558],[-122.515504,43.742549],[-122.51543,43.74254],[-122.515354,43.742532],[-122.51528,43.742523],[-122.515204,43.742515],[-122.515127,43.742507],[-122.515052,43.7425],[-122.514975,43.742493],[-122.514899,43.742487],[-122.514825,43.742481],[-122.514749,43.742475],[-122.514676,43.742469],[-122.514605,43.742461],[-122.514533,43.742452],[-122.514463,43.742441],[-122.514392,43.742429],[-122.514321,43.742415],[-122.51425,43.742401],[-122.514178,43.742385],[-122.51411,43.742369],[-122.514041,43.742352],[-122.513974,43.742333],[-122.513906,43.742312],[-122.513835,43.742291],[-122.513767,43.74227],[-122.513697,43.742248],[-122.513629,43.742226],[-122.51356,43.742204],[-122.513492,43.742182],[-122.51348,43.742178],[-122.513423,43.742159],[-122.513355,43.742136],[-122.513286,43.742113],[-122.513218,43.74209],[-122.51315,43.742067],[-122.513083,43.742043],[-122.513014,43.742019],[-122.512948,43.741995],[-122.512879,43.741971],[-122.512813,43.741947],[-122.512747,43.741922],[-122.51268,43.741896],[-122.512613,43.741871],[-122.512546,43.741845],[-122.512479,43.74182],[-122.512412,43.741794],[-122.512344,43.741769],[-122.512277,43.741743],[-122.51221,43.741717],[-122.512143,43.741692],[-122.512076,43.741666],[-122.512009,43.741641],[-122.511942,43.741615],[-122.511875,43.74159],[-122.511808,43.741564],[-122.51174,43.741538],[-122.511673,43.741513],[-122.511606,43.741487],[-122.511539,43.741462],[-122.511473,43.741436],[-122.511408,43.741411],[-122.51134,43.741385],[-122.511273,43.741359],[-122.511206,43.741333],[-122.511138,43.741308],[-122.511071,43.741282],[-122.511004,43.741257],[-122.510937,43.741231],[-122.51087,43.741205],[-122.510803,43.74118],[-122.510736,43.741154],[-122.510669,43.741128],[-122.510601,43.741103],[-122.510535,43.741077],[-122.51047,43.741051],[-122.510402,43.741026],[-122.510333,43.740999],[-122.509917,43.740856],[-122.509916,43.740908],[-122.509915,43.741031],[-122.509914,43.741037],[-122.510232,43.741146],[-122.510297,43.741171],[-122.510363,43.741197],[-122.510428,43.741222],[-122.510496,43.741248],[-122.510563,43.741274],[-122.51063,43.741299],[-122.510697,43.741325],[-122.510764,43.741351],[-122.510832,43.741376],[-122.510899,43.741402],[-122.510966,43.741428],[-122.511033,43.741453],[-122.5111,43.741479],[-122.511167,43.741505],[-122.511234,43.74153],[-122.511301,43.741556],[-122.511366,43.741581],[-122.511434,43.741607],[-122.511501,43.741633],[-122.511568,43.741659],[-122.511635,43.741684],[-122.511702,43.74171],[-122.51177,43.741735],[-122.511837,43.741761],[-122.511904,43.741786],[-122.511971,43.741812],[-122.512038,43.741838],[-122.512105,43.741863],[-122.512172,43.741889],[-122.512239,43.741914],[-122.512306,43.74194],[-122.512373,43.741965],[-122.512441,43.741991],[-122.512508,43.742017],[-122.512575,43.742042],[-122.512642,43.742068],[-122.51271,43.742093],[-122.512778,43.742118],[-122.512848,43.742143],[-122.512915,43.742167],[-122.512949,43.742179],[-122.512984,43.742191],[-122.513052,43.742215],[-122.513122,43.742239],[-122.513191,43.742262],[-122.51326,43.742286],[-122.513329,43.742309],[-122.513399,43.742332],[-122.513468,43.742354],[-122.513537,43.742377],[-122.513607,43.742399],[-122.513678,43.742421],[-122.513748,43.742442],[-122.513819,43.742464],[-122.513888,43.742485],[-122.513963,43.742507],[-122.514039,43.742525],[-122.514111,43.742543],[-122.514188,43.742559],[-122.514262,43.742574],[-122.514336,43.742588],[-122.514414,43.742602],[-122.514491,43.742614],[-122.514569,43.742623],[-122.514646,43.742632],[-122.514724,43.742639],[-122.5148,43.742645],[-122.514874,43.742651],[-122.51495,43.742657],[-122.515024,43.742663],[-122.515097,43.74267],[-122.515172,43.742678],[-122.515245,43.742686],[-122.515319,43.742694],[-122.515395,43.742703],[-122.515469,43.742712],[-122.515543,43.74272],[-122.515619,43.742729],[-122.515694,43.742738],[-122.515774,43.742745],[-122.515852,43.742751],[-122.515932,43.742755],[-122.516011,43.742756],[-122.516091,43.742756],[-122.51617,43.742754],[-122.51625,43.742749],[-122.516327,43.742743],[-122.516405,43.742736],[-122.516481,43.742729],[-122.516559,43.742719],[-122.516637,43.742709],[-122.516713,43.742697],[-122.516788,43.742684],[-122.516864,43.74267],[-122.51694,43.742655],[-122.517014,43.742638],[-122.517087,43.742621],[-122.517162,43.742601],[-122.517238,43.742579],[-122.517311,43.742554],[-122.517381,43.742528],[-122.517452,43.742499],[-122.51752,43.742468],[-122.517585,43.742437],[-122.517647,43.742406],[-122.51771,43.742375],[-122.517771,43.742344],[-122.517834,43.742313],[-122.517898,43.742282],[-122.517959,43.742251],[-122.518022,43.742221],[-122.518084,43.74219],[-122.518147,43.742159],[-122.518208,43.742128],[-122.518271,43.742098],[-122.518333,43.742068],[-122.518391,43.742041],[-122.518454,43.742016],[-122.518517,43.741994],[-122.518582,43.741973],[-122.518647,43.741955],[-122.518682,43.741946],[-122.518714,43.741939],[-122.518781,43.741924],[-122.51885,43.741912],[-122.51892,43.741902],[-122.518989,43.741894],[-122.519059,43.741889],[-122.51913,43.741886],[-122.519202,43.741884],[-122.519276,43.741884],[-122.519351,43.741885],[-122.519424,43.741886],[-122.519498,43.741888],[-122.519571,43.741891],[-122.519645,43.741896],[-122.519716,43.741901],[-122.51979,43.741908],[-122.519864,43.741916],[-122.519939,43.741923],[-122.520011,43.741931],[-122.520086,43.74194],[-122.520158,43.74195],[-122.52023,43.741961],[-122.520303,43.741972],[-122.520374,43.741984],[-122.520449,43.741997],[-122.520523,43.742009],[-122.520597,43.742022],[-122.520669,43.742034],[-122.520744,43.742047],[-122.520818,43.742059],[-122.520892,43.742072],[-122.520964,43.742084],[-122.52104,43.742097],[-122.521114,43.742109],[-122.521189,43.74212],[-122.521263,43.742132],[-122.521338,43.742143],[-122.521412,43.742154],[-122.521486,43.742166],[-122.521558,43.742177],[-122.521632,43.742189],[-122.521707,43.7422],[-122.521781,43.742212],[-122.521854,43.742223],[-122.521926,43.742235],[-122.521995,43.742249],[-122.522067,43.742263],[-122.522135,43.742279],[-122.522205,43.742296],[-122.522273,43.742314],[-122.52234,43.742334],[-122.522406,43.742355],[-122.522473,43.742377],[-122.52254,43.742401],[-122.522607,43.742425],[-122.522675,43.74245],[-122.522744,43.742474],[-122.522811,43.742498],[-122.522879,43.742523],[-122.522947,43.742547],[-122.523016,43.742571],[-122.523083,43.742596],[-122.523152,43.74262],[-122.523218,43.742644],[-122.523286,43.742669],[-122.523355,43.742693],[-122.523421,43.742717],[-122.523489,43.742741],[-122.523556,43.742767],[-122.523624,43.742792],[-122.523693,43.742817],[-122.523765,43.742841],[-122.523837,43.742863],[-122.523908,43.742885],[-122.523981,43.742905],[-122.524054,43.742925],[-122.524129,43.742944],[-122.524202,43.742961],[-122.524273,43.742977],[-122.524346,43.742994],[-122.524419,43.74301],[-122.524491,43.743027],[-122.524564,43.743043],[-122.524637,43.74306],[-122.524711,43.743076],[-122.524782,43.74309],[-122.524849,43.743106],[-122.524914,43.743124],[-122.524977,43.743145],[-122.525039,43.743168],[-122.525099,43.743194],[-122.525157,43.743222],[-122.525212,43.743252],[-122.525266,43.743285],[-122.525317,43.743319],[-122.525366,43.743356],[-122.525415,43.743395],[-122.525466,43.743436],[-122.525516,43.743477],[-122.525567,43.743518],[-122.525618,43.743559],[-122.525671,43.7436],[-122.525721,43.74364],[-122.525771,43.743681],[-122.525824,43.743723],[-122.525882,43.743764],[-122.525938,43.743803],[-122.525997,43.743842],[-122.526057,43.743879],[-122.526119,43.743914],[-122.526181,43.743949],[-122.526246,43.743982],[-122.526312,43.744014],[-122.526378,43.744045],[-122.526445,43.744074],[-122.526513,43.744102],[-122.526583,43.744129],[-122.526653,43.744154],[-122.526724,43.744178],[-122.526793,43.7442],[-122.526861,43.744223],[-122.52693,43.744246],[-122.526999,43.744269],[-122.527068,43.744292],[-122.527137,43.744315],[-122.527207,43.744338],[-122.527275,43.74436],[-122.527343,43.744383],[-122.527409,43.744407],[-122.527473,43.744431],[-122.527536,43.744456],[-122.5276,43.744483],[-122.52767,43.744513],[-122.527635,43.74456],[-122.527599,43.744608],[-122.527563,43.744657],[-122.527526,43.744705],[-122.52749,43.744754],[-122.527456,43.744802],[-122.52742,43.74485],[-122.527384,43.744898],[-122.527347,43.744946],[-122.527311,43.744994],[-122.527275,43.745043],[-122.52724,43.745092],[-122.527206,43.74514],[-122.52717,43.745189],[-122.527136,43.745237],[-122.527099,43.745286],[-122.527074,43.745322],[-122.526877,43.745218],[-122.526675,43.745119],[-122.526469,43.745024],[-122.52626,43.744934],[-122.526046,43.744849],[-122.525829,43.744768],[-122.525609,43.744692],[-122.525386,43.744621],[-122.52516,43.744555],[-122.524931,43.744495],[-122.5247,43.744439],[-122.524466,43.744388],[-122.524231,43.744343],[-122.523994,43.744302],[-122.523755,43.744267],[-122.523515,43.744238],[-122.523273,43.744214],[-122.523031,43.744195],[-122.522788,43.744181],[-122.522544,43.744173],[-122.522301,43.74417],[-122.522057,43.744172],[-122.521814,43.74418],[-122.521571,43.744194],[-122.521328,43.744213],[-122.521087,43.744237],[-122.520846,43.744266],[-122.520608,43.744301],[-122.520319,43.744351],[-122.520031,43.744406],[-122.519745,43.744464],[-122.519461,43.744525],[-122.511175,43.746315],[-122.511167,43.74743],[-122.511167,43.747463],[-122.511348,43.747423],[-122.511558,43.747378],[-122.51991,43.745574],[-122.520169,43.745518],[-122.520429,43.745465],[-122.52069,43.745416],[-122.520953,43.74537],[-122.521169,43.745339],[-122.521387,43.745314],[-122.521605,43.745294],[-122.521824,43.74528],[-122.522044,43.745271],[-122.522264,43.745268],[-122.522484,43.745269],[-122.522704,43.745277],[-122.522924,43.74529],[-122.523143,43.745308],[-122.52336,43.745331],[-122.523577,43.74536],[-122.523792,43.745394],[-122.524005,43.745434],[-122.524217,43.745479],[-122.524426,43.745529],[-122.524632,43.745584],[-122.524836,43.745644],[-122.525036,43.745708],[-122.525233,43.745778],[-122.525427,43.745852],[-122.525618,43.745931],[-122.525804,43.746015],[-122.525987,43.746104],[-122.526165,43.746196],[-122.526339,43.746293],[-122.526508,43.746395],[-122.526672,43.7465],[-122.526831,43.74661],[-122.526985,43.746723],[-122.527104,43.746817],[-122.527103,43.74666],[-122.527103,43.746419]]],[[[-122.514076,43.748472],[-122.514152,43.748414],[-122.514233,43.748359],[-122.514318,43.748309],[-122.514407,43.748262],[-122.514501,43.748219],[-122.514597,43.74818],[-122.514697,43.748146],[-122.514799,43.748116],[-122.514904,43.748091],[-122.51501,43.74807],[-122.515118,43.748054],[-122.515228,43.748043],[-122.515338,43.748037],[-122.515448,43.748035],[-122.515558,43.748039],[-122.519177,43.748233],[-122.519399,43.748247],[-122.51962,43.748267],[-122.51984,43.748292],[-122.520059,43.748321],[-122.523129,43.748776],[-122.523243,43.748795],[-122.523356,43.74882],[-122.523466,43.748849],[-122.523573,43.748883],[-122.523677,43.748922],[-122.523778,43.748966],[-122.523875,43.749013],[-122.523968,43.749065],[-122.524056,43.749122],[-122.524139,43.749181],[-122.524218,43.749245],[-122.52429,43.749312],[-122.525342,43.75034],[-122.525405,43.750406],[-122.525464,43.750475],[-122.525517,43.750546],[-122.525564,43.750619],[-122.525605,43.750694],[-122.52564,43.75077],[-122.525668,43.750848],[-122.525691,43.750927],[-122.525707,43.751007],[-122.525717,43.751088],[-122.52572,43.751168],[-122.525722,43.752189],[-122.525718,43.752347],[-122.525708,43.752506],[-122.525691,43.752664],[-122.525668,43.752822],[-122.526169,43.752833],[-122.526192,43.752672],[-122.526208,43.752511],[-122.526218,43.75235],[-122.526221,43.752189],[-122.52622,43.751169],[-122.526216,43.751075],[-122.526206,43.750982],[-122.526189,43.75089],[-122.526165,43.750798],[-122.526134,43.750708],[-122.526097,43.750619],[-122.526053,43.750531],[-122.526003,43.750445],[-122.525947,43.750361],[-122.525885,43.75028],[-122.525817,43.750201],[-122.525743,43.750124],[-122.524691,43.749096],[-122.524613,43.749024],[-122.52453,43.748955],[-122.524442,43.748889],[-122.524349,43.748826],[-122.524252,43.748767],[-122.524151,43.748711],[-122.524046,43.74866],[-122.523937,43.748613],[-122.523825,43.74857],[-122.52371,43.748531],[-122.523593,43.748496],[-122.523473,43.748467],[-122.523351,43.748441],[-122.523228,43.748421],[-122.520158,43.747967],[-122.51997,43.747941],[-122.519782,43.747918],[-122.519592,43.747899],[-122.519403,43.747884],[-122.519212,43.747872],[-122.515594,43.747677],[-122.515462,43.747673],[-122.51533,43.747674],[-122.515198,43.747681],[-122.515068,43.747693],[-122.514938,43.747711],[-122.51481,43.747733],[-122.514684,43.747761],[-122.51456,43.747795],[-122.514439,43.747833],[-122.514322,43.747876],[-122.514207,43.747924],[-122.514097,43.747977],[-122.513991,43.748034],[-122.51389,43.748095],[-122.513794,43.74816],[-122.513703,43.74823],[-122.513445,43.748439],[-122.513381,43.748486],[-122.513312,43.74853],[-122.513239,43.74857],[-122.513163,43.748606],[-122.513082,43.748637],[-122.512999,43.748664],[-122.512912,43.748687],[-122.512824,43.748704],[-122.512734,43.748716],[-122.512644,43.748724],[-122.512552,43.748726],[-122.512461,43.748723],[-122.51237,43.748716],[-122.51228,43.748703],[-122.512192,43.748685],[-122.509856,43.748144],[-122.509853,43.748523],[-122.512042,43.74903],[-122.512146,43.749051],[-122.512251,43.749068],[-122.512358,43.74908],[-122.512466,43.749086],[-122.512573,43.749088],[-122.512681,43.749085],[-122.512789,43.749076],[-122.512895,43.749063],[-122.513,43.749045],[-122.513104,43.749022],[-122.513205,43.748995],[-122.513303,43.748962],[-122.513399,43.748926],[-122.513491,43.748885],[-122.513579,43.74884],[-122.513663,43.74879],[-122.513742,43.748737],[-122.513817,43.748681],[-122.514076,43.748472]]]]}},{"type":"Feature","properties":{"MAPTAXLOT":"2125130000088","MAPNUMBER":"21251300","TAXLOT":"88","ACCTNO":"000None","MAPACRES":26.77216912},"geometry":{"type":"Polygon","coordinates":[[[-122.526229,43.754455],[-122.527382,43.755238],[-122.527517,43.755104],[-122.527658,43.754968],[-122.527682,43.754601],[-122.527654,43.75413],[-122.527606,43.753781],[-122.527502,43.753566],[-122.527192,43.752925],[-122.527159,43.752855],[-122.527121,43.752773],[-122.527009,43.752535],[-122.526864,43.752162],[-122.526912,43.751803],[-122.526807,43.751219],[-122.526485,43.750613],[-122.526259,43.750069],[-122.526025,43.749575],[-122.525715,43.748986],[-122.525354,43.748302],[-122.524927,43.747811],[-122.524632,43.747611],[-122.524421,43.74747],[-122.52394,43.747128],[-122.523401,43.746749],[-122.522903,43.746488],[-122.52236,43.74626],[-122.521864,43.746045],[-122.521378,43.745895],[-122.520842,43.745852],[-122.520179,43.74579],[-122.519708,43.745804],[-122.518978,43.745908],[-122.518196,43.746072],[-122.517406,43.746268],[-122.516715,43.746418],[-122.516144,43.746651],[-122.515662,43.746875],[-122.515017,43.747069],[-122.514642,43.747233],[-122.514081,43.747517],[-122.51371,43.747799],[-122.513305,43.748121],[-122.51301,43.748237],[-122.512692,43.748222],[-122.512279,43.748058],[-122.511946,43.747847],[-122.511683,43.747588],[-122.511558,43.747378],[-122.511348,43.747423],[-122.511418,43.747547],[-122.511486,43.74796],[-122.511521,43.748169],[-122.511561,43.748274],[-122.511773,43.748395],[-122.512157,43.748507],[-122.512523,43.7486],[-122.512885,43.748607],[-122.513118,43.748531],[-122.513366,43.74835],[-122.513613,43.748182],[-122.513906,43.747994],[-122.514227,43.747844],[-122.51456,43.747732],[-122.515004,43.74745],[-122.515225,43.747295],[-122.515628,43.747164],[-122.516025,43.747131],[-122.516475,43.747052],[-122.516951,43.746933],[-122.51738,43.746742],[-122.51797,43.746562],[-122.518733,43.746379],[-122.51952,43.746327],[-122.520254,43.746354],[-122.520846,43.74645],[-122.521211,43.746516],[-122.52181,43.746815],[-122.522639,43.747158],[-122.523264,43.74748],[-122.523796,43.747873],[-122.524336,43.748144],[-122.524894,43.748597],[-122.525232,43.748921],[-122.525536,43.749344],[-122.525793,43.749795],[-122.526061,43.750218],[-122.526255,43.750617],[-122.526453,43.751452],[-122.526437,43.752052],[-122.526453,43.752497],[-122.526376,43.752735],[-122.52634,43.752836],[-122.526255,43.753077],[-122.526185,43.753489],[-122.526186,43.753899],[-122.52622,43.754254],[-122.526229,43.754455]]]}},{"type":"Feature","properties":{"MAPTAXLOT":"2125130000170","MAPNUMBER":"21251300","TAXLOT":"170","ACCTNO":"0946853","MAPACRES":26.84036721},"geometry":{"type":"Polygon","coordinates":[[[-122.527385,43.75286],[-122.529612,43.752908],[-122.529591,43.749458],[-122.52959,43.749321],[-122.529589,43.749097],[-122.529586,43.748577],[-122.529445,43.748451],[-122.528347,43.748445],[-122.528344,43.747527],[-122.527106,43.747527],[-122.527108,43.748437],[-122.527111,43.74932],[-122.527121,43.752773],[-122.527159,43.752855],[-122.527385,43.75286]]]}},{"type":"Feature","properties":{"MAPTAXLOT":"2125130000180","MAPNUMBER":"21251300","TAXLOT":"180","ACCTNO":"0946861","MAPACRES":118.40260754},"geometry":{"type":"MultiPolygon","coordinates":[[[[-122.509848,43.749304],[-122.514756,43.74931],[-122.519671,43.749315],[-122.51966,43.751003],[-122.519649,43.752692],[-122.52463,43.752799],[-122.525668,43.752822],[-122.525691,43.752664],[-122.525708,43.752506],[-122.525718,43.752347],[-122.525722,43.752189],[-122.52572,43.751168],[-122.525717,43.751088],[-122.525707,43.751007],[-122.525691,43.750927],[-122.525668,43.750848],[-122.52564,43.75077],[-122.525605,43.750694],[-122.525564,43.750619],[-122.525517,43.750546],[-122.525464,43.750475],[-122.525405,43.750406],[-122.525342,43.75034],[-122.52429,43.749312],[-122.524218,43.749245],[-122.524139,43.749181],[-122.524056,43.749122],[-122.523968,43.749065],[-122.523875,43.749013],[-122.523778,43.748966],[-122.523677,43.748922],[-122.523573,43.748883],[-122.523466,43.748849],[-122.523356,43.74882],[-122.523243,43.748795],[-122.523129,43.748776],[-122.520059,43.748321],[-122.51984,43.748292],[-122.51962,43.748267],[-122.519399,43.748247],[-122.519177,43.748233],[-122.515558,43.748039],[-122.515448,43.748035],[-122.515338,43.748037],[-122.515228,43.748043],[-122.515118,43.748054],[-122.51501,43.74807],[-122.514904,43.748091],[-122.514799,43.748116],[-122.514697,43.748146],[-122.514597,43.74818],[-122.514501,43.748219],[-122.514407,43.748262],[-122.514318,43.748309],[-122.514233,43.748359],[-122.514152,43.748414],[-122.514076,43.748472],[-122.513817,43.748681],[-122.513742,43.748737],[-122.513663,43.74879],[-122.513579,43.74884],[-122.513491,43.748885],[-122.513399,43.748926],[-122.513303,43.748962],[-122.513205,43.748995],[-122.513104,43.749022],[-122.513,43.749045],[-122.512895,43.749063],[-122.512789,43.749076],[-122.512681,43.749085],[-122.512573,43.749088],[-122.512466,43.749086],[-122.512358,43.74908],[-122.512251,43.749068],[-122.512146,43.749051],[-122.512042,43.74903],[-122.509853,43.748523],[-122.509848,43.749304]]],[[[-122.524632,43.745737],[-122.524632,43.747527],[-122.524632,43.747611],[-122.524927,43.747811],[-122.525354,43.748302],[-122.525715,43.748986],[-122.526025,43.749575],[-122.526259,43.750069],[-122.526485,43.750613],[-122.526807,43.751219],[-122.526912,43.751803],[-122.526864,43.752162],[-122.527009,43.752535],[-122.527121,43.752773],[-122.527111,43.74932],[-122.527108,43.748437],[-122.527106,43.747527],[-122.527104,43.746817],[-122.526985,43.746723],[-122.526831,43.74661],[-122.526672,43.7465],[-122.526508,43.746395],[-122.526339,43.746293],[-122.526165,43.746196],[-122.525987,43.746104],[-122.525804,43.746015],[-122.525618,43.745931],[-122.525427,43.745852],[-122.525233,43.745778],[-122.525036,43.745708],[-122.524836,43.745644],[-122.524632,43.745584],[-122.524632,43.745737]]],[[[-122.513703,43.74823],[-122.513794,43.74816],[-122.51389,43.748095],[-122.513991,43.748034],[-122.514097,43.747977],[-122.514207,43.747924],[-122.514322,43.747876],[-122.514439,43.747833],[-122.51456,43.747795],[-122.514684,43.747761],[-122.51481,43.747733],[-122.514938,43.747711],[-122.515068,43.747693],[-122.515198,43.747681],[-122.51533,43.747674],[-122.515462,43.747673],[-122.515594,43.747677],[-122.519212,43.747872],[-122.519403,43.747884],[-122.519592,43.747899],[-122.519782,43.747918],[-122.51997,43.747941],[-122.520158,43.747967],[-122.523228,43.748421],[-122.523351,43.748441],[-122.523473,43.748467],[-122.523593,43.748496],[-122.52371,43.748531],[-122.523825,43.74857],[-122.523937,43.748613],[-122.524046,43.74866],[-122.524151,43.748711],[-122.524252,43.748767],[-122.524349,43.748826],[-122.524442,43.748889],[-122.52453,43.748955],[-122.524613,43.749024],[-122.524691,43.749096],[-122.525743,43.750124],[-122.525817,43.750201],[-122.525885,43.75028],[-122.525947,43.750361],[-122.526003,43.750445],[-122.526053,43.750531],[-122.526097,43.750619],[-122.526134,43.750708],[-122.526165,43.750798],[-122.526189,43.75089],[-122.526206,43.750982],[-122.526216,43.751075],[-122.52622,43.751169],[-122.526221,43.752189],[-122.526218,43.75235],[-122.526208,43.752511],[-122.526192,43.752672],[-122.526169,43.752833],[-122.52634,43.752836],[-122.526376,43.752735],[-122.526453,43.752497],[-122.526437,43.752052],[-122.526453,43.751452],[-122.526255,43.750617],[-122.526061,43.750218],[-122.525793,43.749795],[-122.525536,43.749344],[-122.525232,43.748921],[-122.524894,43.748597],[-122.524336,43.748144],[-122.523796,43.747873],[-122.523264,43.74748],[-122.522639,43.747158],[-122.52181,43.746815],[-122.521211,43.746516],[-122.520846,43.74645],[-122.520254,43.746354],[-122.51952,43.746327],[-122.518733,43.746379],[-122.51797,43.746562],[-122.51738,43.746742],[-122.516951,43.746933],[-122.516475,43.747052],[-122.516025,43.747131],[-122.515628,43.747164],[-122.515225,43.747295],[-122.515004,43.74745],[-122.51456,43.747732],[-122.514227,43.747844],[-122.513906,43.747994],[-122.513613,43.748182],[-122.513366,43.74835],[-122.513118,43.748531],[-122.512885,43.748607],[-122.512523,43.7486],[-122.512157,43.748507],[-122.511773,43.748395],[-122.511561,43.748274],[-122.511521,43.748169],[-122.511486,43.74796],[-122.511418,43.747547],[-122.511348,43.747423],[-122.511167,43.747463],[-122.509859,43.747745],[-122.509856,43.748144],[-122.512192,43.748685],[-122.51228,43.748703],[-122.51237,43.748716],[-122.512461,43.748723],[-122.512552,43.748726],[-122.512644,43.748724],[-122.512734,43.748716],[-122.512824,43.748704],[-122.512912,43.748687],[-122.512999,43.748664],[-122.513082,43.748637],[-122.513163,43.748606],[-122.513239,43.74857],[-122.513312,43.74853],[-122.513381,43.748486],[-122.513445,43.748439],[-122.513703,43.74823]]]]}},{"type":"Feature","properties":{"MAPTAXLOT":"2125130000190","MAPNUMBER":"21251300","TAXLOT":"190","ACCTNO":"0946879","MAPACRES":266.62194266},"geometry":{"type":"MultiPolygon","coordinates":[[[[-122.519199,43.74172],[-122.519276,43.74172],[-122.519353,43.74172],[-122.519431,43.741721],[-122.519509,43.741724],[-122.519587,43.741727],[-122.519666,43.741732],[-122.519742,43.741738],[-122.51982,43.741745],[-122.519894,43.741753],[-122.519971,43.74176],[-122.520047,43.741769],[-122.520125,43.741778],[-122.5202,43.741788],[-122.520276,43.741799],[-122.520352,43.741811],[-122.520426,43.741824],[-122.5205,43.741836],[-122.520574,43.741849],[-122.520648,43.741861],[-122.520721,43.741874],[-122.520795,43.741886],[-122.520869,43.741899],[-122.520943,43.741912],[-122.521015,43.741924],[-122.521089,43.741936],[-122.521162,43.741948],[-122.521236,43.741959],[-122.52131,43.741971],[-122.521384,43.741982],[-122.521458,43.741993],[-122.521533,43.742005],[-122.521605,43.742017],[-122.521679,43.742028],[-122.521753,43.742039],[-122.521828,43.742051],[-122.521903,43.742063],[-122.52198,43.742075],[-122.522054,43.74209],[-122.522132,43.742105],[-122.522205,43.742122],[-122.52228,43.742141],[-122.522353,43.742161],[-122.522427,43.742182],[-122.522499,43.742205],[-122.52257,43.742229],[-122.522641,43.742253],[-122.522708,43.742278],[-122.522775,43.742302],[-122.522843,43.742326],[-122.522911,43.742351],[-122.52298,43.742375],[-122.523047,43.742399],[-122.523115,43.742424],[-122.523183,43.742448],[-122.523252,43.742472],[-122.523319,43.742497],[-122.523386,43.742521],[-122.523455,43.742545],[-122.523522,43.74257],[-122.523592,43.742595],[-122.52366,43.742621],[-122.523726,43.742645],[-122.52379,43.742668],[-122.523857,43.74269],[-122.523926,43.742712],[-122.523993,43.742732],[-122.524061,43.742752],[-122.52413,43.74277],[-122.5242,43.742788],[-122.524271,43.742804],[-122.524341,43.742821],[-122.524413,43.742837],[-122.524486,43.742853],[-122.524558,43.74287],[-122.524631,43.742886],[-122.524703,43.742902],[-122.524773,43.742918],[-122.524847,43.742932],[-122.524925,43.742951],[-122.525002,43.742973],[-122.525076,43.742997],[-122.525149,43.743024],[-122.525219,43.743055],[-122.525288,43.743088],[-122.525353,43.743123],[-122.525415,43.743161],[-122.525476,43.743201],[-122.525532,43.743244],[-122.525584,43.743285],[-122.525634,43.743326],[-122.525685,43.743367],[-122.525736,43.743408],[-122.525786,43.743448],[-122.525838,43.743489],[-122.525889,43.74353],[-122.52594,43.743571],[-122.525988,43.74361],[-122.52604,43.743646],[-122.526092,43.743683],[-122.526145,43.743718],[-122.526201,43.743752],[-122.526258,43.743785],[-122.526316,43.743817],[-122.526375,43.743847],[-122.526436,43.743877],[-122.526497,43.743905],[-122.52656,43.743932],[-122.526622,43.743958],[-122.526687,43.743983],[-122.526751,43.744006],[-122.526817,43.744028],[-122.526886,43.74405],[-122.526956,43.744074],[-122.527025,43.744097],[-122.527094,43.74412],[-122.527163,43.744143],[-122.527232,43.744166],[-122.5273,43.744188],[-122.527369,43.744211],[-122.52744,43.744235],[-122.527511,43.74426],[-122.527581,43.744286],[-122.527648,43.744313],[-122.527715,43.744341],[-122.527846,43.744398],[-122.527931,43.744436],[-122.527996,43.744466],[-122.52806,43.744495],[-122.528125,43.744525],[-122.528192,43.744558],[-122.528256,43.744591],[-122.528317,43.744625],[-122.528378,43.744659],[-122.528439,43.744694],[-122.528499,43.74473],[-122.528558,43.744766],[-122.528615,43.744803],[-122.528674,43.744841],[-122.52873,43.744879],[-122.528785,43.744916],[-122.528842,43.744953],[-122.528896,43.74499],[-122.529007,43.745064],[-122.529045,43.745089],[-122.529083,43.745115],[-122.529126,43.745144],[-122.529176,43.745177],[-122.52921,43.745199],[-122.529274,43.745241],[-122.529307,43.745262],[-122.529349,43.745288],[-122.529414,43.745325],[-122.529567,43.74541],[-122.529565,43.745075],[-122.529559,43.744052],[-122.529544,43.742425],[-122.529548,43.742145],[-122.52953,43.73911],[-122.52953,43.738557],[-122.524635,43.738574],[-122.519739,43.73859],[-122.514845,43.738608],[-122.509949,43.738622],[-122.509924,43.740404],[-122.51483,43.740391],[-122.514815,43.742175],[-122.51348,43.742178],[-122.513492,43.742182],[-122.51356,43.742204],[-122.513629,43.742226],[-122.513697,43.742248],[-122.513767,43.74227],[-122.513835,43.742291],[-122.513906,43.742312],[-122.513974,43.742333],[-122.514041,43.742352],[-122.51411,43.742369],[-122.514178,43.742385],[-122.51425,43.742401],[-122.514321,43.742415],[-122.514392,43.742429],[-122.514463,43.742441],[-122.514533,43.742452],[-122.514605,43.742461],[-122.514676,43.742469],[-122.514749,43.742475],[-122.514825,43.742481],[-122.514899,43.742487],[-122.514975,43.742493],[-122.515052,43.7425],[-122.515127,43.742507],[-122.515204,43.742515],[-122.51528,43.742523],[-122.515354,43.742532],[-122.51543,43.74254],[-122.515504,43.742549],[-122.515578,43.742558],[-122.515654,43.742566],[-122.515727,43.742575],[-122.515799,43.742582],[-122.515869,43.742587],[-122.515941,43.74259],[-122.516013,43.742592],[-122.516085,43.742591],[-122.516156,43.742589],[-122.516228,43.742585],[-122.516301,43.742579],[-122.516375,43.742573],[-122.516446,43.742566],[-122.516519,43.742557],[-122.516592,43.742548],[-122.516662,43.742537],[-122.516733,43.742524],[-122.516805,43.742511],[-122.516875,43.742497],[-122.516944,43.742481],[-122.517013,43.742465],[-122.517081,43.742447],[-122.517147,43.742428],[-122.517209,43.742407],[-122.517273,43.742383],[-122.517336,43.742357],[-122.517396,43.74233],[-122.517457,43.7423],[-122.517518,43.74227],[-122.517581,43.742239],[-122.517643,43.742208],[-122.517707,43.742177],[-122.517769,43.742146],[-122.517831,43.742115],[-122.517894,43.742084],[-122.517956,43.742054],[-122.518019,43.742023],[-122.51808,43.741992],[-122.518144,43.741961],[-122.518209,43.741929],[-122.518277,43.741899],[-122.518349,43.74187],[-122.518377,43.74186],[-122.51835,43.741852],[-122.518328,43.741844],[-122.518281,43.741827],[-122.518248,43.741814],[-122.518217,43.741802],[-122.518183,43.741787],[-122.518145,43.741766],[-122.518121,43.74175],[-122.518082,43.74172],[-122.518063,43.741703],[-122.517538,43.741165],[-122.517661,43.741102],[-122.518183,43.741637],[-122.518196,43.741648],[-122.518227,43.741672],[-122.518241,43.741681],[-122.518269,43.741697],[-122.518292,43.741707],[-122.518319,43.741718],[-122.518351,43.74173],[-122.518393,43.741745],[-122.518412,43.741752],[-122.518457,43.741766],[-122.518484,43.741773],[-122.518529,43.741786],[-122.518563,43.741795],[-122.518573,43.741798],[-122.518647,43.741781],[-122.518722,43.741765],[-122.518801,43.741751],[-122.518881,43.74174],[-122.518959,43.741731],[-122.519039,43.741725],[-122.51912,43.741721],[-122.519199,43.74172]]],[[[-122.527768,43.744613],[-122.527732,43.744661],[-122.527696,43.744709],[-122.527659,43.744757],[-122.527624,43.744805],[-122.527589,43.744853],[-122.527553,43.744902],[-122.527517,43.74495],[-122.52748,43.744999],[-122.527444,43.745047],[-122.527409,43.745095],[-122.527375,43.745142],[-122.52734,43.745192],[-122.527304,43.74524],[-122.52727,43.745289],[-122.527233,43.745337],[-122.527199,43.745386],[-122.527197,43.745389],[-122.527388,43.7455],[-122.527574,43.745615],[-122.527756,43.745735],[-122.528334,43.745734],[-122.529228,43.745734],[-122.529569,43.745734],[-122.529568,43.745617],[-122.529276,43.745455],[-122.529206,43.745416],[-122.52916,43.745387],[-122.529123,43.745364],[-122.529059,43.745322],[-122.529024,43.7453],[-122.528972,43.745265],[-122.528927,43.745234],[-122.528891,43.745209],[-122.528855,43.745186],[-122.528742,43.745111],[-122.528687,43.745074],[-122.528632,43.745037],[-122.528575,43.744999],[-122.528522,43.744962],[-122.528465,43.744926],[-122.52841,43.74489],[-122.528353,43.744856],[-122.528297,43.744822],[-122.528238,43.744788],[-122.528179,43.744755],[-122.528121,43.744723],[-122.528062,43.744692],[-122.528001,43.744662],[-122.527939,43.744634],[-122.527876,43.744605],[-122.527811,43.744576],[-122.527799,43.744571],[-122.527768,43.744613]]],[[[-122.511087,43.744812],[-122.511087,43.74535],[-122.511149,43.745822],[-122.511167,43.746284],[-122.511175,43.746315],[-122.519461,43.744525],[-122.519745,43.744464],[-122.520031,43.744406],[-122.520319,43.744351],[-122.520608,43.744301],[-122.520846,43.744266],[-122.521087,43.744237],[-122.521328,43.744213],[-122.521571,43.744194],[-122.521814,43.74418],[-122.522057,43.744172],[-122.522301,43.74417],[-122.522544,43.744173],[-122.522788,43.744181],[-122.523031,43.744195],[-122.523273,43.744214],[-122.523515,43.744238],[-122.523755,43.744267],[-122.523994,43.744302],[-122.524231,43.744343],[-122.524466,43.744388],[-122.5247,43.744439],[-122.524931,43.744495],[-122.52516,43.744555],[-122.525386,43.744621],[-122.525609,43.744692],[-122.525829,43.744768],[-122.526046,43.744849],[-122.52626,43.744934],[-122.526469,43.745024],[-122.526675,43.745119],[-122.526877,43.745218],[-122.527074,43.745322],[-122.527099,43.745286],[-122.527136,43.745237],[-122.52717,43.745189],[-122.527206,43.74514],[-122.52724,43.745092],[-122.527275,43.745043],[-122.527311,43.744994],[-122.527347,43.744946],[-122.527384,43.744898],[-122.52742,43.74485],[-122.527456,43.744802],[-122.52749,43.744754],[-122.527526,43.744705],[-122.527563,43.744657],[-122.527599,43.744608],[-122.527635,43.74456],[-122.52767,43.744513],[-122.5276,43.744483],[-122.527536,43.744456],[-122.527473,43.744431],[-122.527409,43.744407],[-122.527343,43.744383],[-122.527275,43.74436],[-122.527207,43.744338],[-122.527137,43.744315],[-122.527068,43.744292],[-122.526999,43.744269],[-122.52693,43.744246],[-122.526861,43.744223],[-122.526793,43.7442],[-122.526724,43.744178],[-122.526653,43.744154],[-122.526583,43.744129],[-122.526513,43.744102],[-122.526445,43.744074],[-122.526378,43.744045],[-122.526312,43.744014],[-122.526246,43.743982],[-122.526181,43.743949],[-122.526119,43.743914],[-122.526057,43.743879],[-122.525997,43.743842],[-122.525938,43.743803],[-122.525882,43.743764],[-122.525824,43.743723],[-122.525771,43.743681],[-122.525721,43.74364],[-122.525671,43.7436],[-122.525618,43.743559],[-122.525567,43.743518],[-122.525516,43.743477],[-122.525466,43.743436],[-122.525415,43.743395],[-122.525366,43.743356],[-122.525317,43.743319],[-122.525266,43.743285],[-122.525212,43.743252],[-122.525157,43.743222],[-122.525099,43.743194],[-122.525039,43.743168],[-122.524977,43.743145],[-122.524914,43.743124],[-122.524849,43.743106],[-122.524782,43.74309],[-122.524711,43.743076],[-122.524637,43.74306],[-122.524564,43.743043],[-122.524491,43.743027],[-122.524419,43.74301],[-122.524346,43.742994],[-122.524273,43.742977],[-122.524202,43.742961],[-122.524129,43.742944],[-122.524054,43.742925],[-122.523981,43.742905],[-122.523908,43.742885],[-122.523837,43.742863],[-122.523765,43.742841],[-122.523693,43.742817],[-122.523624,43.742792],[-122.523556,43.742767],[-122.523489,43.742741],[-122.523421,43.742717],[-122.523355,43.742693],[-122.523286,43.742669],[-122.523218,43.742644],[-122.523152,43.74262],[-122.523083,43.742596],[-122.523016,43.742571],[-122.522947,43.742547],[-122.522879,43.742523],[-122.522811,43.742498],[-122.522744,43.742474],[-122.522675,43.74245],[-122.522607,43.742425],[-122.52254,43.742401],[-122.522473,43.742377],[-122.522406,43.742355],[-122.52234,43.742334],[-122.522273,43.742314],[-122.522205,43.742296],[-122.522135,43.742279],[-122.522067,43.742263],[-122.521995,43.742249],[-122.521926,43.742235],[-122.521854,43.742223],[-122.521781,43.742212],[-122.521707,43.7422],[-122.521632,43.742189],[-122.521558,43.742177],[-122.521486,43.742166],[-122.521412,43.742154],[-122.521338,43.742143],[-122.521263,43.742132],[-122.521189,43.74212],[-122.521114,43.742109],[-122.52104,43.742097],[-122.520964,43.742084],[-122.520892,43.742072],[-122.520818,43.742059],[-122.520744,43.742047],[-122.520669,43.742034],[-122.520597,43.742022],[-122.520523,43.742009],[-122.520449,43.741997],[-122.520374,43.741984],[-122.520303,43.741972],[-122.52023,43.741961],[-122.520158,43.74195],[-122.520086,43.74194],[-122.520011,43.741931],[-122.519939,43.741923],[-122.519864,43.741916],[-122.51979,43.741908],[-122.519716,43.741901],[-122.519645,43.741896],[-122.519571,43.741891],[-122.519498,43.741888],[-122.519424,43.741886],[-122.519351,43.741885],[-122.519276,43.741884],[-122.519202,43.741884],[-122.51913,43.741886],[-122.519059,43.741889],[-122.518989,43.741894],[-122.51892,43.741902],[-122.51885,43.741912],[-122.518781,43.741924],[-122.518714,43.741939],[-122.518682,43.741946],[-122.518647,43.741955],[-122.518582,43.741973],[-122.518517,43.741994],[-122.518454,43.742016],[-122.518391,43.742041],[-122.518333,43.742068],[-122.518271,43.742098],[-122.518208,43.742128],[-122.518147,43.742159],[-122.518084,43.74219],[-122.518022,43.742221],[-122.517959,43.742251],[-122.517898,43.742282],[-122.517834,43.742313],[-122.517771,43.742344],[-122.51771,43.742375],[-122.517647,43.742406],[-122.517585,43.742437],[-122.51752,43.742468],[-122.517452,43.742499],[-122.517381,43.742528],[-122.517311,43.742554],[-122.517238,43.742579],[-122.517162,43.742601],[-122.517087,43.742621],[-122.517014,43.742638],[-122.51694,43.742655],[-122.516864,43.74267],[-122.516788,43.742684],[-122.516713,43.742697],[-122.516637,43.742709],[-122.516559,43.742719],[-122.516481,43.742729],[-122.516405,43.742736],[-122.516327,43.742743],[-122.51625,43.742749],[-122.51617,43.742754],[-122.516091,43.742756],[-122.516011,43.742756],[-122.515932,43.742755],[-122.515852,43.742751],[-122.515774,43.742745],[-122.515694,43.742738],[-122.515619,43.742729],[-122.515543,43.74272],[-122.515469,43.742712],[-122.515395,43.742703],[-122.515319,43.742694],[-122.515245,43.742686],[-122.515172,43.742678],[-122.515097,43.74267],[-122.515024,43.742663],[-122.51495,43.742657],[-122.514874,43.742651],[-122.5148,43.742645],[-122.514724,43.742639],[-122.514646,43.742632],[-122.514569,43.742623],[-122.514491,43.742614],[-122.514414,43.742602],[-122.514336,43.742588],[-122.514262,43.742574],[-122.514188,43.742559],[-122.514111,43.742543],[-122.514039,43.742525],[-122.513963,43.742507],[-122.513888,43.742485],[-122.513819,43.742464],[-122.513748,43.742442],[-122.513678,43.742421],[-122.513607,43.742399],[-122.513537,43.742377],[-122.513468,43.742354],[-122.513399,43.742332],[-122.513329,43.742309],[-122.51326,43.742286],[-122.513191,43.742262],[-122.513122,43.742239],[-122.513052,43.742215],[-122.512984,43.742191],[-122.512949,43.742179],[-122.510588,43.742183],[-122.510653,43.742268],[-122.510765,43.742614],[-122.510801,43.743126],[-122.510758,43.743724],[-122.510814,43.744014],[-122.510979,43.744315],[-122.511087,43.744812]]],[[[-122.511558,43.747378],[-122.511683,43.747588],[-122.511946,43.747847],[-122.512279,43.748058],[-122.512692,43.748222],[-122.51301,43.748237],[-122.513305,43.748121],[-122.51371,43.747799],[-122.514081,43.747517],[-122.514642,43.747233],[-122.515017,43.747069],[-122.515662,43.746875],[-122.516144,43.746651],[-122.516715,43.746418],[-122.517406,43.746268],[-122.518196,43.746072],[-122.518978,43.745908],[-122.519708,43.745804],[-122.520179,43.74579],[-122.520842,43.745852],[-122.521378,43.745895],[-122.521864,43.746045],[-122.52236,43.74626],[-122.522903,43.746488],[-122.523401,43.746749],[-122.52394,43.747128],[-122.524421,43.74747],[-122.524632,43.747611],[-122.524632,43.747527],[-122.524632,43.745737],[-122.524632,43.745584],[-122.524426,43.745529],[-122.524217,43.745479],[-122.524005,43.745434],[-122.523792,43.745394],[-122.523577,43.74536],[-122.52336,43.745331],[-122.523143,43.745308],[-122.522924,43.74529],[-122.522704,43.745277],[-122.522484,43.745269],[-122.522264,43.745268],[-122.522044,43.745271],[-122.521824,43.74528],[-122.521605,43.745294],[-122.521387,43.745314],[-122.521169,43.745339],[-122.520953,43.74537],[-122.52069,43.745416],[-122.520429,43.745465],[-122.520169,43.745518],[-122.51991,43.745574],[-122.511558,43.747378]]]]}},{"type":"Feature","properties":{"MAPTAXLOT":"2125130000200","MAPNUMBER":"21251300","TAXLOT":"200","ACCTNO":"0946887","MAPACRES":2.26005598},"geometry":{"type":"Polygon","coordinates":[[[-122.528341,43.746597],[-122.52846,43.746702],[-122.528577,43.746807],[-122.529024,43.747206],[-122.529579,43.746886],[-122.529571,43.746118],[-122.529569,43.745734],[-122.529228,43.745734],[-122.529232,43.746118],[-122.528902,43.746331],[-122.528339,43.746335],[-122.528341,43.746597]]]}},{"type":"Feature","properties":{"MAPTAXLOT":"2125130000201","MAPNUMBER":"21251300","TAXLOT":"201","ACCTNO":"0946895","MAPACRES":1.184765},"geometry":{"type":"Polygon","coordinates":[[[-122.528344,43.747527],[-122.528347,43.748445],[-122.529445,43.748451],[-122.528432,43.747547],[-122.528344,43.747468],[-122.528344,43.747527]]]}},{"type":"Feature","properties":{"MAPTAXLOT":"2125130000300","MAPNUMBER":"21251300","TAXLOT":"300","ACCTNO":"0946903","MAPACRES":1.64711109},"geometry":{"type":"Polygon","coordinates":[[[-122.527106,43.747527],[-122.528344,43.747527],[-122.528344,43.747468],[-122.527985,43.747148],[-122.527811,43.746992],[-122.527633,43.746839],[-122.527451,43.746688],[-122.527266,43.746539],[-122.527185,43.746479],[-122.527103,43.746419],[-122.527103,43.74666],[-122.527104,43.746817],[-122.527106,43.747527]]]}},{"type":"Feature","properties":{"MAPTAXLOT":"2125130000500","MAPNUMBER":"21251300","TAXLOT":"500","ACCTNO":"0946911","MAPACRES":0.82467579},"geometry":{"type":"Polygon","coordinates":[[[-122.527756,43.745735],[-122.527717,43.745735],[-122.527717,43.745735],[-122.52772,43.746091],[-122.527816,43.746163],[-122.527994,43.746306],[-122.528169,43.746451],[-122.528341,43.746597],[-122.528339,43.746335],[-122.528337,43.746118],[-122.528334,43.745734],[-122.527756,43.745735]]]}},{"type":"Feature","properties":{"MAPTAXLOT":"2125130000600","MAPNUMBER":"21251300","TAXLOT":"600","ACCTNO":"0946929","MAPACRES":1.10583607},"geometry":{"type":"Polygon","coordinates":[[[-122.528337,43.746118],[-122.528339,43.746335],[-122.528902,43.746331],[-122.529232,43.746118],[-122.529228,43.745734],[-122.528334,43.745734],[-122.528337,43.746118]]]}},{"type":"Feature","properties":{"MAPTAXLOT":"2125140000077","MAPNUMBER":"21251400","TAXLOT":"77","ACCTNO":"000None","MAPACRES":14.81821581},"geometry":{"type":"MultiPolygon","coordinates":[[[[-122.528432,43.747547],[-122.529445,43.748451],[-122.529586,43.748577],[-122.530177,43.749105],[-122.530381,43.749287],[-122.530556,43.749443],[-122.530727,43.749601],[-122.530895,43.749761],[-122.531058,43.749924],[-122.531178,43.750054],[-122.531292,43.750188],[-122.531401,43.750324],[-122.531504,43.750462],[-122.5316,43.750603],[-122.53169,43.750745],[-122.531774,43.75089],[-122.531852,43.751037],[-122.531923,43.751185],[-122.531988,43.751335],[-122.532046,43.751486],[-122.532097,43.751638],[-122.532142,43.751792],[-122.53218,43.751947],[-122.532212,43.752102],[-122.532236,43.752258],[-122.532254,43.752414],[-122.532265,43.752571],[-122.532267,43.75273],[-122.532266,43.752888],[-122.533023,43.752882],[-122.533024,43.752723],[-122.533021,43.752563],[-122.53301,43.752398],[-122.532992,43.752232],[-122.532968,43.752068],[-122.532936,43.751903],[-122.532898,43.75174],[-122.532859,43.751599],[-122.532816,43.751459],[-122.532767,43.75132],[-122.532713,43.751182],[-122.532644,43.751022],[-122.532569,43.750864],[-122.532487,43.750708],[-122.532399,43.750554],[-122.532304,43.750402],[-122.532204,43.750252],[-122.532109,43.750121],[-122.53201,43.749992],[-122.531906,43.749865],[-122.531797,43.749739],[-122.531673,43.749606],[-122.531491,43.749425],[-122.531304,43.749246],[-122.531127,43.749083],[-122.530964,43.748938],[-122.530223,43.748276],[-122.530043,43.748116],[-122.529864,43.747957],[-122.529024,43.747206],[-122.528432,43.747547]]],[[[-122.529568,43.745617],[-122.53001,43.745863],[-122.530087,43.745905],[-122.530136,43.745933],[-122.530176,43.745954],[-122.530221,43.745975],[-122.530269,43.745996],[-122.530333,43.746021],[-122.530377,43.74604],[-122.53085,43.746227],[-122.530909,43.746253],[-122.530985,43.746293],[-122.53108,43.746354],[-122.531121,43.746383],[-122.531187,43.746433],[-122.531231,43.746469],[-122.531274,43.746505],[-122.531326,43.746552],[-122.531356,43.746585],[-122.5314,43.746633],[-122.531435,43.746676],[-122.531471,43.746733],[-122.531492,43.746773],[-122.531504,43.746808],[-122.531516,43.746858],[-122.531564,43.747216],[-122.531572,43.747269],[-122.531596,43.747346],[-122.531624,43.747419],[-122.531652,43.747481],[-122.531704,43.747575],[-122.531728,43.747613],[-122.531733,43.747621],[-122.531978,43.747991],[-122.531995,43.748016],[-122.532015,43.748047],[-122.532046,43.748095],[-122.532077,43.748146],[-122.532139,43.748256],[-122.532164,43.748304],[-122.532214,43.748397],[-122.532215,43.748398],[-122.532243,43.748451],[-122.532262,43.748485],[-122.532294,43.748542],[-122.532337,43.748619],[-122.532398,43.748718],[-122.532442,43.748793],[-122.532493,43.748882],[-122.532528,43.748948],[-122.53254,43.748972],[-122.532546,43.748984],[-122.532568,43.749035],[-122.532594,43.749099],[-122.532628,43.749175],[-122.532668,43.749265],[-122.532691,43.749319],[-122.532722,43.749388],[-122.532777,43.749519],[-122.532779,43.749522],[-122.533013,43.750073],[-122.533222,43.750563],[-122.533237,43.7506],[-122.53325,43.750643],[-122.533256,43.75068],[-122.533262,43.750729],[-122.533259,43.750825],[-122.533257,43.750859],[-122.533256,43.750878],[-122.533252,43.750921],[-122.533227,43.751178],[-122.533221,43.751245],[-122.53322,43.751288],[-122.533227,43.751353],[-122.533234,43.751405],[-122.533237,43.751429],[-122.533244,43.751472],[-122.533247,43.751499],[-122.533257,43.751551],[-122.533291,43.751737],[-122.533408,43.752366],[-122.533413,43.752393],[-122.533419,43.752425],[-122.533424,43.752453],[-122.533431,43.752491],[-122.533438,43.752517],[-122.53344,43.752538],[-122.533442,43.752553],[-122.533445,43.752577],[-122.533447,43.752595],[-122.533448,43.752604],[-122.533466,43.752879],[-122.533693,43.752877],[-122.533675,43.752607],[-122.533675,43.752599],[-122.533674,43.752585],[-122.533671,43.752563],[-122.533668,43.752537],[-122.533666,43.752522],[-122.533663,43.752497],[-122.533656,43.752467],[-122.533651,43.752443],[-122.533649,43.752432],[-122.533644,43.752403],[-122.533638,43.75237],[-122.533633,43.752345],[-122.533631,43.752336],[-122.533555,43.751925],[-122.533504,43.751651],[-122.533482,43.75153],[-122.533473,43.751482],[-122.53347,43.751456],[-122.533463,43.751413],[-122.53346,43.75139],[-122.533453,43.751339],[-122.533447,43.751283],[-122.533448,43.751252],[-122.53346,43.751131],[-122.533478,43.750933],[-122.533483,43.750888],[-122.533485,43.750856],[-122.533486,43.750831],[-122.533489,43.750725],[-122.533482,43.750664],[-122.533474,43.750616],[-122.533457,43.750559],[-122.533439,43.750516],[-122.533293,43.750172],[-122.532994,43.749471],[-122.532938,43.749338],[-122.532908,43.74927],[-122.532885,43.749216],[-122.532844,43.749125],[-122.532811,43.74905],[-122.532785,43.748987],[-122.532761,43.748933],[-122.532742,43.748892],[-122.532707,43.748827],[-122.532704,43.748821],[-122.532651,43.748729],[-122.532606,43.748653],[-122.532546,43.748556],[-122.532515,43.748498],[-122.532505,43.74848],[-122.532472,43.748424],[-122.532455,43.748392],[-122.532427,43.748339],[-122.532376,43.748244],[-122.532349,43.748195],[-122.532286,43.748083],[-122.532253,43.748028],[-122.53222,43.747977],[-122.5322,43.747946],[-122.532119,43.747824],[-122.531938,43.747551],[-122.531912,43.74751],[-122.531866,43.747426],[-122.531841,43.747371],[-122.531816,43.747306],[-122.531796,43.747243],[-122.53179,43.7472],[-122.531755,43.74694],[-122.531741,43.746837],[-122.531726,43.746774],[-122.531709,43.746724],[-122.531681,43.746671],[-122.531637,43.7466],[-122.531593,43.746546],[-122.531569,43.74652],[-122.53151,43.746456],[-122.531449,43.7464],[-122.531402,43.74636],[-122.531376,43.74634],[-122.531353,43.746321],[-122.531282,43.746267],[-122.531234,43.746233],[-122.531127,43.746165],[-122.531034,43.746116],[-122.530963,43.746085],[-122.530498,43.7459],[-122.530487,43.745896],[-122.530444,43.745878],[-122.530381,43.745853],[-122.530341,43.745835],[-122.530304,43.745818],[-122.530271,43.745801],[-122.530224,43.745775],[-122.530147,43.745732],[-122.529952,43.745624],[-122.529567,43.74541],[-122.529568,43.745617]]]]}},{"type":"Feature","properties":{"MAPTAXLOT":"2125140000100","MAPNUMBER":"21251400","TAXLOT":"100","ACCTNO":"0946952","MAPACRES":1.86973363},"geometry":{"type":"Polygon","coordinates":[[[-122.530223,43.748276],[-122.530964,43.748938],[-122.531127,43.749083],[-122.531256,43.748841],[-122.531254,43.748586],[-122.531251,43.748089],[-122.531197,43.74778],[-122.531154,43.747529],[-122.530223,43.748276]]]}},{"type":"Feature","properties":{"MAPTAXLOT":"2125140000103","MAPNUMBER":"21251400","TAXLOT":"103","ACCTNO":"0946986","MAPACRES":0.33853088},"geometry":{"type":"Polygon","coordinates":[[[-122.529589,43.749097],[-122.530177,43.749105],[-122.529586,43.748577],[-122.529589,43.749097]]]}},{"type":"Feature","properties":{"MAPTAXLOT":"2125140000104","MAPNUMBER":"21251400","TAXLOT":"104","ACCTNO":"0946994","MAPACRES":0.5216016},"geometry":{"type":"Polygon","coordinates":[[[-122.531197,43.74778],[-122.531251,43.748089],[-122.531888,43.748003],[-122.531978,43.747991],[-122.531733,43.747621],[-122.531728,43.747613],[-122.531197,43.74778]]]}},{"type":"Feature","properties":{"MAPTAXLOT":"2125140000105","MAPNUMBER":"21251400","TAXLOT":"105","ACCTNO":"0947000","MAPACRES":72.48731057},"geometry":{"type":"Polygon","coordinates":[[[-122.532797,43.747028],[-122.53435,43.747021],[-122.534335,43.745814],[-122.539101,43.745891],[-122.53904,43.742487],[-122.534294,43.742456],[-122.529544,43.742425],[-122.529559,43.744052],[-122.52956,43.744052],[-122.530888,43.744665],[-122.531366,43.744885],[-122.531459,43.744928],[-122.531467,43.746234],[-122.531569,43.74652],[-122.531593,43.746546],[-122.531637,43.7466],[-122.531681,43.746671],[-122.531709,43.746724],[-122.531726,43.746774],[-122.531741,43.746837],[-122.531755,43.74694],[-122.532693,43.746755],[-122.532797,43.747028]]]}},{"type":"Feature","properties":{"MAPTAXLOT":"2125140000106","MAPNUMBER":"21251400","TAXLOT":"106","ACCTNO":"0947018","MAPACRES":3.35505127},"geometry":{"type":"Polygon","coordinates":[[[-122.529579,43.746886],[-122.530189,43.747157],[-122.531356,43.746585],[-122.531326,43.746552],[-122.531274,43.746505],[-122.531231,43.746469],[-122.531187,43.746433],[-122.531121,43.746383],[-122.53108,43.746354],[-122.530985,43.746293],[-122.530909,43.746253],[-122.53085,43.746227],[-122.530377,43.74604],[-122.530333,43.746021],[-122.530269,43.745996],[-122.530221,43.745975],[-122.530176,43.745954],[-122.530136,43.745933],[-122.530087,43.745905],[-122.53001,43.745863],[-122.529568,43.745617],[-122.529569,43.745734],[-122.529571,43.746118],[-122.529579,43.746886]]]}},{"type":"Feature","properties":{"MAPTAXLOT":"2125140000111","MAPNUMBER":"21251400","TAXLOT":"111","ACCTNO":"0947042","MAPACRES":0.67982601},"geometry":{"type":"Polygon","coordinates":[[[-122.530607,43.747806],[-122.530223,43.748276],[-122.531154,43.747529],[-122.53106,43.747321],[-122.53043,43.747343],[-122.530461,43.747487],[-122.530511,43.74772],[-122.530607,43.747806]]]}},{"type":"Feature","properties":{"MAPTAXLOT":"2125140000112","MAPNUMBER":"21251400","TAXLOT":"112","ACCTNO":"0947059","MAPACRES":0.7789115},"geometry":{"type":"Polygon","coordinates":[[[-122.530893,43.74532],[-122.531372,43.745709],[-122.531366,43.744888],[-122.531366,43.744885],[-122.530888,43.744665],[-122.530888,43.744667],[-122.530892,43.745247],[-122.530893,43.74532]]]}},{"type":"Feature","properties":{"MAPTAXLOT":"2125140000113","MAPNUMBER":"21251400","TAXLOT":"113","ACCTNO":"1123726","MAPACRES":5.32520717},"geometry":{"type":"Polygon","coordinates":[[[-122.533293,43.750172],[-122.534397,43.750849],[-122.53438,43.749444],[-122.534371,43.748681],[-122.533425,43.748685],[-122.532707,43.748827],[-122.532742,43.748892],[-122.532761,43.748933],[-122.532785,43.748987],[-122.532811,43.74905],[-122.532844,43.749125],[-122.532885,43.749216],[-122.532908,43.74927],[-122.532938,43.749338],[-122.532994,43.749471],[-122.533293,43.750172]]]}},{"type":"Feature","properties":{"MAPTAXLOT":"2125140000114","MAPNUMBER":"21251400","TAXLOT":"114","ACCTNO":"1244993","MAPACRES":0.04809247},"geometry":{"type":"Polygon","coordinates":[[[-122.531888,43.748003],[-122.532214,43.748397],[-122.532164,43.748304],[-122.532139,43.748256],[-122.532077,43.748146],[-122.532046,43.748095],[-122.532015,43.748047],[-122.531995,43.748016],[-122.531978,43.747991],[-122.531888,43.748003]]]}},{"type":"Feature","properties":{"MAPTAXLOT":"2125140000115","MAPNUMBER":"21251400","TAXLOT":"115","ACCTNO":"1529112","MAPACRES":0.31953972},"geometry":{"type":"Polygon","coordinates":[[[-122.531376,43.74634],[-122.531402,43.74636],[-122.531449,43.7464],[-122.53151,43.746456],[-122.531569,43.74652],[-122.531467,43.746234],[-122.531459,43.744928],[-122.531366,43.744885],[-122.531366,43.744888],[-122.531372,43.745709],[-122.531376,43.74634]]]}},{"type":"Feature","properties":{"MAPTAXLOT":"2125140000900","MAPNUMBER":"21251400","TAXLOT":"900","ACCTNO":"0947133","MAPACRES":440.47448917},"geometry":{"type":"Polygon","coordinates":[[[-122.539229,43.752836],[-122.548828,43.752764],[-122.548838,43.752484],[-122.549065,43.74604],[-122.548828,43.739034],[-122.53898,43.739227],[-122.534255,43.739169],[-122.534255,43.739169],[-122.52953,43.73911],[-122.529548,43.742145],[-122.529544,43.742425],[-122.534294,43.742456],[-122.53904,43.742487],[-122.539101,43.745891],[-122.534335,43.745814],[-122.53435,43.747021],[-122.534371,43.748681],[-122.53438,43.749444],[-122.534397,43.750849],[-122.5344,43.751124],[-122.534407,43.751645],[-122.53441,43.751919],[-122.534415,43.75233],[-122.534416,43.752437],[-122.534418,43.752601],[-122.534421,43.752872],[-122.539229,43.752836]]]}},{"type":"Feature","properties":{"MAPTAXLOT":"2125140001000","MAPNUMBER":"21251400","TAXLOT":"1000","ACCTNO":"0947141","MAPACRES":1.18490678},"geometry":{"type":"Polygon","coordinates":[[[-122.531797,43.749739],[-122.531906,43.749865],[-122.53201,43.749992],[-122.532109,43.750121],[-122.532204,43.750252],[-122.533013,43.750073],[-122.532779,43.749522],[-122.531797,43.749739]]]}},{"type":"Feature","properties":{"MAPTAXLOT":"2125140001100","MAPNUMBER":"21251400","TAXLOT":"1100","ACCTNO":"0947158","MAPACRES":1.47073618},"geometry":{"type":"Polygon","coordinates":[[[-122.531304,43.749246],[-122.531491,43.749425],[-122.531673,43.749606],[-122.531797,43.749739],[-122.532779,43.749522],[-122.532777,43.749519],[-122.532722,43.749388],[-122.532691,43.749319],[-122.532668,43.749265],[-122.532628,43.749175],[-122.532594,43.749099],[-122.532568,43.749035],[-122.532546,43.748984],[-122.53254,43.748972],[-122.531304,43.749246]]]}},{"type":"Feature","properties":{"MAPTAXLOT":"2125140001200","MAPNUMBER":"21251400","TAXLOT":"1200","ACCTNO":"0947166","MAPACRES":6.23347937},"geometry":{"type":"Polygon","coordinates":[[[-122.533425,43.748685],[-122.534371,43.748681],[-122.53435,43.747021],[-122.532797,43.747028],[-122.532693,43.746755],[-122.531755,43.74694],[-122.53179,43.7472],[-122.531796,43.747243],[-122.531816,43.747306],[-122.531841,43.747371],[-122.531866,43.747426],[-122.531912,43.74751],[-122.531938,43.747551],[-122.532119,43.747824],[-122.532382,43.747517],[-122.53294,43.747407],[-122.533296,43.748344],[-122.533425,43.748685]]]}},{"type":"Feature","properties":{"MAPTAXLOT":"2125140001201","MAPNUMBER":"21251400","TAXLOT":"1201","ACCTNO":"0947174","MAPACRES":0.60741835},"geometry":{"type":"Polygon","coordinates":[[[-122.532515,43.748498],[-122.532546,43.748556],[-122.532606,43.748653],[-122.532651,43.748729],[-122.532704,43.748821],[-122.532707,43.748827],[-122.533425,43.748685],[-122.533296,43.748344],[-122.532515,43.748498]]]}},{"type":"Feature","properties":{"MAPTAXLOT":"2125140001202","MAPNUMBER":"21251400","TAXLOT":"1202","ACCTNO":"0947182","MAPACRES":1.81055838},"geometry":{"type":"Polygon","coordinates":[[[-122.532119,43.747824],[-122.5322,43.747946],[-122.53222,43.747977],[-122.532253,43.748028],[-122.532286,43.748083],[-122.532349,43.748195],[-122.532376,43.748244],[-122.532427,43.748339],[-122.532455,43.748392],[-122.532472,43.748424],[-122.532505,43.74848],[-122.532515,43.748498],[-122.533296,43.748344],[-122.53294,43.747407],[-122.532382,43.747517],[-122.532119,43.747824]]]}},{"type":"Feature","properties":{"MAPTAXLOT":"2125140001300","MAPNUMBER":"21251400","TAXLOT":"1300","ACCTNO":"0947190","MAPACRES":1.68032383},"geometry":{"type":"Polygon","coordinates":[[[-122.531127,43.749083],[-122.531304,43.749246],[-122.53254,43.748972],[-122.532528,43.748948],[-122.532493,43.748882],[-122.532442,43.748793],[-122.532398,43.748718],[-122.532337,43.748619],[-122.532294,43.748542],[-122.532262,43.748485],[-122.532243,43.748451],[-122.532215,43.748398],[-122.532214,43.748397],[-122.531254,43.748586],[-122.531256,43.748841],[-122.531127,43.749083]]]}},{"type":"Feature","properties":{"MAPTAXLOT":"2125140001400","MAPNUMBER":"21251400","TAXLOT":"1400","ACCTNO":"0947208","MAPACRES":0.83694739},"geometry":{"type":"Polygon","coordinates":[[[-122.531251,43.748089],[-122.531254,43.748586],[-122.532214,43.748397],[-122.531888,43.748003],[-122.531251,43.748089]]]}},{"type":"Feature","properties":{"MAPTAXLOT":"2125140001500","MAPNUMBER":"21251400","TAXLOT":"1500","ACCTNO":"0947216","MAPACRES":1.83900583},"geometry":{"type":"Polygon","coordinates":[[[-122.531154,43.747529],[-122.531197,43.74778],[-122.531728,43.747613],[-122.531704,43.747575],[-122.531652,43.747481],[-122.531624,43.747419],[-122.531596,43.747346],[-122.531572,43.747269],[-122.531564,43.747216],[-122.531516,43.746858],[-122.531504,43.746808],[-122.531492,43.746773],[-122.531471,43.746733],[-122.531435,43.746676],[-122.5314,43.746633],[-122.531356,43.746585],[-122.530189,43.747157],[-122.53043,43.747343],[-122.53106,43.747321],[-122.531154,43.747529]]]}},{"type":"Feature","properties":{"MAPTAXLOT":"2125140001600","MAPNUMBER":"21251400","TAXLOT":"1600","ACCTNO":"0947224","MAPACRES":1.74338811},"geometry":{"type":"Polygon","coordinates":[[[-122.529024,43.747206],[-122.529864,43.747957],[-122.530118,43.747574],[-122.530297,43.747735],[-122.530461,43.747487],[-122.53043,43.747343],[-122.530189,43.747157],[-122.529579,43.746886],[-122.529024,43.747206]]]}},{"type":"Feature","properties":{"MAPTAXLOT":"2125140001601","MAPNUMBER":"21251400","TAXLOT":"1601","ACCTNO":"0947232","MAPACRES":0.38969393},"geometry":{"type":"Polygon","coordinates":[[[-122.530043,43.748116],[-122.530223,43.748276],[-122.530607,43.747806],[-122.530511,43.74772],[-122.530461,43.747487],[-122.530297,43.747735],[-122.530043,43.748116]]]}},{"type":"Feature","properties":{"MAPTAXLOT":"2125140001602","MAPNUMBER":"21251400","TAXLOT":"1602","ACCTNO":"0947240","MAPACRES":0.24072798},"geometry":{"type":"Polygon","coordinates":[[[-122.529864,43.747957],[-122.530043,43.748116],[-122.530297,43.747735],[-122.530118,43.747574],[-122.529864,43.747957]]]}},{"type":"Feature","properties":{"MAPTAXLOT":"2125140001700","MAPNUMBER":"21251400","TAXLOT":"1700","ACCTNO":"0947257","MAPACRES":1.05954966},"geometry":{"type":"Polygon","coordinates":[[[-122.530498,43.7459],[-122.530963,43.746085],[-122.531034,43.746116],[-122.531127,43.746165],[-122.531234,43.746233],[-122.531282,43.746267],[-122.531353,43.746321],[-122.531376,43.74634],[-122.531372,43.745709],[-122.530893,43.74532],[-122.530892,43.745247],[-122.530498,43.7459]]]}},{"type":"Feature","properties":{"MAPTAXLOT":"2125140001800","MAPNUMBER":"21251400","TAXLOT":"1800","ACCTNO":"0947265","MAPACRES":3.45187975},"geometry":{"type":"Polygon","coordinates":[[[-122.529952,43.745624],[-122.530147,43.745732],[-122.530224,43.745775],[-122.530271,43.745801],[-122.530304,43.745818],[-122.530341,43.745835],[-122.530381,43.745853],[-122.530444,43.745878],[-122.530487,43.745896],[-122.530498,43.7459],[-122.530892,43.745247],[-122.530888,43.744667],[-122.530888,43.744665],[-122.52956,43.744052],[-122.529559,43.744052],[-122.529565,43.745075],[-122.529566,43.745075],[-122.529953,43.745253],[-122.529952,43.745624]]]}},{"type":"Feature","properties":{"MAPTAXLOT":"2125140001900","MAPNUMBER":"21251400","TAXLOT":"1900","ACCTNO":"0947273","MAPACRES":0.30091427},"geometry":{"type":"Polygon","coordinates":[[[-122.529567,43.74541],[-122.529952,43.745624],[-122.529953,43.745253],[-122.529566,43.745075],[-122.529565,43.745075],[-122.529567,43.74541]]]}},{"type":"Feature","properties":{"MAPTAXLOT":"2125140002000","MAPNUMBER":"21251400","TAXLOT":"2000","ACCTNO":"0947281","MAPACRES":16.99014721},"geometry":{"type":"Polygon","coordinates":[[[-122.531887,43.752891],[-122.532266,43.752888],[-122.532267,43.75273],[-122.532265,43.752571],[-122.532254,43.752414],[-122.532236,43.752258],[-122.532212,43.752102],[-122.53218,43.751947],[-122.532142,43.751792],[-122.532097,43.751638],[-122.532046,43.751486],[-122.531988,43.751335],[-122.531923,43.751185],[-122.531852,43.751037],[-122.531774,43.75089],[-122.53169,43.750745],[-122.5316,43.750603],[-122.531504,43.750462],[-122.531401,43.750324],[-122.531292,43.750188],[-122.531178,43.750054],[-122.531058,43.749924],[-122.530895,43.749761],[-122.530727,43.749601],[-122.530556,43.749443],[-122.530381,43.749287],[-122.530177,43.749105],[-122.529589,43.749097],[-122.52959,43.749321],[-122.529591,43.749458],[-122.529612,43.752908],[-122.531887,43.752891]]]}},{"type":"Feature","properties":{"MAPTAXLOT":"2225000000100","MAPNUMBER":"22250000","TAXLOT":"100","ACCTNO":"0971919","MAPACRES":545.43331489},"geometry":{"type":"Polygon","coordinates":[[[-122.509521,43.696842],[-122.529386,43.696748],[-122.529404,43.696748],[-122.529401,43.695162],[-122.529393,43.691549],[-122.529374,43.684333],[-122.509526,43.684445],[-122.509527,43.684951],[-122.509525,43.691607],[-122.509525,43.692113],[-122.509522,43.695707],[-122.509521,43.696842]]]}},{"type":"Feature","properties":{"MAPTAXLOT":"2225000000200","MAPNUMBER":"22250000","TAXLOT":"200","ACCTNO":"0971927","MAPACRES":545.88315911},"geometry":{"type":"Polygon","coordinates":[[[-122.529404,43.696748],[-122.549298,43.696748],[-122.549292,43.695217],[-122.549279,43.691597],[-122.549261,43.684359],[-122.529374,43.684333],[-122.529393,43.691549],[-122.529401,43.695162],[-122.529404,43.696748]]]}},{"type":"Feature","properties":{"MAPTAXLOT":"2225000000300","MAPNUMBER":"22250000","TAXLOT":"300","ACCTNO":"0971935","MAPACRES":549.69105756},"geometry":{"type":"Polygon","coordinates":[[[-122.549279,43.691597],[-122.549292,43.695217],[-122.549298,43.696748],[-122.549299,43.696748],[-122.559263,43.696826],[-122.569231,43.696789],[-122.569231,43.696777],[-122.569232,43.69521],[-122.569233,43.691587],[-122.569226,43.684339],[-122.549275,43.684359],[-122.549261,43.684359],[-122.549279,43.691597]]]}},{"type":"Feature","properties":{"MAPTAXLOT":"2225000000400","MAPNUMBER":"22250000","TAXLOT":"400","ACCTNO":"0971943","MAPACRES":551.76047363},"geometry":{"type":"Polygon","coordinates":[[[-122.569231,43.696789],[-122.589168,43.696823],[-122.589168,43.696797],[-122.589163,43.695097],[-122.58915,43.691476],[-122.589117,43.684234],[-122.56926,43.684339],[-122.569226,43.684339],[-122.569233,43.691587],[-122.569232,43.69521],[-122.569231,43.696777],[-122.569231,43.696789]]]}},{"type":"Feature","properties":{"MAPTAXLOT":"2225000000500","MAPNUMBER":"22250000","TAXLOT":"500","ACCTNO":"0971950","MAPACRES":558.31591896},"geometry":{"type":"Polygon","coordinates":[[[-122.589168,43.696823],[-122.609117,43.696889],[-122.609116,43.696867],[-122.609101,43.695019],[-122.609071,43.691396],[-122.609009,43.684149],[-122.589179,43.684234],[-122.589117,43.684234],[-122.58915,43.691476],[-122.589163,43.695097],[-122.589168,43.696797],[-122.589168,43.696823]]]}},{"type":"Feature","properties":{"MAPTAXLOT":"2225000000800","MAPNUMBER":"22250000","TAXLOT":"800","ACCTNO":"0971984","MAPACRES":638.07970167},"geometry":{"type":"Polygon","coordinates":[[[-122.589117,43.684234],[-122.589179,43.684234],[-122.609009,43.684149],[-122.609009,43.684124],[-122.608819,43.66965],[-122.589025,43.669741],[-122.588944,43.669741],[-122.589116,43.684203],[-122.589117,43.684234]]]}},{"type":"Feature","properties":{"MAPTAXLOT":"2225000000900","MAPNUMBER":"22250000","TAXLOT":"900","ACCTNO":"0971992","MAPACRES":637.22136218},"geometry":{"type":"Polygon","coordinates":[[[-122.569226,43.684339],[-122.56926,43.684339],[-122.589117,43.684234],[-122.589116,43.684203],[-122.588944,43.669741],[-122.56916,43.669846],[-122.569113,43.669846],[-122.569226,43.684317],[-122.569226,43.684339]]]}},{"type":"Feature","properties":{"MAPTAXLOT":"2225000001000","MAPNUMBER":"22250000","TAXLOT":"1000","ACCTNO":"0972008","MAPACRES":638.94341268},"geometry":{"type":"Polygon","coordinates":[[[-122.549261,43.684359],[-122.549275,43.684359],[-122.569226,43.684339],[-122.569226,43.684317],[-122.569113,43.669846],[-122.549264,43.669862],[-122.549253,43.669862],[-122.549261,43.684351],[-122.549261,43.684359]]]}},{"type":"Feature","properties":{"MAPTAXLOT":"2225000001100","MAPNUMBER":"22250000","TAXLOT":"1100","ACCTNO":"0972016","MAPACRES":636.44227144},"geometry":{"type":"Polygon","coordinates":[[[-122.529374,43.684333],[-122.549261,43.684359],[-122.549261,43.684351],[-122.549253,43.669862],[-122.529419,43.669877],[-122.529374,43.684333]]]}},{"type":"Feature","properties":{"MAPTAXLOT":"2225000001200","MAPNUMBER":"22250000","TAXLOT":"1200","ACCTNO":"0972024","MAPACRES":633.05382666},"geometry":{"type":"Polygon","coordinates":[[[-122.509526,43.684445],[-122.529374,43.684333],[-122.529419,43.669877],[-122.529389,43.669877],[-122.509534,43.670117],[-122.509524,43.670627],[-122.509525,43.677283],[-122.509525,43.677789],[-122.509526,43.684374],[-122.509526,43.684445]]]}}]}