{"type":"FeatureCollection","features":[{"type":"Feature","properties":{"MAPTAXLOT":"1515000002600","MAPNUMBER":"15150000","TAXLOT":"2600","ACCTNO":"0026888","MAPACRES":630.57178654},"geometry":{"type":"Polygon","coordinates":[[[-122.643902,44.24341],[-122.663933,44.243176],[-122.664177,44.228731],[-122.654109,44.228952],[-122.644042,44.229172],[-122.644045,44.236406],[-122.643902,44.24341]]]}},{"type":"Feature","properties":{"MAPTAXLOT":"1515000002700","MAPNUMBER":"15150000","TAXLOT":"2700","ACCTNO":"0026896","MAPACRES":637.43950592},"geometry":{"type":"Polygon","coordinates":[[[-122.663933,44.243176],[-122.673961,44.243078],[-122.683991,44.242979],[-122.683991,44.242979],[-122.683991,44.242979],[-122.684,44.239281],[-122.684086,44.235662],[-122.684172,44.23204],[-122.684258,44.228419],[-122.674217,44.228576],[-122.664177,44.228731],[-122.663933,44.243176]]]}},{"type":"Feature","properties":{"MAPTAXLOT":"1515000002900","MAPNUMBER":"15150000","TAXLOT":"2900","ACCTNO":"0026912","MAPACRES":82.81059675},"geometry":{"type":"Polygon","coordinates":[[[-122.683991,44.242979],[-122.683991,44.242979],[-122.689024,44.24297],[-122.694057,44.242961],[-122.695027,44.242406],[-122.694818,44.242134],[-122.694517,44.241905],[-122.694072,44.241727],[-122.694102,44.239306],[-122.68908,44.239293],[-122.684,44.239281],[-122.683991,44.242979]]]}},{"type":"Feature","properties":{"MAPTAXLOT":"1515000003100","MAPNUMBER":"15150000","TAXLOT":"3100","ACCTNO":"0026938","MAPACRES":78.66481232},"geometry":{"type":"Polygon","coordinates":[[[-122.69909,44.242952],[-122.704123,44.242942],[-122.704145,44.239329],[-122.699123,44.239318],[-122.694102,44.239306],[-122.694072,44.241727],[-122.694517,44.241905],[-122.694818,44.242134],[-122.695027,44.242406],[-122.694057,44.242961],[-122.69909,44.242952]]]}},{"type":"Feature","properties":{"MAPTAXLOT":"1515000003200","MAPNUMBER":"15150000","TAXLOT":"3200","ACCTNO":"0026946","MAPACRES":80.00890467},"geometry":{"type":"Polygon","coordinates":[[[-122.68908,44.239293],[-122.694102,44.239306],[-122.694146,44.23569],[-122.689136,44.235676],[-122.684086,44.235662],[-122.684,44.239281],[-122.68908,44.239293]]]}},{"type":"Feature","properties":{"MAPTAXLOT":"1515000003300","MAPNUMBER":"15150000","TAXLOT":"3300","ACCTNO":"0026953","MAPACRES":79.55003333},"geometry":{"type":"Polygon","coordinates":[[[-122.699123,44.239318],[-122.704145,44.239329],[-122.704167,44.235717],[-122.699157,44.235703],[-122.694146,44.23569],[-122.694102,44.239306],[-122.699123,44.239318]]]}},{"type":"Feature","properties":{"MAPTAXLOT":"1515000003400","MAPNUMBER":"15150000","TAXLOT":"3400","ACCTNO":"0026961","MAPACRES":198.26350595},"geometry":{"type":"Polygon","coordinates":[[[-122.699157,44.235703],[-122.704167,44.235717],[-122.70419,44.232104],[-122.704212,44.228491],[-122.699223,44.228473],[-122.694235,44.228455],[-122.689246,44.228437],[-122.689191,44.232057],[-122.69419,44.232072],[-122.694146,44.23569],[-122.699157,44.235703]]]}},{"type":"Feature","properties":{"MAPTAXLOT":"1515000003500","MAPNUMBER":"15150000","TAXLOT":"3500","ACCTNO":"0026979","MAPACRES":119.45974153},"geometry":{"type":"Polygon","coordinates":[[[-122.689136,44.235676],[-122.694146,44.23569],[-122.69419,44.232072],[-122.689191,44.232057],[-122.689246,44.228437],[-122.684258,44.228419],[-122.684172,44.23204],[-122.684086,44.235662],[-122.689136,44.235676]]]}},{"type":"Feature","properties":{"MAPTAXLOT":"1515000003600","MAPNUMBER":"15150000","TAXLOT":"3600","ACCTNO":"0026987","MAPACRES":644.90705741},"geometry":{"type":"Polygon","coordinates":[[[-122.719061,44.243212],[-122.72404,44.243301],[-122.724265,44.228336],[-122.704212,44.228491],[-122.70419,44.232104],[-122.704167,44.235717],[-122.704145,44.239329],[-122.704123,44.242942],[-122.709102,44.243032],[-122.714081,44.243122],[-122.719061,44.243212]]]}},{"type":"Feature","properties":{"MAPTAXLOT":"1515000003700","MAPNUMBER":"15150000","TAXLOT":"3700","ACCTNO":"0026995","MAPACRES":649.83385799},"geometry":{"type":"Polygon","coordinates":[[[-122.73401,44.243397],[-122.744168,44.243497],[-122.744168,44.243497],[-122.744225,44.239886],[-122.744225,44.239885],[-122.744282,44.236274],[-122.744282,44.236274],[-122.744369,44.229029],[-122.734322,44.228683],[-122.724265,44.228336],[-122.72404,44.243301],[-122.73401,44.243397]]]}},{"type":"Feature","properties":{"MAPTAXLOT":"1515000003800","MAPNUMBER":"15150000","TAXLOT":"3800","ACCTNO":"0027001","MAPACRES":634.91195168},"geometry":{"type":"Polygon","coordinates":[[[-122.734322,44.228683],[-122.744369,44.229029],[-122.744369,44.229029],[-122.744394,44.214447],[-122.739369,44.214369],[-122.734343,44.21429],[-122.729318,44.214212],[-122.724292,44.214133],[-122.724265,44.228336],[-122.734322,44.228683]]]}},{"type":"Feature","properties":{"MAPTAXLOT":"1515000003900","MAPNUMBER":"15150000","TAXLOT":"3900","ACCTNO":"0027019","MAPACRES":628.20755215},"geometry":{"type":"Polygon","coordinates":[[[-122.704212,44.228491],[-122.724265,44.228336],[-122.724292,44.214133],[-122.719315,44.214109],[-122.714338,44.214085],[-122.709361,44.214061],[-122.704385,44.214037],[-122.704212,44.228491]]]}},{"type":"Feature","properties":{"MAPTAXLOT":"1515000004000","MAPNUMBER":"15150000","TAXLOT":"4000","ACCTNO":"0027027","MAPACRES":632.82286173},"geometry":{"type":"Polygon","coordinates":[[[-122.699223,44.228473],[-122.704212,44.228491],[-122.704385,44.214037],[-122.699408,44.214012],[-122.694431,44.213987],[-122.689454,44.213961],[-122.684477,44.213936],[-122.684367,44.221178],[-122.684258,44.228419],[-122.689246,44.228437],[-122.694235,44.228455],[-122.699223,44.228473]]]}},{"type":"Feature","properties":{"MAPTAXLOT":"1515000004100","MAPNUMBER":"15150000","TAXLOT":"4100","ACCTNO":"0027035","MAPACRES":480.51202872},"geometry":{"type":"Polygon","coordinates":[[[-122.674217,44.228576],[-122.684258,44.228419],[-122.684367,44.221178],[-122.684477,44.213936],[-122.674364,44.214076],[-122.66425,44.214216],[-122.664249,44.221457],[-122.67429,44.221318],[-122.674217,44.228576]]]}},{"type":"Feature","properties":{"MAPTAXLOT":"1515000004200","MAPNUMBER":"15150000","TAXLOT":"4200","ACCTNO":"0027043","MAPACRES":160.05082073},"geometry":{"type":"Polygon","coordinates":[[[-122.664177,44.228731],[-122.674217,44.228576],[-122.67429,44.221318],[-122.664249,44.221457],[-122.664177,44.228731]]]}},{"type":"Feature","properties":{"MAPTAXLOT":"1515000004300","MAPNUMBER":"15150000","TAXLOT":"4300","ACCTNO":"0027050","MAPACRES":565.19652045},"geometry":{"type":"Polygon","coordinates":[[[-122.644116,44.221801],[-122.644042,44.229172],[-122.654109,44.228952],[-122.664177,44.228731],[-122.664249,44.221457],[-122.66425,44.214216],[-122.66425,44.214216],[-122.659235,44.214269],[-122.659207,44.221544],[-122.654165,44.22163],[-122.65422,44.214323],[-122.64419,44.214429],[-122.644116,44.221801]]]}},{"type":"Feature","properties":{"MAPTAXLOT":"1615000000300","MAPNUMBER":"16150000","TAXLOT":"300","ACCTNO":"0076529","MAPACRES":630.83291926},"geometry":{"type":"Polygon","coordinates":[[[-122.659235,44.214269],[-122.66425,44.214216],[-122.664377,44.210663],[-122.66451,44.207039],[-122.665003,44.199777],[-122.655139,44.199889],[-122.645274,44.2],[-122.644554,44.207216],[-122.644371,44.210828],[-122.64419,44.214429],[-122.65422,44.214323],[-122.659146,44.21427],[-122.659235,44.214269]]]}},{"type":"Feature","properties":{"MAPTAXLOT":"1615000000400","MAPNUMBER":"16150000","TAXLOT":"400","ACCTNO":"0076537","MAPACRES":633.16400545},"geometry":{"type":"Polygon","coordinates":[[[-122.66425,44.214216],[-122.674364,44.214076],[-122.684477,44.213936],[-122.68456,44.210412],[-122.684646,44.206817],[-122.68495,44.199675],[-122.665003,44.199777],[-122.66451,44.207039],[-122.664377,44.210663],[-122.66425,44.214216],[-122.66425,44.214216]]]}},{"type":"Feature","properties":{"MAPTAXLOT":"1615000000500","MAPNUMBER":"16150000","TAXLOT":"500","ACCTNO":"0076545","MAPACRES":623.4901705},"geometry":{"type":"Polygon","coordinates":[[[-122.699408,44.214012],[-122.704385,44.214037],[-122.704445,44.210496],[-122.704508,44.206883],[-122.704697,44.19967],[-122.68495,44.199675],[-122.684646,44.206817],[-122.68456,44.210412],[-122.684477,44.213936],[-122.689454,44.213961],[-122.694431,44.213987],[-122.699408,44.214012]]]}},{"type":"Feature","properties":{"MAPTAXLOT":"1615000000600","MAPNUMBER":"16150000","TAXLOT":"600","ACCTNO":"0076552","MAPACRES":620.66106115},"geometry":{"type":"Polygon","coordinates":[[[-122.719315,44.214109],[-122.724292,44.214133],[-122.724235,44.210478],[-122.724179,44.206896],[-122.724073,44.199728],[-122.704697,44.19967],[-122.704508,44.206883],[-122.704445,44.210496],[-122.704385,44.214037],[-122.709361,44.214061],[-122.714338,44.214085],[-122.719315,44.214109]]]}},{"type":"Feature","properties":{"MAPTAXLOT":"1615000000700","MAPNUMBER":"16150000","TAXLOT":"700","ACCTNO":"0076560","MAPACRES":637.00295803},"geometry":{"type":"Polygon","coordinates":[[[-122.739369,44.214369],[-122.744394,44.214447],[-122.744412,44.21082],[-122.744431,44.207193],[-122.744449,44.203566],[-122.744468,44.199939],[-122.739117,44.200006],[-122.733767,44.200073],[-122.724073,44.199728],[-122.724179,44.206896],[-122.724235,44.210478],[-122.724292,44.214133],[-122.729318,44.214212],[-122.734343,44.21429],[-122.739369,44.214369]]]}},{"type":"Feature","properties":{"MAPTAXLOT":"1615000000800","MAPNUMBER":"16150000","TAXLOT":"800","ACCTNO":"0076578","MAPACRES":594.96100008},"geometry":{"type":"Polygon","coordinates":[[[-122.739117,44.200006],[-122.744468,44.199939],[-122.744468,44.199939],[-122.744432,44.196323],[-122.744396,44.192707],[-122.744375,44.190791],[-122.744372,44.190566],[-122.744372,44.190566],[-122.744356,44.18909],[-122.739385,44.189065],[-122.739473,44.185444],[-122.734605,44.185415],[-122.724975,44.185411],[-122.72475,44.18899],[-122.724524,44.192569],[-122.724073,44.199728],[-122.733767,44.200073],[-122.739117,44.200006]]]}},{"type":"Feature","properties":{"MAPTAXLOT":"1615000001000","MAPNUMBER":"16150000","TAXLOT":"1000","ACCTNO":"0076594","MAPACRES":608.67379617},"geometry":{"type":"Polygon","coordinates":[[[-122.704697,44.19967],[-122.724073,44.199728],[-122.724524,44.192569],[-122.72475,44.18899],[-122.724975,44.185411],[-122.715279,44.185457],[-122.710399,44.185411],[-122.705518,44.185364],[-122.704697,44.19967]]]}},{"type":"Feature","properties":{"MAPTAXLOT":"1615000001100","MAPNUMBER":"16150000","TAXLOT":"1100","ACCTNO":"0076602","MAPACRES":613.19445215},"geometry":{"type":"Polygon","coordinates":[[[-122.68495,44.199675],[-122.704697,44.19967],[-122.705518,44.185364],[-122.686317,44.185298],[-122.68495,44.199675]]]}},{"type":"Feature","properties":{"MAPTAXLOT":"1615000001200","MAPNUMBER":"16150000","TAXLOT":"1200","ACCTNO":"0076610","MAPACRES":629.45593703},"geometry":{"type":"Polygon","coordinates":[[[-122.665003,44.199777],[-122.68495,44.199675],[-122.686317,44.185298],[-122.666561,44.185262],[-122.665782,44.192519],[-122.665003,44.199777]]]}},{"type":"Feature","properties":{"MAPTAXLOT":"1615000001300","MAPNUMBER":"16150000","TAXLOT":"1300","ACCTNO":"0076628","MAPACRES":476.80409165},"geometry":{"type":"Polygon","coordinates":[[[-122.655139,44.199889],[-122.665003,44.199777],[-122.665782,44.192519],[-122.666561,44.185262],[-122.656671,44.18519],[-122.655905,44.192539],[-122.646028,44.192558],[-122.645274,44.2],[-122.655139,44.199889]]]}},{"type":"Feature","properties":{"MAPTAXLOT":"1615000001800","MAPNUMBER":"16150000","TAXLOT":"1800","ACCTNO":"0076677","MAPACRES":634.34791349},"geometry":{"type":"Polygon","coordinates":[[[-122.656671,44.18519],[-122.666561,44.185262],[-122.66792,44.170905],[-122.657822,44.170751],[-122.652773,44.170674],[-122.647724,44.170596],[-122.64749,44.174172],[-122.647257,44.177748],[-122.647019,44.181432],[-122.646782,44.185116],[-122.656671,44.18519]]]}},{"type":"Feature","properties":{"MAPTAXLOT":"1615000001900","MAPNUMBER":"16150000","TAXLOT":"1900","ACCTNO":"0076685","MAPACRES":633.99296203},"geometry":{"type":"Polygon","coordinates":[[[-122.666561,44.185262],[-122.686317,44.185298],[-122.688245,44.17084],[-122.66792,44.170905],[-122.666561,44.185262]]]}},{"type":"Feature","properties":{"MAPTAXLOT":"1615000002000","MAPNUMBER":"16150000","TAXLOT":"2000","ACCTNO":"0076693","MAPACRES":598.07483146},"geometry":{"type":"Polygon","coordinates":[[[-122.686317,44.185298],[-122.705518,44.185364],[-122.706145,44.178163],[-122.706458,44.174563],[-122.706771,44.170963],[-122.697508,44.1709],[-122.692876,44.17087],[-122.688245,44.17084],[-122.686317,44.185298]]]}},{"type":"Feature","properties":{"MAPTAXLOT":"1615000002100","MAPNUMBER":"16150000","TAXLOT":"2100","ACCTNO":"0076701","MAPACRES":113.84940148},"geometry":{"type":"Polygon","coordinates":[[[-122.705518,44.185364],[-122.710399,44.185411],[-122.710918,44.178209],[-122.711177,44.174626],[-122.706458,44.174563],[-122.706145,44.178163],[-122.705518,44.185364]]]}},{"type":"Feature","properties":{"MAPTAXLOT":"1615000002200","MAPNUMBER":"16150000","TAXLOT":"2200","ACCTNO":"0076719","MAPACRES":113.65637561},"geometry":{"type":"Polygon","coordinates":[[[-122.710399,44.185411],[-122.715279,44.185457],[-122.715692,44.178255],[-122.715896,44.174689],[-122.711177,44.174626],[-122.710918,44.178209],[-122.710399,44.185411]]]}},{"type":"Feature","properties":{"MAPTAXLOT":"1615000002300","MAPNUMBER":"16150000","TAXLOT":"2300","ACCTNO":"0076727","MAPACRES":37.05089814},"geometry":{"type":"Polygon","coordinates":[[[-122.706458,44.174563],[-122.711177,44.174626],[-122.711436,44.171043],[-122.706771,44.170963],[-122.706458,44.174563]]]}},{"type":"Feature","properties":{"MAPTAXLOT":"1615000002400","MAPNUMBER":"16150000","TAXLOT":"2400","ACCTNO":"0076735","MAPACRES":334.22688369},"geometry":{"type":"Polygon","coordinates":[[[-122.715279,44.185457],[-122.724975,44.185411],[-122.725202,44.178345],[-122.725429,44.17128],[-122.7161,44.171123],[-122.711436,44.171043],[-122.711177,44.174626],[-122.715896,44.174689],[-122.715692,44.178255],[-122.715279,44.185457]]]}},{"type":"Feature","properties":{"MAPTAXLOT":"1615000002500","MAPNUMBER":"16150000","TAXLOT":"2500","ACCTNO":"0076743","MAPACRES":301.47708019},"geometry":{"type":"Polygon","coordinates":[[[-122.739473,44.185444],[-122.744316,44.185473],[-122.744316,44.185473],[-122.744286,44.18184],[-122.744286,44.181839],[-122.744256,44.178207],[-122.725202,44.178345],[-122.724975,44.185411],[-122.734605,44.185415],[-122.739473,44.185444]]]}},{"type":"Feature","properties":{"MAPTAXLOT":"1615000002501","MAPNUMBER":"16150000","TAXLOT":"2501","ACCTNO":"1406774","MAPACRES":295.61018645},"geometry":{"type":"Polygon","coordinates":[[[-122.725202,44.178345],[-122.744256,44.178207],[-122.744256,44.178206],[-122.744216,44.174618],[-122.744216,44.174617],[-122.744175,44.171029],[-122.739366,44.171092],[-122.734721,44.171153],[-122.725429,44.17128],[-122.725202,44.178345]]]}},{"type":"Feature","properties":{"MAPTAXLOT":"1615000002601","MAPNUMBER":"16150000","TAXLOT":"2601","ACCTNO":"1406782","MAPACRES":278.62561958},"geometry":{"type":"Polygon","coordinates":[[[-122.739366,44.171092],[-122.744175,44.171029],[-122.744147,44.167414],[-122.744119,44.1638],[-122.727271,44.164216],[-122.725429,44.17128],[-122.734721,44.171153],[-122.739366,44.171092]]]}},{"type":"Feature","properties":{"MAPTAXLOT":"1615000002700","MAPNUMBER":"16150000","TAXLOT":"2700","ACCTNO":"0076776","MAPACRES":615.50404808},"geometry":{"type":"Polygon","coordinates":[[[-122.7161,44.171123],[-122.725429,44.17128],[-122.727271,44.164216],[-122.729112,44.157151],[-122.718881,44.156859],[-122.713766,44.156715],[-122.70865,44.15657],[-122.707709,44.163764],[-122.706771,44.170963],[-122.711436,44.171043],[-122.7161,44.171123]]]}},{"type":"Feature","properties":{"MAPTAXLOT":"1615000002800","MAPNUMBER":"16150000","TAXLOT":"2800","ACCTNO":"0076792","MAPACRES":298.16438231},"geometry":{"type":"Polygon","coordinates":[[[-122.697508,44.1709],[-122.706771,44.170963],[-122.707709,44.163764],[-122.698016,44.163741],[-122.693168,44.16373],[-122.688323,44.163718],[-122.688245,44.17084],[-122.692876,44.17087],[-122.697508,44.1709]]]}},{"type":"Feature","properties":{"MAPTAXLOT":"1615000003000","MAPNUMBER":"16150000","TAXLOT":"3000","ACCTNO":"0076826","MAPACRES":322.54772309},"geometry":{"type":"Polygon","coordinates":[[[-122.66792,44.170905],[-122.688245,44.17084],[-122.688323,44.163718],[-122.667933,44.163599],[-122.66792,44.170905]]]}},{"type":"Feature","properties":{"MAPTAXLOT":"1615000003100","MAPNUMBER":"16150000","TAXLOT":"3100","ACCTNO":"0076842","MAPACRES":319.99803008},"geometry":{"type":"Polygon","coordinates":[[[-122.657822,44.170751],[-122.66792,44.170905],[-122.667933,44.163599],[-122.667939,44.159945],[-122.658056,44.159836],[-122.657978,44.163475],[-122.653011,44.163414],[-122.652773,44.170674],[-122.657822,44.170751]]]}}]}