{"type":"FeatureCollection","features":[{"type":"Feature","properties":{"MAPTAXLOT":"1686000000100","MAPNUMBER":"16860000","TAXLOT":"100","ACCTNO":"1857356","MAPACRES":8602.59997975},"geometry":{"type":"Polygon","coordinates":[[[-121.777808,44.21895],[-121.782346,44.21895],[-121.78738,44.21895],[-121.792414,44.21895],[-121.796233,44.21895],[-121.797448,44.21895],[-121.802482,44.21895],[-121.807516,44.21895],[-121.807516,44.21895],[-121.81255,44.21895],[-121.816369,44.21895],[-121.817584,44.21895],[-121.822618,44.21895],[-121.827995,44.21895],[-121.827995,44.21895],[-121.827995,44.215329],[-121.827995,44.211578],[-121.827995,44.211579],[-121.827995,44.211396],[-121.827995,44.207776],[-121.827995,44.204156],[-121.827995,44.200536],[-121.827995,44.196916],[-121.827995,44.193296],[-121.827995,44.189676],[-121.827995,44.186056],[-121.827995,44.182436],[-121.827995,44.178815],[-121.827995,44.175195],[-121.827995,44.171575],[-121.827995,44.167955],[-121.827995,44.164335],[-121.827995,44.160715],[-121.827995,44.157094],[-121.827995,44.153474],[-121.827995,44.149854],[-121.827995,44.146234],[-121.827995,44.142613],[-121.827995,44.138993],[-121.822488,44.138993],[-121.817461,44.138993],[-121.812434,44.138993],[-121.807407,44.138993],[-121.80238,44.138993],[-121.797353,44.138993],[-121.792325,44.138993],[-121.787298,44.138993],[-121.782271,44.138993],[-121.777244,44.138993],[-121.772681,44.138993],[-121.772543,44.139554],[-121.772891,44.140127],[-121.774128,44.140928],[-121.77895,44.144958],[-121.77987,44.145347],[-121.7826,44.146242],[-121.783869,44.14734],[-121.784154,44.14821],[-121.783739,44.149353],[-121.783674,44.150291],[-121.783356,44.150885],[-121.783037,44.151731],[-121.783099,44.152463],[-121.783289,44.152966],[-121.783828,44.15363],[-121.783827,44.154064],[-121.783604,44.154384],[-121.783192,44.154407],[-121.781475,44.155046],[-121.78103,44.155457],[-121.780807,44.155823],[-121.780997,44.15612],[-121.780996,44.156989],[-121.780962,44.158087],[-121.781247,44.158705],[-121.781723,44.159071],[-121.782008,44.15962],[-121.781913,44.159849],[-121.781499,44.160146],[-121.780132,44.160602],[-121.779116,44.16067],[-121.777941,44.16044],[-121.776766,44.160119],[-121.776225,44.160096],[-121.775971,44.16021],[-121.772885,44.162883],[-121.772471,44.163523],[-121.77247,44.163843],[-121.772818,44.164941],[-121.772785,44.165559],[-121.772435,44.166245],[-121.771861,44.166953],[-121.771829,44.167342],[-121.771955,44.167754],[-121.772463,44.168166],[-121.772843,44.16915],[-121.773477,44.169768],[-121.774652,44.170569],[-121.776398,44.17128],[-121.777509,44.171898],[-121.778302,44.172631],[-121.779063,44.174164],[-121.779506,44.175422],[-121.779504,44.176268],[-121.779409,44.176588],[-121.778485,44.177548],[-121.777466,44.179285],[-121.776891,44.180726],[-121.77479,44.183194],[-121.773866,44.184657],[-121.773578,44.185343],[-121.773514,44.1858],[-121.773736,44.18612],[-121.774466,44.186807],[-121.774401,44.187859],[-121.774015,44.190283],[-121.77411,44.190558],[-121.774332,44.19081],[-121.776365,44.191703],[-121.777635,44.192665],[-121.778491,44.193924],[-121.778936,44.194267],[-121.779254,44.194359],[-121.78078,44.194154],[-121.781193,44.194178],[-121.781701,44.194361],[-121.781796,44.194773],[-121.781541,44.195093],[-121.780523,44.195481],[-121.780237,44.195732],[-121.780236,44.195983],[-121.781379,44.197014],[-121.782077,44.197815],[-121.782236,44.198226],[-121.782108,44.198775],[-121.780929,44.200146],[-121.780578,44.200878],[-121.780418,44.201564],[-121.780609,44.201907],[-121.781053,44.202228],[-121.782102,44.202549],[-121.782356,44.202892],[-121.781336,44.204378],[-121.781176,44.204881],[-121.781494,44.205316],[-121.781939,44.205408],[-121.783814,44.205432],[-121.784036,44.205981],[-121.784735,44.206188],[-121.784894,44.206302],[-121.78483,44.206942],[-121.785115,44.207194],[-121.785718,44.208109],[-121.785717,44.20859],[-121.785303,44.209184],[-121.784826,44.209252],[-121.7833,44.20916],[-121.783141,44.209251],[-121.783109,44.209411],[-121.783267,44.209708],[-121.783871,44.210143],[-121.784569,44.211288],[-121.785361,44.213118],[-121.785232,44.214582],[-121.784563,44.215359],[-121.78329,44.215906],[-121.778772,44.217206],[-121.77788,44.218372],[-121.777808,44.21895]]]}},{"type":"Feature","properties":{"MAPTAXLOT":"1785000000100","MAPNUMBER":"17850000","TAXLOT":"100","ACCTNO":"1857414","MAPACRES":9326.53456193},"geometry":{"type":"Polygon","coordinates":[[[-121.822488,44.138993],[-121.827995,44.138993],[-121.827995,44.135272],[-121.827995,44.131652],[-121.827995,44.128032],[-121.827995,44.124412],[-121.827995,44.120791],[-121.827995,44.117171],[-121.827994,44.113551],[-121.827994,44.109931],[-121.827994,44.106311],[-121.827994,44.10269],[-121.827994,44.09907],[-121.827994,44.09545],[-121.827992,44.080967],[-121.827991,44.066484],[-121.827641,44.052439],[-121.823035,44.052407],[-121.818014,44.052369],[-121.814825,44.052344],[-121.814736,44.052423],[-121.813848,44.052834],[-121.813214,44.052994],[-121.812389,44.053016],[-121.809631,44.052626],[-121.806562,44.052281],[-121.802953,44.052253],[-121.80283,44.052252],[-121.802432,44.052462],[-121.801988,44.052919],[-121.80205,44.053765],[-121.801763,44.055617],[-121.801413,44.056418],[-121.800715,44.056806],[-121.80046,44.057126],[-121.800079,44.058018],[-121.799983,44.058864],[-121.799601,44.059847],[-121.799188,44.060327],[-121.79849,44.060624],[-121.797316,44.060989],[-121.796427,44.061538],[-121.795569,44.062863],[-121.794456,44.065584],[-121.793882,44.067505],[-121.793564,44.068214],[-121.79277,44.069174],[-121.790293,44.071596],[-121.789435,44.072739],[-121.789369,44.074409],[-121.789051,44.074797],[-121.787622,44.076031],[-121.786987,44.07642],[-121.78559,44.076762],[-121.784701,44.077241],[-121.783589,44.078292],[-121.780796,44.079479],[-121.77997,44.079959],[-121.779334,44.080782],[-121.779396,44.082017],[-121.779173,44.082772],[-121.777775,44.084005],[-121.777234,44.084966],[-121.777074,44.085469],[-121.777232,44.086361],[-121.777135,44.087504],[-121.776943,44.088007],[-121.776403,44.088441],[-121.773863,44.089308],[-121.773165,44.089788],[-121.772528,44.090816],[-121.772015,44.093995],[-121.772299,44.094956],[-121.772073,44.09754],[-121.771817,44.098729],[-121.771371,44.099506],[-121.770768,44.100009],[-121.769084,44.100991],[-121.768829,44.101334],[-121.768953,44.103118],[-121.769365,44.103598],[-121.769491,44.104262],[-121.769203,44.105657],[-121.769202,44.106],[-121.769519,44.106617],[-121.77012,44.107373],[-121.770436,44.108494],[-121.770308,44.109226],[-121.770021,44.109934],[-121.768907,44.111603],[-121.768205,44.113821],[-121.768267,44.114713],[-121.769246,44.117618],[-121.769591,44.119745],[-121.769876,44.120478],[-121.771143,44.122286],[-121.771332,44.12288],[-121.771332,44.123269],[-121.77079,44.124618],[-121.770788,44.125396],[-121.771708,44.126289],[-121.771961,44.126883],[-121.771991,44.127387],[-121.771895,44.128141],[-121.771288,44.130153],[-121.771097,44.130565],[-121.772301,44.131892],[-121.772935,44.132945],[-121.772551,44.134317],[-121.772518,44.135072],[-121.772835,44.135507],[-121.773373,44.136651],[-121.772831,44.138388],[-121.772681,44.138993],[-121.777244,44.138993],[-121.782271,44.138993],[-121.787298,44.138993],[-121.792325,44.138993],[-121.797353,44.138993],[-121.80238,44.138993],[-121.807407,44.138993],[-121.812434,44.138993],[-121.817461,44.138993],[-121.822488,44.138993]]]}}]}