{"type":"FeatureCollection","features":[{"type":"Feature","properties":{"MAPTAXLOT":"1955000000100","MAPNUMBER":"19550000","TAXLOT":"100","ACCTNO":"1857620","MAPACRES":22523.44564212},"geometry":{"type":"Polygon","coordinates":[[[-122.26572,43.952272],[-122.271398,43.952271],[-122.271399,43.950036],[-122.271401,43.94642],[-122.271403,43.942804],[-122.271405,43.939188],[-122.271402,43.935567],[-122.271398,43.931946],[-122.271395,43.928324],[-122.271392,43.924703],[-122.271388,43.921082],[-122.271383,43.917461],[-122.271379,43.91384],[-122.271374,43.910219],[-122.271368,43.906598],[-122.271362,43.902977],[-122.271356,43.899355],[-122.27135,43.895734],[-122.27134,43.892112],[-122.27133,43.88849],[-122.27132,43.884868],[-122.27131,43.881245],[-122.271304,43.877623],[-122.271297,43.874001],[-122.271291,43.870378],[-122.271284,43.866756],[-122.267067,43.866755],[-122.26206,43.866753],[-122.257054,43.866752],[-122.252048,43.86675],[-122.247039,43.866753],[-122.242031,43.866756],[-122.237022,43.866759],[-122.232014,43.866762],[-122.227006,43.866759],[-122.221998,43.866755],[-122.21699,43.866751],[-122.211983,43.866747],[-122.206977,43.866752],[-122.201971,43.866757],[-122.196966,43.866761],[-122.19196,43.866766],[-122.186955,43.866771],[-122.18195,43.866775],[-122.176945,43.866779],[-122.17194,43.866784],[-122.166934,43.866787],[-122.161928,43.866791],[-122.156922,43.866794],[-122.151916,43.866798],[-122.151916,43.866859],[-122.151955,43.881289],[-122.152004,43.895792],[-122.151996,43.910296],[-122.152045,43.924797],[-122.152054,43.939298],[-122.152065,43.946542],[-122.152068,43.950163],[-122.152069,43.952365],[-122.155467,43.952365],[-122.157064,43.952365],[-122.161127,43.952366],[-122.16206,43.952366],[-122.16549,43.952366],[-122.167055,43.952366],[-122.17205,43.952366],[-122.175513,43.952367],[-122.177073,43.952367],[-122.181171,43.952367],[-122.182095,43.952368],[-122.185535,43.952368],[-122.187117,43.952368],[-122.192139,43.952369],[-122.195556,43.952365],[-122.197142,43.952364],[-122.201215,43.952356],[-122.202145,43.952354],[-122.205577,43.95235],[-122.207148,43.952349],[-122.212151,43.952339],[-122.215599,43.952335],[-122.217175,43.952334],[-122.221265,43.952328],[-122.222199,43.952326],[-122.225622,43.952322],[-122.227223,43.952321],[-122.232247,43.952313],[-122.235645,43.952309],[-122.237257,43.952308],[-122.24131,43.952301],[-122.242268,43.9523],[-122.245669,43.952296],[-122.247279,43.952295],[-122.252289,43.952287],[-122.255693,43.952284],[-122.257302,43.952283],[-122.262316,43.952275],[-122.26572,43.952272]]]}},{"type":"Feature","properties":{"MAPTAXLOT":"1956000000100","MAPNUMBER":"19560000","TAXLOT":"100","ACCTNO":"1857646","MAPACRES":16378.47890213},"geometry":{"type":"Polygon","coordinates":[[[-122.145275,43.952305],[-122.152069,43.952365],[-122.152068,43.950163],[-122.152065,43.946542],[-122.152054,43.939298],[-122.152045,43.924797],[-122.151996,43.910296],[-122.152004,43.895792],[-122.151955,43.881289],[-122.151916,43.866859],[-122.14516,43.866859],[-122.140156,43.866859],[-122.135152,43.866859],[-122.130148,43.866859],[-122.125144,43.866859],[-122.120139,43.866859],[-122.115135,43.866859],[-122.110131,43.866859],[-122.105127,43.866859],[-122.100123,43.866859],[-122.095119,43.866859],[-122.090115,43.866859],[-122.08511,43.866859],[-122.080106,43.866859],[-122.075102,43.866859],[-122.070098,43.866859],[-122.065094,43.866859],[-122.065094,43.87048],[-122.065094,43.8741],[-122.065094,43.87772],[-122.065094,43.881341],[-122.065094,43.884961],[-122.065094,43.888582],[-122.065094,43.892202],[-122.065094,43.895822],[-122.065093,43.899443],[-122.065093,43.903063],[-122.065093,43.906683],[-122.065093,43.910304],[-122.065093,43.913924],[-122.065093,43.917544],[-122.065093,43.921165],[-122.065094,43.924785],[-122.065094,43.928405],[-122.065094,43.932026],[-122.065094,43.935646],[-122.065094,43.939266],[-122.065094,43.942887],[-122.065094,43.946507],[-122.065094,43.950127],[-122.065094,43.952305],[-122.070105,43.952305],[-122.075116,43.952305],[-122.080128,43.952305],[-122.080196,43.952305],[-122.085139,43.952305],[-122.09015,43.952305],[-122.095162,43.952305],[-122.100173,43.952305],[-122.100241,43.952305],[-122.105184,43.952305],[-122.110196,43.952305],[-122.115207,43.952305],[-122.120218,43.952305],[-122.120287,43.952305],[-122.12523,43.952305],[-122.130241,43.952305],[-122.135252,43.952305],[-122.13532,43.952305],[-122.140264,43.952305],[-122.141083,43.952305],[-122.145275,43.952305]]]}},{"type":"Feature","properties":{"MAPTAXLOT":"2055000000100","MAPNUMBER":"20550000","TAXLOT":"100","ACCTNO":"0928307","MAPACRES":7064.45129715},"geometry":{"type":"Polygon","coordinates":[[[-122.267067,43.866755],[-122.271284,43.866756],[-122.271284,43.865248],[-122.271286,43.86163],[-122.271288,43.858011],[-122.27129,43.854392],[-122.271293,43.850768],[-122.271297,43.847145],[-122.2713,43.843521],[-122.271303,43.839897],[-122.267033,43.839907],[-122.262032,43.839919],[-122.252032,43.839936],[-122.231996,43.839972],[-122.212005,43.840014],[-122.19197,43.839959],[-122.171956,43.839922],[-122.151939,43.839918],[-122.151937,43.843539],[-122.151934,43.84716],[-122.151931,43.85078],[-122.151928,43.854401],[-122.151925,43.858022],[-122.151921,43.861642],[-122.151917,43.865263],[-122.151916,43.866798],[-122.156922,43.866794],[-122.161928,43.866791],[-122.166934,43.866787],[-122.17194,43.866784],[-122.176945,43.866779],[-122.18195,43.866775],[-122.186955,43.866771],[-122.19196,43.866766],[-122.196966,43.866761],[-122.201971,43.866757],[-122.206977,43.866752],[-122.211983,43.866747],[-122.21699,43.866751],[-122.221998,43.866755],[-122.227006,43.866759],[-122.232014,43.866762],[-122.237022,43.866759],[-122.242031,43.866756],[-122.247039,43.866753],[-122.252048,43.86675],[-122.257054,43.866752],[-122.26206,43.866753],[-122.267067,43.866755]]]}},{"type":"Feature","properties":{"MAPTAXLOT":"2055000000200","MAPNUMBER":"20550000","TAXLOT":"200","ACCTNO":"0928315","MAPACRES":15266.03503555},"geometry":{"type":"Polygon","coordinates":[[[-122.267033,43.839907],[-122.271303,43.839897],[-122.271309,43.836275],[-122.271315,43.832652],[-122.27132,43.829029],[-122.271326,43.825406],[-122.271332,43.821783],[-122.271338,43.818161],[-122.271344,43.814538],[-122.27135,43.810916],[-122.271355,43.807293],[-122.27136,43.80367],[-122.271366,43.800048],[-122.271371,43.796425],[-122.271377,43.792802],[-122.271384,43.78918],[-122.27139,43.785557],[-122.271397,43.781935],[-122.26701,43.781941],[-122.262011,43.781949],[-122.257011,43.781958],[-122.252012,43.781966],[-122.247011,43.781972],[-122.242011,43.781978],[-122.23701,43.781984],[-122.23201,43.781989],[-122.227008,43.781988],[-122.222007,43.781986],[-122.217006,43.781985],[-122.212004,43.781984],[-122.207,43.781983],[-122.201996,43.781982],[-122.196993,43.781982],[-122.191989,43.781981],[-122.186986,43.781979],[-122.181984,43.781976],[-122.176981,43.781974],[-122.171978,43.781971],[-122.166977,43.781973],[-122.161975,43.781975],[-122.156973,43.781977],[-122.151971,43.781979],[-122.151969,43.7856],[-122.151967,43.789221],[-122.151965,43.792843],[-122.151963,43.796464],[-122.151961,43.800086],[-122.151959,43.803707],[-122.151957,43.807329],[-122.151955,43.81095],[-122.151953,43.814571],[-122.151951,43.818193],[-122.151949,43.821814],[-122.151947,43.825435],[-122.151945,43.829056],[-122.151943,43.832677],[-122.151941,43.836297],[-122.151939,43.839918],[-122.171956,43.839922],[-122.19197,43.839959],[-122.212005,43.840014],[-122.231996,43.839972],[-122.252032,43.839936],[-122.262032,43.839919],[-122.267033,43.839907]],[[-122.241162,43.836263],[-122.240974,43.836255],[-122.240786,43.83628],[-122.240631,43.836317],[-122.240492,43.836398],[-122.240369,43.836468],[-122.240277,43.836537],[-122.240137,43.836585],[-122.240013,43.836609],[-122.239872,43.836612],[-122.239714,43.83658],[-122.239525,43.836549],[-122.239415,43.836528],[-122.239289,43.836507],[-122.239162,43.836464],[-122.23902,43.836398],[-122.23894,43.836342],[-122.23886,43.836287],[-122.238733,43.836221],[-122.238638,43.836199],[-122.238512,43.83619],[-122.238385,43.836124],[-122.238274,43.836057],[-122.238192,43.835934],[-122.23811,43.83581],[-122.237997,43.835687],[-122.237899,43.835541],[-122.237832,43.835418],[-122.237783,43.835328],[-122.237718,43.835272],[-122.237684,43.83517],[-122.237666,43.835069],[-122.237678,43.834955],[-122.237676,43.834876],[-122.237642,43.834797],[-122.237577,43.834696],[-122.237497,43.83464],[-122.237432,43.834585],[-122.237432,43.834562],[-122.237478,43.834516],[-122.237552,43.83439],[-122.237627,43.834264],[-122.237687,43.834173],[-122.237731,43.834081],[-122.237714,43.834025],[-122.237697,43.833968],[-122.237694,43.833889],[-122.237772,43.833854],[-122.237848,43.833796],[-122.237799,43.833717],[-122.237719,43.83365],[-122.237607,43.833573],[-122.23748,43.833495],[-122.237384,43.83344],[-122.237304,43.833385],[-122.237286,43.833305],[-122.237331,43.833225],[-122.237392,43.833179],[-122.23739,43.833111],[-122.237435,43.833031],[-122.237544,43.833018],[-122.237701,43.833027],[-122.237858,43.833047],[-122.237951,43.832989],[-122.238027,43.83292],[-122.238025,43.832841],[-122.238117,43.832783],[-122.238209,43.832713],[-122.238285,43.832633],[-122.238392,43.83254],[-122.238564,43.832527],[-122.238688,43.832479],[-122.238814,43.8325],[-122.238893,43.832533],[-122.239018,43.832531],[-122.239143,43.832495],[-122.239269,43.832516],[-122.239394,43.832525],[-122.239537,43.83258],[-122.239695,43.832657],[-122.23987,43.832745],[-122.239982,43.832811],[-122.240093,43.832866],[-122.240221,43.832955],[-122.240255,43.833057],[-122.24035,43.833089],[-122.240478,43.833178],[-122.240606,43.83329],[-122.240672,43.833391],[-122.240673,43.833425],[-122.240659,43.833482],[-122.240707,43.833515],[-122.240724,43.833571],[-122.240775,43.833707],[-122.24078,43.833888],[-122.240785,43.834047],[-122.240773,43.834194],[-122.240762,43.834342],[-122.24075,43.834467],[-122.240723,43.834603],[-122.240727,43.834762],[-122.240716,43.834921],[-122.240689,43.835069],[-122.240692,43.835193],[-122.240696,43.835307],[-122.240698,43.835397],[-122.240731,43.835442],[-122.240734,43.835544],[-122.240785,43.835691],[-122.240851,43.835803],[-122.240933,43.835927],[-122.240964,43.835977],[-122.240999,43.836033],[-122.241029,43.836061],[-122.241049,43.83609],[-122.241092,43.8361],[-122.241139,43.836138],[-122.24115,43.836197],[-122.241142,43.836231],[-122.241162,43.836263]]]}},{"type":"Feature","properties":{"MAPTAXLOT":"2056000000066","MAPNUMBER":"20560000","TAXLOT":"66","ACCTNO":"000None","MAPACRES":228.0410886},"geometry":{"type":"MultiPolygon","coordinates":[[[[-122.077584,43.78737],[-122.077736,43.787502],[-122.077889,43.787688],[-122.078151,43.787792],[-122.078412,43.787869],[-122.078595,43.787786],[-122.078705,43.787731],[-122.078962,43.78762],[-122.079218,43.787509],[-122.0794,43.787372],[-122.079471,43.787264],[-122.079577,43.787075],[-122.079761,43.786992],[-122.079906,43.786882],[-122.080128,43.786879],[-122.080387,43.786849],[-122.080607,43.786765],[-122.080641,43.786657],[-122.080675,43.786523],[-122.080786,43.786521],[-122.080933,43.786466],[-122.081113,43.786275],[-122.081144,43.786033],[-122.081212,43.785818],[-122.081205,43.785549],[-122.081238,43.785388],[-122.081306,43.785172],[-122.081376,43.784983],[-122.081478,43.78466],[-122.081508,43.784364],[-122.081538,43.784122],[-122.081642,43.783852],[-122.081712,43.783663],[-122.081819,43.783528],[-122.081889,43.783366],[-122.081996,43.783203],[-122.082065,43.782987],[-122.08206,43.782799],[-122.082015,43.782505],[-122.081973,43.782317],[-122.08197,43.782183],[-122.081968,43.78213],[-122.081963,43.781942],[-122.082032,43.781753],[-122.082174,43.781483],[-122.082202,43.78116],[-122.082269,43.780891],[-122.082262,43.780622],[-122.082255,43.780327],[-122.082245,43.779951],[-122.082204,43.779818],[-122.082201,43.77971],[-122.08216,43.77955],[-122.082231,43.779442],[-122.082228,43.779307],[-122.082148,43.779067],[-122.081958,43.778882],[-122.081769,43.77875],[-122.081546,43.778726],[-122.08132,43.778568],[-122.080984,43.778492],[-122.080762,43.778495],[-122.080355,43.778501],[-122.080019,43.778425],[-122.079761,43.778482],[-122.079467,43.778567],[-122.079176,43.778759],[-122.078918,43.778816],[-122.078662,43.778954],[-122.078408,43.779172],[-122.078303,43.779388],[-122.078086,43.779579],[-122.077905,43.779769],[-122.077428,43.779937],[-122.0771,43.780129],[-122.076806,43.780241],[-122.076478,43.780433],[-122.076076,43.780653],[-122.075784,43.780845],[-122.075529,43.78101],[-122.075273,43.78112],[-122.074977,43.781125],[-122.074756,43.781208],[-122.074612,43.781344],[-122.074507,43.781587],[-122.074512,43.781775],[-122.074665,43.781988],[-122.074748,43.782183],[-122.074823,43.782361],[-122.074904,43.782629],[-122.075097,43.782921],[-122.075179,43.783216],[-122.075375,43.783642],[-122.075493,43.783882],[-122.075612,43.784176],[-122.075803,43.784415],[-122.075962,43.784842],[-122.076153,43.785054],[-122.076271,43.785321],[-122.076424,43.785507],[-122.076544,43.785828],[-122.076624,43.786068],[-122.07674,43.786254],[-122.076746,43.786469],[-122.076753,43.786764],[-122.076833,43.786978],[-122.07691,43.787084],[-122.077059,43.787136],[-122.077321,43.78724],[-122.077507,43.787237],[-122.077584,43.78737]]],[[[-122.113339,43.792124],[-122.113379,43.79208],[-122.113336,43.792007],[-122.113274,43.791935],[-122.113231,43.791862],[-122.113148,43.791761],[-122.113024,43.79166],[-122.11292,43.791544],[-122.112776,43.791459],[-122.112712,43.791342],[-122.11267,43.791255],[-122.112607,43.791183],[-122.112484,43.791111],[-122.112481,43.791009],[-122.112539,43.790891],[-122.112576,43.790788],[-122.112633,43.790641],[-122.11261,43.790553],[-122.112546,43.790422],[-122.112462,43.790277],[-122.112398,43.790161],[-122.112414,43.790014],[-122.112472,43.789911],[-122.11257,43.789793],[-122.112527,43.789676],[-122.112462,43.789545],[-122.112379,43.789429],[-122.112315,43.789328],[-122.112251,43.789212],[-122.112105,43.789009],[-122.11202,43.788863],[-122.111956,43.788747],[-122.111994,43.788644],[-122.111992,43.788586],[-122.112071,43.788511],[-122.112211,43.788466],[-122.112433,43.788433],[-122.112574,43.788431],[-122.112798,43.788501],[-122.113002,43.788557],[-122.113266,43.788612],[-122.113471,43.788711],[-122.113675,43.788782],[-122.113816,43.788765],[-122.113896,43.788735],[-122.113975,43.78869],[-122.113973,43.788617],[-122.113931,43.788529],[-122.113808,43.788458],[-122.113664,43.788372],[-122.113561,43.7883],[-122.113436,43.78817],[-122.113313,43.788099],[-122.113191,43.788057],[-122.113046,43.787942],[-122.112862,43.787842],[-122.112759,43.78777],[-122.112653,43.787596],[-122.112549,43.78748],[-122.112385,43.787409],[-122.112222,43.787338],[-122.112038,43.787268],[-122.111894,43.787167],[-122.111751,43.787096],[-122.111567,43.787011],[-122.111425,43.787013],[-122.111285,43.787059],[-122.111084,43.787091],[-122.110842,43.787109],[-122.110661,43.78714],[-122.110439,43.787173],[-122.110256,43.787102],[-122.109992,43.787077],[-122.109771,43.787124],[-122.109591,43.787199],[-122.109331,43.787291],[-122.109171,43.787366],[-122.108951,43.787442],[-122.108771,43.787518],[-122.108633,43.787637],[-122.108576,43.78777],[-122.108539,43.787917],[-122.108503,43.788063],[-122.108467,43.78824],[-122.10837,43.788373],[-122.108393,43.788475],[-122.108397,43.788636],[-122.108443,43.78884],[-122.108548,43.788985],[-122.108591,43.789087],[-122.108595,43.789233],[-122.108618,43.789365],[-122.108581,43.789497],[-122.108523,43.789586],[-122.108447,43.789748],[-122.108327,43.789808],[-122.10831,43.78994],[-122.108353,43.790042],[-122.108338,43.790232],[-122.108383,43.790407],[-122.108448,43.790567],[-122.108572,43.790683],[-122.108676,43.790798],[-122.10872,43.790915],[-122.108744,43.791061],[-122.108788,43.791192],[-122.108872,43.791308],[-122.108956,43.791424],[-122.109161,43.791553],[-122.109284,43.791624],[-122.109448,43.791695],[-122.109652,43.791751],[-122.109713,43.791794],[-122.109816,43.791851],[-122.109879,43.791953],[-122.109921,43.792011],[-122.110164,43.792037],[-122.110367,43.792078],[-122.110609,43.79206],[-122.110872,43.792071],[-122.111074,43.792053],[-122.111174,43.791993],[-122.111212,43.79192],[-122.111292,43.791875],[-122.111432,43.791843],[-122.111574,43.791856],[-122.111696,43.791869],[-122.111739,43.791985],[-122.111741,43.792044],[-122.111843,43.792072],[-122.111904,43.792086],[-122.112025,43.792113],[-122.112125,43.792053],[-122.112306,43.792007],[-122.112466,43.791975],[-122.11267,43.792046],[-122.112811,43.792029],[-122.112974,43.792071],[-122.113136,43.792083],[-122.113217,43.792082],[-122.113339,43.792124]]],[[[-122.079018,43.805036],[-122.079184,43.805123],[-122.079307,43.805121],[-122.079303,43.804973],[-122.079258,43.804825],[-122.079297,43.804736],[-122.079457,43.804585],[-122.079701,43.804523],[-122.079861,43.804372],[-122.079898,43.804223],[-122.079851,43.803987],[-122.079887,43.803808],[-122.080006,43.803659],[-122.080209,43.803596],[-122.08041,43.803475],[-122.080489,43.803355],[-122.080526,43.803177],[-122.080643,43.802968],[-122.08064,43.802849],[-122.080718,43.8027],[-122.080838,43.802609],[-122.080999,43.802488],[-122.080995,43.80234],[-122.080992,43.802222],[-122.081113,43.802161],[-122.081397,43.802038],[-122.081597,43.801887],[-122.081798,43.801736],[-122.082079,43.801525],[-122.08236,43.801313],[-122.082601,43.801132],[-122.082758,43.800863],[-122.082914,43.800564],[-122.082949,43.800327],[-122.082861,43.80012],[-122.082855,43.799883],[-122.082848,43.799587],[-122.082796,43.799172],[-122.082706,43.798877],[-122.082576,43.798612],[-122.082446,43.798317],[-122.0824,43.79814],[-122.082393,43.797873],[-122.082429,43.797665],[-122.082546,43.797456],[-122.082708,43.797365],[-122.082908,43.797214],[-122.082942,43.796946],[-122.083018,43.796708],[-122.083136,43.796528],[-122.083257,43.796467],[-122.083375,43.796258],[-122.083329,43.796081],[-122.083325,43.795933],[-122.083445,43.795813],[-122.083562,43.795603],[-122.083557,43.795396],[-122.083429,43.79519],[-122.083217,43.794926],[-122.083049,43.79475],[-122.082877,43.794456],[-122.082587,43.794312],[-122.082343,43.794375],[-122.0821,43.794467],[-122.082023,43.794646],[-122.081867,43.794974],[-122.081751,43.795213],[-122.081553,43.795483],[-122.08148,43.79581],[-122.081531,43.796195],[-122.081622,43.796549],[-122.081712,43.796845],[-122.08184,43.79708],[-122.082044,43.797048],[-122.08221,43.797105],[-122.082216,43.797342],[-122.082058,43.797581],[-122.081983,43.797819],[-122.081865,43.798029],[-122.081749,43.798267],[-122.081713,43.798475],[-122.081638,43.798743],[-122.081484,43.799101],[-122.081326,43.799341],[-122.081089,43.79967],[-122.080767,43.799882],[-122.080444,43.800064],[-122.080368,43.800273],[-122.080295,43.80063],[-122.080342,43.800867],[-122.08043,43.801073],[-122.080517,43.801279],[-122.080522,43.801457],[-122.080443,43.801577],[-122.08045,43.801844],[-122.080457,43.80211],[-122.080379,43.80226],[-122.080256,43.802261],[-122.080051,43.802264],[-122.079847,43.802267],[-122.079769,43.802416],[-122.079651,43.802626],[-122.079573,43.802775],[-122.079537,43.802953],[-122.079542,43.803161],[-122.079384,43.803371],[-122.079266,43.80355],[-122.079149,43.803789],[-122.079198,43.804085],[-122.079,43.804325],[-122.078757,43.804447],[-122.078511,43.80445],[-122.07835,43.804541],[-122.078314,43.80472],[-122.078318,43.804897],[-122.078362,43.804986],[-122.078525,43.804984],[-122.078687,43.804892],[-122.078932,43.804889],[-122.079018,43.805036]]],[[[-122.083704,43.808642],[-122.083759,43.808705],[-122.083865,43.808678],[-122.083935,43.808638],[-122.084021,43.808522],[-122.084127,43.808494],[-122.084214,43.808442],[-122.084301,43.808376],[-122.084441,43.808297],[-122.084599,43.808218],[-122.084686,43.808126],[-122.084737,43.808036],[-122.084734,43.807933],[-122.084749,43.80783],[-122.084782,43.807713],[-122.084849,43.807584],[-122.084936,43.807492],[-122.084985,43.80735],[-122.085036,43.807234],[-122.085084,43.807066],[-122.08508,43.806886],[-122.085128,43.806705],[-122.085127,43.806641],[-122.085107,43.806564],[-122.085121,43.806435],[-122.085101,43.806332],[-122.084975,43.806295],[-122.08492,43.806232],[-122.084883,43.806142],[-122.084827,43.806053],[-122.084754,43.805977],[-122.08461,43.805914],[-122.084484,43.805852],[-122.084376,43.805776],[-122.084214,43.805701],[-122.083963,43.805627],[-122.083696,43.805618],[-122.083502,43.805659],[-122.083362,43.805738],[-122.083221,43.805805],[-122.083029,43.80591],[-122.082818,43.80599],[-122.082678,43.806082],[-122.082557,43.806225],[-122.082455,43.806381],[-122.082405,43.806511],[-122.082321,43.806692],[-122.082326,43.806885],[-122.082329,43.807013],[-122.082297,43.807155],[-122.082354,43.80727],[-122.082339,43.807399],[-122.082344,43.807567],[-122.082311,43.807683],[-122.08235,43.807811],[-122.082425,43.807964],[-122.082481,43.808054],[-122.082537,43.808156],[-122.082645,43.808244],[-122.082772,43.808333],[-122.082898,43.80837],[-122.083041,43.808432],[-122.083097,43.808508],[-122.083187,43.808559],[-122.083277,43.808596],[-122.083347,43.808582],[-122.083436,43.808568],[-122.083631,43.808565],[-122.083704,43.808642]]],[[[-122.078507,43.8097],[-122.078521,43.809778],[-122.07857,43.809829],[-122.078653,43.80981],[-122.078676,43.809767],[-122.07871,43.809706],[-122.078733,43.809671],[-122.078828,43.809662],[-122.078911,43.809669],[-122.078982,43.809651],[-122.079054,43.809693],[-122.079127,43.809744],[-122.079258,43.80975],[-122.079329,43.809732],[-122.079411,43.809688],[-122.079457,43.809627],[-122.079468,43.809584],[-122.07949,43.809523],[-122.079513,43.809471],[-122.079534,43.809393],[-122.079556,43.809324],[-122.079614,43.809263],[-122.079624,43.809194],[-122.079634,43.809125],[-122.079668,43.809056],[-122.079739,43.80902],[-122.079749,43.808942],[-122.079782,43.808856],[-122.079827,43.808769],[-122.079837,43.808691],[-122.079894,43.808596],[-122.079892,43.80851],[-122.07989,43.808415],[-122.079863,43.808321],[-122.079825,43.808226],[-122.079824,43.808183],[-122.079871,43.808148],[-122.079917,43.808087],[-122.079915,43.80801],[-122.079806,43.807959],[-122.079735,43.807943],[-122.07964,43.80797],[-122.079534,43.807998],[-122.079415,43.807999],[-122.07926,43.80801],[-122.079106,43.808038],[-122.078964,43.808066],[-122.078858,43.808076],[-122.078775,43.808111],[-122.078681,43.808156],[-122.078623,43.808217],[-122.078589,43.808278],[-122.078591,43.808364],[-122.07857,43.808459],[-122.078549,43.808562],[-122.078504,43.808649],[-122.078469,43.808701],[-122.078436,43.808771],[-122.078378,43.808849],[-122.078368,43.80891],[-122.078322,43.808971],[-122.078276,43.80904],[-122.078267,43.809135],[-122.07828,43.809204],[-122.078294,43.809272],[-122.078319,43.809341],[-122.078345,43.809427],[-122.078384,43.80953],[-122.078458,43.809632],[-122.078507,43.8097]]],[[[-122.081096,43.813124],[-122.081033,43.813233],[-122.08097,43.813341],[-122.080872,43.813391],[-122.080724,43.81344],[-122.080627,43.813502],[-122.08053,43.813587],[-122.080467,43.813707],[-122.080403,43.813804],[-122.080406,43.813888],[-122.080293,43.813997],[-122.080263,43.814105],[-122.080215,43.814201],[-122.080251,43.814297],[-122.080286,43.81438],[-122.080322,43.814499],[-122.08039,43.814558],[-122.080359,43.814642],[-122.080412,43.814785],[-122.080399,43.814917],[-122.080435,43.815012],[-122.080534,43.814999],[-122.080631,43.814938],[-122.080696,43.814877],[-122.080709,43.814745],[-122.080739,43.814649],[-122.080736,43.814505],[-122.080801,43.814457],[-122.080864,43.814348],[-122.080928,43.814275],[-122.080975,43.814167],[-122.080972,43.814071],[-122.080954,43.813988],[-122.080934,43.81388],[-122.080898,43.813761],[-122.080879,43.813642],[-122.080893,43.81357],[-122.080975,43.813533],[-122.081022,43.813436],[-122.081136,43.813363],[-122.081183,43.813291],[-122.081214,43.813182],[-122.081262,43.813122],[-122.081361,43.813121],[-122.081445,43.813167],[-122.081496,43.813238],[-122.081531,43.81331],[-122.0816,43.813428],[-122.08157,43.813549],[-122.081556,43.813644],[-122.081608,43.813716],[-122.081677,43.813834],[-122.081729,43.813929],[-122.081749,43.814073],[-122.081834,43.814167],[-122.081934,43.81419],[-122.082034,43.814212],[-122.082118,43.814259],[-122.082252,43.814353],[-122.082385,43.814387],[-122.082533,43.814349],[-122.082647,43.814288],[-122.082778,43.814214],[-122.082892,43.814165],[-122.082972,43.81408],[-122.083085,43.813959],[-122.083166,43.813886],[-122.08323,43.813801],[-122.083294,43.813716],[-122.083307,43.813597],[-122.083371,43.8135],[-122.083384,43.81338],[-122.08343,43.81326],[-122.083444,43.813164],[-122.083475,43.81308],[-122.083522,43.812959],[-122.083553,43.812887],[-122.08355,43.812767],[-122.083529,43.8126],[-122.083509,43.812481],[-122.083523,43.812361],[-122.08352,43.812253],[-122.083566,43.812133],[-122.08358,43.812013],[-122.083577,43.811917],[-122.083492,43.811811],[-122.083439,43.811704],[-122.083355,43.811621],[-122.08332,43.811562],[-122.083235,43.811491],[-122.0831,43.811361],[-122.082949,43.811292],[-122.082816,43.811257],[-122.082584,43.811213],[-122.082419,43.811239],[-122.082272,43.811301],[-122.082142,43.811398],[-122.082028,43.811472],[-122.081932,43.811581],[-122.081853,43.811725],[-122.081758,43.81187],[-122.081645,43.811992],[-122.081549,43.812113],[-122.081454,43.812246],[-122.081392,43.812402],[-122.081378,43.81251],[-122.08133,43.812582],[-122.081249,43.812643],[-122.081269,43.812763],[-122.081223,43.812895],[-122.081159,43.813004],[-122.081096,43.813124]]],[[[-122.106597,43.818911],[-122.106519,43.818917],[-122.10645,43.818958],[-122.106381,43.818987],[-122.106344,43.819055],[-122.106276,43.81914],[-122.106216,43.81922],[-122.106187,43.819282],[-122.106164,43.819328],[-122.106158,43.819395],[-122.106152,43.819452],[-122.106154,43.819514],[-122.106101,43.819565],[-122.106071,43.819627],[-122.106073,43.819695],[-122.106075,43.819757],[-122.106077,43.819847],[-122.106056,43.81992],[-122.10605,43.819988],[-122.106074,43.820027],[-122.106114,43.82006],[-122.10617,43.820122],[-122.106225,43.82016],[-122.106304,43.820182],[-122.106359,43.820209],[-122.106446,43.820253],[-122.106517,43.820308],[-122.106518,43.820348],[-122.106582,43.820397],[-122.106652,43.820413],[-122.106722,43.820401],[-122.106806,43.820355],[-122.106875,43.820326],[-122.106922,43.820325],[-122.106967,43.820285],[-122.106982,43.820229],[-122.106941,43.820178],[-122.106971,43.820127],[-122.107016,43.82007],[-122.107046,43.820025],[-122.107091,43.819968],[-122.107129,43.819922],[-122.10719,43.819871],[-122.107243,43.819825],[-122.107249,43.819763],[-122.107256,43.819712],[-122.107301,43.81965],[-122.107307,43.81961],[-122.107314,43.819554],[-122.107359,43.819491],[-122.10742,43.819457],[-122.107497,43.819427],[-122.107542,43.819371],[-122.107564,43.819308],[-122.10761,43.819296],[-122.107656,43.819273],[-122.107725,43.819239],[-122.107755,43.819199],[-122.107754,43.819142],[-122.107714,43.819098],[-122.107681,43.819048],[-122.107664,43.818997],[-122.107616,43.818942],[-122.10753,43.81892],[-122.107436,43.818888],[-122.107381,43.818877],[-122.10735,43.818889],[-122.107311,43.818873],[-122.107271,43.818839],[-122.10721,43.818857],[-122.107078,43.818865],[-122.106961,43.818849],[-122.106843,43.818823],[-122.106758,43.818847],[-122.106705,43.818881],[-122.106597,43.818911]]],[[[-122.069078,43.822002],[-122.069125,43.822149],[-122.06923,43.822285],[-122.069336,43.822431],[-122.069296,43.822568],[-122.069255,43.822674],[-122.06917,43.82276],[-122.069113,43.822824],[-122.069087,43.822908],[-122.069104,43.823014],[-122.069121,43.823108],[-122.069195,43.823181],[-122.06927,43.823243],[-122.069329,43.823295],[-122.069419,43.823399],[-122.069465,43.823483],[-122.069525,43.823556],[-122.069543,43.823682],[-122.069547,43.823819],[-122.069477,43.823946],[-122.069451,43.824042],[-122.06941,43.824148],[-122.069384,43.824264],[-122.069415,43.824358],[-122.069476,43.824452],[-122.069536,43.824536],[-122.069553,43.82463],[-122.069659,43.824766],[-122.069791,43.824817],[-122.069893,43.824816],[-122.070009,43.824793],[-122.070153,43.824749],[-122.070239,43.824705],[-122.070311,43.824652],[-122.070351,43.824525],[-122.070348,43.824419],[-122.070374,43.824293],[-122.070401,43.824187],[-122.070412,43.824081],[-122.070438,43.823965],[-122.070494,43.823859],[-122.070565,43.823774],[-122.070664,43.823699],[-122.070765,43.823655],[-122.070895,43.823601],[-122.070996,43.823557],[-122.071067,43.823514],[-122.071124,43.823439],[-122.07118,43.823375],[-122.071177,43.82327],[-122.071248,43.823174],[-122.071246,43.82309],[-122.071316,43.822984],[-122.071341,43.822857],[-122.071367,43.82274],[-122.071379,43.822635],[-122.071406,43.82255],[-122.071375,43.822477],[-122.071373,43.822403],[-122.071371,43.822298],[-122.071383,43.822213],[-122.071381,43.822129],[-122.071305,43.822025],[-122.071231,43.821973],[-122.071099,43.821933],[-122.070952,43.821892],[-122.070806,43.821863],[-122.07066,43.821823],[-122.070485,43.821815],[-122.070414,43.821879],[-122.070313,43.821943],[-122.070183,43.821987],[-122.070038,43.821979],[-122.069919,43.821907],[-122.069844,43.821823],[-122.069799,43.82175],[-122.069767,43.821656],[-122.069648,43.821531],[-122.069544,43.821458],[-122.069471,43.821438],[-122.069311,43.821441],[-122.06918,43.821463],[-122.069065,43.821507],[-122.069053,43.821623],[-122.069042,43.82175],[-122.069045,43.821866],[-122.069078,43.822002]]]]}},{"type":"Feature","properties":{"MAPTAXLOT":"2056000000100","MAPNUMBER":"20560000","TAXLOT":"100","ACCTNO":"1857661","MAPACRES":16094.98793206},"geometry":{"type":"Polygon","coordinates":[[[-122.14516,43.866859],[-122.151916,43.866859],[-122.151916,43.866798],[-122.151917,43.865263],[-122.151921,43.861642],[-122.151925,43.858022],[-122.151928,43.854401],[-122.151931,43.85078],[-122.151934,43.84716],[-122.151937,43.843539],[-122.151939,43.839918],[-122.151941,43.836297],[-122.151943,43.832677],[-122.151945,43.829056],[-122.151947,43.825435],[-122.151949,43.821814],[-122.151951,43.818193],[-122.151953,43.814571],[-122.151955,43.81095],[-122.151957,43.807329],[-122.151959,43.803707],[-122.151961,43.800086],[-122.151963,43.796464],[-122.151965,43.792843],[-122.151967,43.789221],[-122.151969,43.7856],[-122.151971,43.781979],[-122.145047,43.782183],[-122.14005,43.782183],[-122.135053,43.782183],[-122.130056,43.782183],[-122.125059,43.782183],[-122.120062,43.782183],[-122.115064,43.782183],[-122.110067,43.782183],[-122.10507,43.782183],[-122.100073,43.782183],[-122.095076,43.782183],[-122.090079,43.782183],[-122.085082,43.782183],[-122.08197,43.782183],[-122.081973,43.782317],[-122.082015,43.782505],[-122.08206,43.782799],[-122.082065,43.782987],[-122.081996,43.783203],[-122.081889,43.783366],[-122.081819,43.783528],[-122.081712,43.783663],[-122.081642,43.783852],[-122.081538,43.784122],[-122.081508,43.784364],[-122.081478,43.78466],[-122.081376,43.784983],[-122.081306,43.785172],[-122.081238,43.785388],[-122.081205,43.785549],[-122.081212,43.785818],[-122.081144,43.786033],[-122.081113,43.786275],[-122.080933,43.786466],[-122.080786,43.786521],[-122.080675,43.786523],[-122.080641,43.786657],[-122.080607,43.786765],[-122.080387,43.786849],[-122.080128,43.786879],[-122.079906,43.786882],[-122.079761,43.786992],[-122.079577,43.787075],[-122.079471,43.787264],[-122.0794,43.787372],[-122.079218,43.787509],[-122.078962,43.78762],[-122.078705,43.787731],[-122.078595,43.787786],[-122.078412,43.787869],[-122.078151,43.787792],[-122.077889,43.787688],[-122.077736,43.787502],[-122.077584,43.78737],[-122.077507,43.787237],[-122.077321,43.78724],[-122.077059,43.787136],[-122.07691,43.787084],[-122.076833,43.786978],[-122.076753,43.786764],[-122.076746,43.786469],[-122.07674,43.786254],[-122.076624,43.786068],[-122.076544,43.785828],[-122.076424,43.785507],[-122.076271,43.785321],[-122.076153,43.785054],[-122.075962,43.784842],[-122.075803,43.784415],[-122.075612,43.784176],[-122.075493,43.783882],[-122.075375,43.783642],[-122.075179,43.783216],[-122.075097,43.782921],[-122.074904,43.782629],[-122.074823,43.782361],[-122.074748,43.782183],[-122.074714,43.782183],[-122.074714,43.782183],[-122.062322,43.782183],[-122.062344,43.784392],[-122.062382,43.788193],[-122.065094,43.788014],[-122.065094,43.789424],[-122.065094,43.796665],[-122.065094,43.802747],[-122.065094,43.806367],[-122.065094,43.809987],[-122.065094,43.811147],[-122.065094,43.813608],[-122.065094,43.817228],[-122.065094,43.820849],[-122.065094,43.824469],[-122.065094,43.825628],[-122.065094,43.828089],[-122.065094,43.83171],[-122.065094,43.83533],[-122.065094,43.838951],[-122.065094,43.84011],[-122.065094,43.842571],[-122.065094,43.846191],[-122.065094,43.849812],[-122.065094,43.853432],[-122.065094,43.854592],[-122.065094,43.857053],[-122.065094,43.860673],[-122.065094,43.864293],[-122.065094,43.865453],[-122.065094,43.866859],[-122.070098,43.866859],[-122.075102,43.866859],[-122.080106,43.866859],[-122.08511,43.866859],[-122.090115,43.866859],[-122.095119,43.866859],[-122.100123,43.866859],[-122.105127,43.866859],[-122.110131,43.866859],[-122.115135,43.866859],[-122.120139,43.866859],[-122.125144,43.866859],[-122.130148,43.866859],[-122.135152,43.866859],[-122.140156,43.866859],[-122.14516,43.866859]],[[-122.112653,43.787596],[-122.112759,43.78777],[-122.112862,43.787842],[-122.113046,43.787942],[-122.113191,43.788057],[-122.113313,43.788099],[-122.113436,43.78817],[-122.113561,43.7883],[-122.113664,43.788372],[-122.113808,43.788458],[-122.113931,43.788529],[-122.113973,43.788617],[-122.113975,43.78869],[-122.113896,43.788735],[-122.113816,43.788765],[-122.113675,43.788782],[-122.113471,43.788711],[-122.113266,43.788612],[-122.113002,43.788557],[-122.112798,43.788501],[-122.112574,43.788431],[-122.112433,43.788433],[-122.112211,43.788466],[-122.112071,43.788511],[-122.111992,43.788586],[-122.111994,43.788644],[-122.111956,43.788747],[-122.11202,43.788863],[-122.112105,43.789009],[-122.112251,43.789212],[-122.112315,43.789328],[-122.112379,43.789429],[-122.112462,43.789545],[-122.112527,43.789676],[-122.11257,43.789793],[-122.112472,43.789911],[-122.112414,43.790014],[-122.112398,43.790161],[-122.112462,43.790277],[-122.112546,43.790422],[-122.11261,43.790553],[-122.112633,43.790641],[-122.112576,43.790788],[-122.112539,43.790891],[-122.112481,43.791009],[-122.112484,43.791111],[-122.112607,43.791183],[-122.11267,43.791255],[-122.112712,43.791342],[-122.112776,43.791459],[-122.11292,43.791544],[-122.113024,43.79166],[-122.113148,43.791761],[-122.113231,43.791862],[-122.113274,43.791935],[-122.113336,43.792007],[-122.113379,43.79208],[-122.113339,43.792124],[-122.113217,43.792082],[-122.113136,43.792083],[-122.112974,43.792071],[-122.112811,43.792029],[-122.11267,43.792046],[-122.112466,43.791975],[-122.112306,43.792007],[-122.112125,43.792053],[-122.112025,43.792113],[-122.111904,43.792086],[-122.111843,43.792072],[-122.111741,43.792044],[-122.111739,43.791985],[-122.111696,43.791869],[-122.111574,43.791856],[-122.111432,43.791843],[-122.111292,43.791875],[-122.111212,43.79192],[-122.111174,43.791993],[-122.111074,43.792053],[-122.110872,43.792071],[-122.110609,43.79206],[-122.110367,43.792078],[-122.110164,43.792037],[-122.109921,43.792011],[-122.109879,43.791953],[-122.109816,43.791851],[-122.109713,43.791794],[-122.109652,43.791751],[-122.109448,43.791695],[-122.109284,43.791624],[-122.109161,43.791553],[-122.108956,43.791424],[-122.108872,43.791308],[-122.108788,43.791192],[-122.108744,43.791061],[-122.10872,43.790915],[-122.108676,43.790798],[-122.108572,43.790683],[-122.108448,43.790567],[-122.108383,43.790407],[-122.108338,43.790232],[-122.108353,43.790042],[-122.10831,43.78994],[-122.108327,43.789808],[-122.108447,43.789748],[-122.108523,43.789586],[-122.108581,43.789497],[-122.108618,43.789365],[-122.108595,43.789233],[-122.108591,43.789087],[-122.108548,43.788985],[-122.108443,43.78884],[-122.108397,43.788636],[-122.108393,43.788475],[-122.10837,43.788373],[-122.108467,43.78824],[-122.108503,43.788063],[-122.108539,43.787917],[-122.108576,43.78777],[-122.108633,43.787637],[-122.108771,43.787518],[-122.108951,43.787442],[-122.109171,43.787366],[-122.109331,43.787291],[-122.109591,43.787199],[-122.109771,43.787124],[-122.109992,43.787077],[-122.110256,43.787102],[-122.110439,43.787173],[-122.110661,43.78714],[-122.110842,43.787109],[-122.111084,43.787091],[-122.111285,43.787059],[-122.111425,43.787013],[-122.111567,43.787011],[-122.111751,43.787096],[-122.111894,43.787167],[-122.112038,43.787268],[-122.112222,43.787338],[-122.112385,43.787409],[-122.112549,43.78748],[-122.112653,43.787596]],[[-122.083429,43.79519],[-122.083557,43.795396],[-122.083562,43.795603],[-122.083445,43.795813],[-122.083325,43.795933],[-122.083329,43.796081],[-122.083375,43.796258],[-122.083257,43.796467],[-122.083136,43.796528],[-122.083018,43.796708],[-122.082942,43.796946],[-122.082908,43.797214],[-122.082708,43.797365],[-122.082546,43.797456],[-122.082429,43.797665],[-122.082393,43.797873],[-122.0824,43.79814],[-122.082446,43.798317],[-122.082576,43.798612],[-122.082706,43.798877],[-122.082796,43.799172],[-122.082848,43.799587],[-122.082855,43.799883],[-122.082861,43.80012],[-122.082949,43.800327],[-122.082914,43.800564],[-122.082758,43.800863],[-122.082601,43.801132],[-122.08236,43.801313],[-122.082079,43.801525],[-122.081798,43.801736],[-122.081597,43.801887],[-122.081397,43.802038],[-122.081113,43.802161],[-122.080992,43.802222],[-122.080995,43.80234],[-122.080999,43.802488],[-122.080838,43.802609],[-122.080718,43.8027],[-122.08064,43.802849],[-122.080643,43.802968],[-122.080526,43.803177],[-122.080489,43.803355],[-122.08041,43.803475],[-122.080209,43.803596],[-122.080006,43.803659],[-122.079887,43.803808],[-122.079851,43.803987],[-122.079898,43.804223],[-122.079861,43.804372],[-122.079701,43.804523],[-122.079457,43.804585],[-122.079297,43.804736],[-122.079258,43.804825],[-122.079303,43.804973],[-122.079307,43.805121],[-122.079184,43.805123],[-122.079018,43.805036],[-122.078932,43.804889],[-122.078687,43.804892],[-122.078525,43.804984],[-122.078362,43.804986],[-122.078318,43.804897],[-122.078314,43.80472],[-122.07835,43.804541],[-122.078511,43.80445],[-122.078757,43.804447],[-122.079,43.804325],[-122.079198,43.804085],[-122.079149,43.803789],[-122.079266,43.80355],[-122.079384,43.803371],[-122.079542,43.803161],[-122.079537,43.802953],[-122.079573,43.802775],[-122.079651,43.802626],[-122.079769,43.802416],[-122.079847,43.802267],[-122.080051,43.802264],[-122.080256,43.802261],[-122.080379,43.80226],[-122.080457,43.80211],[-122.08045,43.801844],[-122.080443,43.801577],[-122.080522,43.801457],[-122.080517,43.801279],[-122.08043,43.801073],[-122.080342,43.800867],[-122.080295,43.80063],[-122.080368,43.800273],[-122.080444,43.800064],[-122.080767,43.799882],[-122.081089,43.79967],[-122.081326,43.799341],[-122.081484,43.799101],[-122.081638,43.798743],[-122.081713,43.798475],[-122.081749,43.798267],[-122.081865,43.798029],[-122.081983,43.797819],[-122.082058,43.797581],[-122.082216,43.797342],[-122.08221,43.797105],[-122.082044,43.797048],[-122.08184,43.79708],[-122.081712,43.796845],[-122.081622,43.796549],[-122.081531,43.796195],[-122.08148,43.79581],[-122.081553,43.795483],[-122.081751,43.795213],[-122.081867,43.794974],[-122.082023,43.794646],[-122.0821,43.794467],[-122.082343,43.794375],[-122.082587,43.794312],[-122.082877,43.794456],[-122.083049,43.79475],[-122.083217,43.794926],[-122.083429,43.79519]],[[-122.085128,43.806705],[-122.08508,43.806886],[-122.085084,43.807066],[-122.085036,43.807234],[-122.084985,43.80735],[-122.084936,43.807492],[-122.084849,43.807584],[-122.084782,43.807713],[-122.084749,43.80783],[-122.084734,43.807933],[-122.084737,43.808036],[-122.084686,43.808126],[-122.084599,43.808218],[-122.084441,43.808297],[-122.084301,43.808376],[-122.084214,43.808442],[-122.084127,43.808494],[-122.084021,43.808522],[-122.083935,43.808638],[-122.083865,43.808678],[-122.083759,43.808705],[-122.083704,43.808642],[-122.083631,43.808565],[-122.083436,43.808568],[-122.083347,43.808582],[-122.083277,43.808596],[-122.083187,43.808559],[-122.083097,43.808508],[-122.083041,43.808432],[-122.082898,43.80837],[-122.082772,43.808333],[-122.082645,43.808244],[-122.082537,43.808156],[-122.082481,43.808054],[-122.082425,43.807964],[-122.08235,43.807811],[-122.082311,43.807683],[-122.082344,43.807567],[-122.082339,43.807399],[-122.082354,43.80727],[-122.082297,43.807155],[-122.082329,43.807013],[-122.082326,43.806885],[-122.082321,43.806692],[-122.082405,43.806511],[-122.082455,43.806381],[-122.082557,43.806225],[-122.082678,43.806082],[-122.082818,43.80599],[-122.083029,43.80591],[-122.083221,43.805805],[-122.083362,43.805738],[-122.083502,43.805659],[-122.083696,43.805618],[-122.083963,43.805627],[-122.084214,43.805701],[-122.084376,43.805776],[-122.084484,43.805852],[-122.08461,43.805914],[-122.084754,43.805977],[-122.084827,43.806053],[-122.084883,43.806142],[-122.08492,43.806232],[-122.084975,43.806295],[-122.085101,43.806332],[-122.085121,43.806435],[-122.085107,43.806564],[-122.085127,43.806641],[-122.085128,43.806705]],[[-122.083439,43.811704],[-122.083492,43.811811],[-122.083577,43.811917],[-122.08358,43.812013],[-122.083566,43.812133],[-122.08352,43.812253],[-122.083523,43.812361],[-122.083509,43.812481],[-122.083529,43.8126],[-122.08355,43.812767],[-122.083553,43.812887],[-122.083522,43.812959],[-122.083475,43.81308],[-122.083444,43.813164],[-122.08343,43.81326],[-122.083384,43.81338],[-122.083371,43.8135],[-122.083307,43.813597],[-122.083294,43.813716],[-122.08323,43.813801],[-122.083166,43.813886],[-122.083085,43.813959],[-122.082972,43.81408],[-122.082892,43.814165],[-122.082778,43.814214],[-122.082647,43.814288],[-122.082533,43.814349],[-122.082385,43.814387],[-122.082252,43.814353],[-122.082118,43.814259],[-122.082034,43.814212],[-122.081934,43.81419],[-122.081834,43.814167],[-122.081749,43.814073],[-122.081729,43.813929],[-122.081677,43.813834],[-122.081608,43.813716],[-122.081556,43.813644],[-122.08157,43.813549],[-122.0816,43.813428],[-122.081531,43.81331],[-122.081496,43.813238],[-122.081445,43.813167],[-122.081361,43.813121],[-122.081262,43.813122],[-122.081214,43.813182],[-122.081183,43.813291],[-122.081136,43.813363],[-122.081022,43.813436],[-122.080975,43.813533],[-122.080893,43.81357],[-122.080879,43.813642],[-122.080898,43.813761],[-122.080934,43.81388],[-122.080954,43.813988],[-122.080972,43.814071],[-122.080975,43.814167],[-122.080928,43.814275],[-122.080864,43.814348],[-122.080801,43.814457],[-122.080736,43.814505],[-122.080739,43.814649],[-122.080709,43.814745],[-122.080696,43.814877],[-122.080631,43.814938],[-122.080534,43.814999],[-122.080435,43.815012],[-122.080399,43.814917],[-122.080412,43.814785],[-122.080359,43.814642],[-122.08039,43.814558],[-122.080322,43.814499],[-122.080286,43.81438],[-122.080251,43.814297],[-122.080215,43.814201],[-122.080263,43.814105],[-122.080293,43.813997],[-122.080406,43.813888],[-122.080403,43.813804],[-122.080467,43.813707],[-122.08053,43.813587],[-122.080627,43.813502],[-122.080724,43.81344],[-122.080872,43.813391],[-122.08097,43.813341],[-122.081033,43.813233],[-122.081096,43.813124],[-122.081159,43.813004],[-122.081223,43.812895],[-122.081269,43.812763],[-122.081249,43.812643],[-122.08133,43.812582],[-122.081378,43.81251],[-122.081392,43.812402],[-122.081454,43.812246],[-122.081549,43.812113],[-122.081645,43.811992],[-122.081758,43.81187],[-122.081853,43.811725],[-122.081932,43.811581],[-122.082028,43.811472],[-122.082142,43.811398],[-122.082272,43.811301],[-122.082419,43.811239],[-122.082584,43.811213],[-122.082816,43.811257],[-122.082949,43.811292],[-122.0831,43.811361],[-122.083235,43.811491],[-122.08332,43.811562],[-122.083355,43.811621],[-122.083439,43.811704]],[[-122.071371,43.822298],[-122.071373,43.822403],[-122.071375,43.822477],[-122.071406,43.82255],[-122.071379,43.822635],[-122.071367,43.82274],[-122.071341,43.822857],[-122.071316,43.822984],[-122.071246,43.82309],[-122.071248,43.823174],[-122.071177,43.82327],[-122.07118,43.823375],[-122.071124,43.823439],[-122.071067,43.823514],[-122.070996,43.823557],[-122.070895,43.823601],[-122.070765,43.823655],[-122.070664,43.823699],[-122.070565,43.823774],[-122.070494,43.823859],[-122.070438,43.823965],[-122.070412,43.824081],[-122.070401,43.824187],[-122.070374,43.824293],[-122.070348,43.824419],[-122.070351,43.824525],[-122.070311,43.824652],[-122.070239,43.824705],[-122.070153,43.824749],[-122.070009,43.824793],[-122.069893,43.824816],[-122.069791,43.824817],[-122.069659,43.824766],[-122.069553,43.82463],[-122.069536,43.824536],[-122.069476,43.824452],[-122.069415,43.824358],[-122.069384,43.824264],[-122.06941,43.824148],[-122.069451,43.824042],[-122.069477,43.823946],[-122.069547,43.823819],[-122.069543,43.823682],[-122.069525,43.823556],[-122.069465,43.823483],[-122.069419,43.823399],[-122.069329,43.823295],[-122.06927,43.823243],[-122.069195,43.823181],[-122.069121,43.823108],[-122.069104,43.823014],[-122.069087,43.822908],[-122.069113,43.822824],[-122.06917,43.82276],[-122.069255,43.822674],[-122.069296,43.822568],[-122.069336,43.822431],[-122.06923,43.822285],[-122.069125,43.822149],[-122.069078,43.822002],[-122.069045,43.821866],[-122.069042,43.82175],[-122.069053,43.821623],[-122.069065,43.821507],[-122.06918,43.821463],[-122.069311,43.821441],[-122.069471,43.821438],[-122.069544,43.821458],[-122.069648,43.821531],[-122.069767,43.821656],[-122.069799,43.82175],[-122.069844,43.821823],[-122.069919,43.821907],[-122.070038,43.821979],[-122.070183,43.821987],[-122.070313,43.821943],[-122.070414,43.821879],[-122.070485,43.821815],[-122.07066,43.821823],[-122.070806,43.821863],[-122.070952,43.821892],[-122.071099,43.821933],[-122.071231,43.821973],[-122.071305,43.822025],[-122.071381,43.822129],[-122.071383,43.822213],[-122.071371,43.822298]],[[-122.079825,43.808226],[-122.079863,43.808321],[-122.07989,43.808415],[-122.079892,43.80851],[-122.079894,43.808596],[-122.079837,43.808691],[-122.079827,43.808769],[-122.079782,43.808856],[-122.079749,43.808942],[-122.079739,43.80902],[-122.079668,43.809056],[-122.079634,43.809125],[-122.079624,43.809194],[-122.079614,43.809263],[-122.079556,43.809324],[-122.079534,43.809393],[-122.079513,43.809471],[-122.07949,43.809523],[-122.079468,43.809584],[-122.079457,43.809627],[-122.079411,43.809688],[-122.079329,43.809732],[-122.079258,43.80975],[-122.079127,43.809744],[-122.079054,43.809693],[-122.078982,43.809651],[-122.078911,43.809669],[-122.078828,43.809662],[-122.078733,43.809671],[-122.07871,43.809706],[-122.078676,43.809767],[-122.078653,43.80981],[-122.07857,43.809829],[-122.078521,43.809778],[-122.078507,43.8097],[-122.078458,43.809632],[-122.078384,43.80953],[-122.078345,43.809427],[-122.078319,43.809341],[-122.078294,43.809272],[-122.07828,43.809204],[-122.078267,43.809135],[-122.078276,43.80904],[-122.078322,43.808971],[-122.078368,43.80891],[-122.078378,43.808849],[-122.078436,43.808771],[-122.078469,43.808701],[-122.078504,43.808649],[-122.078549,43.808562],[-122.07857,43.808459],[-122.078591,43.808364],[-122.078589,43.808278],[-122.078623,43.808217],[-122.078681,43.808156],[-122.078775,43.808111],[-122.078858,43.808076],[-122.078964,43.808066],[-122.079106,43.808038],[-122.07926,43.80801],[-122.079415,43.807999],[-122.079534,43.807998],[-122.07964,43.80797],[-122.079735,43.807943],[-122.079806,43.807959],[-122.079915,43.80801],[-122.079917,43.808087],[-122.079871,43.808148],[-122.079824,43.808183],[-122.079825,43.808226]],[[-122.107564,43.819308],[-122.107542,43.819371],[-122.107497,43.819427],[-122.10742,43.819457],[-122.107359,43.819491],[-122.107314,43.819554],[-122.107307,43.81961],[-122.107301,43.81965],[-122.107256,43.819712],[-122.107249,43.819763],[-122.107243,43.819825],[-122.10719,43.819871],[-122.107129,43.819922],[-122.107091,43.819968],[-122.107046,43.820025],[-122.107016,43.82007],[-122.106971,43.820127],[-122.106941,43.820178],[-122.106982,43.820229],[-122.106967,43.820285],[-122.106922,43.820325],[-122.106875,43.820326],[-122.106806,43.820355],[-122.106722,43.820401],[-122.106652,43.820413],[-122.106582,43.820397],[-122.106518,43.820348],[-122.106517,43.820308],[-122.106446,43.820253],[-122.106359,43.820209],[-122.106304,43.820182],[-122.106225,43.82016],[-122.10617,43.820122],[-122.106114,43.82006],[-122.106074,43.820027],[-122.10605,43.819988],[-122.106056,43.81992],[-122.106077,43.819847],[-122.106075,43.819757],[-122.106073,43.819695],[-122.106071,43.819627],[-122.106101,43.819565],[-122.106154,43.819514],[-122.106152,43.819452],[-122.106158,43.819395],[-122.106164,43.819328],[-122.106187,43.819282],[-122.106216,43.81922],[-122.106276,43.81914],[-122.106344,43.819055],[-122.106381,43.818987],[-122.10645,43.818958],[-122.106519,43.818917],[-122.106597,43.818911],[-122.106705,43.818881],[-122.106758,43.818847],[-122.106843,43.818823],[-122.106961,43.818849],[-122.107078,43.818865],[-122.10721,43.818857],[-122.107271,43.818839],[-122.107311,43.818873],[-122.10735,43.818889],[-122.107381,43.818877],[-122.107436,43.818888],[-122.10753,43.81892],[-122.107616,43.818942],[-122.107664,43.818997],[-122.107681,43.819048],[-122.107714,43.819098],[-122.107754,43.819142],[-122.107755,43.819199],[-122.107725,43.819239],[-122.107656,43.819273],[-122.10761,43.819296],[-122.107564,43.819308]]]}}]}