{"type":"FeatureCollection","features":[{"type":"Feature","properties":{"MAPTAXLOT":"1865000000100","MAPNUMBER":"18650000","TAXLOT":"100","ACCTNO":"1857422","MAPACRES":23940.23749406},"geometry":{"type":"Polygon","coordinates":[[[-122.135494,44.042129],[-122.141083,44.042129],[-122.141083,44.039192],[-122.141083,44.035572],[-122.141083,44.031951],[-122.141083,44.028331],[-122.141083,44.024711],[-122.141083,44.021091],[-122.141083,44.01747],[-122.141083,44.01385],[-122.141083,44.01023],[-122.141083,44.006609],[-122.141083,44.002989],[-122.141083,43.999369],[-122.141083,43.995749],[-122.141083,43.992128],[-122.141083,43.988508],[-122.141083,43.984888],[-122.141083,43.981267],[-122.141083,43.977647],[-122.141083,43.974027],[-122.141083,43.970406],[-122.141083,43.966786],[-122.141083,43.963978],[-122.141083,43.963896],[-122.141083,43.963166],[-122.141083,43.962294],[-122.141083,43.962226],[-122.141083,43.959545],[-122.141083,43.955925],[-122.141083,43.952305],[-122.140264,43.952305],[-122.13532,43.952305],[-122.135252,43.952305],[-122.130241,43.952305],[-122.12523,43.952305],[-122.120287,43.952305],[-122.120218,43.952305],[-122.115207,43.952305],[-122.110196,43.952305],[-122.105184,43.952305],[-122.100241,43.952305],[-122.100173,43.952305],[-122.095162,43.952305],[-122.09015,43.952305],[-122.085139,43.952305],[-122.080196,43.952305],[-122.080128,43.952305],[-122.075116,43.952305],[-122.070105,43.952305],[-122.065094,43.952305],[-122.060151,43.952305],[-122.060011,43.952305],[-122.055,43.952305],[-122.049988,43.952305],[-122.044977,43.952305],[-122.040105,43.952305],[-122.039966,43.952305],[-122.034954,43.952305],[-122.029943,43.952305],[-122.024932,43.952305],[-122.02006,43.952305],[-122.02006,43.955925],[-122.02006,43.959546],[-122.020061,43.963166],[-122.020061,43.966786],[-122.02006,43.970407],[-122.02006,43.974027],[-122.02006,43.977647],[-122.020061,43.981267],[-122.020061,43.984888],[-122.02006,43.988508],[-122.020061,43.992128],[-122.020061,43.995749],[-122.020061,43.999369],[-122.020061,44.002989],[-122.020061,44.00661],[-122.020061,44.01023],[-122.020061,44.01385],[-122.020061,44.01747],[-122.020061,44.021091],[-122.020061,44.024711],[-122.020061,44.028331],[-122.020061,44.031951],[-122.020061,44.035572],[-122.020061,44.039192],[-122.020061,44.042128],[-122.02508,44.042129],[-122.030099,44.042129],[-122.035117,44.042129],[-122.040136,44.042129],[-122.045155,44.042129],[-122.050174,44.042129],[-122.055193,44.042129],[-122.060211,44.042129],[-122.06523,44.042129],[-122.070249,44.042129],[-122.075268,44.042129],[-122.080287,44.042129],[-122.085306,44.042129],[-122.090325,44.042129],[-122.095343,44.042129],[-122.100362,44.042129],[-122.105381,44.042129],[-122.1104,44.042129],[-122.115419,44.042129],[-122.120438,44.042129],[-122.125457,44.042129],[-122.130475,44.042129],[-122.135494,44.042129]]]}},{"type":"Feature","properties":{"MAPTAXLOT":"1956000000100","MAPNUMBER":"19560000","TAXLOT":"100","ACCTNO":"1857646","MAPACRES":16378.47890213},"geometry":{"type":"Polygon","coordinates":[[[-122.145275,43.952305],[-122.152069,43.952365],[-122.152068,43.950163],[-122.152065,43.946542],[-122.152054,43.939298],[-122.152045,43.924797],[-122.151996,43.910296],[-122.152004,43.895792],[-122.151955,43.881289],[-122.151916,43.866859],[-122.14516,43.866859],[-122.140156,43.866859],[-122.135152,43.866859],[-122.130148,43.866859],[-122.125144,43.866859],[-122.120139,43.866859],[-122.115135,43.866859],[-122.110131,43.866859],[-122.105127,43.866859],[-122.100123,43.866859],[-122.095119,43.866859],[-122.090115,43.866859],[-122.08511,43.866859],[-122.080106,43.866859],[-122.075102,43.866859],[-122.070098,43.866859],[-122.065094,43.866859],[-122.065094,43.87048],[-122.065094,43.8741],[-122.065094,43.87772],[-122.065094,43.881341],[-122.065094,43.884961],[-122.065094,43.888582],[-122.065094,43.892202],[-122.065094,43.895822],[-122.065093,43.899443],[-122.065093,43.903063],[-122.065093,43.906683],[-122.065093,43.910304],[-122.065093,43.913924],[-122.065093,43.917544],[-122.065093,43.921165],[-122.065094,43.924785],[-122.065094,43.928405],[-122.065094,43.932026],[-122.065094,43.935646],[-122.065094,43.939266],[-122.065094,43.942887],[-122.065094,43.946507],[-122.065094,43.950127],[-122.065094,43.952305],[-122.070105,43.952305],[-122.075116,43.952305],[-122.080128,43.952305],[-122.080196,43.952305],[-122.085139,43.952305],[-122.09015,43.952305],[-122.095162,43.952305],[-122.100173,43.952305],[-122.100241,43.952305],[-122.105184,43.952305],[-122.110196,43.952305],[-122.115207,43.952305],[-122.120218,43.952305],[-122.120287,43.952305],[-122.12523,43.952305],[-122.130241,43.952305],[-122.135252,43.952305],[-122.13532,43.952305],[-122.140264,43.952305],[-122.141083,43.952305],[-122.145275,43.952305]]]}},{"type":"Feature","properties":{"MAPTAXLOT":"1965000000100","MAPNUMBER":"19650000","TAXLOT":"100","ACCTNO":"1857968","MAPACRES":21236.41146904},"geometry":{"type":"Polygon","coordinates":[[[-122.060151,43.952305],[-122.065094,43.952305],[-122.065094,43.950127],[-122.065094,43.946507],[-122.065094,43.942887],[-122.065094,43.939266],[-122.065094,43.935646],[-122.065094,43.932026],[-122.065094,43.928405],[-122.065094,43.924785],[-122.065093,43.921165],[-122.065093,43.917544],[-122.065093,43.913924],[-122.065093,43.910304],[-122.065093,43.906683],[-122.065093,43.903063],[-122.065093,43.899443],[-122.065094,43.895822],[-122.065094,43.892202],[-122.065094,43.888582],[-122.065094,43.884961],[-122.065094,43.881341],[-122.065094,43.87772],[-122.065094,43.8741],[-122.065094,43.87048],[-122.065094,43.866859],[-122.059853,43.866859],[-122.054849,43.866859],[-122.049845,43.866859],[-122.044841,43.866859],[-122.039837,43.866859],[-122.034833,43.866859],[-122.029829,43.866859],[-122.024824,43.866859],[-122.01982,43.866859],[-122.014816,43.866859],[-122.009812,43.866859],[-122.004808,43.866859],[-121.999804,43.866859],[-121.9948,43.866859],[-121.989795,43.866859],[-121.984791,43.866859],[-121.979787,43.866859],[-121.974783,43.866859],[-121.969779,43.866859],[-121.965242,43.86686],[-121.965043,43.867764],[-121.965014,43.86948],[-121.964699,43.870532],[-121.964163,43.871196],[-121.962742,43.872181],[-121.961921,43.872982],[-121.961827,43.873691],[-121.961828,43.874606],[-121.962051,43.875315],[-121.963127,43.87648],[-121.963286,43.876915],[-121.962908,43.877464],[-121.961264,43.877877],[-121.95763,43.879572],[-121.955197,43.881015],[-121.953838,43.881382],[-121.952005,43.882298],[-121.950835,43.882596],[-121.949893,43.882686],[-121.949849,43.885897],[-121.949798,43.889552],[-121.949748,43.893207],[-121.949748,43.895822],[-121.949747,43.896859],[-121.949747,43.900512],[-121.949746,43.904164],[-121.949745,43.907816],[-121.949773,43.910304],[-121.949786,43.911468],[-121.949827,43.91512],[-121.949868,43.918772],[-121.949908,43.922423],[-121.949963,43.924785],[-121.949992,43.926078],[-121.950076,43.929733],[-121.95016,43.933387],[-121.950243,43.937042],[-121.950208,43.939267],[-121.950185,43.940697],[-121.950126,43.944351],[-121.950067,43.948006],[-121.950008,43.951661],[-121.950012,43.952305],[-121.969808,43.952305],[-121.974819,43.952305],[-121.97983,43.952305],[-121.984842,43.952305],[-121.989853,43.952305],[-121.994864,43.952305],[-121.999876,43.952305],[-122.004887,43.952305],[-122.009898,43.952305],[-122.014909,43.952305],[-122.019921,43.952305],[-122.02006,43.952305],[-122.024932,43.952305],[-122.029943,43.952305],[-122.034954,43.952305],[-122.039966,43.952305],[-122.040105,43.952305],[-122.044977,43.952305],[-122.049988,43.952305],[-122.055,43.952305],[-122.060011,43.952305],[-122.060151,43.952305]],[[-121.980769,43.869345],[-121.980799,43.86951],[-121.980804,43.869712],[-121.980732,43.869878],[-121.980632,43.869953],[-121.980479,43.869955],[-121.980301,43.869939],[-121.980175,43.869996],[-121.980078,43.870163],[-121.980131,43.870272],[-121.98011,43.870456],[-121.980114,43.870622],[-121.980195,43.870823],[-121.980225,43.870988],[-121.980355,43.871115],[-121.980637,43.871203],[-121.980817,43.871293],[-121.98092,43.871365],[-121.981072,43.871345],[-121.981175,43.871399],[-121.981204,43.871546],[-121.98126,43.871747],[-121.98129,43.871931],[-121.981269,43.872096],[-121.981322,43.872206],[-121.981399,43.872223],[-121.981499,43.872167],[-121.981601,43.872166],[-121.981756,43.872256],[-121.98186,43.872365],[-121.981962,43.8724],[-121.982092,43.87249],[-121.982099,43.872784],[-121.982079,43.873005],[-121.982035,43.873282],[-121.981989,43.873503],[-121.981842,43.873707],[-121.981667,43.873838],[-121.981465,43.873896],[-121.981161,43.873918],[-121.980983,43.87392],[-121.980703,43.873906],[-121.980547,43.873779],[-121.980393,43.873707],[-121.980239,43.873636],[-121.980009,43.873602],[-121.979756,43.873642],[-121.979453,43.873719],[-121.9792,43.873778],[-121.97887,43.8738],[-121.978641,43.873766],[-121.978437,43.873769],[-121.978282,43.873642],[-121.978151,43.873497],[-121.977947,43.873444],[-121.977969,43.873315],[-121.977864,43.873188],[-121.977789,43.873244],[-121.977586,43.873265],[-121.977405,43.873139],[-121.977147,43.872958],[-121.976964,43.872758],[-121.976757,43.872595],[-121.976599,43.872377],[-121.976492,43.872176],[-121.976386,43.871993],[-121.976407,43.871791],[-121.976429,43.871662],[-121.976374,43.871515],[-121.97632,43.871351],[-121.976366,43.871166],[-121.976436,43.870926],[-121.976534,43.870759],[-121.976606,43.870575],[-121.976704,43.870445],[-121.976981,43.870349],[-121.977233,43.870254],[-121.977357,43.870105],[-121.977632,43.869936],[-121.977936,43.869896],[-121.978291,43.869873],[-121.978546,43.86987],[-121.978746,43.869738],[-121.979122,43.869531],[-121.979322,43.869382],[-121.979499,43.869379],[-121.979752,43.869321],[-121.980055,43.869244],[-121.980208,43.86926],[-121.98036,43.869221],[-121.98059,43.869273],[-121.980769,43.869345]],[[-121.963825,43.87318],[-121.964112,43.873201],[-121.96445,43.873257],[-121.964672,43.873364],[-121.96481,43.873472],[-121.96498,43.873555],[-121.965084,43.873676],[-121.965223,43.873845],[-121.965294,43.873978],[-121.965363,43.874075],[-121.965315,43.874149],[-121.965316,43.87421],[-121.965233,43.874247],[-121.965147,43.874187],[-121.965062,43.874164],[-121.96503,43.874213],[-121.965031,43.874286],[-121.9651,43.874322],[-121.965186,43.874406],[-121.965272,43.874478],[-121.965225,43.874613],[-121.965177,43.874723],[-121.965129,43.874822],[-121.96508,43.874908],[-121.964997,43.87497],[-121.964863,43.874983],[-121.964728,43.874997],[-121.964578,43.875048],[-121.964394,43.875099],[-121.964312,43.875186],[-121.964144,43.875236],[-121.964058,43.875152],[-121.963939,43.875093],[-121.963754,43.875132],[-121.963602,43.875097],[-121.963497,43.874952],[-121.963426,43.874807],[-121.963355,43.874673],[-121.963336,43.874552],[-121.963367,43.874442],[-121.963381,43.874319],[-121.963479,43.874221],[-121.963477,43.874148],[-121.963375,43.874088],[-121.963339,43.873991],[-121.963251,43.873846],[-121.963231,43.8737],[-121.963245,43.87359],[-121.963275,43.873443],[-121.963272,43.873321],[-121.963338,43.873259],[-121.963472,43.873221],[-121.963589,43.873195],[-121.963642,43.87328],[-121.963711,43.87334],[-121.96376,43.87329],[-121.963825,43.87318]],[[-121.958831,43.936588],[-121.95887,43.936701],[-121.958874,43.936833],[-121.958901,43.936946],[-121.958927,43.937042],[-121.958929,43.937112],[-121.958919,43.937191],[-121.958871,43.937245],[-121.958799,43.937281],[-121.958739,43.937273],[-121.958691,43.937291],[-121.958692,43.937352],[-121.958682,43.937422],[-121.958622,43.937484],[-121.958551,43.937529],[-121.95843,43.937557],[-121.95837,43.937593],[-121.958372,43.937645],[-121.958422,43.937732],[-121.958472,43.937802],[-121.958414,43.937899],[-121.95832,43.938005],[-121.958211,43.938033],[-121.958115,43.938078],[-121.958007,43.938106],[-121.957886,43.938133],[-121.957778,43.93817],[-121.957633,43.938189],[-121.957475,43.938191],[-121.957317,43.938176],[-121.957194,43.938125],[-121.957047,43.938056],[-121.956925,43.938032],[-121.956852,43.938015],[-121.956719,43.938025],[-121.956587,43.938057],[-121.956515,43.938124],[-121.956407,43.938178],[-121.956299,43.938215],[-121.95619,43.938242],[-121.956059,43.938305],[-121.955987,43.938368],[-121.955916,43.938421],[-121.955844,43.938448],[-121.955699,43.938477],[-121.955578,43.938478],[-121.955492,43.938462],[-121.955371,43.938454],[-121.955237,43.938438],[-121.955139,43.938413],[-121.954981,43.938407],[-121.95492,43.938364],[-121.954749,43.938313],[-121.954638,43.938244],[-121.954539,43.938158],[-121.954501,43.938097],[-121.954438,43.938001],[-121.954412,43.937932],[-121.954397,43.937827],[-121.954431,43.937712],[-121.954514,43.937632],[-121.954634,43.937587],[-121.954779,43.93755],[-121.954973,43.937539],[-121.955131,43.937546],[-121.955277,43.937588],[-121.955399,43.937613],[-121.955547,43.937698],[-121.955707,43.937793],[-121.955866,43.93787],[-121.955964,43.937903],[-121.956135,43.937936],[-121.956244,43.937935],[-121.956413,43.937924],[-121.956559,43.937914],[-121.956691,43.937868],[-121.956859,43.937796],[-121.956991,43.937742],[-121.957135,43.937652],[-121.957313,43.937527],[-121.95742,43.937403],[-121.95761,43.937234],[-121.957703,43.937101],[-121.957749,43.936987],[-121.957881,43.936924],[-121.957963,43.9368],[-121.958071,43.936746],[-121.958324,43.936682],[-121.958445,43.936645],[-121.958601,43.936608],[-121.958722,43.936589],[-121.958831,43.936588]],[[-121.97706,43.883184],[-121.977044,43.883303],[-121.977017,43.883401],[-121.976971,43.883478],[-121.976964,43.883562],[-121.976975,43.883625],[-121.976967,43.883709],[-121.976939,43.883758],[-121.976902,43.8838],[-121.976884,43.883884],[-121.976887,43.883968],[-121.976859,43.884031],[-121.976832,43.884122],[-121.976747,43.884186],[-121.976681,43.884243],[-121.976615,43.884292],[-121.976558,43.884335],[-121.976462,43.884364],[-121.976365,43.884365],[-121.976259,43.884353],[-121.976181,43.884326],[-121.976075,43.884313],[-121.975978,43.884308],[-121.975901,43.884322],[-121.975834,43.884358],[-121.975807,43.884407],[-121.975799,43.884484],[-121.975801,43.884589],[-121.975813,43.884659],[-121.975824,43.884721],[-121.975825,43.884784],[-121.975798,43.88484],[-121.975741,43.884883],[-121.975693,43.884898],[-121.975625,43.884898],[-121.975537,43.884851],[-121.975459,43.884817],[-121.975362,43.884769],[-121.975303,43.884721],[-121.975253,43.884673],[-121.975232,43.884582],[-121.975191,43.884492],[-121.97518,43.884422],[-121.975158,43.884339],[-121.975156,43.884269],[-121.975155,43.884213],[-121.975183,43.884178],[-121.975279,43.884163],[-121.975385,43.884148],[-121.97549,43.884111],[-121.975586,43.884054],[-121.975622,43.883977],[-121.975659,43.883914],[-121.975648,43.883851],[-121.975608,43.883768],[-121.975538,43.883685],[-121.975478,43.883602],[-121.975476,43.883518],[-121.975464,43.883441],[-121.975443,43.883365],[-121.975422,43.883281],[-121.975382,43.883219],[-121.975342,43.883178],[-121.975274,43.883137],[-121.975252,43.88306],[-121.975232,43.882991],[-121.975229,43.8829],[-121.975266,43.882809],[-121.975283,43.882718],[-121.975309,43.88262],[-121.975366,43.882563],[-121.975442,43.882513],[-121.975556,43.882456],[-121.975672,43.882461],[-121.975798,43.882467],[-121.975876,43.882522],[-121.975993,43.882569],[-121.976072,43.882624],[-121.976112,43.8827],[-121.976191,43.882748],[-121.976308,43.882809],[-121.976405,43.882843],[-121.976502,43.882856],[-121.97659,43.882883],[-121.976687,43.882909],[-121.976794,43.88295],[-121.976872,43.882991],[-121.976941,43.883039],[-121.976991,43.883087],[-121.97702,43.883121],[-121.97706,43.883184]],[[-121.98486,43.867215],[-121.985117,43.867322],[-121.985374,43.867447],[-121.985657,43.867572],[-121.985814,43.867772],[-121.985997,43.867972],[-121.986078,43.868155],[-121.986156,43.868246],[-121.986211,43.868411],[-121.986138,43.868559],[-121.98609,43.868651],[-121.986042,43.868762],[-121.985993,43.868855],[-121.985867,43.868912],[-121.98574,43.868895],[-121.985611,43.868805],[-121.985481,43.868714],[-121.985403,43.868623],[-121.985249,43.868589],[-121.98502,43.868555],[-121.984842,43.868539],[-121.984611,43.868468],[-121.984327,43.868288],[-121.984197,43.868161],[-121.984093,43.868089],[-121.984114,43.867886],[-121.984187,43.867738],[-121.98426,43.867627],[-121.984257,43.867498],[-121.984382,43.867405],[-121.984582,43.867292],[-121.984683,43.867235],[-121.98486,43.867215]],[[-121.99611,43.906851],[-121.996289,43.906883],[-121.996386,43.906917],[-121.996454,43.907033],[-121.996488,43.907115],[-121.996491,43.907232],[-121.996495,43.907384],[-121.996466,43.907501],[-121.996419,43.907583],[-121.996422,43.907712],[-121.996392,43.907783],[-121.996248,43.907843],[-121.996119,43.907891],[-121.995991,43.90794],[-121.995814,43.907977],[-121.995668,43.907967],[-121.995555,43.907957],[-121.995424,43.9079],[-121.995341,43.90782],[-121.995223,43.907634],[-121.995138,43.907471],[-121.995086,43.907308],[-121.994985,43.907157],[-121.994933,43.907029],[-121.99485,43.906925],[-121.994832,43.906855],[-121.994911,43.906784],[-121.994991,43.906748],[-121.995185,43.906746],[-121.995378,43.906708],[-121.995557,43.906729],[-121.995687,43.906774],[-121.995865,43.906772],[-121.995978,43.90677],[-121.99611,43.906851]],[[-121.978227,43.942118],[-121.978441,43.942167],[-121.978573,43.942208],[-121.978609,43.942233],[-121.978658,43.942292],[-121.978741,43.942308],[-121.978836,43.942333],[-121.978944,43.942374],[-121.979063,43.942381],[-121.979182,43.942423],[-121.97929,43.942481],[-121.979363,43.942532],[-121.979435,43.942591],[-121.979496,43.942641],[-121.979498,43.942718],[-121.979476,43.942787],[-121.979418,43.942856],[-121.979348,43.942883],[-121.979302,43.942952],[-121.979315,43.943003],[-121.979281,43.943064],[-121.979246,43.943107],[-121.979188,43.943142],[-121.979117,43.94316],[-121.979046,43.943152],[-121.978927,43.943128],[-121.978844,43.943129],[-121.978714,43.943131],[-121.978595,43.943141],[-121.978453,43.943143],[-121.978336,43.943187],[-121.978205,43.94318],[-121.978063,43.943173],[-121.977967,43.943132],[-121.977883,43.94309],[-121.977869,43.943004],[-121.977843,43.942919],[-121.977805,43.942808],[-121.977803,43.942706],[-121.977801,43.942646],[-121.97787,43.942559],[-121.97794,43.94249],[-121.97802,43.942403],[-121.978066,43.942343],[-121.978088,43.94224],[-121.978098,43.942162],[-121.978144,43.942128],[-121.978227,43.942118]]]}}]}