{"type":"FeatureCollection","features":[{"type":"Feature","properties":{"MAPTAXLOT":"1510000000100","MAPNUMBER":"15100000","TAXLOT":"100","ACCTNO":"0024446","MAPACRES":470.03982757},"geometry":{"type":"Polygon","coordinates":[[[-123.896476,44.28286],[-123.916501,44.282895],[-123.916532,44.279323],[-123.916525,44.275745],[-123.916518,44.272176],[-123.896318,44.272346],[-123.896301,44.275879],[-123.896284,44.279401],[-123.896476,44.28286]]]}},{"type":"Feature","properties":{"MAPTAXLOT":"1510000000200","MAPNUMBER":"15100000","TAXLOT":"200","ACCTNO":"0024453","MAPACRES":10358.60660277},"geometry":{"type":"Polygon","coordinates":[[[-123.85631,44.235675],[-123.865488,44.235955],[-123.865453,44.243503],[-123.856428,44.243022],[-123.846113,44.24319],[-123.846017,44.235841],[-123.835875,44.235824],[-123.8359,44.239502],[-123.835901,44.239593],[-123.835926,44.243179],[-123.835926,44.24327],[-123.835935,44.246801],[-123.83594,44.248798],[-123.835944,44.250423],[-123.835954,44.254045],[-123.835963,44.257667],[-123.835963,44.257671],[-123.835893,44.261255],[-123.835836,44.264112],[-123.835833,44.264304],[-123.835829,44.264469],[-123.835822,44.264842],[-123.835836,44.268367],[-123.835846,44.271011],[-123.835849,44.271893],[-123.837066,44.271877],[-123.838261,44.271862],[-123.84065,44.271831],[-123.845405,44.271769],[-123.850689,44.271827],[-123.855926,44.271884],[-123.855934,44.275477],[-123.855943,44.279032],[-123.855906,44.282794],[-123.877084,44.282686],[-123.877087,44.282295],[-123.877111,44.279103],[-123.876765,44.275751],[-123.871599,44.275683],[-123.871311,44.272258],[-123.871285,44.268623],[-123.86612,44.26853],[-123.866049,44.264913],[-123.865979,44.261308],[-123.871033,44.261348],[-123.876077,44.261387],[-123.875695,44.257728],[-123.880799,44.257774],[-123.885887,44.257819],[-123.890982,44.257864],[-123.89223,44.257875],[-123.893534,44.25787],[-123.896074,44.257861],[-123.896082,44.256358],[-123.896076,44.25421],[-123.896071,44.252386],[-123.896069,44.251474],[-123.898645,44.251445],[-123.89993,44.25143],[-123.899931,44.250514],[-123.902504,44.250484],[-123.9025,44.252318],[-123.901214,44.252332],[-123.89993,44.252345],[-123.899929,44.254175],[-123.898646,44.254187],[-123.898643,44.257843],[-123.900869,44.257828],[-123.901205,44.257826],[-123.906327,44.257791],[-123.907896,44.257771],[-123.916408,44.257661],[-123.936701,44.257774],[-123.941184,44.257758],[-123.941184,44.25773],[-123.941168,44.256084],[-123.941168,44.256057],[-123.94115,44.254106],[-123.941149,44.254078],[-123.941135,44.252557],[-123.941135,44.252529],[-123.941115,44.250454],[-123.941115,44.250427],[-123.941116,44.248884],[-123.941116,44.248857],[-123.941118,44.246763],[-123.941118,44.246735],[-123.94112,44.245212],[-123.94112,44.245184],[-123.941122,44.243071],[-123.941121,44.243044],[-123.941107,44.241553],[-123.941107,44.241527],[-123.94108,44.239468],[-123.94108,44.239443],[-123.941066,44.237921],[-123.941065,44.237897],[-123.941041,44.235864],[-123.941041,44.235841],[-123.941028,44.234334],[-123.941028,44.234312],[-123.941004,44.232255],[-123.941003,44.232233],[-123.940991,44.230748],[-123.94099,44.230727],[-123.940966,44.228645],[-123.940965,44.228626],[-123.940953,44.227161],[-123.940926,44.22495],[-123.940915,44.223576],[-123.940875,44.221259],[-123.940863,44.220002],[-123.940818,44.21758],[-123.940808,44.21643],[-123.940798,44.215882],[-123.94076,44.213902],[-123.938439,44.213913],[-123.936325,44.213923],[-123.933369,44.213932],[-123.931175,44.21394],[-123.9283,44.213949],[-123.926024,44.213957],[-123.923182,44.213994],[-123.921048,44.214022],[-123.918065,44.214061],[-123.916071,44.214088],[-123.912947,44.214102],[-123.911052,44.214111],[-123.907828,44.214125],[-123.906033,44.214133],[-123.902993,44.214147],[-123.901013,44.214157],[-123.898159,44.21417],[-123.895993,44.21418],[-123.893323,44.214193],[-123.890928,44.214205],[-123.888488,44.214218],[-123.885864,44.214232],[-123.883529,44.214208],[-123.880795,44.214179],[-123.87857,44.214154],[-123.875723,44.214122],[-123.87361,44.214107],[-123.870734,44.214087],[-123.868651,44.214072],[-123.865745,44.214052],[-123.863652,44.214054],[-123.860776,44.214056],[-123.858695,44.214058],[-123.857832,44.214059],[-123.857557,44.214059],[-123.855806,44.21406],[-123.856147,44.221246],[-123.856149,44.221336],[-123.85629,44.228457],[-123.84601,44.228512],[-123.846017,44.235841],[-123.85631,44.235675]],[[-123.885825,44.215975],[-123.885767,44.218594],[-123.880708,44.21853],[-123.880726,44.217659],[-123.876928,44.217612],[-123.876948,44.216741],[-123.875676,44.216726],[-123.875691,44.215855],[-123.885825,44.215975]]]}},{"type":"Feature","properties":{"MAPTAXLOT":"1510000000300","MAPNUMBER":"15100000","TAXLOT":"300","ACCTNO":"0024461","MAPACRES":38.17684787},"geometry":{"type":"Polygon","coordinates":[[[-123.871599,44.275683],[-123.876765,44.275751],[-123.876417,44.272382],[-123.871311,44.272258],[-123.871599,44.275683]]]}},{"type":"Feature","properties":{"MAPTAXLOT":"1510000000400","MAPNUMBER":"15100000","TAXLOT":"400","ACCTNO":"0024479","MAPACRES":41.05923665},"geometry":{"type":"Polygon","coordinates":[[[-123.871311,44.272258],[-123.876417,44.272382],[-123.876437,44.268715],[-123.871285,44.268623],[-123.871311,44.272258]]]}},{"type":"Feature","properties":{"MAPTAXLOT":"1510000000500","MAPNUMBER":"15100000","TAXLOT":"500","ACCTNO":"0024487","MAPACRES":164.37802979},"geometry":{"type":"Polygon","coordinates":[[[-123.871285,44.268623],[-123.876437,44.268715],[-123.876457,44.265038],[-123.876077,44.261387],[-123.871033,44.261348],[-123.865979,44.261308],[-123.866049,44.264913],[-123.86612,44.26853],[-123.871285,44.268623]]]}},{"type":"Feature","properties":{"MAPTAXLOT":"1510000000600","MAPNUMBER":"15100000","TAXLOT":"600","ACCTNO":"0024495","MAPACRES":644.16356257},"geometry":{"type":"Polygon","coordinates":[[[-123.896318,44.272346],[-123.916518,44.272176],[-123.916474,44.268578],[-123.91643,44.264985],[-123.916419,44.261321],[-123.916408,44.257661],[-123.907896,44.257771],[-123.906327,44.257791],[-123.901205,44.257826],[-123.900869,44.257828],[-123.898643,44.257843],[-123.896074,44.257861],[-123.896106,44.26141],[-123.896122,44.263185],[-123.896138,44.264956],[-123.896183,44.266807],[-123.896228,44.268655],[-123.896318,44.272346]]]}},{"type":"Feature","properties":{"MAPTAXLOT":"1510000000700","MAPNUMBER":"15100000","TAXLOT":"700","ACCTNO":"0024503","MAPACRES":54.08048844},"geometry":{"type":"Polygon","coordinates":[[[-123.896074,44.257861],[-123.898643,44.257843],[-123.898646,44.254187],[-123.899929,44.254175],[-123.89993,44.252345],[-123.901214,44.252332],[-123.9025,44.252318],[-123.902504,44.250484],[-123.899931,44.250514],[-123.89993,44.25143],[-123.898645,44.251445],[-123.896069,44.251474],[-123.896071,44.252386],[-123.896076,44.25421],[-123.896082,44.256358],[-123.896074,44.257861]]]}},{"type":"Feature","properties":{"MAPTAXLOT":"1510000000900","MAPNUMBER":"15100000","TAXLOT":"900","ACCTNO":"0024529","MAPACRES":166.13081507},"geometry":{"type":"Polygon","coordinates":[[[-123.846113,44.24319],[-123.856428,44.243022],[-123.85631,44.235675],[-123.846017,44.235841],[-123.846113,44.24319]]]}},{"type":"Feature","properties":{"MAPTAXLOT":"1510000001000","MAPNUMBER":"15100000","TAXLOT":"1000","ACCTNO":"0024537","MAPACRES":148.6640351},"geometry":{"type":"Polygon","coordinates":[[[-123.856428,44.243022],[-123.865453,44.243503],[-123.865488,44.235955],[-123.85631,44.235675],[-123.856428,44.243022]]]}},{"type":"Feature","properties":{"MAPTAXLOT":"1510080000100","MAPNUMBER":"15100800","TAXLOT":"100","ACCTNO":"0024586","MAPACRES":379.51599527},"geometry":{"type":"Polygon","coordinates":[[[-123.931503,44.282855],[-123.933993,44.282849],[-123.933974,44.281052],[-123.931489,44.28106],[-123.926474,44.277501],[-123.921489,44.277516],[-123.921487,44.275732],[-123.926463,44.275719],[-123.931447,44.275705],[-123.931475,44.279265],[-123.936432,44.279254],[-123.936413,44.275691],[-123.936394,44.272141],[-123.931419,44.27215],[-123.926437,44.27216],[-123.921482,44.272168],[-123.916518,44.272176],[-123.916525,44.275745],[-123.916532,44.279323],[-123.916501,44.282895],[-123.921497,44.282878],[-123.926508,44.282866],[-123.931503,44.282855]]]}},{"type":"Feature","properties":{"MAPTAXLOT":"1510100000100","MAPNUMBER":"15101000","TAXLOT":"100","ACCTNO":"0024628","MAPACRES":342.83147239},"geometry":{"type":"Polygon","coordinates":[[[-123.891572,44.282825],[-123.896476,44.28286],[-123.896284,44.279401],[-123.896301,44.275879],[-123.896318,44.272346],[-123.891299,44.27236],[-123.886254,44.272374],[-123.88135,44.272378],[-123.881475,44.275782],[-123.876765,44.275751],[-123.877111,44.279103],[-123.877087,44.282295],[-123.877084,44.282686],[-123.881731,44.282737],[-123.882935,44.282748],[-123.882813,44.279201],[-123.882696,44.27579],[-123.88636,44.275814],[-123.886452,44.279257],[-123.887709,44.279276],[-123.887803,44.282791],[-123.891572,44.282825]]]}},{"type":"Feature","properties":{"MAPTAXLOT":"1510100000200","MAPNUMBER":"15101000","TAXLOT":"200","ACCTNO":"0024636","MAPACRES":65.19629604},"geometry":{"type":"Polygon","coordinates":[[[-123.886547,44.28278],[-123.887803,44.282791],[-123.887709,44.279276],[-123.886452,44.279257],[-123.88636,44.275814],[-123.882696,44.27579],[-123.882813,44.279201],[-123.882935,44.282748],[-123.886547,44.28278]]]}},{"type":"Feature","properties":{"MAPTAXLOT":"1510100000300","MAPNUMBER":"15101000","TAXLOT":"300","ACCTNO":"0024644","MAPACRES":35.78902063},"geometry":{"type":"Polygon","coordinates":[[[-123.876765,44.275751],[-123.881475,44.275782],[-123.88135,44.272378],[-123.876417,44.272382],[-123.876765,44.275751]]]}},{"type":"Feature","properties":{"MAPTAXLOT":"1510120000100","MAPNUMBER":"15101200","TAXLOT":"100","ACCTNO":"0024651","MAPACRES":414.30992352},"geometry":{"type":"Polygon","coordinates":[[[-123.850958,44.282815],[-123.855906,44.282794],[-123.855943,44.279032],[-123.855934,44.275477],[-123.855926,44.271884],[-123.850689,44.271827],[-123.845405,44.271769],[-123.84065,44.271831],[-123.838261,44.271862],[-123.837066,44.271877],[-123.837092,44.272815],[-123.838289,44.272802],[-123.838316,44.27372],[-123.840713,44.273699],[-123.840743,44.274622],[-123.840774,44.275545],[-123.8432,44.275534],[-123.843277,44.277345],[-123.843316,44.278251],[-123.844541,44.278242],[-123.844583,44.279126],[-123.843354,44.279136],[-123.842124,44.279147],[-123.84209,44.27826],[-123.840865,44.278269],[-123.840834,44.277361],[-123.840804,44.276453],[-123.8396,44.276459],[-123.839572,44.27555],[-123.83837,44.275556],[-123.838343,44.274638],[-123.837143,44.274646],[-123.837117,44.27373],[-123.835897,44.273741],[-123.835921,44.274654],[-123.835944,44.275545],[-123.835992,44.277392],[-123.836039,44.279197],[-123.836049,44.282803],[-123.841016,44.28282],[-123.842264,44.282819],[-123.842229,44.281906],[-123.843472,44.281903],[-123.843433,44.280988],[-123.843394,44.280072],[-123.845835,44.280056],[-123.847119,44.280048],[-123.847244,44.282817],[-123.848482,44.282816],[-123.850958,44.282815]]]}},{"type":"Feature","properties":{"MAPTAXLOT":"1510150000100","MAPNUMBER":"15101500","TAXLOT":"100","ACCTNO":"0024685","MAPACRES":39.47135151},"geometry":{"type":"Polygon","coordinates":[[[-123.876417,44.272382],[-123.88135,44.272378],[-123.881312,44.268703],[-123.876437,44.268715],[-123.876417,44.272382]]]}},{"type":"Feature","properties":{"MAPTAXLOT":"1510150000200","MAPNUMBER":"15101500","TAXLOT":"200","ACCTNO":"0024693","MAPACRES":358.1621963},"geometry":{"type":"Polygon","coordinates":[[[-123.891299,44.27236],[-123.896318,44.272346],[-123.896228,44.268655],[-123.896183,44.266807],[-123.896138,44.264956],[-123.896122,44.263185],[-123.893605,44.26319],[-123.893629,44.26497],[-123.893652,44.265893],[-123.892394,44.265899],[-123.892417,44.266822],[-123.891159,44.266827],[-123.891206,44.268673],[-123.888689,44.268682],[-123.888642,44.266837],[-123.889901,44.266832],[-123.889854,44.264986],[-123.891112,44.264981],[-123.89105,44.261411],[-123.891019,44.259638],[-123.893558,44.259637],[-123.893534,44.25787],[-123.89223,44.257875],[-123.890982,44.257864],[-123.885887,44.257819],[-123.880799,44.257774],[-123.875695,44.257728],[-123.876077,44.261387],[-123.881037,44.261399],[-123.885986,44.261412],[-123.886078,44.265002],[-123.886173,44.268691],[-123.881312,44.268703],[-123.88135,44.272378],[-123.886254,44.272374],[-123.891299,44.27236]]]}},{"type":"Feature","properties":{"MAPTAXLOT":"1510150000300","MAPNUMBER":"15101500","TAXLOT":"300","ACCTNO":"0024701","MAPACRES":82.02248684},"geometry":{"type":"Polygon","coordinates":[[[-123.888689,44.268682],[-123.891206,44.268673],[-123.891159,44.266827],[-123.892417,44.266822],[-123.892394,44.265899],[-123.893652,44.265893],[-123.893629,44.26497],[-123.893605,44.26319],[-123.896122,44.263185],[-123.896106,44.26141],[-123.896074,44.257861],[-123.893534,44.25787],[-123.893558,44.259637],[-123.891019,44.259638],[-123.89105,44.261411],[-123.891112,44.264981],[-123.889854,44.264986],[-123.889901,44.266832],[-123.888642,44.266837],[-123.888689,44.268682]]]}},{"type":"Feature","properties":{"MAPTAXLOT":"1510150000400","MAPNUMBER":"15101500","TAXLOT":"400","ACCTNO":"0024719","MAPACRES":155.70275972},"geometry":{"type":"Polygon","coordinates":[[[-123.881312,44.268703],[-123.886173,44.268691],[-123.886078,44.265002],[-123.885986,44.261412],[-123.881037,44.261399],[-123.876077,44.261387],[-123.876457,44.265038],[-123.876437,44.268715],[-123.881312,44.268703]]]}},{"type":"Feature","properties":{"MAPTAXLOT":"1510170000100","MAPNUMBER":"15101700","TAXLOT":"100","ACCTNO":"0024727","MAPACRES":636.54912523},"geometry":{"type":"Polygon","coordinates":[[[-123.931419,44.27215],[-123.936394,44.272141],[-123.936472,44.268495],[-123.936549,44.264887],[-123.936625,44.261301],[-123.936701,44.257774],[-123.916408,44.257661],[-123.916419,44.261321],[-123.91643,44.264985],[-123.916474,44.268578],[-123.916518,44.272176],[-123.921482,44.272168],[-123.926437,44.27216],[-123.931419,44.27215]]]}}]}