{"type":"FeatureCollection","features":[{"type":"Feature","properties":{"MAPTAXLOT":"1525000000300","MAPNUMBER":"15250000","TAXLOT":"300","ACCTNO":"0027092","MAPACRES":528.89523407},"geometry":{"type":"Polygon","coordinates":[[[-122.50354,44.22131],[-122.503538,44.221519],[-122.503538,44.221523],[-122.503531,44.221773],[-122.503536,44.221775],[-122.506368,44.222932],[-122.507634,44.223834],[-122.511971,44.227567],[-122.512261,44.228745],[-122.513133,44.228745],[-122.52244,44.228688],[-122.523183,44.228155],[-122.52327,44.21457],[-122.521302,44.214556],[-122.518417,44.214534],[-122.516257,44.214518],[-122.513565,44.214498],[-122.513565,44.214498],[-122.511212,44.214509],[-122.511211,44.214509],[-122.508576,44.214522],[-122.506166,44.214531],[-122.506166,44.214531],[-122.503584,44.214516],[-122.50354,44.22131]]]}},{"type":"Feature","properties":{"MAPTAXLOT":"1525000000301","MAPNUMBER":"15250000","TAXLOT":"301","ACCTNO":"1023124","MAPACRES":43.03865764},"geometry":{"type":"Polygon","coordinates":[[[-122.51187,44.229798],[-122.514257,44.231528],[-122.517473,44.230833],[-122.519436,44.230832],[-122.52244,44.228688],[-122.513133,44.228745],[-122.512261,44.228745],[-122.51187,44.229798]]]}},{"type":"Feature","properties":{"MAPTAXLOT":"1525000000400","MAPNUMBER":"15250000","TAXLOT":"400","ACCTNO":"0027100","MAPACRES":604.66706256},"geometry":{"type":"Polygon","coordinates":[[[-122.533206,44.228641],[-122.543378,44.228627],[-122.543565,44.214515],[-122.54136,44.214521],[-122.538648,44.214529],[-122.536356,44.214536],[-122.533732,44.214543],[-122.531352,44.21455],[-122.528504,44.214557],[-122.526348,44.214563],[-122.52327,44.21457],[-122.523183,44.228155],[-122.52927,44.226598],[-122.531319,44.228641],[-122.533206,44.228641]]]}},{"type":"Feature","properties":{"MAPTAXLOT":"1525000000401","MAPNUMBER":"15250000","TAXLOT":"401","ACCTNO":"1023132","MAPACRES":135.57824711},"geometry":{"type":"Polygon","coordinates":[[[-122.539389,44.2343],[-122.543377,44.235137],[-122.543378,44.228627],[-122.533206,44.228641],[-122.531319,44.228641],[-122.533391,44.229899],[-122.532673,44.231314],[-122.534572,44.234145],[-122.536543,44.235143],[-122.538726,44.234981],[-122.539389,44.2343]]]}},{"type":"Feature","properties":{"MAPTAXLOT":"1525000000500","MAPNUMBER":"15250000","TAXLOT":"500","ACCTNO":"0027118","MAPACRES":617.63930174},"geometry":{"type":"Polygon","coordinates":[[[-122.543378,44.228627],[-122.563364,44.228641],[-122.563509,44.214537],[-122.560738,44.21454],[-122.558477,44.214542],[-122.555947,44.214544],[-122.553446,44.214546],[-122.551156,44.21454],[-122.548505,44.214532],[-122.546364,44.214526],[-122.543565,44.214515],[-122.543378,44.228627]]]}},{"type":"Feature","properties":{"MAPTAXLOT":"1525000000501","MAPNUMBER":"15250000","TAXLOT":"501","ACCTNO":"1023140","MAPACRES":178.41506564},"geometry":{"type":"Polygon","coordinates":[[[-122.547892,44.235321],[-122.548853,44.235509],[-122.550145,44.234978],[-122.550568,44.233852],[-122.553283,44.231574],[-122.55487,44.230923],[-122.556723,44.230814],[-122.558229,44.230447],[-122.562363,44.231566],[-122.563376,44.231358],[-122.563364,44.228641],[-122.543378,44.228627],[-122.543377,44.235137],[-122.546579,44.234837],[-122.547892,44.235321]]]}},{"type":"Feature","properties":{"MAPTAXLOT":"1525000000600","MAPNUMBER":"15250000","TAXLOT":"600","ACCTNO":"0027126","MAPACRES":627.11256842},"geometry":{"type":"Polygon","coordinates":[[[-122.577119,44.228764],[-122.583687,44.228851],[-122.583663,44.223956],[-122.583642,44.221667],[-122.583634,44.220809],[-122.583619,44.218097],[-122.583614,44.216065],[-122.583605,44.215105],[-122.583606,44.214473],[-122.581258,44.214497],[-122.578569,44.214524],[-122.576016,44.21455],[-122.573532,44.214575],[-122.570772,44.214565],[-122.56852,44.214556],[-122.565529,44.214546],[-122.563509,44.214537],[-122.563364,44.228641],[-122.569078,44.22868],[-122.572344,44.228707],[-122.573489,44.228711],[-122.574829,44.228713],[-122.577117,44.227957],[-122.577119,44.228724],[-122.577119,44.228764]]]}},{"type":"Feature","properties":{"MAPTAXLOT":"1525000000601","MAPNUMBER":"15250000","TAXLOT":"601","ACCTNO":"1023157","MAPACRES":163.86143664},"geometry":{"type":"MultiPolygon","coordinates":[[[[-122.577141,44.231345],[-122.574682,44.234026],[-122.577114,44.236706],[-122.579547,44.237935],[-122.583587,44.238467],[-122.58366,44.238497],[-122.583687,44.228851],[-122.577119,44.228764],[-122.577141,44.231345]]],[[[-122.563376,44.231358],[-122.565487,44.230771],[-122.568004,44.228961],[-122.569078,44.22868],[-122.563364,44.228641],[-122.563376,44.231358]]],[[[-122.573731,44.229078],[-122.574829,44.228713],[-122.573489,44.228711],[-122.572344,44.228707],[-122.573731,44.229078]]]]}},{"type":"Feature","properties":{"MAPTAXLOT":"1525000000700","MAPNUMBER":"15250000","TAXLOT":"700","ACCTNO":"0027134","MAPACRES":610.4545711},"geometry":{"type":"Polygon","coordinates":[[[-122.595554,44.244379],[-122.596824,44.244558],[-122.597929,44.244247],[-122.601654,44.244262],[-122.60384,44.24399],[-122.60384,44.243266],[-122.60381,44.228873],[-122.59377,44.22891],[-122.583687,44.228851],[-122.58366,44.238497],[-122.586565,44.23971],[-122.589081,44.241128],[-122.589395,44.241746],[-122.592936,44.243227],[-122.593366,44.244374],[-122.595554,44.244379]]]}},{"type":"Feature","properties":{"MAPTAXLOT":"1525000001100","MAPNUMBER":"15250000","TAXLOT":"1100","ACCTNO":"0027175","MAPACRES":598.29342383},"geometry":{"type":"Polygon","coordinates":[[[-122.59377,44.22891],[-122.60381,44.228873],[-122.603864,44.221721],[-122.603737,44.214501],[-122.600818,44.214485],[-122.59867,44.214473],[-122.596045,44.214458],[-122.593655,44.214443],[-122.591297,44.21445],[-122.588632,44.214458],[-122.588656,44.218095],[-122.583619,44.218097],[-122.583634,44.220809],[-122.583642,44.221667],[-122.583663,44.223956],[-122.583687,44.228851],[-122.59377,44.22891]]]}},{"type":"Feature","properties":{"MAPTAXLOT":"1525000001200","MAPNUMBER":"15250000","TAXLOT":"1200","ACCTNO":"0027183","MAPACRES":40.08818335},"geometry":{"type":"Polygon","coordinates":[[[-122.583619,44.218097],[-122.588656,44.218095],[-122.588632,44.214458],[-122.586502,44.214464],[-122.583606,44.214473],[-122.583605,44.215105],[-122.583614,44.216065],[-122.583619,44.218097]]]}},{"type":"Feature","properties":{"MAPTAXLOT":"1625000000100","MAPNUMBER":"16250000","TAXLOT":"100","ACCTNO":"0077105","MAPACRES":693.79740508},"geometry":{"type":"Polygon","coordinates":[[[-122.506553,44.19873],[-122.506528,44.202326],[-122.506527,44.202506],[-122.506504,44.205656],[-122.506502,44.205923],[-122.506502,44.205924],[-122.506357,44.209653],[-122.506166,44.214531],[-122.506166,44.214531],[-122.508576,44.214522],[-122.511211,44.214509],[-122.511212,44.214509],[-122.513565,44.214498],[-122.513565,44.214498],[-122.516257,44.214518],[-122.518417,44.214534],[-122.521302,44.214556],[-122.52327,44.21457],[-122.526348,44.214563],[-122.526409,44.209602],[-122.526449,44.205961],[-122.526351,44.198678],[-122.521393,44.198697],[-122.516434,44.198715],[-122.511518,44.198722],[-122.506553,44.198729],[-122.506553,44.19873]]]}},{"type":"Feature","properties":{"MAPTAXLOT":"1625000000200","MAPNUMBER":"16250000","TAXLOT":"200","ACCTNO":"0077113","MAPACRES":655.67408124},"geometry":{"type":"Polygon","coordinates":[[[-122.543565,44.214515],[-122.546364,44.214526],[-122.546288,44.211091],[-122.546207,44.207493],[-122.546123,44.200268],[-122.536253,44.199451],[-122.531302,44.199065],[-122.526351,44.198678],[-122.526449,44.205961],[-122.526409,44.209602],[-122.526348,44.214563],[-122.528504,44.214557],[-122.531352,44.21455],[-122.533732,44.214543],[-122.536356,44.214536],[-122.538648,44.214529],[-122.54136,44.214521],[-122.543565,44.214515]]]}},{"type":"Feature","properties":{"MAPTAXLOT":"1625000000300","MAPNUMBER":"16250000","TAXLOT":"300","ACCTNO":"0077121","MAPACRES":622.72403241},"geometry":{"type":"Polygon","coordinates":[[[-122.563509,44.214537],[-122.565529,44.214546],[-122.565546,44.210321],[-122.565561,44.206687],[-122.565546,44.199501],[-122.555798,44.199837],[-122.546123,44.200268],[-122.546207,44.207493],[-122.546288,44.211091],[-122.546364,44.214526],[-122.548505,44.214532],[-122.551156,44.21454],[-122.553446,44.214546],[-122.555947,44.214544],[-122.558477,44.214542],[-122.560738,44.21454],[-122.563509,44.214537]]]}},{"type":"Feature","properties":{"MAPTAXLOT":"1625000000400","MAPNUMBER":"16250000","TAXLOT":"400","ACCTNO":"0077139","MAPACRES":690.2864045},"geometry":{"type":"Polygon","coordinates":[[[-122.583606,44.214473],[-122.586502,44.214464],[-122.586554,44.206769],[-122.586421,44.199474],[-122.575978,44.199562],[-122.565546,44.199501],[-122.565561,44.206687],[-122.565546,44.210321],[-122.565529,44.214546],[-122.56852,44.214556],[-122.570772,44.214565],[-122.573532,44.214575],[-122.576016,44.21455],[-122.578569,44.214524],[-122.581258,44.214497],[-122.583606,44.214473]]]}},{"type":"Feature","properties":{"MAPTAXLOT":"1625000000500","MAPNUMBER":"16250000","TAXLOT":"500","ACCTNO":"0077147","MAPACRES":506.52201667},"geometry":{"type":"Polygon","coordinates":[[[-122.593655,44.214443],[-122.596045,44.214458],[-122.596079,44.210293],[-122.600853,44.210263],[-122.600883,44.20662],[-122.60566,44.206574],[-122.605732,44.199391],[-122.596156,44.199375],[-122.586421,44.199474],[-122.586554,44.206769],[-122.586502,44.214464],[-122.588632,44.214458],[-122.591297,44.21445],[-122.593655,44.214443]]]}},{"type":"Feature","properties":{"MAPTAXLOT":"1625000001000","MAPNUMBER":"16250000","TAXLOT":"1000","ACCTNO":"0077196","MAPACRES":615.09933364},"geometry":{"type":"Polygon","coordinates":[[[-122.596156,44.199375],[-122.605732,44.199391],[-122.605873,44.192188],[-122.605861,44.184955],[-122.595965,44.184939],[-122.591221,44.184946],[-122.586476,44.184954],[-122.58646,44.192224],[-122.586421,44.199474],[-122.596156,44.199375]]]}},{"type":"Feature","properties":{"MAPTAXLOT":"1625000001100","MAPNUMBER":"16250000","TAXLOT":"1100","ACCTNO":"0077204","MAPACRES":661.85661394},"geometry":{"type":"Polygon","coordinates":[[[-122.575978,44.199562],[-122.586421,44.199474],[-122.58646,44.192224],[-122.586476,44.184954],[-122.581376,44.184969],[-122.576182,44.184995],[-122.565717,44.185038],[-122.565783,44.192233],[-122.565546,44.199501],[-122.575978,44.199562]]]}},{"type":"Feature","properties":{"MAPTAXLOT":"1625000001200","MAPNUMBER":"16250000","TAXLOT":"1200","ACCTNO":"0077212","MAPACRES":627.83926082},"geometry":{"type":"Polygon","coordinates":[[[-122.546103,44.193013],[-122.546123,44.200268],[-122.555798,44.199837],[-122.565546,44.199501],[-122.565783,44.192233],[-122.565717,44.185038],[-122.555912,44.185127],[-122.546069,44.185797],[-122.546103,44.193013]]]}},{"type":"Feature","properties":{"MAPTAXLOT":"1625000001300","MAPNUMBER":"16250000","TAXLOT":"1300","ACCTNO":"0077220","MAPACRES":627.52678798},"geometry":{"type":"Polygon","coordinates":[[[-122.536253,44.199451],[-122.546123,44.200268],[-122.546103,44.193013],[-122.546069,44.185797],[-122.541171,44.185375],[-122.536202,44.184956],[-122.5313,44.184588],[-122.526397,44.184219],[-122.526341,44.19145],[-122.526351,44.198678],[-122.531302,44.199065],[-122.536253,44.199451]]]}},{"type":"Feature","properties":{"MAPTAXLOT":"1625000001400","MAPNUMBER":"16250000","TAXLOT":"1400","ACCTNO":"0077238","MAPACRES":629.4532873},"geometry":{"type":"Polygon","coordinates":[[[-122.521393,44.198697],[-122.526351,44.198678],[-122.526341,44.19145],[-122.526397,44.184219],[-122.516429,44.184211],[-122.506397,44.184506],[-122.506438,44.187805],[-122.506439,44.188117],[-122.506479,44.19136],[-122.50648,44.191727],[-122.506516,44.194916],[-122.506516,44.195228],[-122.506553,44.198471],[-122.506553,44.198729],[-122.511518,44.198722],[-122.516434,44.198715],[-122.521393,44.198697]]]}},{"type":"Feature","properties":{"MAPTAXLOT":"1625000001500","MAPNUMBER":"16250000","TAXLOT":"1500","ACCTNO":"0077246","MAPACRES":626.41661852},"geometry":{"type":"Polygon","coordinates":[[[-122.516429,44.184211],[-122.526397,44.184219],[-122.526395,44.180661],[-122.52638,44.177106],[-122.526337,44.173485],[-122.526287,44.169878],[-122.521299,44.169871],[-122.516312,44.169863],[-122.511324,44.169976],[-122.508395,44.170042],[-122.50832,44.170144],[-122.508293,44.170192],[-122.508259,44.170238],[-122.508219,44.170282],[-122.508174,44.170322],[-122.508123,44.17036],[-122.508067,44.170393],[-122.508007,44.170422],[-122.507943,44.170447],[-122.507798,44.170498],[-122.50774,44.170507],[-122.507683,44.170521],[-122.507629,44.170539],[-122.507578,44.170561],[-122.50753,44.170587],[-122.507487,44.170617],[-122.507449,44.17065],[-122.507416,44.170686],[-122.507388,44.170724],[-122.507367,44.170764],[-122.506734,44.172176],[-122.506694,44.172273],[-122.506649,44.172369],[-122.506597,44.172464],[-122.506539,44.172557],[-122.506476,44.172647],[-122.506407,44.172736],[-122.506332,44.172822],[-122.506331,44.173629],[-122.506331,44.173692],[-122.506329,44.177169],[-122.506327,44.177296],[-122.506363,44.180709],[-122.506363,44.180901],[-122.506396,44.18425],[-122.506397,44.184506],[-122.516429,44.184211]]]}},{"type":"Feature","properties":{"MAPTAXLOT":"1625000001600","MAPNUMBER":"16250000","TAXLOT":"1600","ACCTNO":"0077253","MAPACRES":154.6994321},"geometry":{"type":"Polygon","coordinates":[[[-122.541171,44.185375],[-122.546069,44.185797],[-122.545992,44.182132],[-122.541106,44.181754],[-122.536176,44.181388],[-122.531276,44.181024],[-122.526395,44.180661],[-122.526397,44.184219],[-122.5313,44.184588],[-122.536202,44.184956],[-122.541171,44.185375]]]}},{"type":"Feature","properties":{"MAPTAXLOT":"1625000001700","MAPNUMBER":"16250000","TAXLOT":"1700","ACCTNO":"0077261","MAPACRES":319.91686179},"geometry":{"type":"Polygon","coordinates":[[[-122.541106,44.181754],[-122.545992,44.182132],[-122.545915,44.178466],[-122.545851,44.174392],[-122.54097,44.174148],[-122.536066,44.173926],[-122.531192,44.173705],[-122.526337,44.173485],[-122.52638,44.177106],[-122.526395,44.180661],[-122.531276,44.181024],[-122.536176,44.181388],[-122.541106,44.181754]]]}},{"type":"Feature","properties":{"MAPTAXLOT":"1625000001800","MAPNUMBER":"16250000","TAXLOT":"1800","ACCTNO":"0077279","MAPACRES":164.27644129},"geometry":{"type":"Polygon","coordinates":[[[-122.54097,44.174148],[-122.545851,44.174392],[-122.545786,44.170317],[-122.540896,44.170202],[-122.536006,44.170087],[-122.531146,44.169983],[-122.526287,44.169878],[-122.526337,44.173485],[-122.531192,44.173705],[-122.536066,44.173926],[-122.54097,44.174148]]]}},{"type":"Feature","properties":{"MAPTAXLOT":"1625000001900","MAPNUMBER":"16250000","TAXLOT":"1900","ACCTNO":"0077287","MAPACRES":253.8233376},"geometry":{"type":"Polygon","coordinates":[[[-122.555926,44.174345],[-122.555926,44.178204],[-122.565889,44.177954],[-122.565977,44.174302],[-122.566061,44.170649],[-122.560995,44.170568],[-122.555925,44.170485],[-122.550856,44.170402],[-122.545786,44.170317],[-122.545851,44.174392],[-122.555926,44.174345]]]}},{"type":"Feature","properties":{"MAPTAXLOT":"1625000002000","MAPNUMBER":"16250000","TAXLOT":"2000","ACCTNO":"0077295","MAPACRES":394.84519625},"geometry":{"type":"Polygon","coordinates":[[[-122.545992,44.182132],[-122.546069,44.185797],[-122.555912,44.185127],[-122.565717,44.185038],[-122.565803,44.181496],[-122.565889,44.177954],[-122.555926,44.178204],[-122.555926,44.174345],[-122.545851,44.174392],[-122.545915,44.178466],[-122.545992,44.182132]]]}},{"type":"Feature","properties":{"MAPTAXLOT":"1625000002100","MAPNUMBER":"16250000","TAXLOT":"2100","ACCTNO":"0077303","MAPACRES":508.3264467},"geometry":{"type":"Polygon","coordinates":[[[-122.565717,44.185038],[-122.576182,44.184995],[-122.576167,44.181388],[-122.57877,44.18136],[-122.580072,44.181345],[-122.580066,44.177716],[-122.581371,44.177693],[-122.586543,44.177617],[-122.585732,44.170327],[-122.576127,44.170848],[-122.571089,44.170811],[-122.566061,44.170649],[-122.565977,44.174302],[-122.565889,44.177954],[-122.565803,44.181496],[-122.565717,44.185038]]]}},{"type":"Feature","properties":{"MAPTAXLOT":"1625000002200","MAPNUMBER":"16250000","TAXLOT":"2200","ACCTNO":"0077311","MAPACRES":134.15425136},"geometry":{"type":"Polygon","coordinates":[[[-122.581376,44.184969],[-122.586476,44.184954],[-122.58651,44.181285],[-122.586543,44.177617],[-122.581371,44.177693],[-122.580066,44.177716],[-122.580072,44.181345],[-122.57877,44.18136],[-122.576167,44.181388],[-122.576182,44.184995],[-122.581376,44.184969]]]}},{"type":"Feature","properties":{"MAPTAXLOT":"1625000002400","MAPNUMBER":"16250000","TAXLOT":"2400","ACCTNO":"0077337","MAPACRES":111.80475251},"geometry":{"type":"Polygon","coordinates":[[[-122.591221,44.184946],[-122.595965,44.184939],[-122.595796,44.181333],[-122.591153,44.181309],[-122.591086,44.177672],[-122.586543,44.177617],[-122.58651,44.181285],[-122.586476,44.184954],[-122.591221,44.184946]]]}},{"type":"Feature","properties":{"MAPTAXLOT":"1625000002500","MAPNUMBER":"16250000","TAXLOT":"2500","ACCTNO":"0077345","MAPACRES":491.43547879},"geometry":{"type":"Polygon","coordinates":[[[-122.595965,44.184939],[-122.605861,44.184955],[-122.605383,44.17784],[-122.604802,44.170699],[-122.602433,44.170647],[-122.600049,44.170595],[-122.595262,44.170489],[-122.590497,44.170408],[-122.585732,44.170327],[-122.586543,44.177617],[-122.591086,44.177672],[-122.591153,44.181309],[-122.595796,44.181333],[-122.595965,44.184939]]]}},{"type":"Feature","properties":{"MAPTAXLOT":"1625000003800","MAPNUMBER":"16250000","TAXLOT":"3800","ACCTNO":"0077477","MAPACRES":115.43909349},"geometry":{"type":"Polygon","coordinates":[[[-122.590497,44.170408],[-122.595262,44.170489],[-122.595287,44.166813],[-122.590499,44.166747],[-122.590475,44.163097],[-122.585639,44.163059],[-122.585685,44.166693],[-122.585732,44.170327],[-122.590497,44.170408]]]}},{"type":"Feature","properties":{"MAPTAXLOT":"1625000003900","MAPNUMBER":"16250000","TAXLOT":"3900","ACCTNO":"0077485","MAPACRES":482.07077077},"geometry":{"type":"Polygon","coordinates":[[[-122.571089,44.170811],[-122.576127,44.170848],[-122.585732,44.170327],[-122.585685,44.166693],[-122.585639,44.163059],[-122.585549,44.159396],[-122.585461,44.155736],[-122.582815,44.155757],[-122.580614,44.155774],[-122.575779,44.155804],[-122.575862,44.159496],[-122.573321,44.159543],[-122.570781,44.159592],[-122.570826,44.163277],[-122.570957,44.167011],[-122.565883,44.167007],[-122.566061,44.170649],[-122.571089,44.170811]]]}},{"type":"Feature","properties":{"MAPTAXLOT":"1625000004400","MAPNUMBER":"16250000","TAXLOT":"4400","ACCTNO":"0077535","MAPACRES":200.44838752},"geometry":{"type":"Polygon","coordinates":[[[-122.560995,44.170568],[-122.566061,44.170649],[-122.565883,44.167007],[-122.560941,44.166942],[-122.55591,44.166876],[-122.555893,44.163278],[-122.550794,44.163231],[-122.545651,44.163205],[-122.545719,44.166761],[-122.550826,44.166808],[-122.550856,44.170402],[-122.555925,44.170485],[-122.560995,44.170568]]]}},{"type":"Feature","properties":{"MAPTAXLOT":"1625000004401","MAPNUMBER":"16250000","TAXLOT":"4401","ACCTNO":"1060464","MAPACRES":39.94150485},"geometry":{"type":"Polygon","coordinates":[[[-122.545786,44.170317],[-122.550856,44.170402],[-122.550826,44.166808],[-122.545719,44.166761],[-122.545786,44.170317]]]}},{"type":"Feature","properties":{"MAPTAXLOT":"1625000004700","MAPNUMBER":"16250000","TAXLOT":"4700","ACCTNO":"0077576","MAPACRES":343.74589468},"geometry":{"type":"Polygon","coordinates":[[[-122.540896,44.170202],[-122.545786,44.170317],[-122.545719,44.166761],[-122.545651,44.163205],[-122.540791,44.163095],[-122.536426,44.162997],[-122.535931,44.162986],[-122.535901,44.159424],[-122.531001,44.159268],[-122.526041,44.159146],[-122.526165,44.162757],[-122.526152,44.163074],[-122.52616,44.164527],[-122.526165,44.165403],[-122.526224,44.166309],[-122.5311,44.166409],[-122.531146,44.169983],[-122.536006,44.170087],[-122.540896,44.170202]]]}}]}