{"type":"FeatureCollection","features":[{"type":"Feature","properties":{"MAPTAXLOT":"1508000000100","MAPNUMBER":"15080000","TAXLOT":"100","ACCTNO":"0023547","MAPACRES":313.57368212},"geometry":{"type":"Polygon","coordinates":[[[-123.710864,44.280187],[-123.715359,44.280275],[-123.715295,44.276601],[-123.715231,44.272926],[-123.710826,44.272875],[-123.705947,44.272831],[-123.695639,44.272727],[-123.695583,44.276308],[-123.695528,44.279888],[-123.705895,44.28009],[-123.710864,44.280187]]]}},{"type":"Feature","properties":{"MAPTAXLOT":"1508000000101","MAPNUMBER":"15080000","TAXLOT":"101","ACCTNO":"0023554","MAPACRES":642.82678354},"geometry":{"type":"Polygon","coordinates":[[[-123.665348,44.27194],[-123.67549,44.272181],[-123.675523,44.257617],[-123.65532,44.25706],[-123.655481,44.264386],[-123.65548,44.268059],[-123.655479,44.271733],[-123.665348,44.27194]]]}},{"type":"Feature","properties":{"MAPTAXLOT":"1508000000102","MAPNUMBER":"15080000","TAXLOT":"102","ACCTNO":"0023562","MAPACRES":644.69690226},"geometry":{"type":"Polygon","coordinates":[[[-123.690557,44.272593],[-123.695639,44.272727],[-123.695708,44.258143],[-123.688138,44.257946],[-123.675523,44.257617],[-123.67549,44.272181],[-123.685475,44.272457],[-123.690557,44.272593]]]}},{"type":"Feature","properties":{"MAPTAXLOT":"1508000000103","MAPNUMBER":"15080000","TAXLOT":"103","ACCTNO":"0023570","MAPACRES":621.66955191},"geometry":{"type":"Polygon","coordinates":[[[-123.710826,44.272875],[-123.715231,44.272926],[-123.715256,44.26938],[-123.715281,44.265833],[-123.715277,44.262217],[-123.715274,44.2586],[-123.710829,44.258481],[-123.705791,44.258349],[-123.695708,44.258143],[-123.695639,44.272727],[-123.705947,44.272831],[-123.710826,44.272875]]]}},{"type":"Feature","properties":{"MAPTAXLOT":"1508000000104","MAPNUMBER":"15080000","TAXLOT":"104","ACCTNO":"1405560","MAPACRES":40.06665432},"geometry":{"type":"Polygon","coordinates":[[[-123.690412,44.279739],[-123.695528,44.279888],[-123.695583,44.276308],[-123.690485,44.276166],[-123.690412,44.279739]]]}},{"type":"Feature","properties":{"MAPTAXLOT":"1508000000200","MAPNUMBER":"15080000","TAXLOT":"200","ACCTNO":"0023588","MAPACRES":39.93785234},"geometry":{"type":"Polygon","coordinates":[[[-123.690485,44.276166],[-123.695583,44.276308],[-123.695639,44.272727],[-123.690557,44.272593],[-123.690485,44.276166]]]}},{"type":"Feature","properties":{"MAPTAXLOT":"1508000000201","MAPNUMBER":"15080000","TAXLOT":"201","ACCTNO":"0023596","MAPACRES":79.86008688},"geometry":{"type":"Polygon","coordinates":[[[-123.685297,44.27959],[-123.690412,44.279739],[-123.690485,44.276166],[-123.690557,44.272593],[-123.685475,44.272457],[-123.685297,44.27959]]]}},{"type":"Feature","properties":{"MAPTAXLOT":"1508000000300","MAPNUMBER":"15080000","TAXLOT":"300","ACCTNO":"0023604","MAPACRES":155.78752035},"geometry":{"type":"Polygon","coordinates":[[[-123.675352,44.2793],[-123.685297,44.27959],[-123.685475,44.272457],[-123.67549,44.272181],[-123.675352,44.2793]]]}},{"type":"Feature","properties":{"MAPTAXLOT":"1508000000800","MAPNUMBER":"15080000","TAXLOT":"800","ACCTNO":"0023653","MAPACRES":5607.93064894},"geometry":{"type":"Polygon","coordinates":[[[-123.613922,44.276938],[-123.634901,44.277986],[-123.634729,44.274391],[-123.634557,44.270796],[-123.634663,44.256302],[-123.65532,44.25706],[-123.655222,44.249774],[-123.655123,44.242487],[-123.655026,44.235221],[-123.654928,44.227954],[-123.634751,44.227369],[-123.634754,44.225551],[-123.624517,44.225179],[-123.624533,44.21606],[-123.61437,44.215749],[-123.604276,44.215442],[-123.604113,44.22631],[-123.59395,44.225984],[-123.593949,44.226064],[-123.593949,44.229573],[-123.593946,44.229877],[-123.593937,44.233165],[-123.593928,44.233702],[-123.593892,44.236739],[-123.593879,44.237525],[-123.593844,44.240312],[-123.593805,44.241348],[-123.593718,44.243956],[-123.593673,44.245169],[-123.593589,44.2476],[-123.593583,44.248955],[-123.593578,44.251201],[-123.598747,44.251372],[-123.598687,44.254973],[-123.603807,44.255145],[-123.603709,44.258725],[-123.59355,44.258373],[-123.593541,44.260312],[-123.593531,44.261942],[-123.593476,44.264],[-123.593433,44.265563],[-123.593376,44.267689],[-123.593334,44.269183],[-123.603411,44.269571],[-123.613994,44.269859],[-123.613958,44.273398],[-123.613922,44.276938]],[[-123.624514,44.227002],[-123.624475,44.234217],[-123.61423,44.233841],[-123.614277,44.226634],[-123.624514,44.227002]],[[-123.629526,44.251575],[-123.629523,44.25248],[-123.614083,44.251879],[-123.614116,44.248269],[-123.634676,44.249058],[-123.634671,44.251775],[-123.629526,44.251575]]]}},{"type":"Feature","properties":{"MAPTAXLOT":"1508000000900","MAPNUMBER":"15080000","TAXLOT":"900","ACCTNO":"0023661","MAPACRES":606.39368473},"geometry":{"type":"Polygon","coordinates":[[[-123.710829,44.258481],[-123.715274,44.2586],[-123.715284,44.255089],[-123.715294,44.251578],[-123.715304,44.248067],[-123.715315,44.244556],[-123.710835,44.244407],[-123.705808,44.244238],[-123.695765,44.24387],[-123.695708,44.258143],[-123.705791,44.258349],[-123.710829,44.258481]]]}},{"type":"Feature","properties":{"MAPTAXLOT":"1508000001000","MAPNUMBER":"15080000","TAXLOT":"1000","ACCTNO":"0023679","MAPACRES":636.51914027},"geometry":{"type":"Polygon","coordinates":[[[-123.675546,44.250382],[-123.675534,44.253999],[-123.675523,44.257617],[-123.688138,44.257946],[-123.695708,44.258143],[-123.695765,44.24387],[-123.688224,44.2436],[-123.675569,44.243146],[-123.675546,44.250382]]]}},{"type":"Feature","properties":{"MAPTAXLOT":"1508000001100","MAPNUMBER":"15080000","TAXLOT":"1100","ACCTNO":"0023695","MAPACRES":40.29297365},"geometry":{"type":"Polygon","coordinates":[[[-123.670468,44.253854],[-123.675534,44.253999],[-123.675546,44.250382],[-123.670465,44.25023],[-123.670468,44.253854]]]}},{"type":"Feature","properties":{"MAPTAXLOT":"1508000001101","MAPNUMBER":"15080000","TAXLOT":"1101","ACCTNO":"0023703","MAPACRES":282.34087471},"geometry":{"type":"Polygon","coordinates":[[[-123.65532,44.25706],[-123.675523,44.257617],[-123.675534,44.253999],[-123.670468,44.253854],[-123.670465,44.25023],[-123.655222,44.249774],[-123.65532,44.25706]]]}},{"type":"Feature","properties":{"MAPTAXLOT":"1508000001200","MAPNUMBER":"15080000","TAXLOT":"1200","ACCTNO":"0023711","MAPACRES":324.60832374},"geometry":{"type":"Polygon","coordinates":[[[-123.670465,44.25023],[-123.675546,44.250382],[-123.675569,44.243146],[-123.655123,44.242487],[-123.655222,44.249774],[-123.670465,44.25023]]]}},{"type":"Feature","properties":{"MAPTAXLOT":"1508000001500","MAPNUMBER":"15080000","TAXLOT":"1500","ACCTNO":"0023745","MAPACRES":326.65125458},"geometry":{"type":"Polygon","coordinates":[[[-123.655123,44.242487],[-123.675569,44.243146],[-123.675623,44.2359],[-123.655026,44.235221],[-123.655123,44.242487]]]}},{"type":"Feature","properties":{"MAPTAXLOT":"1508000001700","MAPNUMBER":"15080000","TAXLOT":"1700","ACCTNO":"0023760","MAPACRES":640.23465411},"geometry":{"type":"Polygon","coordinates":[[[-123.675623,44.2359],[-123.675569,44.243146],[-123.688224,44.2436],[-123.695765,44.24387],[-123.695839,44.23663],[-123.695913,44.22939],[-123.685743,44.229108],[-123.675618,44.228739],[-123.675623,44.2359]]]}},{"type":"Feature","properties":{"MAPTAXLOT":"1508000001800","MAPNUMBER":"15080000","TAXLOT":"1800","ACCTNO":"0023794","MAPACRES":618.16102168},"geometry":{"type":"Polygon","coordinates":[[[-123.695839,44.23663],[-123.695765,44.24387],[-123.705808,44.244238],[-123.710835,44.244407],[-123.715315,44.244556],[-123.715326,44.240952],[-123.715337,44.237348],[-123.715348,44.233744],[-123.715358,44.23014],[-123.710747,44.22997],[-123.705769,44.229785],[-123.695913,44.22939],[-123.695839,44.23663]]]}},{"type":"Feature","properties":{"MAPTAXLOT":"1508090000077","MAPNUMBER":"15080900","TAXLOT":"77","ACCTNO":"000None","MAPACRES":0.98875188},"geometry":{"type":"Polygon","coordinates":[[[-123.652721,44.278883],[-123.653036,44.278899],[-123.653136,44.278834],[-123.653231,44.278744],[-123.653367,44.278593],[-123.653635,44.278256],[-123.65376,44.278033],[-123.653824,44.277842],[-123.653835,44.277773],[-123.653832,44.277708],[-123.65383,44.277647],[-123.653815,44.277578],[-123.653776,44.277453],[-123.653752,44.277349],[-123.653701,44.277174],[-123.653698,44.277113],[-123.653468,44.277102],[-123.653473,44.277194],[-123.653527,44.27738],[-123.653551,44.277485],[-123.653589,44.277608],[-123.653601,44.277662],[-123.653606,44.277766],[-123.653598,44.277812],[-123.653541,44.277983],[-123.653428,44.278184],[-123.653171,44.278507],[-123.653043,44.27865],[-123.652966,44.278723],[-123.652792,44.278836],[-123.652721,44.278883]]]}},{"type":"Feature","properties":{"MAPTAXLOT":"1508090000100","MAPNUMBER":"15080900","TAXLOT":"100","ACCTNO":"0023893","MAPACRES":39.04172752},"geometry":{"type":"MultiPolygon","coordinates":[[[[-123.655255,44.279012],[-123.660244,44.279084],[-123.660287,44.277272],[-123.655311,44.277192],[-123.653698,44.277113],[-123.653701,44.277174],[-123.653752,44.277349],[-123.653776,44.277453],[-123.653815,44.277578],[-123.65383,44.277647],[-123.653832,44.277708],[-123.653835,44.277773],[-123.653824,44.277842],[-123.65376,44.278033],[-123.653635,44.278256],[-123.653367,44.278593],[-123.653231,44.278744],[-123.653136,44.278834],[-123.653036,44.278899],[-123.655255,44.279012]]],[[[-123.650193,44.278755],[-123.650553,44.278773],[-123.650782,44.278785],[-123.652721,44.278883],[-123.652792,44.278836],[-123.652966,44.278723],[-123.653043,44.27865],[-123.653171,44.278507],[-123.653428,44.278184],[-123.653541,44.277983],[-123.653598,44.277812],[-123.653606,44.277766],[-123.653601,44.277662],[-123.653589,44.277608],[-123.653551,44.277485],[-123.653527,44.27738],[-123.653473,44.277194],[-123.653468,44.277102],[-123.65094,44.276977],[-123.650245,44.276943],[-123.650193,44.278755]]]]}},{"type":"Feature","properties":{"MAPTAXLOT":"1508090000200","MAPNUMBER":"15080900","TAXLOT":"200","ACCTNO":"0023901","MAPACRES":198.68196577},"geometry":{"type":"Polygon","coordinates":[[[-123.665234,44.279155],[-123.675352,44.2793],[-123.67549,44.272181],[-123.665348,44.27194],[-123.665291,44.275548],[-123.660329,44.27546],[-123.660287,44.277272],[-123.660244,44.279084],[-123.665234,44.279155]]]}},{"type":"Feature","properties":{"MAPTAXLOT":"1508090000300","MAPNUMBER":"15080900","TAXLOT":"300","ACCTNO":"0023919","MAPACRES":117.51114283},"geometry":{"type":"Polygon","coordinates":[[[-123.654386,44.275662],[-123.654372,44.275755],[-123.654333,44.27587],[-123.654296,44.275951],[-123.654167,44.276122],[-123.654052,44.276249],[-123.653961,44.276356],[-123.653899,44.276439],[-123.653819,44.276566],[-123.653743,44.27673],[-123.653704,44.276871],[-123.653693,44.27702],[-123.653698,44.277113],[-123.655311,44.277192],[-123.660287,44.277272],[-123.660329,44.27546],[-123.665291,44.275548],[-123.665348,44.27194],[-123.655479,44.271733],[-123.654717,44.271695],[-123.654559,44.271299],[-123.654353,44.271157],[-123.653951,44.271069],[-123.653751,44.270972],[-123.653747,44.271014],[-123.653729,44.271147],[-123.653704,44.271332],[-123.653667,44.271643],[-123.653659,44.271704],[-123.653646,44.271908],[-123.653655,44.272104],[-123.653672,44.272248],[-123.653708,44.272384],[-123.653791,44.272626],[-123.653843,44.272826],[-123.653861,44.273027],[-123.653864,44.273225],[-123.653846,44.273459],[-123.653825,44.273647],[-123.653786,44.274051],[-123.653758,44.274266],[-123.653748,44.274382],[-123.653735,44.274543],[-123.653747,44.274618],[-123.653769,44.274704],[-123.653815,44.274789],[-123.653906,44.274894],[-123.654043,44.274997],[-123.654194,44.275125],[-123.654304,44.275254],[-123.654356,44.275398],[-123.654386,44.275544],[-123.654386,44.275662]]]}},{"type":"Feature","properties":{"MAPTAXLOT":"1508100000077","MAPNUMBER":"15081000","TAXLOT":"77","ACCTNO":"000None","MAPACRES":2.87888387},"geometry":{"type":"Polygon","coordinates":[[[-123.653468,44.277102],[-123.653698,44.277113],[-123.653693,44.27702],[-123.653704,44.276871],[-123.653743,44.27673],[-123.653819,44.276566],[-123.653899,44.276439],[-123.653961,44.276356],[-123.654052,44.276249],[-123.654167,44.276122],[-123.654296,44.275951],[-123.654333,44.27587],[-123.654372,44.275755],[-123.654386,44.275662],[-123.654386,44.275544],[-123.654356,44.275398],[-123.654304,44.275254],[-123.654194,44.275125],[-123.654043,44.274997],[-123.653906,44.274894],[-123.653815,44.274789],[-123.653769,44.274704],[-123.653747,44.274618],[-123.653735,44.274543],[-123.653748,44.274382],[-123.653758,44.274266],[-123.653786,44.274051],[-123.653825,44.273647],[-123.653846,44.273459],[-123.653864,44.273225],[-123.653861,44.273027],[-123.653843,44.272826],[-123.653791,44.272626],[-123.653708,44.272384],[-123.653672,44.272248],[-123.653655,44.272104],[-123.653646,44.271908],[-123.653659,44.271704],[-123.653667,44.271643],[-123.653438,44.271631],[-123.653431,44.271693],[-123.653417,44.271907],[-123.653426,44.272113],[-123.653445,44.27227],[-123.653484,44.272419],[-123.653567,44.272661],[-123.653615,44.272846],[-123.653632,44.273033],[-123.653635,44.273221],[-123.653617,44.273448],[-123.653597,44.273635],[-123.653558,44.274037],[-123.653529,44.274254],[-123.65352,44.274373],[-123.653505,44.274548],[-123.65352,44.274643],[-123.653547,44.274749],[-123.65361,44.274863],[-123.653724,44.274995],[-123.653872,44.275107],[-123.654008,44.275222],[-123.654091,44.275319],[-123.654131,44.275431],[-123.654156,44.275556],[-123.654157,44.275654],[-123.654146,44.275727],[-123.654113,44.275825],[-123.654085,44.275885],[-123.65397,44.276037],[-123.653859,44.276161],[-123.653762,44.276274],[-123.653693,44.276367],[-123.653605,44.276506],[-123.653521,44.276688],[-123.653476,44.276851],[-123.653464,44.277019],[-123.653468,44.277102]]]}},{"type":"Feature","properties":{"MAPTAXLOT":"1508100000100","MAPNUMBER":"15081000","TAXLOT":"100","ACCTNO":"0023927","MAPACRES":124.28496856},"geometry":{"type":"Polygon","coordinates":[[[-123.634901,44.277986],[-123.645132,44.278498],[-123.645321,44.271228],[-123.639939,44.271012],[-123.639978,44.274641],[-123.634729,44.274391],[-123.634901,44.277986]]]}},{"type":"Feature","properties":{"MAPTAXLOT":"1508100000202","MAPNUMBER":"15081000","TAXLOT":"202","ACCTNO":"1846870","MAPACRES":120.92946488},"geometry":{"type":"Polygon","coordinates":[[[-123.645132,44.278498],[-123.650193,44.278755],[-123.650245,44.276943],[-123.65094,44.276977],[-123.653468,44.277102],[-123.653464,44.277019],[-123.653476,44.276851],[-123.653521,44.276688],[-123.653605,44.276506],[-123.653693,44.276367],[-123.653762,44.276274],[-123.653859,44.276161],[-123.65397,44.276037],[-123.654085,44.275885],[-123.654113,44.275825],[-123.654146,44.275727],[-123.654157,44.275654],[-123.654156,44.275556],[-123.654131,44.275431],[-123.654091,44.275319],[-123.654008,44.275222],[-123.653872,44.275107],[-123.653724,44.274995],[-123.65361,44.274863],[-123.653547,44.274749],[-123.65352,44.274643],[-123.653505,44.274548],[-123.65352,44.274373],[-123.653529,44.274254],[-123.653558,44.274037],[-123.653597,44.273635],[-123.653617,44.273448],[-123.653635,44.273221],[-123.653632,44.273033],[-123.653615,44.272846],[-123.653567,44.272661],[-123.653484,44.272419],[-123.653445,44.27227],[-123.653426,44.272113],[-123.653417,44.271907],[-123.653431,44.271693],[-123.653438,44.271631],[-123.652469,44.271583],[-123.6504,44.271481],[-123.645321,44.271228],[-123.645132,44.278498]]]}},{"type":"Feature","properties":{"MAPTAXLOT":"1508150000077","MAPNUMBER":"15081500","TAXLOT":"77","ACCTNO":"000None","MAPACRES":2.44630056},"geometry":{"type":"Polygon","coordinates":[[[-123.654674,44.267105],[-123.654818,44.267267],[-123.654916,44.267395],[-123.654958,44.267469],[-123.654983,44.267535],[-123.65499,44.267633],[-123.65499,44.267634],[-123.654995,44.267729],[-123.654991,44.267811],[-123.654969,44.267879],[-123.654937,44.267943],[-123.654874,44.268034],[-123.654597,44.26842],[-123.654215,44.268948],[-123.653832,44.269484],[-123.653671,44.269738],[-123.653624,44.269835],[-123.653603,44.269926],[-123.653586,44.270143],[-123.653578,44.27042],[-123.653544,44.270726],[-123.653531,44.270868],[-123.653519,44.271001],[-123.653476,44.271317],[-123.653438,44.271631],[-123.653667,44.271643],[-123.653704,44.271332],[-123.653729,44.271147],[-123.653747,44.271014],[-123.653751,44.270972],[-123.653772,44.270738],[-123.653807,44.270428],[-123.653815,44.270149],[-123.653831,44.269944],[-123.653847,44.269877],[-123.653884,44.269799],[-123.654038,44.269556],[-123.654418,44.269023],[-123.6548,44.268496],[-123.655089,44.268093],[-123.655123,44.268044],[-123.655149,44.268007],[-123.655189,44.267925],[-123.655219,44.267833],[-123.655225,44.267729],[-123.655219,44.267627],[-123.655219,44.267625],[-123.65521,44.267508],[-123.655175,44.267415],[-123.655123,44.267324],[-123.655015,44.267183],[-123.654866,44.267016],[-123.654674,44.267105]]]}},{"type":"Feature","properties":{"MAPTAXLOT":"1508150000100","MAPNUMBER":"15081500","TAXLOT":"100","ACCTNO":"0023968","MAPACRES":623.46014059},"geometry":{"type":"Polygon","coordinates":[[[-123.645321,44.271228],[-123.6504,44.271481],[-123.650339,44.267841],[-123.651966,44.26791],[-123.652312,44.267925],[-123.65254,44.267935],[-123.65383,44.267989],[-123.654874,44.268034],[-123.654937,44.267943],[-123.654969,44.267879],[-123.654991,44.267811],[-123.654995,44.267729],[-123.65499,44.267634],[-123.65499,44.267633],[-123.654983,44.267535],[-123.654958,44.267469],[-123.654916,44.267395],[-123.654818,44.267267],[-123.654674,44.267105],[-123.654866,44.267016],[-123.655015,44.267183],[-123.655123,44.267324],[-123.655175,44.267415],[-123.65521,44.267508],[-123.655219,44.267625],[-123.655219,44.267627],[-123.655225,44.267729],[-123.655219,44.267833],[-123.655189,44.267925],[-123.655149,44.268007],[-123.655123,44.268044],[-123.65548,44.268059],[-123.655481,44.264386],[-123.65532,44.25706],[-123.634663,44.256302],[-123.634557,44.270796],[-123.639939,44.271012],[-123.645321,44.271228]]]}},{"type":"Feature","properties":{"MAPTAXLOT":"1508150000201","MAPNUMBER":"15081500","TAXLOT":"201","ACCTNO":"1846888","MAPACRES":24.518346},"geometry":{"type":"Polygon","coordinates":[[[-123.652469,44.271583],[-123.653438,44.271631],[-123.653476,44.271317],[-123.653519,44.271001],[-123.653531,44.270868],[-123.653481,44.270855],[-123.653476,44.27085],[-123.653262,44.270652],[-123.653166,44.270327],[-123.653122,44.270023],[-123.653204,44.269665],[-123.653333,44.269272],[-123.653495,44.268979],[-123.653651,44.268793],[-123.65378,44.268563],[-123.653792,44.268347],[-123.653808,44.268193],[-123.65383,44.267989],[-123.65254,44.267935],[-123.652312,44.267925],[-123.651966,44.26791],[-123.650339,44.267841],[-123.6504,44.271481],[-123.652469,44.271583]]]}},{"type":"Feature","properties":{"MAPTAXLOT":"1508150000300","MAPNUMBER":"15081500","TAXLOT":"300","ACCTNO":"0023984","MAPACRES":3.63311939},"geometry":{"type":"Polygon","coordinates":[[[-123.65383,44.267989],[-123.653808,44.268193],[-123.653792,44.268347],[-123.65378,44.268563],[-123.653651,44.268793],[-123.653495,44.268979],[-123.653333,44.269272],[-123.653204,44.269665],[-123.653122,44.270023],[-123.653166,44.270327],[-123.653262,44.270652],[-123.653476,44.27085],[-123.653481,44.270855],[-123.653531,44.270868],[-123.653544,44.270726],[-123.653578,44.27042],[-123.653586,44.270143],[-123.653603,44.269926],[-123.653624,44.269835],[-123.653671,44.269738],[-123.653832,44.269484],[-123.654215,44.268948],[-123.654597,44.26842],[-123.654874,44.268034],[-123.65383,44.267989]]]}},{"type":"Feature","properties":{"MAPTAXLOT":"1508150000400","MAPNUMBER":"15081500","TAXLOT":"400","ACCTNO":"0023992","MAPACRES":9.77940223},"geometry":{"type":"Polygon","coordinates":[[[-123.654717,44.271695],[-123.655479,44.271733],[-123.65548,44.268059],[-123.655123,44.268044],[-123.655089,44.268093],[-123.6548,44.268496],[-123.654418,44.269023],[-123.654038,44.269556],[-123.653884,44.269799],[-123.653847,44.269877],[-123.653831,44.269944],[-123.653815,44.270149],[-123.653807,44.270428],[-123.653772,44.270738],[-123.653751,44.270972],[-123.653951,44.271069],[-123.654353,44.271157],[-123.654559,44.271299],[-123.654717,44.271695]]]}}]}