{"type":"FeatureCollection","features":[{"type":"Feature","properties":{"MAPTAXLOT":"2202000000600","MAPNUMBER":"22020000","TAXLOT":"600","ACCTNO":"0968196","MAPACRES":795.49714271},"geometry":{"type":"Polygon","coordinates":[[[-122.930832,43.689657],[-122.931351,43.694155],[-122.93187,43.694128],[-122.936282,43.693904],[-122.93678,43.693878],[-122.941213,43.693653],[-122.941133,43.691545],[-122.946008,43.691368],[-122.946145,43.693402],[-122.946599,43.693379],[-122.950951,43.693308],[-122.950604,43.689233],[-122.950286,43.685502],[-122.949968,43.681772],[-122.950243,43.675066],[-122.945369,43.675041],[-122.940495,43.675015],[-122.935539,43.675079],[-122.930583,43.675142],[-122.929937,43.681899],[-122.930385,43.685778],[-122.930832,43.689657]]]}},{"type":"Feature","properties":{"MAPTAXLOT":"2202000000800","MAPNUMBER":"22020000","TAXLOT":"800","ACCTNO":"0968220","MAPACRES":658.15040868},"geometry":{"type":"Polygon","coordinates":[[[-122.964115,43.693398],[-122.965917,43.69341],[-122.965908,43.689654],[-122.970977,43.689794],[-122.971048,43.686204],[-122.971118,43.682613],[-122.970932,43.678978],[-122.970747,43.675342],[-122.96562,43.675273],[-122.960494,43.675202],[-122.955368,43.675134],[-122.950243,43.675066],[-122.949968,43.681772],[-122.950286,43.685502],[-122.955518,43.685679],[-122.955722,43.689374],[-122.960836,43.689515],[-122.960929,43.693376],[-122.961427,43.69338],[-122.963222,43.693392],[-122.963821,43.693396],[-122.964115,43.693398]]]}},{"type":"Feature","properties":{"MAPTAXLOT":"2202000001000","MAPNUMBER":"22020000","TAXLOT":"1000","ACCTNO":"0968253","MAPACRES":807.01193106},"geometry":{"type":"Polygon","coordinates":[[[-122.987465,43.69315],[-122.990167,43.693114],[-122.990167,43.693113],[-122.990237,43.689686],[-122.990277,43.688718],[-122.990348,43.68599],[-122.990388,43.685022],[-122.990459,43.682295],[-122.990498,43.681326],[-122.99057,43.678599],[-122.990609,43.677631],[-122.991223,43.673767],[-122.991223,43.673767],[-122.986158,43.674157],[-122.981021,43.674552],[-122.975884,43.674947],[-122.970747,43.675342],[-122.970932,43.678978],[-122.971118,43.682613],[-122.971048,43.686204],[-122.970977,43.689794],[-122.970906,43.693447],[-122.97135,43.693438],[-122.975809,43.693356],[-122.976283,43.693346],[-122.980711,43.69327],[-122.980712,43.69327],[-122.981172,43.693261],[-122.981172,43.693261],[-122.985614,43.693184],[-122.985614,43.693184],[-122.987405,43.69315],[-122.987405,43.69315],[-122.987405,43.69315],[-122.987465,43.69315]]]}},{"type":"Feature","properties":{"MAPTAXLOT":"2202000001100","MAPNUMBER":"22020000","TAXLOT":"1100","ACCTNO":"0968279","MAPACRES":506.1037271},"geometry":{"type":"Polygon","coordinates":[[[-122.970835,43.671708],[-122.970747,43.675342],[-122.975884,43.674947],[-122.981021,43.674552],[-122.981073,43.671244],[-122.986175,43.671012],[-122.986158,43.674157],[-122.991223,43.673767],[-122.991223,43.673767],[-122.991221,43.673162],[-122.991207,43.670784],[-122.991203,43.669887],[-122.991192,43.6678],[-122.991197,43.666595],[-122.991204,43.664131],[-122.991208,43.66332],[-122.991219,43.660478],[-122.991219,43.660478],[-122.986232,43.660572],[-122.981246,43.660667],[-122.976173,43.660737],[-122.971101,43.660806],[-122.971012,43.66444],[-122.9761,43.664363],[-122.976025,43.668005],[-122.975955,43.671476],[-122.970835,43.671708]]]}},{"type":"Feature","properties":{"MAPTAXLOT":"2202000001200","MAPNUMBER":"22020000","TAXLOT":"1200","ACCTNO":"0968287","MAPACRES":36.54540696},"geometry":{"type":"Polygon","coordinates":[[[-122.981073,43.671244],[-122.981021,43.674552],[-122.986158,43.674157],[-122.986175,43.671012],[-122.981073,43.671244]]]}},{"type":"Feature","properties":{"MAPTAXLOT":"2202000001300","MAPNUMBER":"22020000","TAXLOT":"1300","ACCTNO":"0968295","MAPACRES":81.19401011},"geometry":{"type":"Polygon","coordinates":[[[-122.970924,43.668075],[-122.970835,43.671708],[-122.975955,43.671476],[-122.976025,43.668005],[-122.9761,43.664363],[-122.971012,43.66444],[-122.970924,43.668075]]]}},{"type":"Feature","properties":{"MAPTAXLOT":"2202000001400","MAPNUMBER":"22020000","TAXLOT":"1400","ACCTNO":"0968303","MAPACRES":640.00394363},"geometry":{"type":"Polygon","coordinates":[[[-122.96562,43.675273],[-122.970747,43.675342],[-122.970835,43.671708],[-122.970924,43.668075],[-122.971012,43.66444],[-122.971101,43.660806],[-122.951192,43.660991],[-122.950243,43.675066],[-122.955368,43.675134],[-122.960494,43.675202],[-122.96562,43.675273]]]}},{"type":"Feature","properties":{"MAPTAXLOT":"2202000001500","MAPNUMBER":"22020000","TAXLOT":"1500","ACCTNO":"0968311","MAPACRES":607.50831038},"geometry":{"type":"Polygon","coordinates":[[[-122.945369,43.675041],[-122.950243,43.675066],[-122.951192,43.660991],[-122.931538,43.661196],[-122.930583,43.675142],[-122.935539,43.675079],[-122.940495,43.675015],[-122.945369,43.675041]]]}},{"type":"Feature","properties":{"MAPTAXLOT":"2202000002900","MAPNUMBER":"22020000","TAXLOT":"2900","ACCTNO":"0968501","MAPACRES":609.81989323},"geometry":{"type":"Polygon","coordinates":[[[-122.931538,43.661196],[-122.951192,43.660991],[-122.951643,43.646969],[-122.946468,43.647017],[-122.941293,43.647065],[-122.936653,43.647127],[-122.932013,43.647187],[-122.931894,43.65069],[-122.931775,43.654192],[-122.931656,43.657694],[-122.931538,43.661196]]]}},{"type":"Feature","properties":{"MAPTAXLOT":"2202000003000","MAPNUMBER":"22020000","TAXLOT":"3000","ACCTNO":"0968519","MAPACRES":617.68559067},"geometry":{"type":"Polygon","coordinates":[[[-122.951192,43.660991],[-122.971101,43.660806],[-122.971101,43.657226],[-122.9711,43.653645],[-122.9711,43.650065],[-122.9711,43.646484],[-122.961139,43.646727],[-122.951643,43.646969],[-122.951192,43.660991]]]}},{"type":"Feature","properties":{"MAPTAXLOT":"2202000003100","MAPNUMBER":"22020000","TAXLOT":"3100","ACCTNO":"0968535","MAPACRES":649.03633291},"geometry":{"type":"Polygon","coordinates":[[[-122.971101,43.660806],[-122.976173,43.660737],[-122.981246,43.660667],[-122.986232,43.660572],[-122.991219,43.660478],[-122.991219,43.660478],[-122.991228,43.659722],[-122.991244,43.656808],[-122.991252,43.656127],[-122.991268,43.653138],[-122.991275,43.652532],[-122.991291,43.649495],[-122.991291,43.649495],[-122.991297,43.648938],[-122.991297,43.648937],[-122.991325,43.645851],[-122.986233,43.645966],[-122.981204,43.646078],[-122.976152,43.646281],[-122.9711,43.646484],[-122.9711,43.650065],[-122.9711,43.653645],[-122.971101,43.657226],[-122.971101,43.660806]]]}},{"type":"Feature","properties":{"MAPTAXLOT":"2202000003200","MAPNUMBER":"22020000","TAXLOT":"3200","ACCTNO":"0968550","MAPACRES":652.85655669},"geometry":{"type":"Polygon","coordinates":[[[-122.971069,43.639346],[-122.9711,43.646484],[-122.976152,43.646281],[-122.981204,43.646078],[-122.986233,43.645966],[-122.991325,43.645851],[-122.991335,43.645332],[-122.991393,43.642185],[-122.991393,43.642185],[-122.991402,43.641727],[-122.991402,43.641727],[-122.991414,43.641051],[-122.991461,43.638519],[-122.991461,43.638519],[-122.991461,43.638121],[-122.991461,43.638121],[-122.991458,43.635445],[-122.991458,43.63487],[-122.991458,43.63487],[-122.991458,43.634515],[-122.991458,43.634515],[-122.991479,43.631219],[-122.991479,43.631219],[-122.986293,43.631402],[-122.981234,43.631577],[-122.971038,43.632208],[-122.971069,43.639346]]]}},{"type":"Feature","properties":{"MAPTAXLOT":"2202000003300","MAPNUMBER":"22020000","TAXLOT":"3300","ACCTNO":"0968576","MAPACRES":648.01303083},"geometry":{"type":"Polygon","coordinates":[[[-122.951011,43.643228],[-122.951643,43.646969],[-122.961139,43.646727],[-122.9711,43.646484],[-122.971069,43.639346],[-122.971038,43.632208],[-122.950363,43.632539],[-122.950371,43.636013],[-122.950379,43.639486],[-122.951011,43.643228]]]}},{"type":"Feature","properties":{"MAPTAXLOT":"2202000003400","MAPNUMBER":"22020000","TAXLOT":"3400","ACCTNO":"0968584","MAPACRES":270.9917109},"geometry":{"type":"Polygon","coordinates":[[[-122.946468,43.647017],[-122.951643,43.646969],[-122.951011,43.643228],[-122.950379,43.639486],[-122.950371,43.636013],[-122.950363,43.632539],[-122.945468,43.632523],[-122.945711,43.636042],[-122.94075,43.636074],[-122.935951,43.636104],[-122.936182,43.639735],[-122.940926,43.639652],[-122.94111,43.643369],[-122.946211,43.643296],[-122.946468,43.647017]]]}},{"type":"Feature","properties":{"MAPTAXLOT":"2202000003500","MAPNUMBER":"22020000","TAXLOT":"3500","ACCTNO":"0968592","MAPACRES":119.22283312},"geometry":{"type":"Polygon","coordinates":[[[-122.941293,43.647065],[-122.946468,43.647017],[-122.946211,43.643296],[-122.94111,43.643369],[-122.940926,43.639652],[-122.936182,43.639735],[-122.936418,43.643436],[-122.936653,43.647127],[-122.941293,43.647065]]]}},{"type":"Feature","properties":{"MAPTAXLOT":"2202000003600","MAPNUMBER":"22020000","TAXLOT":"3600","ACCTNO":"0968600","MAPACRES":154.88157442},"geometry":{"type":"Polygon","coordinates":[[[-122.93144,43.639818],[-122.936182,43.639735],[-122.935951,43.636104],[-122.94075,43.636074],[-122.945711,43.636042],[-122.945468,43.632523],[-122.940573,43.632507],[-122.93572,43.632478],[-122.930867,43.632449],[-122.931154,43.636133],[-122.93144,43.639818]]]}},{"type":"Feature","properties":{"MAPTAXLOT":"2202000004500","MAPNUMBER":"22020000","TAXLOT":"4500","ACCTNO":"0968733","MAPACRES":550.80338286},"geometry":{"type":"Polygon","coordinates":[[[-122.945468,43.632523],[-122.950363,43.632539],[-122.950232,43.625424],[-122.950215,43.621869],[-122.950199,43.618314],[-122.940531,43.618291],[-122.935811,43.618287],[-122.935788,43.621835],[-122.935777,43.623608],[-122.931007,43.623594],[-122.930979,43.625365],[-122.930923,43.628907],[-122.930867,43.632449],[-122.93572,43.632478],[-122.940573,43.632507],[-122.945468,43.632523]]]}},{"type":"Feature","properties":{"MAPTAXLOT":"2202000004600","MAPNUMBER":"22020000","TAXLOT":"4600","ACCTNO":"0968741","MAPACRES":151.64489307},"geometry":{"type":"Polygon","coordinates":[[[-122.950215,43.621869],[-122.970399,43.62162],[-122.969818,43.618214],[-122.967365,43.618249],[-122.964913,43.618284],[-122.960008,43.618354],[-122.955104,43.618334],[-122.950199,43.618314],[-122.950215,43.621869]]]}},{"type":"Feature","properties":{"MAPTAXLOT":"2202000004700","MAPNUMBER":"22020000","TAXLOT":"4700","ACCTNO":"0968758","MAPACRES":486.11280841},"geometry":{"type":"Polygon","coordinates":[[[-122.950363,43.632539],[-122.971038,43.632208],[-122.97098,43.625026],[-122.970399,43.62162],[-122.950215,43.621869],[-122.950232,43.625424],[-122.950363,43.632539]]]}},{"type":"Feature","properties":{"MAPTAXLOT":"2202000004800","MAPNUMBER":"22020000","TAXLOT":"4800","ACCTNO":"0968766","MAPACRES":687.51263482},"geometry":{"type":"Polygon","coordinates":[[[-122.97098,43.625026],[-122.971038,43.632208],[-122.981234,43.631577],[-122.986293,43.631402],[-122.991479,43.631219],[-122.991479,43.630888],[-122.991479,43.630888],[-122.991522,43.627437],[-122.991522,43.627183],[-122.991522,43.627183],[-122.991567,43.623653],[-122.991568,43.623502],[-122.991594,43.620016],[-122.991594,43.620016],[-122.991595,43.619867],[-122.991595,43.619866],[-122.991626,43.616375],[-122.986569,43.616328],[-122.981575,43.616281],[-122.969818,43.618214],[-122.970399,43.62162],[-122.97098,43.625026]]]}},{"type":"Feature","properties":{"MAPTAXLOT":"2202000004900","MAPNUMBER":"22020000","TAXLOT":"4900","ACCTNO":"0968782","MAPACRES":523.99879449},"geometry":{"type":"Polygon","coordinates":[[[-122.969599,43.614648],[-122.969818,43.618214],[-122.981575,43.616281],[-122.986569,43.616328],[-122.991626,43.616375],[-122.991592,43.616245],[-122.990929,43.613671],[-122.990674,43.612683],[-122.990232,43.610968],[-122.989756,43.609122],[-122.989534,43.608264],[-122.988837,43.605561],[-122.986922,43.605543],[-122.985222,43.605528],[-122.983724,43.605516],[-122.980433,43.605486],[-122.978936,43.605473],[-122.975645,43.60544],[-122.974123,43.605425],[-122.970857,43.605391],[-122.96931,43.605375],[-122.969345,43.608228],[-122.969381,43.611082],[-122.969599,43.614648]]]}},{"type":"Feature","properties":{"MAPTAXLOT":"2202000005000","MAPNUMBER":"22020000","TAXLOT":"5000","ACCTNO":"0968790","MAPACRES":200.93210798},"geometry":{"type":"Polygon","coordinates":[[[-122.964913,43.618284],[-122.967365,43.618249],[-122.967195,43.614699],[-122.964791,43.61475],[-122.964671,43.611258],[-122.964569,43.608308],[-122.959715,43.608388],[-122.959805,43.611439],[-122.954913,43.611622],[-122.955008,43.614956],[-122.955104,43.618334],[-122.960008,43.618354],[-122.964913,43.618284]]]}},{"type":"Feature","properties":{"MAPTAXLOT":"2202000005001","MAPNUMBER":"22020000","TAXLOT":"5001","ACCTNO":"1141637","MAPACRES":240.40024475},"geometry":{"type":"Polygon","coordinates":[[[-122.950199,43.618314],[-122.955104,43.618334],[-122.955008,43.614956],[-122.954913,43.611622],[-122.959805,43.611439],[-122.959715,43.608388],[-122.964569,43.608308],[-122.964468,43.605367],[-122.961471,43.605362],[-122.959626,43.60536],[-122.95678,43.605341],[-122.954735,43.605327],[-122.952088,43.60531],[-122.949843,43.605294],[-122.949932,43.608549],[-122.950021,43.611804],[-122.95011,43.615059],[-122.950199,43.618314]]]}},{"type":"Feature","properties":{"MAPTAXLOT":"2202000005002","MAPNUMBER":"22020000","TAXLOT":"5002","ACCTNO":"1141645","MAPACRES":56.42942792},"geometry":{"type":"Polygon","coordinates":[[[-122.967365,43.618249],[-122.969818,43.618214],[-122.969599,43.614648],[-122.969381,43.611082],[-122.964671,43.611258],[-122.964791,43.61475],[-122.967195,43.614699],[-122.967365,43.618249]]]}},{"type":"Feature","properties":{"MAPTAXLOT":"2202000005100","MAPNUMBER":"22020000","TAXLOT":"5100","ACCTNO":"0968808","MAPACRES":61.39794449},"geometry":{"type":"Polygon","coordinates":[[[-122.964569,43.608308],[-122.964671,43.611258],[-122.969381,43.611082],[-122.969345,43.608228],[-122.96931,43.605375],[-122.966164,43.60537],[-122.964468,43.605367],[-122.964569,43.608308]]]}},{"type":"Feature","properties":{"MAPTAXLOT":"2202000005200","MAPNUMBER":"22020000","TAXLOT":"5200","ACCTNO":"0968816","MAPACRES":544.68270129},"geometry":{"type":"Polygon","coordinates":[[[-122.940531,43.618291],[-122.950199,43.618314],[-122.95011,43.615059],[-122.950021,43.611804],[-122.949932,43.608549],[-122.949843,43.605294],[-122.947499,43.60528],[-122.945405,43.605268],[-122.942645,43.605251],[-122.940702,43.605239],[-122.93779,43.605222],[-122.935993,43.605211],[-122.932935,43.605193],[-122.931285,43.605181],[-122.931243,43.608456],[-122.931201,43.611732],[-122.931146,43.615007],[-122.931091,43.618282],[-122.935811,43.618287],[-122.940531,43.618291]]]}},{"type":"Feature","properties":{"MAPTAXLOT":"2203000000100","MAPNUMBER":"22030000","TAXLOT":"100","ACCTNO":"0968881","MAPACRES":238.33945959},"geometry":{"type":"Polygon","coordinates":[[[-122.990167,43.693114],[-122.992363,43.693085],[-122.992478,43.693083],[-122.993443,43.693071],[-122.993456,43.693071],[-122.997353,43.693022],[-122.997468,43.693021],[-122.997468,43.69302],[-122.997409,43.688687],[-122.997358,43.685006],[-122.997308,43.681355],[-122.997257,43.677684],[-122.992248,43.677645],[-122.992247,43.677645],[-122.99061,43.677631],[-122.990609,43.677631],[-122.990609,43.677631],[-122.99057,43.678599],[-122.990498,43.681326],[-122.990459,43.682295],[-122.990388,43.685022],[-122.990348,43.68599],[-122.990277,43.688718],[-122.990237,43.689686],[-122.990167,43.693113],[-122.990167,43.693114]]]}},{"type":"Feature","properties":{"MAPTAXLOT":"2203000000200","MAPNUMBER":"22030000","TAXLOT":"200","ACCTNO":"0968907","MAPACRES":333.64180861},"geometry":{"type":"Polygon","coordinates":[[[-123.007178,43.692869],[-123.007401,43.692865],[-123.007401,43.692864],[-123.00732,43.688645],[-123.007249,43.684983],[-123.007233,43.681396],[-123.00722,43.677809],[-123.002238,43.677747],[-122.997258,43.677684],[-122.997257,43.677684],[-122.997308,43.681355],[-122.997358,43.685006],[-122.997409,43.688687],[-122.997468,43.69302],[-122.997468,43.693021],[-123.002266,43.692946],[-123.002435,43.692943],[-123.007178,43.692869]]]}},{"type":"Feature","properties":{"MAPTAXLOT":"2203000000500","MAPNUMBER":"22030000","TAXLOT":"500","ACCTNO":"0968931","MAPACRES":39.74841601},"geometry":{"type":"Polygon","coordinates":[[[-123.007233,43.681396],[-123.007233,43.681396],[-123.01229,43.681385],[-123.012235,43.677841],[-123.00722,43.677809],[-123.00722,43.677809],[-123.007233,43.681396]]]}},{"type":"Feature","properties":{"MAPTAXLOT":"2203000000700","MAPNUMBER":"22030000","TAXLOT":"700","ACCTNO":"0968949","MAPACRES":432.11169137},"geometry":{"type":"Polygon","coordinates":[[[-123.007249,43.684983],[-123.00725,43.684983],[-123.012345,43.684979],[-123.017437,43.684975],[-123.017532,43.688603],[-123.01764,43.692716],[-123.027332,43.692515],[-123.027108,43.688933],[-123.027097,43.688562],[-123.026895,43.68536],[-123.026883,43.684967],[-123.026794,43.681738],[-123.026783,43.681352],[-123.026693,43.678115],[-123.027372,43.678117],[-123.027387,43.677734],[-123.022256,43.677805],[-123.017251,43.677874],[-123.012235,43.677841],[-123.01229,43.681385],[-123.007233,43.681396],[-123.007233,43.681396],[-123.007249,43.684983]]]}},{"type":"Feature","properties":{"MAPTAXLOT":"2203000001300","MAPNUMBER":"22030000","TAXLOT":"1300","ACCTNO":"0969004","MAPACRES":638.18671304},"geometry":{"type":"Polygon","coordinates":[[[-123.022256,43.677805],[-123.027387,43.677734],[-123.027269,43.674128],[-123.027177,43.670537],[-123.027032,43.666915],[-123.026887,43.663292],[-123.016958,43.663347],[-123.007212,43.663378],[-123.007286,43.670524],[-123.00722,43.677809],[-123.00722,43.677809],[-123.012235,43.677841],[-123.017251,43.677874],[-123.022256,43.677805]]]}},{"type":"Feature","properties":{"MAPTAXLOT":"2203000001400","MAPNUMBER":"22030000","TAXLOT":"1400","ACCTNO":"0969012","MAPACRES":360.95409449},"geometry":{"type":"Polygon","coordinates":[[[-122.997257,43.677684],[-122.997258,43.677684],[-123.002238,43.677747],[-123.00722,43.677809],[-123.007286,43.670524],[-122.997356,43.670131],[-122.997444,43.663332],[-122.992527,43.663321],[-122.991212,43.66332],[-122.991208,43.66332],[-122.991204,43.664131],[-122.991197,43.666595],[-122.991192,43.6678],[-122.991203,43.669887],[-122.991207,43.670784],[-122.991221,43.673162],[-122.991223,43.673767],[-122.990609,43.677631],[-122.990609,43.677631],[-122.99061,43.677631],[-122.992247,43.677645],[-122.992248,43.677645],[-122.997257,43.677684]]]}},{"type":"Feature","properties":{"MAPTAXLOT":"2203000001500","MAPNUMBER":"22030000","TAXLOT":"1500","ACCTNO":"0969038","MAPACRES":152.03814819},"geometry":{"type":"Polygon","coordinates":[[[-122.997356,43.670131],[-123.007286,43.670524],[-123.007212,43.663378],[-123.002328,43.663355],[-122.997444,43.663332],[-122.997356,43.670131]]]}},{"type":"Feature","properties":{"MAPTAXLOT":"2203000001600","MAPNUMBER":"22030000","TAXLOT":"1600","ACCTNO":"0969046","MAPACRES":513.75323536},"geometry":{"type":"Polygon","coordinates":[[[-122.997444,43.663332],[-123.002328,43.663355],[-123.007212,43.663378],[-123.007268,43.659761],[-123.007323,43.656143],[-123.007378,43.652525],[-123.007433,43.648908],[-123.002422,43.648903],[-122.997411,43.648897],[-122.992482,43.648935],[-122.991304,43.648937],[-122.991297,43.648937],[-122.991297,43.648938],[-122.991291,43.649495],[-122.991291,43.649495],[-122.991275,43.652532],[-122.991268,43.653138],[-122.991252,43.656127],[-122.991244,43.656808],[-122.991228,43.659722],[-122.991219,43.660478],[-122.991208,43.66332],[-122.991212,43.66332],[-122.992527,43.663321],[-122.997444,43.663332]]]}},{"type":"Feature","properties":{"MAPTAXLOT":"2203000001700","MAPNUMBER":"22030000","TAXLOT":"1700","ACCTNO":"0969053","MAPACRES":629.61883632},"geometry":{"type":"Polygon","coordinates":[[[-123.016958,43.663347],[-123.026887,43.663292],[-123.026967,43.648855],[-123.016936,43.648792],[-123.007433,43.648908],[-123.007378,43.652525],[-123.007323,43.656143],[-123.007268,43.659761],[-123.007212,43.663378],[-123.016958,43.663347]]]}},{"type":"Feature","properties":{"MAPTAXLOT":"2203000002300","MAPNUMBER":"22030000","TAXLOT":"2300","ACCTNO":"0969111","MAPACRES":615.93000266},"geometry":{"type":"Polygon","coordinates":[[[-123.016936,43.648792],[-123.026967,43.648855],[-123.0267,43.634611],[-123.007314,43.634417],[-123.007386,43.638055],[-123.007458,43.641693],[-123.007446,43.6453],[-123.007433,43.648908],[-123.016936,43.648792]]]}},{"type":"Feature","properties":{"MAPTAXLOT":"2203000002400","MAPNUMBER":"22030000","TAXLOT":"2400","ACCTNO":"0969129","MAPACRES":159.75991678},"geometry":{"type":"Polygon","coordinates":[[[-123.002422,43.648903],[-123.007433,43.648908],[-123.007446,43.6453],[-123.007458,43.641693],[-123.002407,43.641704],[-122.997441,43.641714],[-122.997426,43.645321],[-122.997411,43.648897],[-123.002422,43.648903]]]}},{"type":"Feature","properties":{"MAPTAXLOT":"2203000002500","MAPNUMBER":"22030000","TAXLOT":"2500","ACCTNO":"0969137","MAPACRES":351.83513299},"geometry":{"type":"Polygon","coordinates":[[[-122.992482,43.648935],[-122.997411,43.648897],[-122.997426,43.645321],[-122.997441,43.641714],[-123.002407,43.641704],[-123.007458,43.641693],[-123.007386,43.638055],[-123.007314,43.634417],[-123.002392,43.634475],[-122.997471,43.634532],[-122.992554,43.634516],[-122.991466,43.634515],[-122.991458,43.634515],[-122.991458,43.63487],[-122.991458,43.63487],[-122.991458,43.635445],[-122.991461,43.638121],[-122.991461,43.638121],[-122.991461,43.638519],[-122.991461,43.638519],[-122.991414,43.641051],[-122.991402,43.641727],[-122.991402,43.641727],[-122.991393,43.642185],[-122.991393,43.642185],[-122.991335,43.645332],[-122.991325,43.645851],[-122.991297,43.648937],[-122.991304,43.648937],[-122.992482,43.648935]]]}},{"type":"Feature","properties":{"MAPTAXLOT":"2203000002600","MAPNUMBER":"22030000","TAXLOT":"2600","ACCTNO":"0969145","MAPACRES":97.25415894},"geometry":{"type":"Polygon","coordinates":[[[-122.992554,43.634516],[-122.997471,43.634532],[-122.997485,43.630876],[-122.997499,43.627227],[-122.992574,43.627191],[-122.991543,43.627183],[-122.991522,43.627183],[-122.991522,43.627437],[-122.991479,43.630888],[-122.991479,43.630888],[-122.991479,43.631219],[-122.991479,43.631219],[-122.991458,43.634515],[-122.991458,43.634515],[-122.991466,43.634515],[-122.992554,43.634516]]]}},{"type":"Feature","properties":{"MAPTAXLOT":"2203000002700","MAPNUMBER":"22030000","TAXLOT":"2700","ACCTNO":"0969160","MAPACRES":396.23358577},"geometry":{"type":"Polygon","coordinates":[[[-123.002392,43.634475],[-123.007314,43.634417],[-123.007102,43.630856],[-123.006891,43.627296],[-123.006679,43.623735],[-123.006467,43.620175],[-122.997528,43.61994],[-122.992595,43.619869],[-122.99162,43.619866],[-122.991595,43.619866],[-122.991595,43.619867],[-122.991594,43.620016],[-122.991594,43.620016],[-122.991568,43.623502],[-122.991567,43.623653],[-122.991522,43.627183],[-122.991522,43.627183],[-122.991543,43.627183],[-122.992574,43.627191],[-122.997499,43.627227],[-122.997485,43.630876],[-122.997471,43.634532],[-123.002392,43.634475]]]}},{"type":"Feature","properties":{"MAPTAXLOT":"2203000002800","MAPNUMBER":"22030000","TAXLOT":"2800","ACCTNO":"0969178","MAPACRES":310.95151045},"geometry":{"type":"Polygon","coordinates":[[[-123.007314,43.634417],[-123.0267,43.634611],[-123.026711,43.627408],[-123.006891,43.627296],[-123.007102,43.630856],[-123.007314,43.634417]]]}},{"type":"Feature","properties":{"MAPTAXLOT":"2203000002900","MAPNUMBER":"22030000","TAXLOT":"2900","ACCTNO":"0969186","MAPACRES":317.91182244},"geometry":{"type":"Polygon","coordinates":[[[-123.006891,43.627296],[-123.026711,43.627408],[-123.026721,43.620206],[-123.021658,43.620198],[-123.016594,43.620191],[-123.011531,43.620183],[-123.006467,43.620175],[-123.006679,43.623735],[-123.006891,43.627296]]]}},{"type":"Feature","properties":{"MAPTAXLOT":"2203000003900","MAPNUMBER":"22030000","TAXLOT":"3900","ACCTNO":"0969285","MAPACRES":649.84500719},"geometry":{"type":"Polygon","coordinates":[[[-123.006467,43.620175],[-123.011531,43.620183],[-123.016594,43.620191],[-123.021658,43.620198],[-123.026721,43.620206],[-123.026773,43.613085],[-123.026787,43.609505],[-123.026802,43.605771],[-123.023074,43.605777],[-123.021703,43.605783],[-123.019978,43.605783],[-123.01997,43.605783],[-123.018125,43.605786],[-123.01659,43.605785],[-123.013178,43.605782],[-123.011484,43.605781],[-123.008524,43.605779],[-123.008231,43.605775],[-123.006377,43.605749],[-123.006397,43.609504],[-123.006415,43.612904],[-123.006441,43.61654],[-123.006467,43.620175]]]}},{"type":"Feature","properties":{"MAPTAXLOT":"2203000004000","MAPNUMBER":"22030000","TAXLOT":"4000","ACCTNO":"0969293","MAPACRES":503.4477284},"geometry":{"type":"Polygon","coordinates":[[[-122.997528,43.61994],[-123.006467,43.620175],[-123.006441,43.61654],[-123.006415,43.612904],[-123.006397,43.609504],[-123.006377,43.605749],[-123.002903,43.605701],[-123.001335,43.60568],[-122.998585,43.605641],[-122.997575,43.605633],[-122.996294,43.605621],[-122.992249,43.60559],[-122.991254,43.605581],[-122.988863,43.605561],[-122.988837,43.605561],[-122.989534,43.608264],[-122.989756,43.609122],[-122.990232,43.610968],[-122.990674,43.612683],[-122.990929,43.613671],[-122.991592,43.616245],[-122.991626,43.616375],[-122.991595,43.619866],[-122.99162,43.619866],[-122.992595,43.619869],[-122.997528,43.61994]]]}}]}