{"type":"FeatureCollection","features":[{"type":"Feature","properties":{"MAPTAXLOT":"1815000003900","MAPNUMBER":"18150000","TAXLOT":"3900","ACCTNO":"0808483","MAPACRES":466.67787336},"geometry":{"type":"Polygon","coordinates":[[[-122.660389,43.967196],[-122.665294,43.967251],[-122.665348,43.965726],[-122.665422,43.963665],[-122.66555,43.960079],[-122.66567,43.95648],[-122.645794,43.956457],[-122.645754,43.960056],[-122.645703,43.967253],[-122.647455,43.967233],[-122.650404,43.9672],[-122.650593,43.967197],[-122.650593,43.967197],[-122.655483,43.967141],[-122.660389,43.967196]]]}},{"type":"Feature","properties":{"MAPTAXLOT":"1815000004000","MAPNUMBER":"18150000","TAXLOT":"4000","ACCTNO":"0808491","MAPACRES":157.97833692},"geometry":{"type":"Polygon","coordinates":[[[-122.645794,43.956457],[-122.66567,43.95648],[-122.665789,43.95288],[-122.660776,43.952875],[-122.655762,43.952869],[-122.650799,43.952864],[-122.645835,43.952859],[-122.645794,43.956457]]]}},{"type":"Feature","properties":{"MAPTAXLOT":"1815000004200","MAPNUMBER":"18150000","TAXLOT":"4200","ACCTNO":"0808517","MAPACRES":372.38515077},"geometry":{"type":"Polygon","coordinates":[[[-122.626627,43.956346],[-122.626515,43.959905],[-122.626385,43.963427],[-122.626322,43.965112],[-122.626318,43.965225],[-122.626254,43.966949],[-122.630174,43.96706],[-122.630364,43.967065],[-122.635963,43.967213],[-122.637482,43.967218],[-122.640719,43.967235],[-122.64079,43.960002],[-122.635821,43.959947],[-122.635891,43.952829],[-122.631315,43.952809],[-122.626739,43.952788],[-122.626627,43.956346]]]}},{"type":"Feature","properties":{"MAPTAXLOT":"1815000004300","MAPNUMBER":"18150000","TAXLOT":"4300","ACCTNO":"0808525","MAPACRES":78.58820059},"geometry":{"type":"Polygon","coordinates":[[[-122.64079,43.960002],[-122.645754,43.960056],[-122.645794,43.956457],[-122.645835,43.952859],[-122.640863,43.952844],[-122.64079,43.960002]]]}},{"type":"Feature","properties":{"MAPTAXLOT":"1815000004400","MAPNUMBER":"18150000","TAXLOT":"4400","ACCTNO":"0808533","MAPACRES":78.18698012},"geometry":{"type":"Polygon","coordinates":[[[-122.635821,43.959947],[-122.64079,43.960002],[-122.640863,43.952844],[-122.635891,43.952829],[-122.635821,43.959947]]]}},{"type":"Feature","properties":{"MAPTAXLOT":"1825000003300","MAPNUMBER":"18250000","TAXLOT":"3300","ACCTNO":"0809838","MAPACRES":625.44259935},"geometry":{"type":"MultiPolygon","coordinates":[[[[-122.606456,43.966919],[-122.606494,43.966919],[-122.606495,43.966919],[-122.606496,43.966914],[-122.606502,43.966899],[-122.606718,43.966404],[-122.607207,43.965235],[-122.607596,43.964506],[-122.607793,43.96421],[-122.607975,43.96393],[-122.608157,43.963756],[-122.608384,43.963611],[-122.60857,43.963505],[-122.60881,43.963438],[-122.608968,43.963299],[-122.609128,43.96321],[-122.609602,43.963215],[-122.609976,43.963276],[-122.610345,43.963387],[-122.610774,43.963523],[-122.611117,43.963658],[-122.611385,43.963728],[-122.61169,43.96376],[-122.611914,43.963776],[-122.612095,43.963826],[-122.612275,43.963976],[-122.612469,43.964148],[-122.612716,43.964367],[-122.612928,43.964513],[-122.613039,43.964567],[-122.61316,43.964587],[-122.613263,43.964585],[-122.613354,43.964561],[-122.613473,43.964518],[-122.613611,43.964427],[-122.613848,43.964322],[-122.614033,43.964247],[-122.614245,43.964153],[-122.614445,43.964073],[-122.614633,43.963969],[-122.614769,43.963891],[-122.614894,43.963796],[-122.614984,43.963715],[-122.615066,43.963615],[-122.615148,43.963495],[-122.615231,43.963333],[-122.615378,43.963086],[-122.615486,43.962963],[-122.615597,43.96285],[-122.615764,43.962753],[-122.615947,43.9627],[-122.616137,43.962662],[-122.616334,43.962659],[-122.616546,43.962689],[-122.616725,43.962733],[-122.617048,43.962833],[-122.617524,43.963026],[-122.617779,43.963125],[-122.617968,43.963205],[-122.618281,43.963314],[-122.618978,43.963534],[-122.619232,43.963617],[-122.619423,43.963728],[-122.619565,43.963893],[-122.619663,43.964083],[-122.619786,43.964286],[-122.619907,43.964492],[-122.620037,43.964623],[-122.620213,43.964744],[-122.62041,43.964854],[-122.620678,43.964995],[-122.62095,43.965096],[-122.621197,43.965161],[-122.621491,43.965233],[-122.621774,43.965278],[-122.622196,43.965335],[-122.622662,43.965397],[-122.62328,43.965457],[-122.623663,43.965495],[-122.624019,43.965501],[-122.624417,43.96545],[-122.624896,43.965344],[-122.625327,43.965284],[-122.626322,43.965112],[-122.626385,43.963427],[-122.626515,43.959905],[-122.626627,43.956346],[-122.626739,43.952788],[-122.619459,43.952591],[-122.616786,43.952532],[-122.609433,43.952492],[-122.606616,43.952497],[-122.606616,43.952498],[-122.606456,43.966919]]],[[[-122.606863,43.966436],[-122.606655,43.966914],[-122.606652,43.966919],[-122.616448,43.966935],[-122.626254,43.96695],[-122.626254,43.966949],[-122.626318,43.965225],[-122.625359,43.965391],[-122.624933,43.96545],[-122.624452,43.965556],[-122.62403,43.965611],[-122.623651,43.965604],[-122.62326,43.965566],[-122.622638,43.965506],[-122.622168,43.965443],[-122.621744,43.965386],[-122.62145,43.965338],[-122.621147,43.965265],[-122.620889,43.965197],[-122.620598,43.965089],[-122.620318,43.964942],[-122.620113,43.964827],[-122.619922,43.964695],[-122.619773,43.964546],[-122.619646,43.96433],[-122.619522,43.964124],[-122.619428,43.963942],[-122.619308,43.963801],[-122.619152,43.963711],[-122.618916,43.963635],[-122.618218,43.963414],[-122.617897,43.963302],[-122.617704,43.963221],[-122.61745,43.963122],[-122.616981,43.962931],[-122.61667,43.962836],[-122.616506,43.962795],[-122.616321,43.962769],[-122.61616,43.962772],[-122.615995,43.962805],[-122.615841,43.962849],[-122.615709,43.962926],[-122.615612,43.963024],[-122.615513,43.963137],[-122.615373,43.963374],[-122.615288,43.963539],[-122.6152,43.963667],[-122.61511,43.963778],[-122.615009,43.963868],[-122.614872,43.963972],[-122.614727,43.964055],[-122.614528,43.964165],[-122.614322,43.964248],[-122.61411,43.964342],[-122.613925,43.964417],[-122.613703,43.964515],[-122.61356,43.964609],[-122.613414,43.964662],[-122.613292,43.964694],[-122.613145,43.964697],[-122.612977,43.96467],[-122.612833,43.964599],[-122.612604,43.964442],[-122.612352,43.964217],[-122.612158,43.964047],[-122.612005,43.963918],[-122.611879,43.963884],[-122.611672,43.963869],[-122.611348,43.963835],[-122.611055,43.963759],[-122.610707,43.963622],[-122.610285,43.963488],[-122.60993,43.96338],[-122.609584,43.963325],[-122.609179,43.96332],[-122.609075,43.963378],[-122.608903,43.96353],[-122.608646,43.963601],[-122.608481,43.963695],[-122.608269,43.963831],[-122.608105,43.963987],[-122.60793,43.964257],[-122.607735,43.96455],[-122.607351,43.965271],[-122.606863,43.966436]]]]}},{"type":"Feature","properties":{"MAPTAXLOT":"1825000003400","MAPNUMBER":"18250000","TAXLOT":"3400","ACCTNO":"0809846","MAPACRES":634.19467748},"geometry":{"type":"MultiPolygon","coordinates":[[[[-122.599127,43.966354],[-122.599436,43.966489],[-122.599629,43.966585],[-122.599903,43.966648],[-122.600229,43.966692],[-122.600492,43.966714],[-122.600745,43.966763],[-122.601045,43.966845],[-122.601218,43.966924],[-122.601237,43.966932],[-122.601476,43.966932],[-122.606456,43.966919],[-122.606616,43.952498],[-122.606616,43.952497],[-122.599391,43.952498],[-122.596763,43.9525],[-122.58935,43.952492],[-122.586706,43.952496],[-122.586706,43.952498],[-122.586448,43.966969],[-122.591486,43.966957],[-122.596257,43.966945],[-122.596287,43.966932],[-122.596629,43.966788],[-122.597121,43.966629],[-122.597424,43.966539],[-122.597824,43.966421],[-122.598234,43.966314],[-122.598611,43.966287],[-122.598806,43.966277],[-122.599127,43.966354]]],[[[-122.598624,43.966397],[-122.598268,43.966422],[-122.597879,43.966524],[-122.597481,43.96664],[-122.597181,43.96673],[-122.596699,43.966886],[-122.59659,43.966932],[-122.59656,43.966944],[-122.600938,43.966933],[-122.600906,43.966924],[-122.600698,43.966867],[-122.600464,43.966822],[-122.600206,43.966801],[-122.599866,43.966754],[-122.599562,43.966685],[-122.599354,43.966581],[-122.599063,43.966455],[-122.598787,43.966388],[-122.598624,43.966397]]]]}},{"type":"Feature","properties":{"MAPTAXLOT":"1915000000100","MAPNUMBER":"19150000","TAXLOT":"100","ACCTNO":"0874030","MAPACRES":597.11317638},"geometry":{"type":"Polygon","coordinates":[[[-122.640863,43.952844],[-122.645835,43.952859],[-122.646011,43.949423],[-122.64619,43.945957],[-122.646546,43.939026],[-122.626921,43.938622],[-122.626872,43.945692],[-122.626739,43.952788],[-122.631315,43.952809],[-122.635891,43.952829],[-122.640863,43.952844]]]}},{"type":"Feature","properties":{"MAPTAXLOT":"1915000000200","MAPNUMBER":"19150000","TAXLOT":"200","ACCTNO":"0874048","MAPACRES":302.79719392},"geometry":{"type":"Polygon","coordinates":[[[-122.660776,43.952875],[-122.665789,43.95288],[-122.66598,43.945955],[-122.656084,43.945956],[-122.64619,43.945957],[-122.646011,43.949423],[-122.645835,43.952859],[-122.650799,43.952864],[-122.655762,43.952869],[-122.660776,43.952875]]]}},{"type":"Feature","properties":{"MAPTAXLOT":"1915000000300","MAPNUMBER":"19150000","TAXLOT":"300","ACCTNO":"0874055","MAPACRES":263.52970781},"geometry":{"type":"Polygon","coordinates":[[[-122.656084,43.945956],[-122.66598,43.945955],[-122.666099,43.942507],[-122.661195,43.942502],[-122.661334,43.939053],[-122.656405,43.939039],[-122.646546,43.939026],[-122.64619,43.945957],[-122.656084,43.945956]]]}},{"type":"Feature","properties":{"MAPTAXLOT":"1915000001100","MAPNUMBER":"19150000","TAXLOT":"1100","ACCTNO":"0874139","MAPACRES":577.79195822},"geometry":{"type":"Polygon","coordinates":[[[-122.626921,43.938622],[-122.646546,43.939026],[-122.646575,43.931996],[-122.646625,43.92848],[-122.641696,43.928347],[-122.641709,43.924798],[-122.636873,43.924614],[-122.626967,43.924305],[-122.626868,43.93126],[-122.626921,43.938622]]]}},{"type":"Feature","properties":{"MAPTAXLOT":"1915000001300","MAPNUMBER":"19150000","TAXLOT":"1300","ACCTNO":"0874147","MAPACRES":1277.26974195},"geometry":{"type":"Polygon","coordinates":[[[-122.661334,43.939053],[-122.666264,43.93906],[-122.666169,43.935607],[-122.666075,43.932151],[-122.665795,43.925244],[-122.661016,43.925165],[-122.656234,43.925086],[-122.651452,43.925005],[-122.651312,43.921464],[-122.646496,43.921555],[-122.646326,43.918171],[-122.64628,43.916997],[-122.646183,43.914516],[-122.646041,43.910862],[-122.636538,43.910463],[-122.627027,43.910062],[-122.626999,43.917203],[-122.626967,43.924305],[-122.636873,43.924614],[-122.641709,43.924798],[-122.641696,43.928347],[-122.646625,43.92848],[-122.646575,43.931996],[-122.646546,43.939026],[-122.656405,43.939039],[-122.661334,43.939053]]]}},{"type":"Feature","properties":{"MAPTAXLOT":"1915000001700","MAPNUMBER":"19150000","TAXLOT":"1700","ACCTNO":"0874188","MAPACRES":645.99676915},"geometry":{"type":"Polygon","coordinates":[[[-122.637013,43.895975],[-122.646943,43.896186],[-122.647077,43.892448],[-122.64721,43.88871],[-122.647482,43.881232],[-122.637445,43.881308],[-122.627408,43.881382],[-122.627251,43.888575],[-122.627095,43.895764],[-122.637013,43.895975]]]}},{"type":"Feature","properties":{"MAPTAXLOT":"1915000001800","MAPNUMBER":"19150000","TAXLOT":"1800","ACCTNO":"0874196","MAPACRES":120.02878174},"geometry":{"type":"Polygon","coordinates":[[[-122.647077,43.892448],[-122.646943,43.896186],[-122.656898,43.895678],[-122.661869,43.895423],[-122.661966,43.89185],[-122.657002,43.892051],[-122.647077,43.892448]]]}},{"type":"Feature","properties":{"MAPTAXLOT":"1915000001900","MAPNUMBER":"19150000","TAXLOT":"1900","ACCTNO":"0874204","MAPACRES":158.65470345},"geometry":{"type":"Polygon","coordinates":[[[-122.64721,43.88871],[-122.647077,43.892448],[-122.657002,43.892051],[-122.661966,43.89185],[-122.66693,43.891648],[-122.66702,43.888129],[-122.657107,43.88842],[-122.657106,43.88842],[-122.64721,43.88871]]]}},{"type":"Feature","properties":{"MAPTAXLOT":"1915140000100","MAPNUMBER":"19151400","TAXLOT":"100","ACCTNO":"0875359","MAPACRES":111.22175949},"geometry":{"type":"Polygon","coordinates":[[[-122.656234,43.925086],[-122.661016,43.925165],[-122.660908,43.921581],[-122.656111,43.921569],[-122.65599,43.918051],[-122.651157,43.918108],[-122.651312,43.921464],[-122.651452,43.925005],[-122.656234,43.925086]]]}},{"type":"Feature","properties":{"MAPTAXLOT":"1915140000300","MAPNUMBER":"19151400","TAXLOT":"300","ACCTNO":"0875375","MAPACRES":35.87139202},"geometry":{"type":"Polygon","coordinates":[[[-122.646326,43.918171],[-122.646496,43.921555],[-122.651312,43.921464],[-122.651157,43.918108],[-122.646326,43.918171]]]}},{"type":"Feature","properties":{"MAPTAXLOT":"1915140000301","MAPNUMBER":"19151400","TAXLOT":"301","ACCTNO":"0875383","MAPACRES":37.63978488},"geometry":{"type":"Polygon","coordinates":[[[-122.656111,43.921569],[-122.660908,43.921581],[-122.660802,43.917994],[-122.65599,43.918051],[-122.656111,43.921569]]]}},{"type":"Feature","properties":{"MAPTAXLOT":"1915140000302","MAPNUMBER":"19151400","TAXLOT":"302","ACCTNO":"0875391","MAPACRES":108.57142353},"geometry":{"type":"Polygon","coordinates":[[[-122.660802,43.917994],[-122.665729,43.917935],[-122.665582,43.914281],[-122.660693,43.91434],[-122.660713,43.915016],[-122.660507,43.914994],[-122.659936,43.914931],[-122.659411,43.914875],[-122.658749,43.914822],[-122.658377,43.914903],[-122.658113,43.915155],[-122.657869,43.91534],[-122.657484,43.915389],[-122.657141,43.915354],[-122.656764,43.915296],[-122.656351,43.915188],[-122.655981,43.915368],[-122.655634,43.915514],[-122.655354,43.915634],[-122.655176,43.915753],[-122.654985,43.91583],[-122.654717,43.915967],[-122.654354,43.91599],[-122.654126,43.915994],[-122.653932,43.916061],[-122.653383,43.916097],[-122.652943,43.916153],[-122.652547,43.916089],[-122.652349,43.916022],[-122.651989,43.916029],[-122.651416,43.916016],[-122.651044,43.916142],[-122.650756,43.916348],[-122.650405,43.916603],[-122.64992,43.916766],[-122.649464,43.916833],[-122.648876,43.916868],[-122.64835,43.916796],[-122.647986,43.916708],[-122.647638,43.916585],[-122.647359,43.916554],[-122.647102,43.916689],[-122.646827,43.916777],[-122.646326,43.916976],[-122.64628,43.916997],[-122.646326,43.918171],[-122.651157,43.918108],[-122.65599,43.918051],[-122.660802,43.917994]]]}},{"type":"Feature","properties":{"MAPTAXLOT":"1915140000400","MAPNUMBER":"19151400","TAXLOT":"400","ACCTNO":"0875409","MAPACRES":47.78553769},"geometry":{"type":"Polygon","coordinates":[[[-122.646183,43.914516],[-122.64628,43.916997],[-122.646326,43.916976],[-122.646827,43.916777],[-122.647102,43.916689],[-122.647359,43.916554],[-122.647638,43.916585],[-122.647986,43.916708],[-122.64835,43.916796],[-122.648876,43.916868],[-122.649464,43.916833],[-122.64992,43.916766],[-122.650405,43.916603],[-122.650756,43.916348],[-122.651044,43.916142],[-122.651416,43.916016],[-122.651989,43.916029],[-122.652349,43.916022],[-122.652547,43.916089],[-122.652943,43.916153],[-122.653383,43.916097],[-122.653932,43.916061],[-122.654126,43.915994],[-122.654354,43.91599],[-122.654717,43.915967],[-122.654985,43.91583],[-122.655176,43.915753],[-122.655354,43.915634],[-122.655634,43.915514],[-122.655981,43.915368],[-122.656351,43.915188],[-122.656764,43.915296],[-122.657141,43.915354],[-122.657484,43.915389],[-122.657869,43.91534],[-122.658113,43.915155],[-122.658377,43.914903],[-122.658749,43.914822],[-122.659411,43.914875],[-122.659936,43.914931],[-122.660507,43.914994],[-122.660713,43.915016],[-122.660693,43.91434],[-122.655863,43.914398],[-122.646183,43.914516]]]}},{"type":"Feature","properties":{"MAPTAXLOT":"1915140000500","MAPNUMBER":"19151400","TAXLOT":"500","ACCTNO":"0875417","MAPACRES":117.13419192},"geometry":{"type":"Polygon","coordinates":[[[-122.655863,43.914398],[-122.660693,43.91434],[-122.660584,43.910685],[-122.655735,43.910743],[-122.646041,43.910862],[-122.646183,43.914516],[-122.655863,43.914398]]]}},{"type":"Feature","properties":{"MAPTAXLOT":"1915230000100","MAPNUMBER":"19152300","TAXLOT":"100","ACCTNO":"0875870","MAPACRES":38.93816642},"geometry":{"type":"Polygon","coordinates":[[[-122.646296,43.90369],[-122.646168,43.907276],[-122.6511,43.90702],[-122.6511,43.90702],[-122.651303,43.903485],[-122.646296,43.90369]]]}},{"type":"Feature","properties":{"MAPTAXLOT":"1915230000103","MAPNUMBER":"19152300","TAXLOT":"103","ACCTNO":"1306438","MAPACRES":123.83150272},"geometry":{"type":"Polygon","coordinates":[[[-122.655735,43.910743],[-122.660584,43.910685],[-122.660916,43.906756],[-122.656052,43.906764],[-122.6511,43.90702],[-122.646168,43.907276],[-122.646041,43.910862],[-122.655735,43.910743]]]}},{"type":"Feature","properties":{"MAPTAXLOT":"1915230000104","MAPNUMBER":"19152300","TAXLOT":"104","ACCTNO":"1393808","MAPACRES":63.41026251},"geometry":{"type":"Polygon","coordinates":[[[-122.651469,43.901442],[-122.651801,43.901567],[-122.65224,43.901656],[-122.6527,43.901687],[-122.653036,43.901697],[-122.653207,43.901791],[-122.653512,43.901874],[-122.653794,43.901949],[-122.653933,43.902076],[-122.654156,43.90237],[-122.654392,43.902729],[-122.654759,43.902972],[-122.655222,43.903101],[-122.65625,43.903404],[-122.656809,43.903701],[-122.657275,43.90391],[-122.657713,43.904086],[-122.658122,43.904248],[-122.658267,43.904568],[-122.658482,43.904943],[-122.658817,43.905227],[-122.659204,43.905438],[-122.659714,43.905622],[-122.660241,43.905652],[-122.660542,43.905631],[-122.660898,43.905559],[-122.661015,43.905582],[-122.661228,43.903074],[-122.656307,43.903278],[-122.656602,43.899478],[-122.64662,43.899938],[-122.646487,43.901482],[-122.646753,43.901483],[-122.647503,43.901526],[-122.647904,43.901478],[-122.64839,43.901275],[-122.648555,43.901216],[-122.649732,43.900952],[-122.650026,43.901035],[-122.650511,43.901155],[-122.651042,43.901315],[-122.651393,43.901413],[-122.651469,43.901442]]]}},{"type":"Feature","properties":{"MAPTAXLOT":"1915230000105","MAPNUMBER":"19152300","TAXLOT":"105","ACCTNO":"1461449","MAPACRES":96.58604728},"geometry":{"type":"Polygon","coordinates":[[[-122.651303,43.903485],[-122.6511,43.90702],[-122.6511,43.90702],[-122.656052,43.906764],[-122.660916,43.906756],[-122.661015,43.905582],[-122.660898,43.905559],[-122.660542,43.905631],[-122.660241,43.905652],[-122.659714,43.905622],[-122.659204,43.905438],[-122.658817,43.905227],[-122.658482,43.904943],[-122.658267,43.904568],[-122.658122,43.904248],[-122.657713,43.904086],[-122.657275,43.90391],[-122.656809,43.903701],[-122.65625,43.903404],[-122.655222,43.903101],[-122.654759,43.902972],[-122.654392,43.902729],[-122.654156,43.90237],[-122.653933,43.902076],[-122.653794,43.901949],[-122.653512,43.901874],[-122.653207,43.901791],[-122.653036,43.901697],[-122.6527,43.901687],[-122.65224,43.901656],[-122.651801,43.901567],[-122.651469,43.901442],[-122.651393,43.901413],[-122.651042,43.901315],[-122.650511,43.901155],[-122.650026,43.901035],[-122.649732,43.900952],[-122.648555,43.901216],[-122.64839,43.901275],[-122.647904,43.901478],[-122.647503,43.901526],[-122.646753,43.901483],[-122.646487,43.901482],[-122.646296,43.90369],[-122.651303,43.903485]]]}},{"type":"Feature","properties":{"MAPTAXLOT":"1915230000200","MAPNUMBER":"19152300","TAXLOT":"200","ACCTNO":"0875888","MAPACRES":289.72296165},"geometry":{"type":"Polygon","coordinates":[[[-122.662036,43.906754],[-122.66579,43.906748],[-122.666147,43.902869],[-122.666841,43.895169],[-122.661869,43.895423],[-122.656898,43.895678],[-122.646943,43.896186],[-122.64662,43.899938],[-122.656602,43.899478],[-122.656307,43.903278],[-122.661228,43.903074],[-122.661015,43.905582],[-122.660916,43.906756],[-122.662036,43.906754]]]}},{"type":"Feature","properties":{"MAPTAXLOT":"1915240000100","MAPNUMBER":"19152400","TAXLOT":"100","ACCTNO":"0875896","MAPACRES":142.56565828},"geometry":{"type":"Polygon","coordinates":[[[-122.627027,43.910062],[-122.636538,43.910463],[-122.636648,43.906896],[-122.631828,43.906704],[-122.631878,43.903147],[-122.636766,43.903329],[-122.636853,43.900761],[-122.636726,43.900694],[-122.636316,43.900782],[-122.635289,43.901155],[-122.634861,43.901389],[-122.634314,43.901754],[-122.63371,43.902063],[-122.633102,43.902268],[-122.63251,43.902271],[-122.631633,43.902068],[-122.630999,43.901813],[-122.63028,43.901977],[-122.629702,43.902068],[-122.629335,43.902091],[-122.628749,43.90194],[-122.628284,43.901714],[-122.627645,43.901629],[-122.62708,43.901768],[-122.627075,43.901769],[-122.627071,43.902965],[-122.627027,43.910062]]]}},{"type":"Feature","properties":{"MAPTAXLOT":"1915240000101","MAPNUMBER":"19152400","TAXLOT":"101","ACCTNO":"1306446","MAPACRES":75.12260027},"geometry":{"type":"Polygon","coordinates":[[[-122.636538,43.910463],[-122.646041,43.910862],[-122.646168,43.907276],[-122.641388,43.907086],[-122.636648,43.906896],[-122.636538,43.910463]]]}},{"type":"Feature","properties":{"MAPTAXLOT":"1915240000102","MAPNUMBER":"19152400","TAXLOT":"102","ACCTNO":"1393774","MAPACRES":48.35851356},"geometry":{"type":"Polygon","coordinates":[[[-122.631633,43.902068],[-122.63251,43.902271],[-122.633102,43.902268],[-122.63371,43.902063],[-122.634314,43.901754],[-122.634861,43.901389],[-122.635289,43.901155],[-122.636316,43.900782],[-122.636726,43.900694],[-122.636853,43.900761],[-122.636891,43.899652],[-122.631967,43.899508],[-122.627083,43.899365],[-122.627075,43.901769],[-122.62708,43.901768],[-122.627645,43.901629],[-122.628284,43.901714],[-122.628749,43.90194],[-122.629335,43.902091],[-122.629702,43.902068],[-122.63028,43.901977],[-122.630999,43.901813],[-122.631633,43.902068]]]}},{"type":"Feature","properties":{"MAPTAXLOT":"1915240000200","MAPNUMBER":"19152400","TAXLOT":"200","ACCTNO":"0875904","MAPACRES":133.56167736},"geometry":{"type":"Polygon","coordinates":[[[-122.641388,43.907086],[-122.646168,43.907276],[-122.646296,43.90369],[-122.641493,43.903509],[-122.641647,43.901127],[-122.640804,43.901226],[-122.639939,43.901403],[-122.63916,43.901724],[-122.638532,43.901961],[-122.638054,43.902035],[-122.637691,43.901871],[-122.637513,43.901536],[-122.637197,43.901105],[-122.637022,43.90085],[-122.636853,43.900761],[-122.636766,43.903329],[-122.631878,43.903147],[-122.631828,43.906704],[-122.636648,43.906896],[-122.641388,43.907086]]]}},{"type":"Feature","properties":{"MAPTAXLOT":"1915240000201","MAPNUMBER":"19152400","TAXLOT":"201","ACCTNO":"1393782","MAPACRES":178.77503545},"geometry":{"type":"Polygon","coordinates":[[[-122.636853,43.900761],[-122.637022,43.90085],[-122.637197,43.901105],[-122.637513,43.901536],[-122.637691,43.901871],[-122.638054,43.902035],[-122.638532,43.901961],[-122.63916,43.901724],[-122.639939,43.901403],[-122.640804,43.901226],[-122.641647,43.901127],[-122.641735,43.899795],[-122.64662,43.899938],[-122.646943,43.896186],[-122.637013,43.895975],[-122.627095,43.895764],[-122.627083,43.899365],[-122.631967,43.899508],[-122.636891,43.899652],[-122.636853,43.900761]]]}},{"type":"Feature","properties":{"MAPTAXLOT":"1915240000300","MAPNUMBER":"19152400","TAXLOT":"300","ACCTNO":"0875912","MAPACRES":25.63204949},"geometry":{"type":"Polygon","coordinates":[[[-122.641493,43.903509],[-122.646296,43.90369],[-122.646487,43.901482],[-122.645725,43.901477],[-122.645201,43.901156],[-122.644363,43.90113],[-122.643659,43.901127],[-122.642609,43.901105],[-122.641861,43.901102],[-122.641647,43.901127],[-122.641493,43.903509]]]}},{"type":"Feature","properties":{"MAPTAXLOT":"1915240000301","MAPNUMBER":"19152400","TAXLOT":"301","ACCTNO":"1393790","MAPACRES":14.36143509},"geometry":{"type":"Polygon","coordinates":[[[-122.641647,43.901127],[-122.641861,43.901102],[-122.642609,43.901105],[-122.643659,43.901127],[-122.644363,43.90113],[-122.645201,43.901156],[-122.645725,43.901477],[-122.646487,43.901482],[-122.64662,43.899938],[-122.641735,43.899795],[-122.641647,43.901127]]]}},{"type":"Feature","properties":{"MAPTAXLOT":"1925000000500","MAPNUMBER":"19250000","TAXLOT":"500","ACCTNO":"0876357","MAPACRES":606.35734431},"geometry":{"type":"Polygon","coordinates":[[[-122.606616,43.952497],[-122.609433,43.952492],[-122.609423,43.949682],[-122.609408,43.946058],[-122.60936,43.938805],[-122.58932,43.938767],[-122.589338,43.946019],[-122.589345,43.949642],[-122.58935,43.952492],[-122.596763,43.9525],[-122.599391,43.952498],[-122.606616,43.952497]]]}},{"type":"Feature","properties":{"MAPTAXLOT":"1925000000600","MAPNUMBER":"19250000","TAXLOT":"600","ACCTNO":"0876365","MAPACRES":534.63476547},"geometry":{"type":"Polygon","coordinates":[[[-122.619459,43.952591],[-122.626739,43.952788],[-122.626872,43.945692],[-122.626921,43.938622],[-122.624393,43.938631],[-122.619382,43.938666],[-122.60936,43.938805],[-122.609408,43.946058],[-122.609423,43.949682],[-122.609433,43.952492],[-122.616786,43.952532],[-122.619459,43.952591]]]}},{"type":"Feature","properties":{"MAPTAXLOT":"1925000000700","MAPNUMBER":"19250000","TAXLOT":"700","ACCTNO":"0876373","MAPACRES":556.89423864},"geometry":{"type":"Polygon","coordinates":[[[-122.624393,43.938631],[-122.626921,43.938622],[-122.626868,43.93126],[-122.626967,43.924305],[-122.624329,43.924308],[-122.619319,43.924316],[-122.609297,43.924352],[-122.60936,43.938805],[-122.619382,43.938666],[-122.624393,43.938631]]]}},{"type":"Feature","properties":{"MAPTAXLOT":"1925000000800","MAPNUMBER":"19250000","TAXLOT":"800","ACCTNO":"0876381","MAPACRES":641.12962105},"geometry":{"type":"Polygon","coordinates":[[[-122.58932,43.938767],[-122.60936,43.938805],[-122.609297,43.924352],[-122.589208,43.924232],[-122.58932,43.938767]]]}},{"type":"Feature","properties":{"MAPTAXLOT":"1925000001700","MAPNUMBER":"19250000","TAXLOT":"1700","ACCTNO":"0876472","MAPACRES":639.92770193},"geometry":{"type":"Polygon","coordinates":[[[-122.589208,43.924232],[-122.609297,43.924352],[-122.609259,43.917126],[-122.609222,43.909991],[-122.607035,43.909994],[-122.607044,43.909899],[-122.604212,43.909889],[-122.599202,43.909845],[-122.589179,43.909669],[-122.589208,43.924232]]]}},{"type":"Feature","properties":{"MAPTAXLOT":"1925000001800","MAPNUMBER":"19250000","TAXLOT":"1800","ACCTNO":"0876480","MAPACRES":559.25179316},"geometry":{"type":"Polygon","coordinates":[[[-122.624329,43.924308],[-122.626967,43.924305],[-122.626999,43.917203],[-122.627027,43.910062],[-122.619243,43.910028],[-122.617031,43.910025],[-122.609222,43.909991],[-122.609259,43.917126],[-122.609297,43.924352],[-122.619319,43.924316],[-122.624329,43.924308]]]}},{"type":"Feature","properties":{"MAPTAXLOT":"1925000001900","MAPNUMBER":"19250000","TAXLOT":"1900","ACCTNO":"0876498","MAPACRES":650.37405747},"geometry":{"type":"Polygon","coordinates":[[[-122.60702,43.90207],[-122.60702,43.902782],[-122.607044,43.909899],[-122.607035,43.909994],[-122.609222,43.909991],[-122.617031,43.910025],[-122.619243,43.910028],[-122.627027,43.910062],[-122.627071,43.902965],[-122.627075,43.901769],[-122.627083,43.899365],[-122.627095,43.895764],[-122.616988,43.895309],[-122.607005,43.894859],[-122.60702,43.90207]]]}},{"type":"Feature","properties":{"MAPTAXLOT":"1925000002000","MAPNUMBER":"19250000","TAXLOT":"2000","ACCTNO":"0876506","MAPACRES":584.78625703},"geometry":{"type":"Polygon","coordinates":[[[-122.604212,43.909889],[-122.607044,43.909899],[-122.60702,43.902782],[-122.60702,43.90207],[-122.607005,43.894859],[-122.598598,43.894983],[-122.597001,43.894987],[-122.589111,43.895096],[-122.589113,43.89581],[-122.589143,43.902378],[-122.589179,43.909669],[-122.599202,43.909845],[-122.604212,43.909889]]]}},{"type":"Feature","properties":{"MAPTAXLOT":"1925000002900","MAPNUMBER":"19250000","TAXLOT":"2900","ACCTNO":"0876597","MAPACRES":223.262216},"geometry":{"type":"Polygon","coordinates":[[[-122.598598,43.894983],[-122.607005,43.894859],[-122.607222,43.891244],[-122.59763,43.891444],[-122.597742,43.887911],[-122.588046,43.888193],[-122.588046,43.888555],[-122.588032,43.895095],[-122.589111,43.895096],[-122.597001,43.894987],[-122.598598,43.894983]]]}},{"type":"Feature","properties":{"MAPTAXLOT":"1925000003000","MAPNUMBER":"19250000","TAXLOT":"3000","ACCTNO":"0876605","MAPACRES":388.72797191},"geometry":{"type":"Polygon","coordinates":[[[-122.597742,43.887911],[-122.59763,43.891444],[-122.607222,43.891244],[-122.607438,43.887628],[-122.60787,43.880411],[-122.597874,43.88067],[-122.588064,43.880938],[-122.588046,43.888193],[-122.597742,43.887911]]]}},{"type":"Feature","properties":{"MAPTAXLOT":"1925000003100","MAPNUMBER":"19250000","TAXLOT":"3100","ACCTNO":"0876613","MAPACRES":1858.43608499},"geometry":{"type":"Polygon","coordinates":[[[-122.616988,43.895309],[-122.627095,43.895764],[-122.627251,43.888575],[-122.627408,43.881382],[-122.627595,43.874191],[-122.627768,43.86698],[-122.617633,43.866812],[-122.607722,43.866469],[-122.588215,43.866753],[-122.588064,43.880938],[-122.597874,43.88067],[-122.60787,43.880411],[-122.607438,43.887628],[-122.607222,43.891244],[-122.607005,43.894859],[-122.616988,43.895309]]]}}]}