{"type":"FeatureCollection","features":[{"type":"Feature","properties":{"MAPTAXLOT":"2201000002600","MAPNUMBER":"22010000","TAXLOT":"2600","ACCTNO":"0966778","MAPACRES":4985.52371164},"geometry":{"type":"Polygon","coordinates":[[[-122.852395,43.682267],[-122.857122,43.6823],[-122.86185,43.682336],[-122.866578,43.682371],[-122.871305,43.682406],[-122.87302,43.682419],[-122.87309,43.679385],[-122.873121,43.678071],[-122.873156,43.676558],[-122.870016,43.676572],[-122.869183,43.672793],[-122.873087,43.672758],[-122.873082,43.67256],[-122.873081,43.672522],[-122.873006,43.669333],[-122.873012,43.668959],[-122.873052,43.666721],[-122.873071,43.665655],[-122.87308,43.66516],[-122.873128,43.661976],[-122.873129,43.661844],[-122.873149,43.65853],[-122.87315,43.65838],[-122.87317,43.655217],[-122.873173,43.654782],[-122.873192,43.651904],[-122.873196,43.651185],[-122.873215,43.647714],[-122.873216,43.647588],[-122.872888,43.643525],[-122.872882,43.643449],[-122.872548,43.639336],[-122.872546,43.63931],[-122.872556,43.635813],[-122.872557,43.635147],[-122.872566,43.632316],[-122.872579,43.6319],[-122.873031,43.629365],[-122.873033,43.629251],[-122.873519,43.626626],[-122.873522,43.626453],[-122.873631,43.623357],[-122.869585,43.623367],[-122.856434,43.623474],[-122.851525,43.623513],[-122.841678,43.623369],[-122.841652,43.62665],[-122.836799,43.626714],[-122.83191,43.626779],[-122.831837,43.623436],[-122.836757,43.623403],[-122.841678,43.623369],[-122.841579,43.616364],[-122.841741,43.608849],[-122.836815,43.608873],[-122.831875,43.60889],[-122.82695,43.608911],[-122.822025,43.608932],[-122.822033,43.612586],[-122.822041,43.616241],[-122.822075,43.618041],[-122.822109,43.619842],[-122.822127,43.620743],[-122.822144,43.621643],[-122.822178,43.623444],[-122.822326,43.626904],[-122.822473,43.630365],[-122.822259,43.633769],[-122.822045,43.637174],[-122.832132,43.6371],[-122.836929,43.637088],[-122.841725,43.637077],[-122.847193,43.636081],[-122.847131,43.640194],[-122.84183,43.64077],[-122.841938,43.644463],[-122.842144,43.651849],[-122.842264,43.655377],[-122.842383,43.658905],[-122.842448,43.66253],[-122.842502,43.666154],[-122.843644,43.669583],[-122.844786,43.673013],[-122.84593,43.676676],[-122.847074,43.680339],[-122.85181,43.680301],[-122.852395,43.682267]]]}},{"type":"Feature","properties":{"MAPTAXLOT":"2201000005400","MAPNUMBER":"22010000","TAXLOT":"5400","ACCTNO":"0967222","MAPACRES":747.16367467},"geometry":{"type":"Polygon","coordinates":[[[-122.869585,43.623367],[-122.873631,43.623357],[-122.873641,43.623049],[-122.873735,43.619644],[-122.873734,43.619584],[-122.871469,43.619611],[-122.871514,43.615837],[-122.856467,43.616103],[-122.856497,43.608715],[-122.8516,43.608831],[-122.846671,43.60884],[-122.841741,43.608849],[-122.841579,43.616364],[-122.841678,43.623369],[-122.851525,43.623513],[-122.856434,43.623474],[-122.869585,43.623367]]]}},{"type":"Feature","properties":{"MAPTAXLOT":"2201000005500","MAPNUMBER":"22010000","TAXLOT":"5500","ACCTNO":"0967230","MAPACRES":305.52700433},"geometry":{"type":"Polygon","coordinates":[[[-122.871469,43.619611],[-122.873734,43.619584],[-122.873746,43.616004],[-122.873748,43.615797],[-122.873724,43.612363],[-122.873734,43.612],[-122.873807,43.608775],[-122.873823,43.608204],[-122.871436,43.608274],[-122.866456,43.608421],[-122.861477,43.608568],[-122.856497,43.608715],[-122.856467,43.616103],[-122.871514,43.615837],[-122.871469,43.619611]]]}},{"type":"Feature","properties":{"MAPTAXLOT":"2202000005200","MAPNUMBER":"22020000","TAXLOT":"5200","ACCTNO":"0968816","MAPACRES":544.68270129},"geometry":{"type":"Polygon","coordinates":[[[-122.940531,43.618291],[-122.950199,43.618314],[-122.95011,43.615059],[-122.950021,43.611804],[-122.949932,43.608549],[-122.949843,43.605294],[-122.947499,43.60528],[-122.945405,43.605268],[-122.942645,43.605251],[-122.940702,43.605239],[-122.93779,43.605222],[-122.935993,43.605211],[-122.932935,43.605193],[-122.931285,43.605181],[-122.931243,43.608456],[-122.931201,43.611732],[-122.931146,43.615007],[-122.931091,43.618282],[-122.935811,43.618287],[-122.940531,43.618291]]]}},{"type":"Feature","properties":{"MAPTAXLOT":"2202000005300","MAPNUMBER":"22020000","TAXLOT":"5300","ACCTNO":"0968824","MAPACRES":211.96718977},"geometry":{"type":"Polygon","coordinates":[[[-122.917096,43.613535],[-122.917114,43.615244],[-122.921822,43.615055],[-122.921812,43.613424],[-122.926488,43.613397],[-122.926495,43.611763],[-122.921803,43.611794],[-122.921784,43.608474],[-122.921765,43.605145],[-122.918175,43.605125],[-122.917006,43.60512],[-122.913256,43.605099],[-122.912248,43.605126],[-122.912259,43.608491],[-122.912269,43.611856],[-122.912317,43.613646],[-122.917096,43.613535]]]}},{"type":"Feature","properties":{"MAPTAXLOT":"2202000005400","MAPNUMBER":"22020000","TAXLOT":"5400","ACCTNO":"0968832","MAPACRES":138.3464568},"geometry":{"type":"Polygon","coordinates":[[[-122.928848,43.611747],[-122.931201,43.611732],[-122.931243,43.608456],[-122.931285,43.605181],[-122.928014,43.605168],[-122.926525,43.605163],[-122.923095,43.60515],[-122.921765,43.605145],[-122.921784,43.608474],[-122.921803,43.611794],[-122.926495,43.611763],[-122.928848,43.611747]]]}},{"type":"Feature","properties":{"MAPTAXLOT":"2202000005500","MAPNUMBER":"22020000","TAXLOT":"5500","ACCTNO":"0968840","MAPACRES":325.90389948},"geometry":{"type":"Polygon","coordinates":[[[-122.898235,43.619914],[-122.903264,43.619882],[-122.907862,43.619448],[-122.910162,43.619231],[-122.910067,43.615597],[-122.912365,43.615435],[-122.912317,43.613646],[-122.912269,43.611856],[-122.912259,43.608491],[-122.907587,43.608654],[-122.902873,43.608819],[-122.902996,43.61229],[-122.898128,43.612518],[-122.898181,43.616215],[-122.893296,43.616342],[-122.893206,43.619946],[-122.898235,43.619914]]]}},{"type":"Feature","properties":{"MAPTAXLOT":"2202000005600","MAPNUMBER":"22020000","TAXLOT":"5600","ACCTNO":"0968857","MAPACRES":223.56153504},"geometry":{"type":"Polygon","coordinates":[[[-122.893325,43.609028],[-122.893386,43.612739],[-122.898128,43.612518],[-122.902996,43.61229],[-122.902873,43.608819],[-122.907587,43.608654],[-122.912259,43.608491],[-122.912248,43.605126],[-122.908478,43.605211],[-122.907499,43.605237],[-122.903701,43.605323],[-122.902751,43.605348],[-122.898921,43.605338],[-122.898024,43.605339],[-122.894142,43.605328],[-122.893263,43.605317],[-122.893325,43.609028]]]}},{"type":"Feature","properties":{"MAPTAXLOT":"2202000005700","MAPNUMBER":"22020000","TAXLOT":"5700","ACCTNO":"0968865","MAPACRES":198.26956673},"geometry":{"type":"Polygon","coordinates":[[[-122.88837,43.616257],[-122.893296,43.616342],[-122.893386,43.612739],[-122.893325,43.609028],[-122.893263,43.605317],[-122.889207,43.605272],[-122.888471,43.605263],[-122.884316,43.605217],[-122.883681,43.605215],[-122.883626,43.608902],[-122.883573,43.612552],[-122.888403,43.612644],[-122.88837,43.616257]]]}},{"type":"Feature","properties":{"MAPTAXLOT":"2202000005701","MAPNUMBER":"22020000","TAXLOT":"5701","ACCTNO":"0968873","MAPACRES":432.49997956},"geometry":{"type":"Polygon","coordinates":[[[-122.888338,43.619871],[-122.893206,43.619946],[-122.893296,43.616342],[-122.88837,43.616257],[-122.888403,43.612644],[-122.883573,43.612552],[-122.883626,43.608902],[-122.883681,43.605215],[-122.879422,43.605202],[-122.878761,43.605199],[-122.874523,43.605186],[-122.873835,43.605184],[-122.873823,43.608204],[-122.873807,43.608775],[-122.873734,43.612],[-122.873724,43.612363],[-122.873748,43.615797],[-122.873746,43.616004],[-122.873734,43.619584],[-122.873735,43.619644],[-122.878604,43.61972],[-122.883471,43.619795],[-122.888338,43.619871]]]}},{"type":"Feature","properties":{"MAPTAXLOT":"2301000001200","MAPNUMBER":"23010000","TAXLOT":"1200","ACCTNO":"0973055","MAPACRES":782.98124658},"geometry":{"type":"Polygon","coordinates":[[[-122.846671,43.60884],[-122.8516,43.608831],[-122.851629,43.604833],[-122.854083,43.604788],[-122.854112,43.601288],[-122.85414,43.597857],[-122.856602,43.597829],[-122.85657,43.601247],[-122.861524,43.601164],[-122.866479,43.601082],[-122.866468,43.604558],[-122.866456,43.608421],[-122.871436,43.608274],[-122.873823,43.608204],[-122.873835,43.605184],[-122.874523,43.605186],[-122.874522,43.604408],[-122.874512,43.600947],[-122.874526,43.597625],[-122.874541,43.594302],[-122.871432,43.594321],[-122.866498,43.594349],[-122.861565,43.594377],[-122.856632,43.594405],[-122.851701,43.594432],[-122.846772,43.594466],[-122.841846,43.5945],[-122.841814,43.597996],[-122.841782,43.601491],[-122.841755,43.605015],[-122.841741,43.608849],[-122.846671,43.60884]]]}},{"type":"Feature","properties":{"MAPTAXLOT":"2301000001300","MAPNUMBER":"23010000","TAXLOT":"1300","ACCTNO":"0973063","MAPACRES":23.96070684},"geometry":{"type":"Polygon","coordinates":[[[-122.871432,43.594321],[-122.874541,43.594302],[-122.874541,43.590831],[-122.871424,43.590847],[-122.871432,43.594321]]]}},{"type":"Feature","properties":{"MAPTAXLOT":"2301000001400","MAPNUMBER":"23010000","TAXLOT":"1400","ACCTNO":"0973071","MAPACRES":72.65573433},"geometry":{"type":"Polygon","coordinates":[[[-122.871424,43.590847],[-122.874541,43.590831],[-122.874548,43.58736],[-122.874552,43.583867],[-122.874558,43.580374],[-122.871409,43.580385],[-122.871414,43.583879],[-122.871419,43.587373],[-122.871424,43.590847]]]}},{"type":"Feature","properties":{"MAPTAXLOT":"2301000001500","MAPNUMBER":"23010000","TAXLOT":"1500","ACCTNO":"0973089","MAPACRES":537.39597847},"geometry":{"type":"Polygon","coordinates":[[[-122.866498,43.594349],[-122.871432,43.594321],[-122.871424,43.590847],[-122.866472,43.590873],[-122.861521,43.590898],[-122.861477,43.587414],[-122.861432,43.583916],[-122.856442,43.583935],[-122.851451,43.583953],[-122.851535,43.587453],[-122.846567,43.587473],[-122.846463,43.583971],[-122.84636,43.580469],[-122.841353,43.580485],[-122.841476,43.583989],[-122.841599,43.587492],[-122.841722,43.590996],[-122.841846,43.5945],[-122.846772,43.594466],[-122.851701,43.594432],[-122.856632,43.594405],[-122.861565,43.594377],[-122.866498,43.594349]]]}},{"type":"Feature","properties":{"MAPTAXLOT":"2301000001600","MAPNUMBER":"23010000","TAXLOT":"1600","ACCTNO":"0973097","MAPACRES":386.2714632},"geometry":{"type":"Polygon","coordinates":[[[-122.866472,43.590873],[-122.871424,43.590847],[-122.871419,43.587373],[-122.871414,43.583879],[-122.871409,43.580385],[-122.866399,43.580402],[-122.861388,43.580419],[-122.856377,43.580436],[-122.851366,43.580453],[-122.84636,43.580469],[-122.846463,43.583971],[-122.846567,43.587473],[-122.851535,43.587453],[-122.851451,43.583953],[-122.856442,43.583935],[-122.861432,43.583916],[-122.861477,43.587414],[-122.861521,43.590898],[-122.866472,43.590873]]]}},{"type":"Feature","properties":{"MAPTAXLOT":"2301000003000","MAPNUMBER":"23010000","TAXLOT":"3000","ACCTNO":"0973246","MAPACRES":966.06166628},"geometry":{"type":"Polygon","coordinates":[[[-122.871409,43.580385],[-122.874558,43.580374],[-122.874554,43.579198],[-122.874545,43.576886],[-122.874529,43.573398],[-122.874514,43.569911],[-122.874498,43.566424],[-122.871475,43.566424],[-122.866751,43.566425],[-122.866663,43.569924],[-122.861867,43.569931],[-122.862026,43.566425],[-122.857302,43.566426],[-122.852577,43.566426],[-122.847828,43.566439],[-122.84308,43.56645],[-122.842648,43.569959],[-122.842216,43.573468],[-122.841784,43.576976],[-122.841353,43.580485],[-122.84636,43.580469],[-122.851366,43.580453],[-122.856377,43.580436],[-122.861388,43.580419],[-122.866399,43.580402],[-122.871409,43.580385]]]}},{"type":"Feature","properties":{"MAPTAXLOT":"2301000003200","MAPNUMBER":"23010000","TAXLOT":"3200","ACCTNO":"0973261","MAPACRES":364.2166293},"geometry":{"type":"Polygon","coordinates":[[[-122.871475,43.566424],[-122.874498,43.566424],[-122.874439,43.562817],[-122.87438,43.559209],[-122.874032,43.555463],[-122.873685,43.551716],[-122.87069,43.551778],[-122.866046,43.551875],[-122.866314,43.555564],[-122.866583,43.559251],[-122.861836,43.559277],[-122.857089,43.559302],[-122.857196,43.562871],[-122.861931,43.562856],[-122.862026,43.566425],[-122.866751,43.566425],[-122.871475,43.566424]]]}},{"type":"Feature","properties":{"MAPTAXLOT":"2301000004600","MAPNUMBER":"23010000","TAXLOT":"4600","ACCTNO":"0973428","MAPACRES":449.61166135},"geometry":{"type":"Polygon","coordinates":[[[-122.842242,43.548646],[-122.842818,43.552359],[-122.847466,43.552262],[-122.852113,43.552166],[-122.856757,43.552069],[-122.856567,43.548427],[-122.861246,43.548355],[-122.861402,43.551972],[-122.863724,43.551924],[-122.866046,43.551875],[-122.87069,43.551778],[-122.873685,43.551716],[-122.873601,43.548165],[-122.873517,43.544614],[-122.870518,43.544644],[-122.865805,43.544692],[-122.865865,43.546488],[-122.861168,43.546547],[-122.861091,43.544739],[-122.856377,43.544787],[-122.851663,43.544834],[-122.841665,43.544933],[-122.842242,43.548646]]]}},{"type":"Feature","properties":{"MAPTAXLOT":"2302000000100","MAPNUMBER":"23020000","TAXLOT":"100","ACCTNO":"0973436","MAPACRES":64.70295108},"geometry":{"type":"Polygon","coordinates":[[[-122.878761,43.605199],[-122.879422,43.605202],[-122.879419,43.604434],[-122.884309,43.604461],[-122.884292,43.602727],[-122.87941,43.602702],[-122.879401,43.60097],[-122.874512,43.600947],[-122.874522,43.604408],[-122.874523,43.605186],[-122.878761,43.605199]]]}},{"type":"Feature","properties":{"MAPTAXLOT":"2302000000101","MAPNUMBER":"23020000","TAXLOT":"101","ACCTNO":"1141793","MAPACRES":36.09281837},"geometry":{"type":"Polygon","coordinates":[[[-122.874512,43.600947],[-122.879401,43.60097],[-122.879385,43.59761],[-122.874526,43.597625],[-122.874512,43.600947]]]}},{"type":"Feature","properties":{"MAPTAXLOT":"2302000000102","MAPNUMBER":"23020000","TAXLOT":"102","ACCTNO":"1141801","MAPACRES":18.73194796},"geometry":{"type":"Polygon","coordinates":[[[-122.87941,43.602702],[-122.884292,43.602727],[-122.884273,43.600993],[-122.879401,43.60097],[-122.87941,43.602702]]]}},{"type":"Feature","properties":{"MAPTAXLOT":"2302000000200","MAPNUMBER":"23020000","TAXLOT":"200","ACCTNO":"0973444","MAPACRES":357.08322113},"geometry":{"type":"Polygon","coordinates":[[[-122.893263,43.605317],[-122.894142,43.605328],[-122.894123,43.604513],[-122.894039,43.601039],[-122.893947,43.597565],[-122.893854,43.594092],[-122.889028,43.594145],[-122.884199,43.594198],[-122.87937,43.59425],[-122.874541,43.594302],[-122.874526,43.597625],[-122.879385,43.59761],[-122.879401,43.60097],[-122.884273,43.600993],[-122.884292,43.602727],[-122.884309,43.604461],[-122.879419,43.604434],[-122.879422,43.605202],[-122.883681,43.605215],[-122.884316,43.605217],[-122.888471,43.605263],[-122.889207,43.605272],[-122.893263,43.605317]]]}},{"type":"Feature","properties":{"MAPTAXLOT":"2302000000300","MAPNUMBER":"23020000","TAXLOT":"300","ACCTNO":"0973451","MAPACRES":466.57482445},"geometry":{"type":"Polygon","coordinates":[[[-122.898921,43.605338],[-122.902751,43.605348],[-122.903701,43.605323],[-122.907499,43.605237],[-122.908478,43.605211],[-122.912248,43.605126],[-122.913256,43.605099],[-122.91327,43.603939],[-122.913305,43.599175],[-122.913201,43.591992],[-122.908365,43.592517],[-122.903528,43.593042],[-122.903553,43.59481],[-122.898725,43.595319],[-122.898759,43.597071],[-122.893947,43.597565],[-122.894039,43.601039],[-122.894123,43.604513],[-122.894142,43.605328],[-122.898024,43.605339],[-122.898921,43.605338]]]}},{"type":"Feature","properties":{"MAPTAXLOT":"2302000000301","MAPNUMBER":"23020000","TAXLOT":"301","ACCTNO":"1141785","MAPACRES":56.28410563},"geometry":{"type":"Polygon","coordinates":[[[-122.893854,43.594092],[-122.893947,43.597565],[-122.898759,43.597071],[-122.898725,43.595319],[-122.903553,43.59481],[-122.903528,43.593042],[-122.898691,43.593567],[-122.893854,43.594092]]]}},{"type":"Feature","properties":{"MAPTAXLOT":"2302000000400","MAPNUMBER":"23020000","TAXLOT":"400","ACCTNO":"0973469","MAPACRES":572.25129991},"geometry":{"type":"Polygon","coordinates":[[[-122.931285,43.605181],[-122.932935,43.605193],[-122.932924,43.603895],[-122.932875,43.598797],[-122.932544,43.59191],[-122.927663,43.591912],[-122.922783,43.591915],[-122.917992,43.591953],[-122.913201,43.591992],[-122.913305,43.599175],[-122.91327,43.603939],[-122.913256,43.605099],[-122.917006,43.60512],[-122.918175,43.605125],[-122.921765,43.605145],[-122.923095,43.60515],[-122.926525,43.605163],[-122.928014,43.605168],[-122.931285,43.605181]]]}},{"type":"Feature","properties":{"MAPTAXLOT":"2302000000500","MAPNUMBER":"23020000","TAXLOT":"500","ACCTNO":"0973477","MAPACRES":563.93319314},"geometry":{"type":"Polygon","coordinates":[[[-122.949843,43.605294],[-122.952088,43.60531],[-122.952055,43.604185],[-122.951947,43.600082],[-122.951763,43.591877],[-122.941975,43.591984],[-122.932544,43.59191],[-122.932875,43.598797],[-122.932924,43.603895],[-122.932935,43.605193],[-122.935993,43.605211],[-122.93779,43.605222],[-122.940702,43.605239],[-122.942645,43.605251],[-122.945405,43.605268],[-122.947499,43.60528],[-122.949843,43.605294]]]}},{"type":"Feature","properties":{"MAPTAXLOT":"2302000001100","MAPNUMBER":"23020000","TAXLOT":"1100","ACCTNO":"0973535","MAPACRES":607.45880943},"geometry":{"type":"Polygon","coordinates":[[[-122.941975,43.591984],[-122.951763,43.591877],[-122.951613,43.584827],[-122.951924,43.577584],[-122.942186,43.577686],[-122.932599,43.577683],[-122.932552,43.581139],[-122.932505,43.584594],[-122.932524,43.588252],[-122.932544,43.59191],[-122.941975,43.591984]]]}},{"type":"Feature","properties":{"MAPTAXLOT":"2302000001200","MAPNUMBER":"23020000","TAXLOT":"1200","ACCTNO":"0973543","MAPACRES":407.5276865},"geometry":{"type":"Polygon","coordinates":[[[-122.922849,43.588423],[-122.922783,43.591915],[-122.927663,43.591912],[-122.932544,43.59191],[-122.932524,43.588252],[-122.932505,43.584594],[-122.932552,43.581139],[-122.932599,43.577683],[-122.927822,43.577879],[-122.923045,43.578075],[-122.918251,43.578255],[-122.913457,43.578436],[-122.913382,43.581813],[-122.918187,43.581644],[-122.918155,43.583342],[-122.918123,43.585041],[-122.922916,43.584892],[-122.922849,43.588423]]]}},{"type":"Feature","properties":{"MAPTAXLOT":"2302000001300","MAPNUMBER":"23020000","TAXLOT":"1300","ACCTNO":"0973568","MAPACRES":146.9784026},"geometry":{"type":"Polygon","coordinates":[[[-122.917992,43.591953],[-122.922783,43.591915],[-122.922849,43.588423],[-122.922916,43.584892],[-122.918123,43.585041],[-122.913307,43.585189],[-122.913254,43.588591],[-122.913201,43.591992],[-122.917992,43.591953]]]}},{"type":"Feature","properties":{"MAPTAXLOT":"2302000001400","MAPNUMBER":"23020000","TAXLOT":"1400","ACCTNO":"0973576","MAPACRES":18.05638584},"geometry":{"type":"Polygon","coordinates":[[[-122.913345,43.583501],[-122.913307,43.585189],[-122.918123,43.585041],[-122.918155,43.583342],[-122.913345,43.583501]]]}},{"type":"Feature","properties":{"MAPTAXLOT":"2302000001500","MAPNUMBER":"23020000","TAXLOT":"1500","ACCTNO":"0973584","MAPACRES":18.03617159},"geometry":{"type":"Polygon","coordinates":[[[-122.913382,43.581813],[-122.913345,43.583501],[-122.918155,43.583342],[-122.918187,43.581644],[-122.913382,43.581813]]]}},{"type":"Feature","properties":{"MAPTAXLOT":"2302000001600","MAPNUMBER":"23020000","TAXLOT":"1600","ACCTNO":"0973592","MAPACRES":591.16998105},"geometry":{"type":"Polygon","coordinates":[[[-122.893862,43.590618],[-122.893854,43.594092],[-122.898691,43.593567],[-122.903528,43.593042],[-122.908365,43.592517],[-122.913201,43.591992],[-122.913254,43.588591],[-122.913307,43.585189],[-122.913345,43.583501],[-122.913382,43.581813],[-122.913457,43.578436],[-122.908564,43.578876],[-122.903671,43.579317],[-122.898778,43.579757],[-122.893885,43.580197],[-122.893877,43.583671],[-122.89387,43.587144],[-122.893862,43.590618]]]}},{"type":"Feature","properties":{"MAPTAXLOT":"2302000001700","MAPNUMBER":"23020000","TAXLOT":"1700","ACCTNO":"0973600","MAPACRES":409.77048645},"geometry":{"type":"Polygon","coordinates":[[[-122.889028,43.594145],[-122.893854,43.594092],[-122.893862,43.590618],[-122.89387,43.587144],[-122.893877,43.583671],[-122.893885,43.580197],[-122.889053,43.580242],[-122.884221,43.580286],[-122.879389,43.58033],[-122.874558,43.580374],[-122.874552,43.583867],[-122.879383,43.583818],[-122.879379,43.585562],[-122.884211,43.585511],[-122.884207,43.587253],[-122.881792,43.58728],[-122.881785,43.590752],[-122.884201,43.590725],[-122.884199,43.594198],[-122.889028,43.594145]]]}},{"type":"Feature","properties":{"MAPTAXLOT":"2302000001701","MAPNUMBER":"23020000","TAXLOT":"1701","ACCTNO":"1141819","MAPACRES":186.12166321},"geometry":{"type":"Polygon","coordinates":[[[-122.87937,43.59425],[-122.884199,43.594198],[-122.884201,43.590725],[-122.881785,43.590752],[-122.881792,43.58728],[-122.884207,43.587253],[-122.884211,43.585511],[-122.879379,43.585562],[-122.879383,43.583818],[-122.874552,43.583867],[-122.874548,43.58736],[-122.874541,43.590831],[-122.874541,43.594302],[-122.87937,43.59425]]]}},{"type":"Feature","properties":{"MAPTAXLOT":"2302000001800","MAPNUMBER":"23020000","TAXLOT":"1800","ACCTNO":"0973626","MAPACRES":219.78967075},"geometry":{"type":"Polygon","coordinates":[[[-122.879389,43.58033],[-122.884221,43.580286],[-122.884096,43.576804],[-122.888844,43.576763],[-122.888636,43.573285],[-122.888426,43.569789],[-122.883846,43.569829],[-122.883972,43.573322],[-122.87925,43.573361],[-122.874529,43.573398],[-122.874545,43.576886],[-122.874554,43.579198],[-122.874558,43.580374],[-122.879389,43.58033]]]}},{"type":"Feature","properties":{"MAPTAXLOT":"2302000001900","MAPNUMBER":"23020000","TAXLOT":"1900","ACCTNO":"0973634","MAPACRES":355.20428826},"geometry":{"type":"Polygon","coordinates":[[[-122.889053,43.580242],[-122.893885,43.580197],[-122.893357,43.576724],[-122.892828,43.573251],[-122.892769,43.56975],[-122.89271,43.56625],[-122.888213,43.566255],[-122.883716,43.566259],[-122.879107,43.566342],[-122.874498,43.566424],[-122.874514,43.569911],[-122.874529,43.573398],[-122.87925,43.573361],[-122.883972,43.573322],[-122.883846,43.569829],[-122.888426,43.569789],[-122.888636,43.573285],[-122.888844,43.576763],[-122.884096,43.576804],[-122.884221,43.580286],[-122.889053,43.580242]]]}},{"type":"Feature","properties":{"MAPTAXLOT":"2302000002000","MAPNUMBER":"23020000","TAXLOT":"2000","ACCTNO":"0973642","MAPACRES":376.49004284},"geometry":{"type":"Polygon","coordinates":[[[-122.893357,43.576724],[-122.893885,43.580197],[-122.898778,43.579757],[-122.903671,43.579317],[-122.908564,43.578876],[-122.908383,43.575512],[-122.908202,43.572146],[-122.902865,43.57253],[-122.902462,43.56926],[-122.90205,43.56592],[-122.89738,43.566085],[-122.89271,43.56625],[-122.892769,43.56975],[-122.892828,43.573251],[-122.893357,43.576724]]]}},{"type":"Feature","properties":{"MAPTAXLOT":"2302000002100","MAPNUMBER":"23020000","TAXLOT":"2100","ACCTNO":"0973667","MAPACRES":74.64921607},"geometry":{"type":"Polygon","coordinates":[[[-122.902462,43.56926],[-122.902865,43.57253],[-122.908202,43.572146],[-122.907627,43.568999],[-122.907045,43.565816],[-122.90205,43.56592],[-122.902462,43.56926]]]}},{"type":"Feature","properties":{"MAPTAXLOT":"2302000002200","MAPNUMBER":"23020000","TAXLOT":"2200","ACCTNO":"0973675","MAPACRES":37.22191362},"geometry":{"type":"Polygon","coordinates":[[[-122.908383,43.575512],[-122.908564,43.578876],[-122.913457,43.578436],[-122.913493,43.575099],[-122.908383,43.575512]]]}},{"type":"Feature","properties":{"MAPTAXLOT":"2302000002300","MAPNUMBER":"23020000","TAXLOT":"2300","ACCTNO":"0973683","MAPACRES":110.49627548},"geometry":{"type":"Polygon","coordinates":[[[-122.908202,43.572146],[-122.908383,43.575512],[-122.913493,43.575099],[-122.913538,43.571762],[-122.912789,43.568737],[-122.912041,43.565713],[-122.907045,43.565816],[-122.907627,43.568999],[-122.908202,43.572146]]]}},{"type":"Feature","properties":{"MAPTAXLOT":"2302000002400","MAPNUMBER":"23020000","TAXLOT":"2400","ACCTNO":"0973691","MAPACRES":536.04539059},"geometry":{"type":"Polygon","coordinates":[[[-122.913493,43.575099],[-122.913457,43.578436],[-122.918251,43.578255],[-122.923045,43.578075],[-122.927822,43.577879],[-122.932599,43.577683],[-122.931795,43.565102],[-122.926857,43.565255],[-122.921918,43.565408],[-122.912041,43.565713],[-122.912789,43.568737],[-122.913538,43.571762],[-122.913493,43.575099]]]}},{"type":"Feature","properties":{"MAPTAXLOT":"2302000002500","MAPNUMBER":"23020000","TAXLOT":"2500","ACCTNO":"0973709","MAPACRES":580.86647873},"geometry":{"type":"Polygon","coordinates":[[[-122.942186,43.577686],[-122.951924,43.577584],[-122.951678,43.563536],[-122.931795,43.565102],[-122.932599,43.577683],[-122.942186,43.577686]]]}},{"type":"Feature","properties":{"MAPTAXLOT":"2302000003400","MAPNUMBER":"23020000","TAXLOT":"3400","ACCTNO":"0973790","MAPACRES":587.20825554},"geometry":{"type":"Polygon","coordinates":[[[-122.931823,43.561627],[-122.931795,43.565102],[-122.951678,43.563536],[-122.95173,43.560057],[-122.951775,43.556582],[-122.951704,43.553357],[-122.951634,43.550131],[-122.942062,43.550999],[-122.932372,43.551459],[-122.932111,43.554805],[-122.931851,43.558152],[-122.931823,43.561627]]]}},{"type":"Feature","properties":{"MAPTAXLOT":"2302000003500","MAPNUMBER":"23020000","TAXLOT":"3500","ACCTNO":"0973808","MAPACRES":539.14376036},"geometry":{"type":"Polygon","coordinates":[[[-122.912145,43.558646],[-122.912041,43.565713],[-122.921918,43.565408],[-122.926857,43.565255],[-122.931795,43.565102],[-122.931823,43.561627],[-122.927042,43.561762],[-122.927228,43.558268],[-122.927407,43.554902],[-122.932111,43.554805],[-122.932372,43.551459],[-122.927586,43.551535],[-122.922799,43.551611],[-122.912086,43.55152],[-122.912145,43.558646]]]}},{"type":"Feature","properties":{"MAPTAXLOT":"2302000003600","MAPNUMBER":"23020000","TAXLOT":"3600","ACCTNO":"0973816","MAPACRES":70.96949504},"geometry":{"type":"Polygon","coordinates":[[[-122.927228,43.558268],[-122.927042,43.561762],[-122.931823,43.561627],[-122.931851,43.558152],[-122.932111,43.554805],[-122.927407,43.554902],[-122.927228,43.558268]]]}},{"type":"Feature","properties":{"MAPTAXLOT":"2302000003700","MAPNUMBER":"23020000","TAXLOT":"3700","ACCTNO":"0973824","MAPACRES":610.58363762},"geometry":{"type":"Polygon","coordinates":[[[-122.892719,43.562707],[-122.89271,43.56625],[-122.89738,43.566085],[-122.90205,43.56592],[-122.907045,43.565816],[-122.912041,43.565713],[-122.912145,43.558646],[-122.912086,43.55152],[-122.902355,43.551754],[-122.892682,43.551971],[-122.892705,43.555568],[-122.892728,43.559165],[-122.892719,43.562707]]]}},{"type":"Feature","properties":{"MAPTAXLOT":"2302000003800","MAPNUMBER":"23020000","TAXLOT":"3800","ACCTNO":"0973832","MAPACRES":106.37811247},"geometry":{"type":"Polygon","coordinates":[[[-122.888213,43.566255],[-122.89271,43.56625],[-122.892719,43.562707],[-122.888178,43.562735],[-122.888143,43.559176],[-122.883593,43.559187],[-122.883655,43.562762],[-122.883716,43.566259],[-122.888213,43.566255]]]}},{"type":"Feature","properties":{"MAPTAXLOT":"2302000003900","MAPNUMBER":"23020000","TAXLOT":"3900","ACCTNO":"0973840","MAPACRES":35.93409792},"geometry":{"type":"Polygon","coordinates":[[[-122.888178,43.562735],[-122.892719,43.562707],[-122.892728,43.559165],[-122.888143,43.559176],[-122.888178,43.562735]]]}},{"type":"Feature","properties":{"MAPTAXLOT":"2302000004000","MAPNUMBER":"23020000","TAXLOT":"4000","ACCTNO":"0973857","MAPACRES":264.27304895},"geometry":{"type":"Polygon","coordinates":[[[-122.879107,43.566342],[-122.883716,43.566259],[-122.883655,43.562762],[-122.883593,43.559187],[-122.88122,43.559193],[-122.881121,43.555503],[-122.881018,43.551643],[-122.878574,43.551667],[-122.876129,43.551692],[-122.873685,43.551716],[-122.874032,43.555463],[-122.87438,43.559209],[-122.874439,43.562817],[-122.874498,43.566424],[-122.879107,43.566342]]]}},{"type":"Feature","properties":{"MAPTAXLOT":"2302000004001","MAPNUMBER":"23020000","TAXLOT":"4001","ACCTNO":"1141827","MAPACRES":79.33010763},"geometry":{"type":"Polygon","coordinates":[[[-122.88122,43.559193],[-122.883593,43.559187],[-122.883529,43.555516],[-122.888108,43.555542],[-122.888072,43.551795],[-122.883462,43.551619],[-122.881018,43.551643],[-122.881121,43.555503],[-122.88122,43.559193]]]}},{"type":"Feature","properties":{"MAPTAXLOT":"2302000004002","MAPNUMBER":"23020000","TAXLOT":"4002","ACCTNO":"1141835","MAPACRES":111.28540487},"geometry":{"type":"Polygon","coordinates":[[[-122.888143,43.559176],[-122.892728,43.559165],[-122.892705,43.555568],[-122.892682,43.551971],[-122.888072,43.551795],[-122.888108,43.555542],[-122.883529,43.555516],[-122.883593,43.559187],[-122.888143,43.559176]]]}},{"type":"Feature","properties":{"MAPTAXLOT":"2302000004100","MAPNUMBER":"23020000","TAXLOT":"4100","ACCTNO":"0973873","MAPACRES":38.07139179},"geometry":{"type":"Polygon","coordinates":[[[-122.873685,43.551716],[-122.876129,43.551692],[-122.876028,43.548197],[-122.875926,43.544645],[-122.873517,43.544614],[-122.873601,43.548165],[-122.873685,43.551716]]]}},{"type":"Feature","properties":{"MAPTAXLOT":"2302000004101","MAPNUMBER":"23020000","TAXLOT":"4101","ACCTNO":"1141991","MAPACRES":147.36459497},"geometry":{"type":"Polygon","coordinates":[[[-122.883462,43.551619],[-122.888072,43.551795],[-122.88802,43.548355],[-122.883311,43.548293],[-122.88315,43.544738],[-122.878334,43.544676],[-122.875926,43.544645],[-122.876028,43.548197],[-122.876129,43.551692],[-122.878574,43.551667],[-122.881018,43.551643],[-122.883462,43.551619]]]}},{"type":"Feature","properties":{"MAPTAXLOT":"2302000004102","MAPNUMBER":"23020000","TAXLOT":"4102","ACCTNO":"1141843","MAPACRES":37.53826561},"geometry":{"type":"Polygon","coordinates":[[[-122.883311,43.548293],[-122.88802,43.548355],[-122.887967,43.5448],[-122.88315,43.544738],[-122.883311,43.548293]]]}},{"type":"Feature","properties":{"MAPTAXLOT":"2302000004200","MAPNUMBER":"23020000","TAXLOT":"4200","ACCTNO":"0973881","MAPACRES":73.72482313},"geometry":{"type":"Polygon","coordinates":[[[-122.888072,43.551795],[-122.892682,43.551971],[-122.892732,43.548416],[-122.892783,43.544862],[-122.887967,43.5448],[-122.88802,43.548355],[-122.888072,43.551795]]]}},{"type":"Feature","properties":{"MAPTAXLOT":"2302000004300","MAPNUMBER":"23020000","TAXLOT":"4300","ACCTNO":"0973899","MAPACRES":304.2038436},"geometry":{"type":"Polygon","coordinates":[[[-122.892732,43.548416],[-122.892682,43.551971],[-122.902355,43.551754],[-122.912086,43.55152],[-122.912163,43.544489],[-122.892783,43.544862],[-122.892732,43.548416]]]}},{"type":"Feature","properties":{"MAPTAXLOT":"2302000004400","MAPNUMBER":"23020000","TAXLOT":"4400","ACCTNO":"0973907","MAPACRES":321.17372447},"geometry":{"type":"Polygon","coordinates":[[[-122.927586,43.551535],[-122.932372,43.551459],[-122.932516,43.54436],[-122.912163,43.544489],[-122.912086,43.55152],[-122.922799,43.551611],[-122.927586,43.551535]]]}},{"type":"Feature","properties":{"MAPTAXLOT":"2302000004500","MAPNUMBER":"23020000","TAXLOT":"4500","ACCTNO":"0973915","MAPACRES":305.75419603},"geometry":{"type":"Polygon","coordinates":[[[-122.932516,43.54436],[-122.932372,43.551459],[-122.942062,43.550999],[-122.951634,43.550131],[-122.951837,43.543125],[-122.932516,43.54436]]]}}]}