{"type":"FeatureCollection","features":[{"type":"Feature","properties":{"MAPTAXLOT":"2001000003200","MAPNUMBER":"20010000","TAXLOT":"3200","ACCTNO":"0877256","MAPACRES":118.12794605},"geometry":{"type":"Polygon","coordinates":[[[-122.849835,43.823755],[-122.854724,43.823725],[-122.854773,43.820106],[-122.8499,43.820126],[-122.849964,43.816489],[-122.845005,43.816508],[-122.844976,43.820146],[-122.844946,43.823784],[-122.849835,43.823755]]]}},{"type":"Feature","properties":{"MAPTAXLOT":"2001000003201","MAPNUMBER":"20010000","TAXLOT":"3201","ACCTNO":"0877264","MAPACRES":640.5399533},"geometry":{"type":"Polygon","coordinates":[[[-122.854724,43.823725],[-122.859594,43.823709],[-122.864464,43.823692],[-122.868792,43.823677],[-122.868792,43.823677],[-122.868792,43.82341],[-122.868791,43.820698],[-122.868791,43.820048],[-122.86879,43.817121],[-122.86879,43.816419],[-122.868794,43.813546],[-122.868796,43.812833],[-122.868799,43.809971],[-122.868815,43.809246],[-122.868814,43.809246],[-122.864568,43.809249],[-122.859742,43.809251],[-122.854916,43.809254],[-122.850091,43.809257],[-122.845266,43.809259],[-122.845135,43.812884],[-122.845005,43.816508],[-122.849964,43.816489],[-122.8499,43.820126],[-122.854773,43.820106],[-122.854724,43.823725]]]}},{"type":"Feature","properties":{"MAPTAXLOT":"2001000003300","MAPNUMBER":"20010000","TAXLOT":"3300","ACCTNO":"0877280","MAPACRES":479.44674576},"geometry":{"type":"Polygon","coordinates":[[[-122.834966,43.823703],[-122.844946,43.823784],[-122.844976,43.820146],[-122.845005,43.816508],[-122.845135,43.812884],[-122.845266,43.809259],[-122.840299,43.809198],[-122.835334,43.809137],[-122.830295,43.809117],[-122.825256,43.809096],[-122.825195,43.816362],[-122.83515,43.816436],[-122.834966,43.823703]]]}},{"type":"Feature","properties":{"MAPTAXLOT":"2001000003400","MAPNUMBER":"20010000","TAXLOT":"3400","ACCTNO":"0877298","MAPACRES":158.81159612},"geometry":{"type":"Polygon","coordinates":[[[-122.825132,43.823629],[-122.834966,43.823703],[-122.83515,43.816436],[-122.825195,43.816362],[-122.825132,43.823629]]]}},{"type":"Feature","properties":{"MAPTAXLOT":"2001000003500","MAPNUMBER":"20010000","TAXLOT":"3500","ACCTNO":"0877306","MAPACRES":647.51885837},"geometry":{"type":"Polygon","coordinates":[[[-122.815055,43.823585],[-122.825132,43.823629],[-122.825195,43.816362],[-122.825256,43.809096],[-122.815117,43.809129],[-122.804965,43.809071],[-122.804979,43.823614],[-122.815055,43.823585]]]}},{"type":"Feature","properties":{"MAPTAXLOT":"2001000003600","MAPNUMBER":"20010000","TAXLOT":"3600","ACCTNO":"0877314","MAPACRES":648.88856836},"geometry":{"type":"Polygon","coordinates":[[[-122.78436,43.82319],[-122.804979,43.823614],[-122.804965,43.809071],[-122.784541,43.809104],[-122.78436,43.82319]]]}},{"type":"Feature","properties":{"MAPTAXLOT":"2001000004200","MAPNUMBER":"20010000","TAXLOT":"4200","ACCTNO":"0877371","MAPACRES":652.65118673},"geometry":{"type":"Polygon","coordinates":[[[-122.784541,43.809104],[-122.804965,43.809071],[-122.80462,43.794518],[-122.799597,43.79451],[-122.794565,43.794501],[-122.789535,43.7945],[-122.784497,43.794498],[-122.784551,43.801739],[-122.784541,43.809104]]]}},{"type":"Feature","properties":{"MAPTAXLOT":"2001000004300","MAPNUMBER":"20010000","TAXLOT":"4300","ACCTNO":"0877389","MAPACRES":655.47629137},"geometry":{"type":"Polygon","coordinates":[[[-122.815117,43.809129],[-122.825256,43.809096],[-122.825174,43.805437],[-122.825091,43.801777],[-122.825007,43.798118],[-122.824921,43.79446],[-122.824921,43.794458],[-122.80462,43.794518],[-122.804965,43.809071],[-122.815117,43.809129]]]}},{"type":"Feature","properties":{"MAPTAXLOT":"2001000004500","MAPNUMBER":"20010000","TAXLOT":"4500","ACCTNO":"0877397","MAPACRES":326.50767022},"geometry":{"type":"Polygon","coordinates":[[[-122.830295,43.809117],[-122.835334,43.809137],[-122.835291,43.805551],[-122.835274,43.804168],[-122.835274,43.804161],[-122.835247,43.801923],[-122.835203,43.798295],[-122.83516,43.794667],[-122.830041,43.794563],[-122.824921,43.794458],[-122.824921,43.79446],[-122.825007,43.798118],[-122.825091,43.801777],[-122.825174,43.805437],[-122.825256,43.809096],[-122.830295,43.809117]]]}},{"type":"Feature","properties":{"MAPTAXLOT":"2001000004600","MAPNUMBER":"20010000","TAXLOT":"4600","ACCTNO":"0877405","MAPACRES":39.50983536},"geometry":{"type":"Polygon","coordinates":[[[-122.835334,43.809137],[-122.840299,43.809198],[-122.840295,43.805607],[-122.835291,43.805551],[-122.835334,43.809137]]]}},{"type":"Feature","properties":{"MAPTAXLOT":"2001000004700","MAPNUMBER":"20010000","TAXLOT":"4700","ACCTNO":"0877413","MAPACRES":281.9182573},"geometry":{"type":"Polygon","coordinates":[[[-122.840299,43.809198],[-122.845266,43.809259],[-122.845298,43.805663],[-122.845331,43.802067],[-122.845364,43.79847],[-122.845397,43.794874],[-122.840279,43.794771],[-122.837719,43.794719],[-122.83516,43.794667],[-122.835203,43.798295],[-122.835247,43.801923],[-122.835274,43.804161],[-122.835274,43.804168],[-122.835291,43.805551],[-122.840295,43.805607],[-122.840299,43.809198]]]}},{"type":"Feature","properties":{"MAPTAXLOT":"2001000004800","MAPNUMBER":"20010000","TAXLOT":"4800","ACCTNO":"0877421","MAPACRES":152.36473536},"geometry":{"type":"Polygon","coordinates":[[[-122.850091,43.809257],[-122.854916,43.809254],[-122.854938,43.805695],[-122.854958,43.802136],[-122.850145,43.802101],[-122.845331,43.802067],[-122.845298,43.805663],[-122.845266,43.809259],[-122.850091,43.809257]]]}},{"type":"Feature","properties":{"MAPTAXLOT":"2001000004900","MAPNUMBER":"20010000","TAXLOT":"4900","ACCTNO":"0877439","MAPACRES":591.77977751},"geometry":{"type":"Polygon","coordinates":[[[-122.854916,43.809254],[-122.859742,43.809251],[-122.864568,43.809249],[-122.868814,43.809246],[-122.868815,43.809246],[-122.868814,43.809127],[-122.868797,43.806283],[-122.868793,43.80574],[-122.868774,43.802594],[-122.868771,43.802233],[-122.868797,43.799005],[-122.868801,43.798575],[-122.868827,43.795417],[-122.868868,43.794917],[-122.864602,43.794911],[-122.859801,43.794905],[-122.855,43.794899],[-122.850199,43.794887],[-122.845397,43.794874],[-122.845364,43.79847],[-122.845331,43.802067],[-122.850145,43.802101],[-122.854958,43.802136],[-122.854938,43.805695],[-122.854916,43.809254]]]}},{"type":"Feature","properties":{"MAPTAXLOT":"2001000005000","MAPNUMBER":"20010000","TAXLOT":"5000","ACCTNO":"0877447","MAPACRES":372.89819318},"geometry":{"type":"Polygon","coordinates":[[[-122.845422,43.791289],[-122.845397,43.794874],[-122.850199,43.794887],[-122.855,43.794899],[-122.859801,43.794905],[-122.864602,43.794911],[-122.868868,43.794917],[-122.868892,43.791651],[-122.868894,43.791312],[-122.868919,43.787884],[-122.868919,43.787706],[-122.868919,43.787706],[-122.864607,43.787709],[-122.85981,43.787711],[-122.855013,43.787713],[-122.850215,43.787709],[-122.845445,43.787704],[-122.845422,43.791289]]]}},{"type":"Feature","properties":{"MAPTAXLOT":"2001000005100","MAPNUMBER":"20010000","TAXLOT":"5100","ACCTNO":"0877454","MAPACRES":340.25596193},"geometry":{"type":"Polygon","coordinates":[[[-122.845442,43.780364],[-122.845445,43.783999],[-122.850224,43.784021],[-122.850215,43.787709],[-122.855013,43.787713],[-122.85981,43.787711],[-122.864607,43.787709],[-122.868919,43.787706],[-122.868919,43.787706],[-122.868958,43.784196],[-122.868959,43.784108],[-122.868999,43.78051],[-122.864612,43.780474],[-122.863916,43.780468],[-122.859818,43.780434],[-122.859017,43.780426],[-122.858834,43.780425],[-122.856934,43.780409],[-122.855024,43.780393],[-122.854998,43.780393],[-122.853751,43.780382],[-122.85023,43.780357],[-122.848668,43.780343],[-122.845447,43.780297],[-122.845442,43.780297],[-122.845442,43.780364]]]}},{"type":"Feature","properties":{"MAPTAXLOT":"2001000005200","MAPNUMBER":"20010000","TAXLOT":"5200","ACCTNO":"0877462","MAPACRES":38.99586902},"geometry":{"type":"Polygon","coordinates":[[[-122.845445,43.787704],[-122.850215,43.787709],[-122.850224,43.784021],[-122.845445,43.783999],[-122.845445,43.787704]]]}},{"type":"Feature","properties":{"MAPTAXLOT":"2001000005300","MAPNUMBER":"20010000","TAXLOT":"5300","ACCTNO":"0877470","MAPACRES":40.78878074},"geometry":{"type":"Polygon","coordinates":[[[-122.840279,43.794771],[-122.845397,43.794874],[-122.845422,43.791289],[-122.840261,43.791173],[-122.840279,43.794771]]]}},{"type":"Feature","properties":{"MAPTAXLOT":"2001000005400","MAPNUMBER":"20010000","TAXLOT":"5400","ACCTNO":"0877488","MAPACRES":102.62783789},"geometry":{"type":"Polygon","coordinates":[[[-122.837719,43.794719],[-122.840279,43.794771],[-122.840261,43.791173],[-122.845422,43.791289],[-122.845445,43.787704],[-122.840244,43.787575],[-122.83507,43.787445],[-122.835114,43.791056],[-122.837687,43.791114],[-122.837719,43.794719]]]}},{"type":"Feature","properties":{"MAPTAXLOT":"2001000005500","MAPNUMBER":"20010000","TAXLOT":"5500","ACCTNO":"0877496","MAPACRES":525.49643615},"geometry":{"type":"Polygon","coordinates":[[[-122.83516,43.794667],[-122.837719,43.794719],[-122.837687,43.791114],[-122.835114,43.791056],[-122.83507,43.787445],[-122.840244,43.787575],[-122.845445,43.787704],[-122.845445,43.783999],[-122.845442,43.780364],[-122.845442,43.780297],[-122.84379,43.780257],[-122.840211,43.780171],[-122.838919,43.78014],[-122.834974,43.780048],[-122.834046,43.780027],[-122.831233,43.779962],[-122.829737,43.779927],[-122.829173,43.779914],[-122.82465,43.779922],[-122.824481,43.779922],[-122.824477,43.779922],[-122.824477,43.779923],[-122.824479,43.779984],[-122.824479,43.779984],[-122.824479,43.779986],[-122.824591,43.78355],[-122.824702,43.787186],[-122.824812,43.790822],[-122.824921,43.794458],[-122.830041,43.794563],[-122.83516,43.794667]]]}},{"type":"Feature","properties":{"MAPTAXLOT":"2001000005600","MAPNUMBER":"20010000","TAXLOT":"5600","ACCTNO":"0877504","MAPACRES":648.56758197},"geometry":{"type":"Polygon","coordinates":[[[-122.804478,43.779888],[-122.804478,43.7799],[-122.804509,43.783544],[-122.804544,43.787202],[-122.804585,43.79086],[-122.80462,43.794518],[-122.824921,43.794458],[-122.824812,43.790822],[-122.824702,43.787186],[-122.824591,43.78355],[-122.824479,43.779986],[-122.824479,43.779984],[-122.824479,43.779984],[-122.824477,43.779923],[-122.824477,43.779922],[-122.82422,43.779921],[-122.819478,43.779928],[-122.819254,43.779927],[-122.814472,43.779934],[-122.814285,43.779933],[-122.811237,43.779938],[-122.809464,43.779941],[-122.809346,43.77994],[-122.809323,43.77994],[-122.809323,43.77994],[-122.809314,43.77994],[-122.804478,43.779885],[-122.804478,43.779888]]]}},{"type":"Feature","properties":{"MAPTAXLOT":"2001000005700","MAPNUMBER":"20010000","TAXLOT":"5700","ACCTNO":"0877512","MAPACRES":121.45123981},"geometry":{"type":"Polygon","coordinates":[[[-122.799597,43.79451],[-122.80462,43.794518],[-122.804585,43.79086],[-122.799584,43.790858],[-122.794583,43.790855],[-122.789552,43.790853],[-122.789535,43.7945],[-122.794565,43.794501],[-122.799597,43.79451]]]}},{"type":"Feature","properties":{"MAPTAXLOT":"2001000005701","MAPNUMBER":"20010000","TAXLOT":"5701","ACCTNO":"0877520","MAPACRES":241.57215572},"geometry":{"type":"Polygon","coordinates":[[[-122.794583,43.790855],[-122.799584,43.790858],[-122.804585,43.79086],[-122.804544,43.787202],[-122.804509,43.783544],[-122.804478,43.7799],[-122.804478,43.779888],[-122.804478,43.779885],[-122.804362,43.779884],[-122.799555,43.779835],[-122.799396,43.779833],[-122.794635,43.779784],[-122.794635,43.779813],[-122.794635,43.779859],[-122.79462,43.783552],[-122.794602,43.787193],[-122.794583,43.790855]]]}},{"type":"Feature","properties":{"MAPTAXLOT":"2002000006400","MAPNUMBER":"20020000","TAXLOT":"6400","ACCTNO":"0879534","MAPACRES":613.32111823},"geometry":{"type":"Polygon","coordinates":[[[-122.868792,43.824275],[-122.873368,43.824263],[-122.878315,43.82425],[-122.883263,43.824238],[-122.888211,43.824225],[-122.888265,43.820611],[-122.888319,43.816998],[-122.888375,43.813519],[-122.888431,43.810039],[-122.883463,43.810045],[-122.878495,43.810051],[-122.873563,43.81001],[-122.8688,43.809971],[-122.868799,43.809971],[-122.868796,43.812833],[-122.868794,43.813546],[-122.86879,43.816419],[-122.86879,43.817121],[-122.868791,43.820048],[-122.868791,43.820698],[-122.868792,43.82341],[-122.868792,43.823677],[-122.868792,43.823976],[-122.868792,43.824275]]]}},{"type":"Feature","properties":{"MAPTAXLOT":"2002000006500","MAPNUMBER":"20020000","TAXLOT":"6500","ACCTNO":"0879542","MAPACRES":154.20238779},"geometry":{"type":"Polygon","coordinates":[[[-122.868799,43.809971],[-122.8688,43.809971],[-122.873563,43.81001],[-122.873575,43.806313],[-122.873585,43.802637],[-122.873596,43.799035],[-122.873607,43.795412],[-122.868827,43.795417],[-122.868827,43.795417],[-122.868801,43.798575],[-122.868797,43.799005],[-122.868771,43.802233],[-122.868774,43.802594],[-122.868793,43.80574],[-122.868797,43.806283],[-122.868814,43.809127],[-122.868815,43.809246],[-122.868799,43.809971]]]}},{"type":"Feature","properties":{"MAPTAXLOT":"2002000007300","MAPNUMBER":"20020000","TAXLOT":"7300","ACCTNO":"0879625","MAPACRES":626.05855336},"geometry":{"type":"Polygon","coordinates":[[[-122.878512,43.795407],[-122.883498,43.795443],[-122.888485,43.795479],[-122.888414,43.791863],[-122.888343,43.788246],[-122.88824,43.784693],[-122.888137,43.78114],[-122.883352,43.780982],[-122.878568,43.780823],[-122.873783,43.780666],[-122.868999,43.78051],[-122.868959,43.784108],[-122.868958,43.784196],[-122.868919,43.787706],[-122.868919,43.787884],[-122.868894,43.791312],[-122.868892,43.791651],[-122.868868,43.794917],[-122.868827,43.795417],[-122.868827,43.795417],[-122.873607,43.795412],[-122.878512,43.795407]]]}},{"type":"Feature","properties":{"MAPTAXLOT":"2101000000300","MAPNUMBER":"21010000","TAXLOT":"300","ACCTNO":"0928372","MAPACRES":533.28533651},"geometry":{"type":"Polygon","coordinates":[[[-122.804478,43.779885],[-122.809314,43.77994],[-122.809314,43.779933],[-122.809314,43.778337],[-122.809315,43.774781],[-122.809322,43.767696],[-122.799406,43.767701],[-122.789492,43.767705],[-122.789476,43.774809],[-122.789474,43.778374],[-122.789474,43.779934],[-122.789474,43.779968],[-122.789625,43.779965],[-122.794433,43.779788],[-122.794635,43.779784],[-122.799396,43.779833],[-122.799555,43.779835],[-122.804362,43.779884],[-122.804478,43.779885]]]}},{"type":"Feature","properties":{"MAPTAXLOT":"2101000000400","MAPNUMBER":"21010000","TAXLOT":"400","ACCTNO":"0928380","MAPACRES":529.63159878},"geometry":{"type":"Polygon","coordinates":[[[-122.809315,43.774781],[-122.809314,43.778337],[-122.809314,43.779933],[-122.809314,43.77994],[-122.809323,43.77994],[-122.809323,43.77994],[-122.809346,43.77994],[-122.809464,43.779941],[-122.811237,43.779938],[-122.814285,43.779933],[-122.814472,43.779934],[-122.819254,43.779927],[-122.819478,43.779928],[-122.82422,43.779921],[-122.824477,43.779922],[-122.824481,43.779922],[-122.82465,43.779922],[-122.829173,43.779914],[-122.829173,43.779903],[-122.829173,43.779903],[-122.829126,43.778681],[-122.828988,43.775117],[-122.829059,43.771505],[-122.829128,43.767894],[-122.824176,43.767845],[-122.819224,43.767795],[-122.814273,43.767746],[-122.809322,43.767696],[-122.809315,43.774781]]]}},{"type":"Feature","properties":{"MAPTAXLOT":"2101000000500","MAPNUMBER":"21010000","TAXLOT":"500","ACCTNO":"0928398","MAPACRES":211.91515684},"geometry":{"type":"Polygon","coordinates":[[[-122.829173,43.779914],[-122.829737,43.779927],[-122.831233,43.779962],[-122.834046,43.780027],[-122.834046,43.780019],[-122.834039,43.778528],[-122.834034,43.774942],[-122.838916,43.774773],[-122.838918,43.771152],[-122.83892,43.767511],[-122.834024,43.767703],[-122.829128,43.767894],[-122.829059,43.771505],[-122.828988,43.775117],[-122.829126,43.778681],[-122.829173,43.779903],[-122.829173,43.779903],[-122.829173,43.779914]]]}},{"type":"Feature","properties":{"MAPTAXLOT":"2101000000600","MAPNUMBER":"21010000","TAXLOT":"600","ACCTNO":"0928406","MAPACRES":332.23332042},"geometry":{"type":"Polygon","coordinates":[[[-122.845442,43.780297],[-122.845447,43.780297],[-122.848668,43.780343],[-122.848668,43.780341],[-122.848627,43.778071],[-122.848561,43.774439],[-122.848564,43.770806],[-122.848567,43.767172],[-122.843743,43.767342],[-122.83892,43.767511],[-122.838918,43.771152],[-122.838916,43.774773],[-122.834034,43.774942],[-122.834039,43.778528],[-122.834046,43.780019],[-122.834046,43.780027],[-122.834974,43.780048],[-122.838919,43.78014],[-122.840211,43.780171],[-122.84379,43.780257],[-122.845442,43.780297]]]}},{"type":"Feature","properties":{"MAPTAXLOT":"2101000000700","MAPNUMBER":"21010000","TAXLOT":"700","ACCTNO":"0928414","MAPACRES":615.75196546},"geometry":{"type":"Polygon","coordinates":[[[-122.848668,43.780343],[-122.85023,43.780357],[-122.853751,43.780382],[-122.854998,43.780393],[-122.855024,43.780393],[-122.856934,43.780409],[-122.858834,43.780425],[-122.859017,43.780426],[-122.859818,43.780434],[-122.863916,43.780468],[-122.864612,43.780474],[-122.868999,43.78051],[-122.868999,43.78051],[-122.868999,43.780509],[-122.868958,43.776922],[-122.868917,43.773337],[-122.868917,43.773336],[-122.868877,43.769793],[-122.868837,43.766252],[-122.863675,43.766499],[-122.858513,43.766745],[-122.85354,43.766959],[-122.848567,43.767172],[-122.848564,43.770806],[-122.848561,43.774439],[-122.848627,43.778071],[-122.848668,43.780341],[-122.848668,43.780343]]]}},{"type":"Feature","properties":{"MAPTAXLOT":"2101000000800","MAPNUMBER":"21010000","TAXLOT":"800","ACCTNO":"0928422","MAPACRES":470.3369256},"geometry":{"type":"Polygon","coordinates":[[[-122.848675,43.760097],[-122.848621,43.763635],[-122.848567,43.767172],[-122.85354,43.766959],[-122.858513,43.766745],[-122.863675,43.766499],[-122.868837,43.766252],[-122.868837,43.766251],[-122.86882,43.762802],[-122.868803,43.759353],[-122.868802,43.759353],[-122.8637,43.759542],[-122.858595,43.759731],[-122.858637,43.756195],[-122.858678,43.752661],[-122.85365,43.752764],[-122.848622,43.752868],[-122.848648,43.756483],[-122.848675,43.760097]]]}},{"type":"Feature","properties":{"MAPTAXLOT":"2101000000900","MAPNUMBER":"21010000","TAXLOT":"900","ACCTNO":"0928430","MAPACRES":156.76085698},"geometry":{"type":"Polygon","coordinates":[[[-122.858678,43.752661],[-122.858637,43.756195],[-122.858595,43.759731],[-122.8637,43.759542],[-122.868802,43.759353],[-122.868803,43.759353],[-122.868788,43.755902],[-122.86878,43.753902],[-122.868773,43.752452],[-122.868773,43.752452],[-122.863725,43.752556],[-122.858678,43.752661]]]}},{"type":"Feature","properties":{"MAPTAXLOT":"2101000001000","MAPNUMBER":"21010000","TAXLOT":"1000","ACCTNO":"0928448","MAPACRES":619.60518011},"geometry":{"type":"Polygon","coordinates":[[[-122.829085,43.764306],[-122.829128,43.767894],[-122.834024,43.767703],[-122.83892,43.767511],[-122.843743,43.767342],[-122.848567,43.767172],[-122.848621,43.763635],[-122.848675,43.760097],[-122.848648,43.756483],[-122.848622,43.752868],[-122.843735,43.753052],[-122.838848,43.753237],[-122.833933,43.753365],[-122.829018,43.753492],[-122.82903,43.757106],[-122.829039,43.760719],[-122.829085,43.764306]]]}},{"type":"Feature","properties":{"MAPTAXLOT":"2101000001100","MAPNUMBER":"21010000","TAXLOT":"1100","ACCTNO":"0928455","MAPACRES":528.69971338},"geometry":{"type":"Polygon","coordinates":[[[-122.824176,43.767845],[-122.829128,43.767894],[-122.829085,43.764306],[-122.829039,43.760719],[-122.824133,43.760673],[-122.819193,43.760628],[-122.819185,43.758829],[-122.824123,43.758871],[-122.824112,43.757068],[-122.82409,43.753464],[-122.819162,43.753434],[-122.814233,43.753405],[-122.809304,43.753376],[-122.809307,43.756956],[-122.809311,43.760536],[-122.809316,43.764116],[-122.809322,43.767696],[-122.814273,43.767746],[-122.819224,43.767795],[-122.824176,43.767845]]]}},{"type":"Feature","properties":{"MAPTAXLOT":"2101000001101","MAPNUMBER":"21010000","TAXLOT":"1101","ACCTNO":"1140928","MAPACRES":19.65451177},"geometry":{"type":"Polygon","coordinates":[[[-122.819193,43.760628],[-122.824133,43.760673],[-122.824123,43.758871],[-122.819185,43.758829],[-122.819193,43.760628]]]}},{"type":"Feature","properties":{"MAPTAXLOT":"2101000001200","MAPNUMBER":"21010000","TAXLOT":"1200","ACCTNO":"0928471","MAPACRES":78.47132188},"geometry":{"type":"Polygon","coordinates":[[[-122.824133,43.760673],[-122.829039,43.760719],[-122.82903,43.757106],[-122.829018,43.753492],[-122.82409,43.753464],[-122.824112,43.757068],[-122.824123,43.758871],[-122.824133,43.760673]]]}},{"type":"Feature","properties":{"MAPTAXLOT":"2101000001300","MAPNUMBER":"21010000","TAXLOT":"1300","ACCTNO":"0928489","MAPACRES":626.6128473},"geometry":{"type":"Polygon","coordinates":[[[-122.799406,43.767701],[-122.809322,43.767696],[-122.809316,43.764116],[-122.809311,43.760536],[-122.809307,43.756956],[-122.809304,43.753376],[-122.804352,43.753388],[-122.799399,43.7534],[-122.794447,43.753412],[-122.789494,43.753425],[-122.789492,43.756995],[-122.789491,43.760565],[-122.789491,43.764135],[-122.789492,43.767705],[-122.799406,43.767701]]]}},{"type":"Feature","properties":{"MAPTAXLOT":"2101000001800","MAPNUMBER":"21010000","TAXLOT":"1800","ACCTNO":"0928596","MAPACRES":395.77072194},"geometry":{"type":"Polygon","coordinates":[[[-122.804352,43.753388],[-122.809304,43.753376],[-122.809302,43.749765],[-122.80435,43.749776],[-122.799397,43.749788],[-122.799395,43.746174],[-122.799393,43.742561],[-122.799391,43.738946],[-122.794438,43.738954],[-122.789485,43.738964],[-122.789487,43.742579],[-122.789489,43.746194],[-122.789491,43.74981],[-122.789494,43.753425],[-122.794447,43.753412],[-122.799399,43.7534],[-122.804352,43.753388]]]}},{"type":"Feature","properties":{"MAPTAXLOT":"2101000002200","MAPNUMBER":"21010000","TAXLOT":"2200","ACCTNO":"0928620","MAPACRES":235.86986869},"geometry":{"type":"Polygon","coordinates":[[[-122.82409,43.753464],[-122.829018,43.753492],[-122.828996,43.749879],[-122.82897,43.746268],[-122.819147,43.746211],[-122.819154,43.749822],[-122.809302,43.749765],[-122.809304,43.753376],[-122.814233,43.753405],[-122.819162,43.753434],[-122.82409,43.753464]]]}},{"type":"Feature","properties":{"MAPTAXLOT":"2101000002300","MAPNUMBER":"21010000","TAXLOT":"2300","ACCTNO":"0928638","MAPACRES":39.33745912},"geometry":{"type":"Polygon","coordinates":[[[-122.828996,43.749879],[-122.829018,43.753492],[-122.833933,43.753365],[-122.833908,43.749736],[-122.828996,43.749879]]]}},{"type":"Feature","properties":{"MAPTAXLOT":"2101000002700","MAPNUMBER":"21010000","TAXLOT":"2700","ACCTNO":"0928679","MAPACRES":233.37284953},"geometry":{"type":"Polygon","coordinates":[[[-122.833908,43.749736],[-122.833933,43.753365],[-122.838848,43.753237],[-122.843735,43.753052],[-122.848622,43.752868],[-122.848595,43.74931],[-122.848569,43.745752],[-122.848551,43.743976],[-122.848534,43.742199],[-122.843631,43.742298],[-122.843665,43.745881],[-122.83877,43.74601],[-122.838809,43.749594],[-122.833908,43.749736]]]}},{"type":"Feature","properties":{"MAPTAXLOT":"2101000003000","MAPNUMBER":"21010000","TAXLOT":"3000","ACCTNO":"0928703","MAPACRES":605.12666422},"geometry":{"type":"Polygon","coordinates":[[[-122.848551,43.743976],[-122.848569,43.745752],[-122.848595,43.74931],[-122.848622,43.752868],[-122.85365,43.752764],[-122.858678,43.752661],[-122.863725,43.752556],[-122.868773,43.752452],[-122.868773,43.752452],[-122.868773,43.752451],[-122.86863,43.748904],[-122.868486,43.745357],[-122.868385,43.742887],[-122.868098,43.742882],[-122.868198,43.738261],[-122.868198,43.738261],[-122.863277,43.738358],[-122.85835,43.738456],[-122.853424,43.738551],[-122.848498,43.738647],[-122.848534,43.742199],[-122.853481,43.742102],[-122.853509,43.743878],[-122.848551,43.743976]]]}},{"type":"Feature","properties":{"MAPTAXLOT":"2102000000800","MAPNUMBER":"21020000","TAXLOT":"800","ACCTNO":"0932036","MAPACRES":416.10598167},"geometry":{"type":"Polygon","coordinates":[[[-122.883235,43.766665],[-122.888066,43.766647],[-122.888057,43.763035],[-122.883242,43.762977],[-122.883249,43.759399],[-122.878445,43.759385],[-122.878466,43.755849],[-122.878486,43.752366],[-122.873629,43.752409],[-122.868773,43.752451],[-122.868773,43.752452],[-122.86878,43.753902],[-122.868788,43.755902],[-122.868803,43.759353],[-122.86882,43.762802],[-122.868837,43.766251],[-122.873621,43.766467],[-122.878404,43.766683],[-122.883235,43.766665]]]}},{"type":"Feature","properties":{"MAPTAXLOT":"2102010000100","MAPNUMBER":"21020100","TAXLOT":"100","ACCTNO":"0932473","MAPACRES":416.60212116},"geometry":{"type":"Polygon","coordinates":[[[-122.868999,43.78051],[-122.873783,43.780666],[-122.878568,43.780823],[-122.883352,43.780982],[-122.888137,43.78114],[-122.888108,43.777484],[-122.888079,43.773852],[-122.884004,43.773743],[-122.883856,43.773739],[-122.88378,43.773737],[-122.88342,43.774144],[-122.883026,43.774036],[-122.883136,43.77372],[-122.878489,43.773595],[-122.873701,43.773466],[-122.873661,43.769966],[-122.878447,43.770139],[-122.878404,43.766683],[-122.873621,43.766467],[-122.868837,43.766251],[-122.868837,43.766252],[-122.868877,43.769793],[-122.868917,43.773336],[-122.868917,43.773337],[-122.868958,43.776922],[-122.868999,43.780509],[-122.868999,43.78051],[-122.868999,43.78051]]]}},{"type":"Feature","properties":{"MAPTAXLOT":"2102130000100","MAPNUMBER":"21021300","TAXLOT":"100","ACCTNO":"0933802","MAPACRES":102.88775285},"geometry":{"type":"Polygon","coordinates":[[[-122.868773,43.752451],[-122.873629,43.752409],[-122.873518,43.748819],[-122.873406,43.745254],[-122.873335,43.742986],[-122.868386,43.742887],[-122.868385,43.742887],[-122.868486,43.745357],[-122.86863,43.748904],[-122.868773,43.752451]]]}}]}