{"type":"FeatureCollection","features":[{"type":"Feature","properties":{"MAPTAXLOT":"1665000000077","MAPNUMBER":"16650000","TAXLOT":"77","ACCTNO":"000None","MAPACRES":109.07833101},"geometry":{"type":"MultiPolygon","coordinates":[[[[-122.048197,44.170387],[-122.048343,44.17041],[-122.048441,44.170437],[-122.049396,44.170846],[-122.050467,44.171262],[-122.051105,44.171535],[-122.052055,44.172004],[-122.052323,44.172163],[-122.052516,44.172265],[-122.053054,44.172719],[-122.053989,44.173884],[-122.054531,44.174488],[-122.05468,44.174668],[-122.054814,44.1748],[-122.054982,44.174917],[-122.056522,44.175406],[-122.057237,44.17557],[-122.057427,44.175638],[-122.057551,44.175701],[-122.057699,44.175797],[-122.057882,44.17593],[-122.058003,44.176013],[-122.058105,44.176146],[-122.059417,44.178033],[-122.059421,44.177658],[-122.059425,44.177225],[-122.058551,44.175978],[-122.058406,44.175789],[-122.058235,44.175672],[-122.058047,44.175535],[-122.057866,44.175417],[-122.057684,44.175326],[-122.057426,44.175234],[-122.056701,44.175067],[-122.055267,44.174612],[-122.055195,44.174562],[-122.0551,44.174468],[-122.054958,44.174297],[-122.054418,44.173695],[-122.053466,44.172509],[-122.052861,44.171998],[-122.052632,44.171877],[-122.052358,44.171714],[-122.051376,44.17123],[-122.050715,44.170947],[-122.049645,44.170531],[-122.04866,44.170109],[-122.048487,44.170062],[-122.048287,44.170031],[-122.048137,44.170015],[-122.047963,44.170025],[-122.047775,44.170049],[-122.047553,44.170101],[-122.046756,44.170461],[-122.046671,44.170482],[-122.046527,44.170496],[-122.046413,44.170497],[-122.045573,44.170456],[-122.042702,44.170153],[-122.042472,44.170084],[-122.041956,44.16987],[-122.041262,44.16948],[-122.039592,44.168722],[-122.038454,44.168175],[-122.037764,44.167873],[-122.037482,44.167716],[-122.037003,44.167388],[-122.03558,44.166427],[-122.033549,44.164994],[-122.032741,44.16438],[-122.031355,44.163357],[-122.030477,44.162762],[-122.029696,44.162318],[-122.029045,44.161987],[-122.024283,44.159745],[-122.023379,44.159335],[-122.022921,44.15919],[-122.022571,44.159109],[-122.022192,44.159015],[-122.021562,44.158887],[-122.020813,44.158765],[-122.020129,44.158729],[-122.020129,44.158926],[-122.020129,44.158927],[-122.020129,44.159098],[-122.020737,44.159124],[-122.021438,44.159239],[-122.022041,44.15936],[-122.022411,44.159453],[-122.022742,44.159529],[-122.023142,44.159656],[-122.024011,44.16005],[-122.028762,44.162286],[-122.029395,44.162608],[-122.030149,44.163036],[-122.031002,44.163615],[-122.032379,44.164631],[-122.03319,44.165248],[-122.035232,44.166688],[-122.036658,44.167651],[-122.037154,44.167991],[-122.037479,44.168172],[-122.038184,44.16848],[-122.039318,44.169026],[-122.040972,44.169777],[-122.041674,44.170172],[-122.04225,44.17041],[-122.042567,44.170504],[-122.045519,44.170816],[-122.046401,44.170859],[-122.046564,44.170857],[-122.046785,44.170836],[-122.046973,44.17079],[-122.047768,44.170431],[-122.047896,44.170402],[-122.048028,44.170385],[-122.048122,44.170379],[-122.048197,44.170387]]],[[[-122.084317,44.183959],[-122.084211,44.184028],[-122.08411,44.1841],[-122.082442,44.185367],[-122.082441,44.185368],[-122.082381,44.18541],[-122.082316,44.185449],[-122.082247,44.185485],[-122.082174,44.185517],[-122.082099,44.185544],[-122.082021,44.185567],[-122.08194,44.185586],[-122.081858,44.185601],[-122.081857,44.185601],[-122.079508,44.18595],[-122.079509,44.18605],[-122.079511,44.186217],[-122.079513,44.186316],[-122.079576,44.186309],[-122.079605,44.186305],[-122.081959,44.185956],[-122.082065,44.185937],[-122.08217,44.185914],[-122.082272,44.185885],[-122.082371,44.185851],[-122.082467,44.185813],[-122.082559,44.18577],[-122.082646,44.185723],[-122.082729,44.185671],[-122.082807,44.185616],[-122.084475,44.18435],[-122.084553,44.184294],[-122.084633,44.184241],[-122.084718,44.184191],[-122.084806,44.184144],[-122.084903,44.184098],[-122.085003,44.184056],[-122.085106,44.184017],[-122.085214,44.183983],[-122.085324,44.183952],[-122.085436,44.183926],[-122.085549,44.183904],[-122.085665,44.183886],[-122.085781,44.183873],[-122.085897,44.183864],[-122.086014,44.183856],[-122.086391,44.183859],[-122.086768,44.183867],[-122.091374,44.183968],[-122.09176,44.183977],[-122.092146,44.18398],[-122.092531,44.183978],[-122.092917,44.183972],[-122.093176,44.183958],[-122.093435,44.18394],[-122.093693,44.183916],[-122.09395,44.183887],[-122.094205,44.183852],[-122.094459,44.183812],[-122.094711,44.183767],[-122.094962,44.183716],[-122.095328,44.183629],[-122.095692,44.183538],[-122.096053,44.183441],[-122.096412,44.18334],[-122.10832,44.17997],[-122.108551,44.179906],[-122.108785,44.179846],[-122.10902,44.17979],[-122.109257,44.179739],[-122.109496,44.179691],[-122.109737,44.179648],[-122.1099,44.179627],[-122.110064,44.17961],[-122.110229,44.179599],[-122.110394,44.179592],[-122.110642,44.179594],[-122.11089,44.1796],[-122.111137,44.17961],[-122.111384,44.179625],[-122.11163,44.179644],[-122.111876,44.179667],[-122.120308,44.180517],[-122.120294,44.18015],[-122.111948,44.179309],[-122.11169,44.179284],[-122.111432,44.179264],[-122.111173,44.179249],[-122.110913,44.179238],[-122.110654,44.179232],[-122.110394,44.17923],[-122.110238,44.179235],[-122.110083,44.179245],[-122.109928,44.179258],[-122.109774,44.179275],[-122.109621,44.179296],[-122.109369,44.179341],[-122.109118,44.179391],[-122.108869,44.179445],[-122.108622,44.179503],[-122.108377,44.179566],[-122.108135,44.179633],[-122.096224,44.183004],[-122.095874,44.183103],[-122.095521,44.183197],[-122.095165,44.183287],[-122.094808,44.183371],[-122.094574,44.183418],[-122.094339,44.18346],[-122.094102,44.183498],[-122.093863,44.18353],[-122.093624,44.183557],[-122.093383,44.18358],[-122.093141,44.183597],[-122.092899,44.18361],[-122.092523,44.183616],[-122.092147,44.183618],[-122.09177,44.183615],[-122.091394,44.183607],[-122.086785,44.183505],[-122.0864,44.183497],[-122.086015,44.183494],[-122.085729,44.183498],[-122.085443,44.183506],[-122.085158,44.18352],[-122.084873,44.183539],[-122.084589,44.183564],[-122.084306,44.183594],[-122.084025,44.183628],[-122.083647,44.183683],[-122.083271,44.183742],[-122.082492,44.183866],[-122.082124,44.183924],[-122.081754,44.183977],[-122.081593,44.183998],[-122.08122,44.184013],[-122.080482,44.184065],[-122.080112,44.184102],[-122.079615,44.184103],[-122.079485,44.184101],[-122.079489,44.184463],[-122.079602,44.184466],[-122.079885,44.184467],[-122.080167,44.184463],[-122.080449,44.184454],[-122.080731,44.18444],[-122.081012,44.184421],[-122.081292,44.184397],[-122.081571,44.184367],[-122.08185,44.184333],[-122.082227,44.184278],[-122.082603,44.184219],[-122.083382,44.184095],[-122.083751,44.184038],[-122.08412,44.183984],[-122.084317,44.183959]]],[[[-122.040544,44.19357],[-122.040467,44.193694],[-122.040395,44.19382],[-122.040328,44.193947],[-122.040265,44.194076],[-122.040176,44.194291],[-122.040094,44.194508],[-122.040016,44.194725],[-122.039945,44.194944],[-122.039879,44.195164],[-122.038051,44.201264],[-122.037997,44.201447],[-122.037947,44.201631],[-122.037901,44.201815],[-122.037869,44.201976],[-122.037844,44.202138],[-122.037827,44.2023],[-122.037816,44.202462],[-122.037813,44.202625],[-122.037817,44.202787],[-122.037829,44.20295],[-122.037847,44.203112],[-122.037873,44.203274],[-122.037906,44.203435],[-122.037946,44.203595],[-122.037993,44.203754],[-122.038047,44.203912],[-122.038107,44.204068],[-122.038175,44.204223],[-122.03825,44.204377],[-122.038331,44.204529],[-122.03842,44.204678],[-122.038629,44.205019],[-122.038722,44.205174],[-122.038821,44.205328],[-122.038928,44.205479],[-122.03904,44.205628],[-122.039159,44.205774],[-122.039284,44.205918],[-122.039416,44.206058],[-122.039553,44.206196],[-122.039696,44.206331],[-122.039845,44.206462],[-122.039944,44.206536],[-122.040047,44.206606],[-122.040154,44.206674],[-122.040264,44.206738],[-122.040378,44.2068],[-122.040495,44.206857],[-122.04058,44.206908],[-122.040864,44.207076],[-122.041144,44.207247],[-122.04142,44.207421],[-122.041691,44.207599],[-122.043946,44.209103],[-122.044162,44.209248],[-122.044374,44.209396],[-122.044581,44.209548],[-122.044783,44.209704],[-122.04498,44.209862],[-122.04509,44.209964],[-122.045194,44.210068],[-122.045293,44.210175],[-122.045427,44.210343],[-122.045555,44.210513],[-122.045679,44.210685],[-122.046227,44.210677],[-122.046518,44.210673],[-122.046385,44.210475],[-122.046246,44.210279],[-122.046101,44.210085],[-122.04595,44.209893],[-122.045857,44.209792],[-122.04576,44.209693],[-122.04566,44.209596],[-122.045555,44.209501],[-122.045346,44.209332],[-122.045132,44.209168],[-122.044912,44.209007],[-122.044687,44.208849],[-122.044458,44.208696],[-122.042209,44.207196],[-122.041927,44.207012],[-122.041642,44.206831],[-122.041352,44.206654],[-122.041058,44.206481],[-122.040914,44.206399],[-122.040804,44.206344],[-122.040697,44.206285],[-122.040594,44.206223],[-122.040495,44.206157],[-122.040401,44.206088],[-122.04027,44.20597],[-122.040143,44.205849],[-122.040022,44.205726],[-122.039905,44.2056],[-122.039795,44.205472],[-122.03969,44.205341],[-122.03959,44.205208],[-122.039496,44.205073],[-122.039408,44.204936],[-122.039325,44.204797],[-122.039116,44.204456],[-122.039033,44.204315],[-122.038957,44.204172],[-122.038888,44.204027],[-122.038825,44.203881],[-122.038769,44.203733],[-122.03872,44.203583],[-122.038678,44.203433],[-122.038644,44.203282],[-122.038616,44.20313],[-122.038595,44.202977],[-122.038582,44.202824],[-122.038576,44.202671],[-122.038576,44.202518],[-122.038584,44.202365],[-122.0386,44.202212],[-122.038622,44.202059],[-122.038651,44.201908],[-122.038695,44.201732],[-122.038743,44.201557],[-122.038794,44.201382],[-122.040526,44.195606],[-122.040544,44.19357]]]]}},{"type":"Feature","properties":{"MAPTAXLOT":"1665000000100","MAPNUMBER":"16650000","TAXLOT":"100","ACCTNO":"0093565","MAPACRES":17840.00163237},"geometry":{"type":"MultiPolygon","coordinates":[[[[-122.079485,44.184101],[-122.079615,44.184103],[-122.080112,44.184102],[-122.080482,44.184065],[-122.08122,44.184013],[-122.081593,44.183998],[-122.081754,44.183977],[-122.082124,44.183924],[-122.082492,44.183866],[-122.083271,44.183742],[-122.083647,44.183683],[-122.084025,44.183628],[-122.084306,44.183594],[-122.084589,44.183564],[-122.084873,44.183539],[-122.085158,44.18352],[-122.085443,44.183506],[-122.085729,44.183498],[-122.086015,44.183494],[-122.0864,44.183497],[-122.086785,44.183505],[-122.091394,44.183607],[-122.09177,44.183615],[-122.092147,44.183618],[-122.092523,44.183616],[-122.092899,44.18361],[-122.093141,44.183597],[-122.093383,44.18358],[-122.093624,44.183557],[-122.093863,44.18353],[-122.094102,44.183498],[-122.094339,44.18346],[-122.094574,44.183418],[-122.094808,44.183371],[-122.095165,44.183287],[-122.095521,44.183197],[-122.095874,44.183103],[-122.096224,44.183004],[-122.108135,44.179633],[-122.108377,44.179566],[-122.108622,44.179503],[-122.108869,44.179445],[-122.109118,44.179391],[-122.109369,44.179341],[-122.109621,44.179296],[-122.109774,44.179275],[-122.109928,44.179258],[-122.110083,44.179245],[-122.110238,44.179235],[-122.110394,44.17923],[-122.110654,44.179232],[-122.110913,44.179238],[-122.111173,44.179249],[-122.111432,44.179264],[-122.11169,44.179284],[-122.111948,44.179309],[-122.120294,44.18015],[-122.120165,44.176692],[-122.120143,44.173176],[-122.115161,44.173148],[-122.115127,44.169596],[-122.12012,44.169655],[-122.120104,44.166002],[-122.120088,44.162349],[-122.125708,44.162281],[-122.130591,44.162221],[-122.135788,44.162155],[-122.135661,44.163962],[-122.139114,44.163914],[-122.13975,44.163905],[-122.140551,44.163894],[-122.140552,44.163894],[-122.140552,44.163894],[-122.140648,44.162093],[-122.140958,44.158948],[-122.140975,44.15878],[-122.141269,44.155803],[-122.141265,44.152488],[-122.14126,44.148866],[-122.141241,44.141621],[-122.14114,44.127128],[-122.141103,44.127128],[-122.136032,44.127123],[-122.131005,44.127118],[-122.120948,44.127097],[-122.12058,44.127096],[-122.100824,44.127054],[-122.100475,44.127053],[-122.080685,44.127013],[-122.080376,44.127011],[-122.060547,44.126915],[-122.060271,44.126914],[-122.0404,44.126855],[-122.040166,44.126857],[-122.030341,44.126923],[-122.020246,44.12691],[-122.019578,44.130536],[-122.01891,44.134161],[-122.019032,44.137794],[-122.019072,44.138994],[-122.019154,44.141428],[-122.019231,44.14486],[-122.019309,44.148291],[-122.019386,44.151723],[-122.019426,44.153476],[-122.019464,44.155153],[-122.019551,44.157338],[-122.020129,44.157431],[-122.020129,44.158729],[-122.020813,44.158765],[-122.021562,44.158887],[-122.022192,44.159015],[-122.022571,44.159109],[-122.022921,44.15919],[-122.023379,44.159335],[-122.024283,44.159745],[-122.029045,44.161987],[-122.029696,44.162318],[-122.030477,44.162762],[-122.031355,44.163357],[-122.032741,44.16438],[-122.033549,44.164994],[-122.03558,44.166427],[-122.037003,44.167388],[-122.037482,44.167716],[-122.037764,44.167873],[-122.038454,44.168175],[-122.039592,44.168722],[-122.041262,44.16948],[-122.041956,44.16987],[-122.042472,44.170084],[-122.042702,44.170153],[-122.045573,44.170456],[-122.046413,44.170497],[-122.046527,44.170496],[-122.046671,44.170482],[-122.046756,44.170461],[-122.047553,44.170101],[-122.047775,44.170049],[-122.047963,44.170025],[-122.048137,44.170015],[-122.048287,44.170031],[-122.048487,44.170062],[-122.04866,44.170109],[-122.049645,44.170531],[-122.050715,44.170947],[-122.051376,44.17123],[-122.052358,44.171714],[-122.052632,44.171877],[-122.052861,44.171998],[-122.053466,44.172509],[-122.054418,44.173695],[-122.054958,44.174297],[-122.0551,44.174468],[-122.055195,44.174562],[-122.055267,44.174612],[-122.056701,44.175067],[-122.057426,44.175234],[-122.057684,44.175326],[-122.057866,44.175417],[-122.058047,44.175535],[-122.058235,44.175672],[-122.058406,44.175789],[-122.058551,44.175978],[-122.059425,44.177225],[-122.059431,44.176559],[-122.059349,44.1693],[-122.069438,44.169322],[-122.079518,44.16928],[-122.079376,44.176437],[-122.079476,44.18341],[-122.079485,44.184101]],[[-122.119525,44.15482],[-122.119572,44.154834],[-122.119783,44.154899],[-122.119991,44.154968],[-122.120198,44.15504],[-122.120503,44.155149],[-122.12051,44.155263],[-122.115323,44.15525],[-122.110135,44.155235],[-122.106203,44.155225],[-122.104946,44.155222],[-122.099757,44.155208],[-122.094772,44.155143],[-122.094761,44.154513],[-122.09496,44.154492],[-122.095159,44.154466],[-122.095356,44.154434],[-122.095551,44.154397],[-122.095744,44.154356],[-122.095935,44.154309],[-122.096333,44.154206],[-122.09649,44.154168],[-122.096648,44.154133],[-122.096673,44.154127],[-122.096676,44.154127],[-122.096683,44.154125],[-122.096808,44.154101],[-122.096929,44.154122],[-122.097095,44.154096],[-122.097263,44.154073],[-122.097431,44.154055],[-122.0976,44.15404],[-122.097769,44.15403],[-122.097939,44.154023],[-122.0986,44.154005],[-122.09887,44.153995],[-122.09906,44.153958],[-122.099305,44.153942],[-122.09955,44.153922],[-122.099736,44.153905],[-122.101642,44.153741],[-122.103228,44.153603],[-122.103819,44.153578],[-122.104168,44.153491],[-122.10436,44.153473],[-122.104493,44.153463],[-122.104627,44.153457],[-122.104761,44.153454],[-122.104895,44.153455],[-122.105044,44.15346],[-122.105192,44.15347],[-122.10534,44.153484],[-122.105486,44.153503],[-122.105632,44.153526],[-122.105775,44.153553],[-122.105917,44.153585],[-122.105994,44.153604],[-122.106173,44.153644],[-122.106361,44.153682],[-122.106551,44.153715],[-122.106742,44.153743],[-122.106935,44.153767],[-122.107129,44.153785],[-122.107323,44.153799],[-122.107518,44.153807],[-122.107713,44.153811],[-122.107908,44.15381],[-122.108103,44.153804],[-122.108881,44.153758],[-122.109528,44.15367],[-122.110065,44.15355],[-122.111358,44.153263],[-122.111509,44.153236],[-122.111662,44.153213],[-122.111815,44.153195],[-122.111969,44.15318],[-122.112923,44.153235],[-122.113939,44.153355],[-122.114106,44.153402],[-122.114269,44.153455],[-122.11443,44.153513],[-122.114587,44.153575],[-122.114905,44.153709],[-122.115186,44.153857],[-122.115254,44.153883],[-122.115428,44.153948],[-122.115606,44.154008],[-122.115786,44.154063],[-122.115969,44.154114],[-122.116154,44.15416],[-122.116831,44.154346],[-122.117246,44.154331],[-122.117855,44.154434],[-122.118077,44.154473],[-122.118297,44.154515],[-122.11851,44.154617],[-122.118712,44.154605],[-122.118918,44.154654],[-122.119122,44.154707],[-122.119324,44.154762],[-122.119525,44.15482]],[[-122.095851,44.154141],[-122.095673,44.154185],[-122.095493,44.154224],[-122.095311,44.154258],[-122.095128,44.154288],[-122.094943,44.154313],[-122.094758,44.154333],[-122.094645,44.14798],[-122.099639,44.147996],[-122.104739,44.148036],[-122.10984,44.148076],[-122.114962,44.148115],[-122.115143,44.151683],[-122.120299,44.15171],[-122.120483,44.154805],[-122.120384,44.15477],[-122.120154,44.15469],[-122.119922,44.154614],[-122.119687,44.154542],[-122.11945,44.154473],[-122.119211,44.154409],[-122.118683,44.154397],[-122.118429,44.154342],[-122.118173,44.154292],[-122.117916,44.154247],[-122.116689,44.15404],[-122.1165,44.154005],[-122.116312,44.153966],[-122.116127,44.153921],[-122.115944,44.153872],[-122.115764,44.153818],[-122.115586,44.153759],[-122.115412,44.153695],[-122.115241,44.153627],[-122.11523,44.153623],[-122.114721,44.153409],[-122.114562,44.153346],[-122.114399,44.153287],[-122.114234,44.153233],[-122.114066,44.153184],[-122.113894,44.153139],[-122.113721,44.1531],[-122.113546,44.153066],[-122.113368,44.153037],[-122.11319,44.153012],[-122.11301,44.152994],[-122.112829,44.15298],[-122.112648,44.152972],[-122.112466,44.152969],[-122.112387,44.152969],[-122.112377,44.152969],[-122.112194,44.152974],[-122.112011,44.152984],[-122.111829,44.152999],[-122.111648,44.15302],[-122.111468,44.153046],[-122.11129,44.153077],[-122.110055,44.153305],[-122.109119,44.153478],[-122.108933,44.153511],[-122.108744,44.153539],[-122.108554,44.153563],[-122.108364,44.153581],[-122.108172,44.153594],[-122.10798,44.153602],[-122.107787,44.153605],[-122.107595,44.153604],[-122.107403,44.153597],[-122.107211,44.153585],[-122.10702,44.153568],[-122.10683,44.153546],[-122.106641,44.153519],[-122.106454,44.153487],[-122.106268,44.15345],[-122.106085,44.153408],[-122.106008,44.15339],[-122.105853,44.153355],[-122.105695,44.153325],[-122.105536,44.1533],[-122.105376,44.15328],[-122.105214,44.153264],[-122.105052,44.153254],[-122.104889,44.153249],[-122.104726,44.153249],[-122.104563,44.153253],[-122.104401,44.153263],[-122.104137,44.153314],[-122.099733,44.153712],[-122.099517,44.153731],[-122.099285,44.15375],[-122.099053,44.153766],[-122.098821,44.153777],[-122.098588,44.153786],[-122.097927,44.153804],[-122.097737,44.153812],[-122.097547,44.153824],[-122.097358,44.153841],[-122.097169,44.153862],[-122.096982,44.153888],[-122.096796,44.153919],[-122.096612,44.153954],[-122.09643,44.153994],[-122.096249,44.154038],[-122.095851,44.154141]]],[[[-122.107832,44.183819],[-122.110329,44.183926],[-122.115346,44.183834],[-122.120363,44.183742],[-122.12033,44.181504],[-122.120327,44.181298],[-122.12015,44.181234],[-122.119684,44.181121],[-122.119286,44.180992],[-122.118877,44.180944],[-122.118567,44.180866],[-122.118317,44.180803],[-122.118087,44.180729],[-122.117752,44.18071],[-122.117403,44.180696],[-122.116908,44.180742],[-122.116255,44.180918],[-122.116165,44.181126],[-122.116071,44.181373],[-122.116064,44.181605],[-122.115976,44.181837],[-122.115854,44.182032],[-122.115697,44.182169],[-122.115498,44.182235],[-122.115185,44.182317],[-122.114878,44.182375],[-122.114372,44.182483],[-122.113879,44.182578],[-122.113627,44.182683],[-122.113172,44.182733],[-122.112701,44.18288],[-122.112215,44.183018],[-122.111456,44.183188],[-122.111082,44.183256],[-122.110647,44.1834],[-122.110344,44.183465],[-122.110077,44.183512],[-122.10949,44.183589],[-122.10898,44.183656],[-122.108487,44.183688],[-122.107934,44.183704],[-122.107256,44.183726],[-122.107194,44.183727],[-122.107832,44.183819]]],[[[-122.079508,44.18595],[-122.081857,44.185601],[-122.081858,44.185601],[-122.08194,44.185586],[-122.082021,44.185567],[-122.082099,44.185544],[-122.082174,44.185517],[-122.082247,44.185485],[-122.082316,44.185449],[-122.082381,44.18541],[-122.082441,44.185368],[-122.082442,44.185367],[-122.08411,44.1841],[-122.084211,44.184028],[-122.084317,44.183959],[-122.08412,44.183984],[-122.083751,44.184038],[-122.083382,44.184095],[-122.082603,44.184219],[-122.082227,44.184278],[-122.08185,44.184333],[-122.081571,44.184367],[-122.081292,44.184397],[-122.081012,44.184421],[-122.080731,44.18444],[-122.080449,44.184454],[-122.080167,44.184463],[-122.079885,44.184467],[-122.079602,44.184466],[-122.079489,44.184463],[-122.079508,44.18595]]],[[[-122.090493,44.185418],[-122.091128,44.185552],[-122.09178,44.185829],[-122.092297,44.186143],[-122.092613,44.186379],[-122.092992,44.186633],[-122.09321,44.186933],[-122.09349,44.187196],[-122.09383,44.187379],[-122.09413,44.187482],[-122.094515,44.187495],[-122.094911,44.187489],[-122.095444,44.187491],[-122.095989,44.187484],[-122.096411,44.187496],[-122.096957,44.187515],[-122.097355,44.187563],[-122.0979,44.187574],[-122.098297,44.187568],[-122.098544,44.187529],[-122.09891,44.187337],[-122.09919,44.187137],[-122.099337,44.186982],[-122.099614,44.186658],[-122.099769,44.186442],[-122.099895,44.186194],[-122.099889,44.186019],[-122.099844,44.184485],[-122.099838,44.184274],[-122.099815,44.183472],[-122.101298,44.183468],[-122.103237,44.183464],[-122.103485,44.183463],[-122.103552,44.183451],[-122.103617,44.183436],[-122.103645,44.18343],[-122.103729,44.183401],[-122.103776,44.183383],[-122.103847,44.183349],[-122.103889,44.183326],[-122.103928,44.183307],[-122.104039,44.18326],[-122.104112,44.183239],[-122.104344,44.183191],[-122.104345,44.183461],[-122.105323,44.183459],[-122.105802,44.183477],[-122.105998,44.18345],[-122.106315,44.183449],[-122.106772,44.183482],[-122.106976,44.183519],[-122.107544,44.183568],[-122.108323,44.183553],[-122.108846,44.183533],[-122.109386,44.183475],[-122.109824,44.1834],[-122.110364,44.183311],[-122.110882,44.18316],[-122.111461,44.183007],[-122.112012,44.182844],[-122.112372,44.182747],[-122.112664,44.182637],[-122.11298,44.182454],[-122.113284,44.18228],[-122.113453,44.182071],[-122.113527,44.181907],[-122.113662,44.181707],[-122.113793,44.181599],[-122.114038,44.181461],[-122.114323,44.18135],[-122.114708,44.18121],[-122.115027,44.181103],[-122.115723,44.180823],[-122.115876,44.180787],[-122.116448,44.180624],[-122.116847,44.180541],[-122.117316,44.180505],[-122.117731,44.180494],[-122.118006,44.180528],[-122.118663,44.1806],[-122.119153,44.18065],[-122.119625,44.180759],[-122.120124,44.180858],[-122.12032,44.180925],[-122.120318,44.180775],[-122.120308,44.180517],[-122.111876,44.179667],[-122.11163,44.179644],[-122.111384,44.179625],[-122.111137,44.17961],[-122.11089,44.1796],[-122.110642,44.179594],[-122.110394,44.179592],[-122.110229,44.179599],[-122.110064,44.17961],[-122.1099,44.179627],[-122.109737,44.179648],[-122.109496,44.179691],[-122.109257,44.179739],[-122.10902,44.17979],[-122.108785,44.179846],[-122.108551,44.179906],[-122.10832,44.17997],[-122.096412,44.18334],[-122.096053,44.183441],[-122.095692,44.183538],[-122.095328,44.183629],[-122.094962,44.183716],[-122.094711,44.183767],[-122.094459,44.183812],[-122.094205,44.183852],[-122.09395,44.183887],[-122.093693,44.183916],[-122.093435,44.18394],[-122.093176,44.183958],[-122.092917,44.183972],[-122.092531,44.183978],[-122.092146,44.18398],[-122.09176,44.183977],[-122.091374,44.183968],[-122.086768,44.183867],[-122.086391,44.183859],[-122.086014,44.183856],[-122.085897,44.183864],[-122.085781,44.183873],[-122.085665,44.183886],[-122.085549,44.183904],[-122.085436,44.183926],[-122.085324,44.183952],[-122.085214,44.183983],[-122.085106,44.184017],[-122.085003,44.184056],[-122.084903,44.184098],[-122.084806,44.184144],[-122.084718,44.184191],[-122.084633,44.184241],[-122.084553,44.184294],[-122.084475,44.18435],[-122.082807,44.185616],[-122.082729,44.185671],[-122.082646,44.185723],[-122.082559,44.18577],[-122.082467,44.185813],[-122.082371,44.185851],[-122.082272,44.185885],[-122.08217,44.185914],[-122.082065,44.185937],[-122.081959,44.185956],[-122.079605,44.186305],[-122.079576,44.186309],[-122.079513,44.186316],[-122.079521,44.187019],[-122.084315,44.18698],[-122.08462,44.186853],[-122.085234,44.186657],[-122.085712,44.186437],[-122.08619,44.186235],[-122.086928,44.186029],[-122.087937,44.185765],[-122.088479,44.185507],[-122.088775,44.185458],[-122.08919,44.185373],[-122.089883,44.185337],[-122.090493,44.185418]]],[[[-122.038794,44.201382],[-122.038743,44.201557],[-122.038695,44.201732],[-122.038651,44.201908],[-122.038622,44.202059],[-122.0386,44.202212],[-122.038584,44.202365],[-122.038576,44.202518],[-122.038576,44.202671],[-122.038582,44.202824],[-122.038595,44.202977],[-122.038616,44.20313],[-122.038644,44.203282],[-122.038678,44.203433],[-122.03872,44.203583],[-122.038769,44.203733],[-122.038825,44.203881],[-122.038888,44.204027],[-122.038957,44.204172],[-122.039033,44.204315],[-122.039116,44.204456],[-122.039325,44.204797],[-122.039408,44.204936],[-122.039496,44.205073],[-122.03959,44.205208],[-122.03969,44.205341],[-122.039795,44.205472],[-122.039905,44.2056],[-122.040022,44.205726],[-122.040143,44.205849],[-122.04027,44.20597],[-122.040401,44.206088],[-122.040495,44.206157],[-122.040594,44.206223],[-122.040697,44.206285],[-122.040804,44.206344],[-122.040914,44.206399],[-122.041058,44.206481],[-122.041352,44.206654],[-122.041642,44.206831],[-122.041927,44.207012],[-122.042209,44.207196],[-122.044458,44.208696],[-122.044687,44.208849],[-122.044912,44.209007],[-122.045132,44.209168],[-122.045346,44.209332],[-122.045555,44.209501],[-122.04566,44.209596],[-122.04576,44.209693],[-122.045857,44.209792],[-122.04595,44.209893],[-122.046101,44.210085],[-122.046246,44.210279],[-122.046385,44.210475],[-122.046518,44.210673],[-122.046574,44.210673],[-122.046732,44.210671],[-122.046571,44.210387],[-122.046136,44.209798],[-122.046022,44.209436],[-122.045507,44.208935],[-122.044989,44.208386],[-122.044665,44.208122],[-122.044132,44.207681],[-122.043767,44.207418],[-122.043173,44.207004],[-122.042729,44.206761],[-122.042297,44.20648],[-122.042002,44.206359],[-122.041638,44.206134],[-122.041314,44.205947],[-122.040926,44.205818],[-122.040538,44.205709],[-122.040322,44.205568],[-122.039919,44.205382],[-122.0397,44.205127],[-122.039585,44.204775],[-122.039508,44.204327],[-122.03963,44.203905],[-122.039782,44.203578],[-122.039946,44.203292],[-122.040215,44.202868],[-122.040464,44.202722],[-122.04116,44.202378],[-122.041647,44.202181],[-122.042161,44.202031],[-122.042609,44.201834],[-122.043059,44.201751],[-122.043321,44.201585],[-122.043398,44.20146],[-122.043515,44.201334],[-122.043483,44.201115],[-122.043436,44.200791],[-122.043292,44.200343],[-122.043097,44.199954],[-122.042999,44.199708],[-122.042843,44.199299],[-122.042739,44.198909],[-122.042648,44.198527],[-122.042638,44.19826],[-122.042652,44.198156],[-122.042519,44.198156],[-122.040505,44.198283],[-122.040526,44.195606],[-122.038794,44.201382]]],[[[-122.020091,44.186398],[-122.020152,44.189879],[-122.020212,44.193361],[-122.020273,44.196842],[-122.020386,44.200313],[-122.020499,44.203784],[-122.020677,44.207298],[-122.020854,44.210812],[-122.029133,44.210791],[-122.039827,44.210765],[-122.045679,44.210685],[-122.045555,44.210513],[-122.045427,44.210343],[-122.045293,44.210175],[-122.045194,44.210068],[-122.04509,44.209964],[-122.04498,44.209862],[-122.044783,44.209704],[-122.044581,44.209548],[-122.044374,44.209396],[-122.044162,44.209248],[-122.043946,44.209103],[-122.041691,44.207599],[-122.04142,44.207421],[-122.041144,44.207247],[-122.040864,44.207076],[-122.04058,44.206908],[-122.040495,44.206857],[-122.040378,44.2068],[-122.040264,44.206738],[-122.040154,44.206674],[-122.040047,44.206606],[-122.039944,44.206536],[-122.039845,44.206462],[-122.039696,44.206331],[-122.039553,44.206196],[-122.039416,44.206058],[-122.039284,44.205918],[-122.039159,44.205774],[-122.03904,44.205628],[-122.038928,44.205479],[-122.038821,44.205328],[-122.038722,44.205174],[-122.038629,44.205019],[-122.03842,44.204678],[-122.038331,44.204529],[-122.03825,44.204377],[-122.038175,44.204223],[-122.038107,44.204068],[-122.038047,44.203912],[-122.037993,44.203754],[-122.037946,44.203595],[-122.037906,44.203435],[-122.037873,44.203274],[-122.037847,44.203112],[-122.037829,44.20295],[-122.037817,44.202787],[-122.037813,44.202625],[-122.037816,44.202462],[-122.037827,44.2023],[-122.037844,44.202138],[-122.037869,44.201976],[-122.037901,44.201815],[-122.037947,44.201631],[-122.037997,44.201447],[-122.038051,44.201264],[-122.039879,44.195164],[-122.039945,44.194944],[-122.040016,44.194725],[-122.040094,44.194508],[-122.040176,44.194291],[-122.040265,44.194076],[-122.040328,44.193947],[-122.040395,44.19382],[-122.040467,44.193694],[-122.040544,44.19357],[-122.040562,44.191115],[-122.040606,44.1872],[-122.040651,44.183286],[-122.045328,44.183371],[-122.050006,44.183457],[-122.054683,44.183542],[-122.059361,44.183628],[-122.059365,44.183216],[-122.059373,44.182396],[-122.059378,44.181975],[-122.059397,44.180093],[-122.059417,44.178033],[-122.058105,44.176146],[-122.058003,44.176013],[-122.057882,44.17593],[-122.057699,44.175797],[-122.057551,44.175701],[-122.057427,44.175638],[-122.057237,44.17557],[-122.056522,44.175406],[-122.054982,44.174917],[-122.054814,44.1748],[-122.05468,44.174668],[-122.054531,44.174488],[-122.053989,44.173884],[-122.053054,44.172719],[-122.052516,44.172265],[-122.052323,44.172163],[-122.052055,44.172004],[-122.051105,44.171535],[-122.050467,44.171262],[-122.049396,44.170846],[-122.048441,44.170437],[-122.048343,44.17041],[-122.048197,44.170387],[-122.048122,44.170379],[-122.048028,44.170385],[-122.047896,44.170402],[-122.047768,44.170431],[-122.046973,44.17079],[-122.046785,44.170836],[-122.046564,44.170857],[-122.046401,44.170859],[-122.045519,44.170816],[-122.042567,44.170504],[-122.04225,44.17041],[-122.041674,44.170172],[-122.040972,44.169777],[-122.039318,44.169026],[-122.038184,44.16848],[-122.037479,44.168172],[-122.037154,44.167991],[-122.036658,44.167651],[-122.035232,44.166688],[-122.03319,44.165248],[-122.032379,44.164631],[-122.031002,44.163615],[-122.030149,44.163036],[-122.029395,44.162608],[-122.028762,44.162286],[-122.024011,44.16005],[-122.023142,44.159656],[-122.022742,44.159529],[-122.022411,44.159453],[-122.022041,44.15936],[-122.021438,44.159239],[-122.020737,44.159124],[-122.020129,44.159098],[-122.020129,44.159227],[-122.020129,44.159629],[-122.019645,44.159684],[-122.019741,44.16208],[-122.019786,44.165552],[-122.019817,44.167958],[-122.019831,44.169023],[-122.019881,44.172497],[-122.019931,44.17597],[-122.019981,44.179444],[-122.020031,44.182917],[-122.020091,44.186398]]],[[[-122.063675,44.210252],[-122.064362,44.210251],[-122.068708,44.210247],[-122.069397,44.210246],[-122.074193,44.210241],[-122.079677,44.210235],[-122.099815,44.210321],[-122.119947,44.210313],[-122.129797,44.210288],[-122.130014,44.210288],[-122.135048,44.210281],[-122.139848,44.210275],[-122.139866,44.203031],[-122.139871,44.19941],[-122.139871,44.198218],[-122.139871,44.198215],[-122.139871,44.194594],[-122.13987,44.19097],[-122.13987,44.187346],[-122.13987,44.183722],[-122.135211,44.183722],[-122.134963,44.183723],[-122.133868,44.183722],[-122.130464,44.183724],[-122.130288,44.187352],[-122.130112,44.190972],[-122.125162,44.190973],[-122.120063,44.190974],[-122.119913,44.19459],[-122.119763,44.198205],[-122.11475,44.19809],[-122.109923,44.197978],[-122.109738,44.197974],[-122.104789,44.197859],[-122.099717,44.197742],[-122.099861,44.19413],[-122.100005,44.190518],[-122.099954,44.188364],[-122.099922,44.186995],[-122.09992,44.186902],[-122.099914,44.186729],[-122.09978,44.186862],[-122.099407,44.187154],[-122.09894,44.187533],[-122.098624,44.187742],[-122.098279,44.187818],[-122.097746,44.187825],[-122.097413,44.187883],[-122.096894,44.187953],[-122.096511,44.187984],[-122.096127,44.187981],[-122.095841,44.187949],[-122.095528,44.187864],[-122.095242,44.187806],[-122.094893,44.187748],[-122.094409,44.187728],[-122.093988,44.187716],[-122.09349,44.18766],[-122.093265,44.187574],[-122.092974,44.187355],[-122.092783,44.187152],[-122.092525,44.186799],[-122.092333,44.186552],[-122.091904,44.186264],[-122.091427,44.186065],[-122.091077,44.185936],[-122.090652,44.185817],[-122.089954,44.185666],[-122.089569,44.185644],[-122.089175,44.18573],[-122.088301,44.185875],[-122.087721,44.185972],[-122.086997,44.186214],[-122.086224,44.186518],[-122.085512,44.186768],[-122.084995,44.186974],[-122.089632,44.186936],[-122.08966,44.19055],[-122.089686,44.194129],[-122.079629,44.194208],[-122.079685,44.197774],[-122.074652,44.197777],[-122.06962,44.197781],[-122.064588,44.197785],[-122.059556,44.197789],[-122.054766,44.19791],[-122.049976,44.198031],[-122.04524,44.198117],[-122.043117,44.198153],[-122.042899,44.198154],[-122.042867,44.198253],[-122.042917,44.198567],[-122.04313,44.199014],[-122.043286,44.199394],[-122.043348,44.199795],[-122.043477,44.200204],[-122.043567,44.200643],[-122.043615,44.200977],[-122.043622,44.201273],[-122.0436,44.201502],[-122.043406,44.201715],[-122.043144,44.201881],[-122.042667,44.201983],[-122.041995,44.202211],[-122.041364,44.202516],[-122.040945,44.202789],[-122.040487,44.203081],[-122.040135,44.203354],[-122.03989,44.203727],[-122.039724,44.204016],[-122.039668,44.204427],[-122.039651,44.204848],[-122.039804,44.205114],[-122.040224,44.205462],[-122.041082,44.205766],[-122.04166,44.206036],[-122.042278,44.206325],[-122.0431,44.206802],[-122.043752,44.207192],[-122.044291,44.207539],[-122.044818,44.207906],[-122.045429,44.208492],[-122.045851,44.208926],[-122.046328,44.209485],[-122.046724,44.210017],[-122.046971,44.210406],[-122.047157,44.210655],[-122.047179,44.210654],[-122.047484,44.210642],[-122.049266,44.210576],[-122.049311,44.210575],[-122.058641,44.210257],[-122.063675,44.210252]]]]}},{"type":"Feature","properties":{"MAPTAXLOT":"1665150000900","MAPNUMBER":"16651500","TAXLOT":"900","ACCTNO":"0094167","MAPACRES":502.42208686},"geometry":{"type":"MultiPolygon","coordinates":[[[[-122.072222,44.182668],[-122.072304,44.182658],[-122.072388,44.182653],[-122.072471,44.182654],[-122.072554,44.182659],[-122.072637,44.18267],[-122.072718,44.182685],[-122.072796,44.182706],[-122.072872,44.182731],[-122.072945,44.182761],[-122.073013,44.182795],[-122.073078,44.182833],[-122.073567,44.183146],[-122.073622,44.183184],[-122.073673,44.183225],[-122.073719,44.183269],[-122.07376,44.183316],[-122.073795,44.183365],[-122.073824,44.183416],[-122.073848,44.183468],[-122.074463,44.183462],[-122.079476,44.18341],[-122.079376,44.176437],[-122.079518,44.16928],[-122.069438,44.169322],[-122.059349,44.1693],[-122.059431,44.176559],[-122.059425,44.177225],[-122.059666,44.177569],[-122.060785,44.179251],[-122.060837,44.179335],[-122.060884,44.179422],[-122.060925,44.17951],[-122.060959,44.179599],[-122.060988,44.17969],[-122.06101,44.179781],[-122.06101,44.179781],[-122.06107,44.180079],[-122.064421,44.180051],[-122.064436,44.176531],[-122.069441,44.176504],[-122.069446,44.180009],[-122.069449,44.182814],[-122.070012,44.182885],[-122.070116,44.182896],[-122.07022,44.182904],[-122.070325,44.182907],[-122.070429,44.182906],[-122.070534,44.182901],[-122.070638,44.182892],[-122.070741,44.182879],[-122.072222,44.182668]]],[[[-122.059397,44.180093],[-122.060563,44.180083],[-122.060563,44.180083],[-122.060512,44.179835],[-122.06049,44.179747],[-122.060461,44.179659],[-122.060425,44.179573],[-122.060381,44.179489],[-122.060331,44.179407],[-122.059417,44.178033],[-122.059397,44.180093]]],[[[-122.06945,44.183513],[-122.073304,44.183474],[-122.073272,44.183444],[-122.073235,44.183418],[-122.073234,44.183417],[-122.073233,44.183416],[-122.072742,44.183103],[-122.072698,44.183077],[-122.07265,44.183056],[-122.072599,44.183039],[-122.072545,44.183026],[-122.07249,44.183018],[-122.072433,44.183015],[-122.072377,44.183017],[-122.072321,44.183023],[-122.070842,44.183233],[-122.070712,44.18325],[-122.070581,44.183261],[-122.070449,44.183268],[-122.070317,44.183269],[-122.070185,44.183265],[-122.070054,44.183256],[-122.069923,44.183241],[-122.06945,44.183181],[-122.06945,44.183513]]]]}},{"type":"Feature","properties":{"MAPTAXLOT":"1665280000100","MAPNUMBER":"16652800","TAXLOT":"100","ACCTNO":"0094605","MAPACRES":76.56919054},"geometry":{"type":"MultiPolygon","coordinates":[[[[-122.094758,44.154333],[-122.094943,44.154313],[-122.095128,44.154288],[-122.095311,44.154258],[-122.095493,44.154224],[-122.095673,44.154185],[-122.095851,44.154141],[-122.096249,44.154038],[-122.09643,44.153994],[-122.096612,44.153954],[-122.096796,44.153919],[-122.096982,44.153888],[-122.097169,44.153862],[-122.097358,44.153841],[-122.097547,44.153824],[-122.097737,44.153812],[-122.097927,44.153804],[-122.098588,44.153786],[-122.098821,44.153777],[-122.099053,44.153766],[-122.099285,44.15375],[-122.099517,44.153731],[-122.099733,44.153712],[-122.099698,44.151602],[-122.099639,44.147996],[-122.094645,44.14798],[-122.094758,44.154333]]],[[[-122.096683,44.154125],[-122.096676,44.154127],[-122.096673,44.154127],[-122.096648,44.154133],[-122.09649,44.154168],[-122.096333,44.154206],[-122.095935,44.154309],[-122.095744,44.154356],[-122.095551,44.154397],[-122.095356,44.154434],[-122.095159,44.154466],[-122.09496,44.154492],[-122.094761,44.154513],[-122.094772,44.155143],[-122.099757,44.155208],[-122.099736,44.153905],[-122.09955,44.153922],[-122.099305,44.153942],[-122.09906,44.153958],[-122.09887,44.153995],[-122.0986,44.154005],[-122.097939,44.154023],[-122.097769,44.15403],[-122.0976,44.15404],[-122.097431,44.154055],[-122.097263,44.154073],[-122.097095,44.154096],[-122.096929,44.154122],[-122.096808,44.154101],[-122.096683,44.154125]]]]}},{"type":"Feature","properties":{"MAPTAXLOT":"1665290000100","MAPNUMBER":"16652900","TAXLOT":"100","ACCTNO":"0094613","MAPACRES":79.04331715},"geometry":{"type":"MultiPolygon","coordinates":[[[[-122.099733,44.153712],[-122.104137,44.153314],[-122.104401,44.153263],[-122.104563,44.153253],[-122.104726,44.153249],[-122.104889,44.153249],[-122.104843,44.151629],[-122.104739,44.148036],[-122.099639,44.147996],[-122.099698,44.151602],[-122.099733,44.153712]]],[[[-122.104895,44.153455],[-122.104761,44.153454],[-122.104627,44.153457],[-122.104493,44.153463],[-122.10436,44.153473],[-122.104168,44.153491],[-122.103819,44.153578],[-122.103228,44.153603],[-122.101642,44.153741],[-122.099736,44.153905],[-122.099757,44.155208],[-122.104946,44.155222],[-122.104895,44.153455]]]]}},{"type":"Feature","properties":{"MAPTAXLOT":"1765000000100","MAPNUMBER":"17650000","TAXLOT":"100","ACCTNO":"1857380","MAPACRES":22585.03071489},"geometry":{"type":"Polygon","coordinates":[[[-122.020061,44.045749],[-122.020061,44.04937],[-122.020061,44.05299],[-122.020061,44.05661],[-122.020061,44.06023],[-122.020061,44.06385],[-122.020061,44.067471],[-122.020061,44.071091],[-122.020061,44.074711],[-122.020061,44.078331],[-122.020061,44.081952],[-122.020061,44.085572],[-122.020061,44.089192],[-122.020061,44.092812],[-122.020061,44.096433],[-122.020061,44.100053],[-122.020061,44.103673],[-122.020061,44.107293],[-122.020061,44.110913],[-122.020061,44.114534],[-122.020246,44.12691],[-122.030341,44.126923],[-122.040166,44.126857],[-122.0404,44.126855],[-122.060271,44.126914],[-122.060547,44.126915],[-122.080376,44.127011],[-122.080685,44.127013],[-122.100475,44.127053],[-122.100824,44.127054],[-122.12058,44.127096],[-122.120948,44.127097],[-122.131005,44.127118],[-122.136032,44.127123],[-122.141103,44.127128],[-122.141103,44.127128],[-122.141103,44.127038],[-122.141083,44.114533],[-122.141083,44.110913],[-122.141083,44.107293],[-122.141083,44.103673],[-122.141083,44.100052],[-122.141083,44.096432],[-122.141083,44.092812],[-122.141083,44.089192],[-122.141083,44.085572],[-122.141083,44.081951],[-122.141083,44.078331],[-122.141083,44.074711],[-122.141083,44.071091],[-122.141083,44.06747],[-122.141083,44.06385],[-122.141083,44.06023],[-122.141083,44.05661],[-122.141083,44.05299],[-122.141083,44.049369],[-122.141083,44.045749],[-122.141083,44.042129],[-122.135494,44.042129],[-122.130475,44.042129],[-122.125457,44.042129],[-122.120438,44.042129],[-122.115419,44.042129],[-122.1104,44.042129],[-122.105381,44.042129],[-122.100362,44.042129],[-122.095343,44.042129],[-122.090325,44.042129],[-122.085306,44.042129],[-122.080287,44.042129],[-122.075268,44.042129],[-122.070249,44.042129],[-122.06523,44.042129],[-122.060211,44.042129],[-122.055193,44.042129],[-122.050174,44.042129],[-122.045155,44.042129],[-122.040136,44.042129],[-122.035117,44.042129],[-122.030099,44.042129],[-122.02508,44.042129],[-122.020061,44.042128],[-122.020061,44.045749]]]}}]}