{"type":"FeatureCollection","features":[{"type":"Feature","properties":{"MAPTAXLOT":"2355000000100","MAPNUMBER":"23550000","TAXLOT":"100","ACCTNO":"0976181","MAPACRES":22680.07168692},"geometry":{"type":"Polygon","coordinates":[[[-122.152084,43.612616],[-122.152092,43.612616],[-122.157068,43.612623],[-122.162044,43.612631],[-122.16702,43.612639],[-122.170982,43.612645],[-122.171996,43.612647],[-122.176972,43.612655],[-122.181947,43.612663],[-122.186923,43.612671],[-122.190912,43.612677],[-122.191899,43.612679],[-122.196875,43.612687],[-122.201851,43.612695],[-122.206827,43.612703],[-122.210837,43.61271],[-122.211803,43.612711],[-122.216779,43.612719],[-122.221755,43.612728],[-122.226731,43.612736],[-122.230768,43.612742],[-122.231707,43.612744],[-122.236683,43.612752],[-122.241659,43.61276],[-122.246635,43.612768],[-122.2507,43.612775],[-122.251611,43.612776],[-122.256586,43.612784],[-122.261562,43.612792],[-122.266538,43.6128],[-122.271118,43.612808],[-122.271118,43.612808],[-122.271118,43.6128],[-122.271118,43.599259],[-122.271118,43.595638],[-122.271118,43.592018],[-122.271118,43.588397],[-122.271118,43.584777],[-122.271118,43.581156],[-122.271118,43.577536],[-122.271118,43.573915],[-122.271118,43.570295],[-122.271118,43.566674],[-122.271118,43.563053],[-122.271118,43.559433],[-122.271118,43.555812],[-122.270883,43.549251],[-122.270883,43.54563],[-122.270883,43.54201],[-122.270914,43.538393],[-122.270945,43.534777],[-122.270976,43.531161],[-122.271007,43.527545],[-122.265984,43.527517],[-122.260992,43.527517],[-122.255999,43.527517],[-122.251006,43.527517],[-122.246018,43.527507],[-122.241029,43.527497],[-122.236041,43.527487],[-122.231052,43.527477],[-122.226068,43.527468],[-122.221083,43.527458],[-122.216098,43.527449],[-122.211114,43.52744],[-122.206131,43.527429],[-122.201149,43.527419],[-122.196166,43.527409],[-122.191184,43.527399],[-122.186202,43.527394],[-122.18122,43.527389],[-122.176238,43.527385],[-122.171256,43.52738],[-122.166276,43.527371],[-122.161295,43.527362],[-122.156315,43.527353],[-122.151334,43.527344],[-122.151043,43.529598],[-122.151043,43.532985],[-122.151043,43.536606],[-122.151043,43.540227],[-122.151043,43.541329],[-122.151043,43.543848],[-122.151043,43.547468],[-122.151043,43.551089],[-122.151043,43.55471],[-122.151043,43.555812],[-122.151043,43.55833],[-122.151043,43.561951],[-122.151043,43.565572],[-122.151043,43.569192],[-122.151043,43.570294],[-122.151043,43.572813],[-122.151043,43.576433],[-122.151042,43.580054],[-122.151042,43.583675],[-122.151042,43.584776],[-122.151042,43.587295],[-122.151042,43.590916],[-122.151042,43.594537],[-122.151042,43.598158],[-122.151042,43.59926],[-122.151042,43.601778],[-122.152084,43.612616]]]}},{"type":"Feature","properties":{"MAPTAXLOT":"2455000000100","MAPNUMBER":"24550000","TAXLOT":"100","ACCTNO":"0976595","MAPACRES":20905.07208391},"geometry":{"type":"Polygon","coordinates":[[[-122.191184,43.527399],[-122.196166,43.527409],[-122.201149,43.527419],[-122.206131,43.527429],[-122.211114,43.52744],[-122.216098,43.527449],[-122.221083,43.527458],[-122.226068,43.527468],[-122.231052,43.527477],[-122.236041,43.527487],[-122.241029,43.527497],[-122.246018,43.527507],[-122.251006,43.527517],[-122.255999,43.527517],[-122.260992,43.527517],[-122.265984,43.527517],[-122.271007,43.527545],[-122.271086,43.523899],[-122.271087,43.523874],[-122.271168,43.520252],[-122.271168,43.520219],[-122.271119,43.516837],[-122.271116,43.516644],[-122.27107,43.513422],[-122.271075,43.513003],[-122.265812,43.512891],[-122.260853,43.512896],[-122.260784,43.501961],[-122.255829,43.501963],[-122.255802,43.498303],[-122.260761,43.498289],[-122.265727,43.498282],[-122.2712,43.498135],[-122.271207,43.496914],[-122.271201,43.496715],[-122.271198,43.496623],[-122.2712,43.495374],[-122.271202,43.494546],[-122.271207,43.491735],[-122.27121,43.490956],[-122.271219,43.488114],[-122.271222,43.487366],[-122.27123,43.484491],[-122.271229,43.483777],[-122.271218,43.480876],[-122.271217,43.480163],[-122.271207,43.47726],[-122.271206,43.476549],[-122.271196,43.473644],[-122.271195,43.472936],[-122.271185,43.470028],[-122.271185,43.469322],[-122.271183,43.466408],[-122.271183,43.465706],[-122.271181,43.462788],[-122.271181,43.462091],[-122.27118,43.459168],[-122.27118,43.458475],[-122.271178,43.455548],[-122.271178,43.454859],[-122.271179,43.451927],[-122.271179,43.451234],[-122.271181,43.448306],[-122.271181,43.447609],[-122.271182,43.444686],[-122.271182,43.443984],[-122.271183,43.441624],[-122.271183,43.44107],[-122.271183,43.440364],[-122.265596,43.440364],[-122.260624,43.440363],[-122.250676,43.440358],[-122.230751,43.44033],[-122.21084,43.440308],[-122.190935,43.440285],[-122.190967,43.45477],[-122.181001,43.454765],[-122.180993,43.451142],[-122.180985,43.447519],[-122.180977,43.443896],[-122.175994,43.443891],[-122.175986,43.440267],[-122.171003,43.44026],[-122.151037,43.440224],[-122.151033,43.443366],[-122.151035,43.444176],[-122.151692,43.44457],[-122.15229,43.445897],[-122.153169,43.44672],[-122.153044,43.447704],[-122.152699,43.448093],[-122.152385,43.448299],[-122.151317,43.448528],[-122.151045,43.448556],[-122.151049,43.450662],[-122.151058,43.454308],[-122.151059,43.454752],[-122.151061,43.457953],[-122.151074,43.46158],[-122.151075,43.462015],[-122.151084,43.465206],[-122.151097,43.468832],[-122.151099,43.469267],[-122.151104,43.472457],[-122.151116,43.476094],[-122.151117,43.476519],[-122.151126,43.479731],[-122.151138,43.483367],[-122.151139,43.483769],[-122.151145,43.487004],[-122.151163,43.49063],[-122.151165,43.491023],[-122.151178,43.494256],[-122.151197,43.497882],[-122.151199,43.49828],[-122.151209,43.501509],[-122.151227,43.50514],[-122.151229,43.505542],[-122.151242,43.508772],[-122.15126,43.512403],[-122.151262,43.512807],[-122.151276,43.516033],[-122.151302,43.520074],[-122.151319,43.523305],[-122.15132,43.523707],[-122.151331,43.526451],[-122.151334,43.527344],[-122.156315,43.527353],[-122.161295,43.527362],[-122.166276,43.527371],[-122.171256,43.52738],[-122.176238,43.527385],[-122.18122,43.527389],[-122.186202,43.527394],[-122.191184,43.527399]],[[-122.210847,43.454791],[-122.210882,43.462034],[-122.200931,43.462029],[-122.200919,43.458405],[-122.195946,43.458401],[-122.195937,43.454776],[-122.210847,43.454791]],[[-122.235818,43.483818],[-122.240808,43.483813],[-122.245799,43.483809],[-122.25079,43.483804],[-122.250803,43.487432],[-122.250817,43.49106],[-122.25083,43.494688],[-122.250843,43.498316],[-122.245852,43.498324],[-122.240861,43.498332],[-122.23587,43.49834],[-122.230879,43.498347],[-122.230866,43.494716],[-122.230853,43.491085],[-122.23084,43.487453],[-122.230827,43.483822],[-122.22586,43.483817],[-122.220893,43.483813],[-122.215926,43.483808],[-122.210959,43.483803],[-122.21097,43.491069],[-122.196038,43.491046],[-122.196011,43.483785],[-122.200994,43.483791],[-122.205976,43.483797],[-122.210959,43.483803],[-122.210938,43.47654],[-122.215905,43.476546],[-122.215895,43.472916],[-122.220863,43.472923],[-122.22583,43.472929],[-122.225821,43.4693],[-122.230789,43.469307],[-122.230827,43.483822],[-122.235818,43.483818]]]}},{"type":"Feature","properties":{"MAPTAXLOT":"2455000000300","MAPNUMBER":"24550000","TAXLOT":"300","ACCTNO":"0976629","MAPACRES":603.34224533},"geometry":{"type":"Polygon","coordinates":[[[-122.245852,43.498324],[-122.250843,43.498316],[-122.25083,43.494688],[-122.250817,43.49106],[-122.250803,43.487432],[-122.245812,43.487438],[-122.245799,43.483809],[-122.240808,43.483813],[-122.235818,43.483818],[-122.230827,43.483822],[-122.23084,43.487453],[-122.230853,43.491085],[-122.230866,43.494716],[-122.230879,43.498347],[-122.23587,43.49834],[-122.240861,43.498332],[-122.245852,43.498324]]]}},{"type":"Feature","properties":{"MAPTAXLOT":"2455000000400","MAPNUMBER":"24550000","TAXLOT":"400","ACCTNO":"0976645","MAPACRES":240.94922017},"geometry":{"type":"Polygon","coordinates":[[[-122.196038,43.491046],[-122.21097,43.491069],[-122.210959,43.483803],[-122.205976,43.483797],[-122.200994,43.483791],[-122.196011,43.483785],[-122.196038,43.491046]]]}},{"type":"Feature","properties":{"MAPTAXLOT":"2455000000500","MAPNUMBER":"24550000","TAXLOT":"500","ACCTNO":"0976652","MAPACRES":480.52031532},"geometry":{"type":"Polygon","coordinates":[[[-122.22586,43.483817],[-122.230827,43.483822],[-122.230789,43.469307],[-122.225821,43.4693],[-122.22583,43.472929],[-122.220863,43.472923],[-122.215895,43.472916],[-122.215905,43.476546],[-122.210938,43.47654],[-122.210959,43.483803],[-122.215926,43.483808],[-122.220893,43.483813],[-122.22586,43.483817]]]}}]}