{"type":"FeatureCollection","features":[{"type":"Feature","properties":{"MAPTAXLOT":"2201000000077","MAPNUMBER":"22010000","TAXLOT":"77","ACCTNO":"000None","MAPACRES":44.29912706},"geometry":{"type":"MultiPolygon","coordinates":[[[[-122.792783,43.642504],[-122.792922,43.642704],[-122.793054,43.642906],[-122.79318,43.64311],[-122.793301,43.643316],[-122.793415,43.643524],[-122.793523,43.643733],[-122.793625,43.643944],[-122.79372,43.644157],[-122.793809,43.644371],[-122.793861,43.644509],[-122.793905,43.644648],[-122.793942,43.644788],[-122.793972,43.644929],[-122.794721,43.648944],[-122.794784,43.649492],[-122.794867,43.649831],[-122.794907,43.649925],[-122.794936,43.650017],[-122.794971,43.650107],[-122.795013,43.650195],[-122.795062,43.650282],[-122.795118,43.650366],[-122.79518,43.650448],[-122.795249,43.650527],[-122.795324,43.650604],[-122.795404,43.650677],[-122.79549,43.650746],[-122.795762,43.651035],[-122.796077,43.651196],[-122.796532,43.651545],[-122.796533,43.651545],[-122.797271,43.652117],[-122.797438,43.652243],[-122.797609,43.652367],[-122.797783,43.652488],[-122.798202,43.652758],[-122.798421,43.652888],[-122.798645,43.653015],[-122.798873,43.653137],[-122.799106,43.653255],[-122.799343,43.653369],[-122.799583,43.653478],[-122.803088,43.655019],[-122.803181,43.655063],[-122.80327,43.655111],[-122.803355,43.655164],[-122.803434,43.655221],[-122.803508,43.655281],[-122.803577,43.655345],[-122.80364,43.655411],[-122.803696,43.655481],[-122.803746,43.655553],[-122.80379,43.655628],[-122.803826,43.655704],[-122.803856,43.655782],[-122.803878,43.655861],[-122.803893,43.655941],[-122.803901,43.656022],[-122.803902,43.656103],[-122.803895,43.656184],[-122.803881,43.656264],[-122.803859,43.656343],[-122.8038,43.656532],[-122.803651,43.657002],[-122.803622,43.657105],[-122.803601,43.657209],[-122.803587,43.657314],[-122.80358,43.657419],[-122.80358,43.657505],[-122.803585,43.657591],[-122.803595,43.657677],[-122.80361,43.657762],[-122.803629,43.657843],[-122.803652,43.657922],[-122.80368,43.658002],[-122.803712,43.65808],[-122.804511,43.659909],[-122.804577,43.660055],[-122.804647,43.660201],[-122.804735,43.660372],[-122.804828,43.660541],[-122.804927,43.660709],[-122.805031,43.660875],[-122.80514,43.661039],[-122.805254,43.661201],[-122.805468,43.661497],[-122.805572,43.661645],[-122.805668,43.661796],[-122.805758,43.661949],[-122.805842,43.662105],[-122.805918,43.662262],[-122.806441,43.6634],[-122.806518,43.663574],[-122.806589,43.663749],[-122.806655,43.663925],[-122.806715,43.664103],[-122.806769,43.664281],[-122.807044,43.665242],[-122.807075,43.665337],[-122.807113,43.665432],[-122.807158,43.665524],[-122.80721,43.665615],[-122.807268,43.665703],[-122.807333,43.665789],[-122.807404,43.665873],[-122.807481,43.665953],[-122.807564,43.666031],[-122.807653,43.666105],[-122.807747,43.666176],[-122.807846,43.666242],[-122.80795,43.666305],[-122.808058,43.666364],[-122.808171,43.666418],[-122.80817,43.666219],[-122.808066,43.666162],[-122.807967,43.6661],[-122.807873,43.666034],[-122.807784,43.665964],[-122.807701,43.665891],[-122.807624,43.665815],[-122.807552,43.665735],[-122.807488,43.665653],[-122.807429,43.665568],[-122.807378,43.665481],[-122.807333,43.665391],[-122.807296,43.6653],[-122.807266,43.665208],[-122.806991,43.664248],[-122.806936,43.664066],[-122.806875,43.663884],[-122.806808,43.663704],[-122.806735,43.663525],[-122.806656,43.663347],[-122.806133,43.66221],[-122.806068,43.662074],[-122.805998,43.66194],[-122.805923,43.661808],[-122.805843,43.661677],[-122.805758,43.661547],[-122.805669,43.66142],[-122.805455,43.661124],[-122.805331,43.660948],[-122.805213,43.660769],[-122.805102,43.660587],[-122.804997,43.660404],[-122.804898,43.660219],[-122.804809,43.66004],[-122.804727,43.659859],[-122.803928,43.65803],[-122.803894,43.657947],[-122.803866,43.657863],[-122.803843,43.657778],[-122.803826,43.657693],[-122.803814,43.657607],[-122.803807,43.657521],[-122.803806,43.657434],[-122.803812,43.657335],[-122.803825,43.657235],[-122.803845,43.657137],[-122.803872,43.657039],[-122.804027,43.656548],[-122.80408,43.65638],[-122.804103,43.656294],[-122.804119,43.656208],[-122.804127,43.656121],[-122.804128,43.656034],[-122.804121,43.655947],[-122.804107,43.655861],[-122.804086,43.655775],[-122.804057,43.65569],[-122.804021,43.655607],[-122.803977,43.655526],[-122.803927,43.655447],[-122.80387,43.65537],[-122.803807,43.655296],[-122.803737,43.655225],[-122.803662,43.655158],[-122.803581,43.655094],[-122.803494,43.655033],[-122.803402,43.654977],[-122.803306,43.654925],[-122.803205,43.654878],[-122.799701,43.653337],[-122.799469,43.653232],[-122.79924,43.653122],[-122.799015,43.653009],[-122.798795,43.652891],[-122.798579,43.652769],[-122.798367,43.652643],[-122.798159,43.652514],[-122.797973,43.652391],[-122.79779,43.652265],[-122.797611,43.652136],[-122.797437,43.652004],[-122.796697,43.651432],[-122.795982,43.650883],[-122.795737,43.650576],[-122.7955,43.650477],[-122.79544,43.650413],[-122.795384,43.650347],[-122.795333,43.650279],[-122.795287,43.65021],[-122.795246,43.650138],[-122.79511,43.649807],[-122.794197,43.644907],[-122.794172,43.644789],[-122.794143,43.644672],[-122.794109,43.644556],[-122.79407,43.64444],[-122.794027,43.644325],[-122.793936,43.644108],[-122.793839,43.643892],[-122.793736,43.643677],[-122.793626,43.643464],[-122.79351,43.643253],[-122.793388,43.643044],[-122.79326,43.642837],[-122.793125,43.642632],[-122.792985,43.642429],[-122.791475,43.640304],[-122.791335,43.640048],[-122.790676,43.63912],[-122.790628,43.639059],[-122.790575,43.639001],[-122.790517,43.638945],[-122.790452,43.638893],[-122.790383,43.638844],[-122.79031,43.638798],[-122.790232,43.638757],[-122.789336,43.638316],[-122.789255,43.638279],[-122.78917,43.638246],[-122.789083,43.638218],[-122.788993,43.638194],[-122.788901,43.638175],[-122.788808,43.638161],[-122.788713,43.638151],[-122.788618,43.638147],[-122.788522,43.638147],[-122.788427,43.638152],[-122.788332,43.638162],[-122.788239,43.638177],[-122.787491,43.638317],[-122.786765,43.638467],[-122.786715,43.638474],[-122.786665,43.638476],[-122.786615,43.638474],[-122.786565,43.638468],[-122.786517,43.638457],[-122.786471,43.638442],[-122.786428,43.638422],[-122.786389,43.6384],[-122.786354,43.638374],[-122.786323,43.638345],[-122.786271,43.638284],[-122.786223,43.638221],[-122.786181,43.638157],[-122.786144,43.638091],[-122.786112,43.638023],[-122.786086,43.637954],[-122.786066,43.637884],[-122.786051,43.637813],[-122.786157,43.637532],[-122.786125,43.637345],[-122.786111,43.637259],[-122.785887,43.636829],[-122.785866,43.636721],[-122.785837,43.636613],[-122.7858,43.636508],[-122.785757,43.636403],[-122.785706,43.6363],[-122.785648,43.636199],[-122.785584,43.636101],[-122.785513,43.636004],[-122.785435,43.635911],[-122.785351,43.63582],[-122.785261,43.635733],[-122.785165,43.635649],[-122.785063,43.635568],[-122.784956,43.635492],[-122.784844,43.635419],[-122.784727,43.63535],[-122.784605,43.635286],[-122.784479,43.635226],[-122.78435,43.635171],[-122.784216,43.635121],[-122.784079,43.635075],[-122.78394,43.635035],[-122.783798,43.635],[-122.783653,43.634969],[-122.783507,43.634945],[-122.783359,43.634925],[-122.782981,43.634886],[-122.78218,43.634804],[-122.782051,43.634787],[-122.781924,43.634765],[-122.781798,43.634739],[-122.781675,43.634708],[-122.781553,43.634672],[-122.781435,43.634632],[-122.781319,43.634588],[-122.781206,43.63454],[-122.781097,43.634487],[-122.780992,43.634431],[-122.780891,43.634371],[-122.779071,43.633233],[-122.77887,43.633053],[-122.778793,43.632791],[-122.779297,43.632203],[-122.779587,43.631671],[-122.779653,43.631385],[-122.779665,43.631295],[-122.77967,43.631205],[-122.779669,43.631114],[-122.779661,43.631023],[-122.779646,43.630933],[-122.779624,43.630844],[-122.779596,43.630756],[-122.779561,43.630669],[-122.779519,43.630584],[-122.779471,43.6305],[-122.779417,43.630418],[-122.779357,43.630339],[-122.779308,43.630282],[-122.779093,43.630035],[-122.778782,43.629849],[-122.77814,43.629549],[-122.777342,43.628716],[-122.777021,43.628189],[-122.775855,43.627188],[-122.775777,43.627114],[-122.775705,43.627038],[-122.775639,43.626958],[-122.775579,43.626876],[-122.775526,43.626792],[-122.775479,43.626706],[-122.775439,43.626617],[-122.775406,43.626528],[-122.775379,43.626437],[-122.77536,43.626345],[-122.775348,43.626253],[-122.775343,43.62616],[-122.775355,43.625623],[-122.7753,43.624276],[-122.775294,43.624121],[-122.775281,43.623967],[-122.775261,43.623813],[-122.775234,43.623659],[-122.7752,43.623506],[-122.775158,43.623354],[-122.77511,43.623204],[-122.775055,43.623055],[-122.774992,43.622907],[-122.774923,43.622761],[-122.774848,43.622617],[-122.774601,43.622079],[-122.774323,43.621871],[-122.774236,43.621775],[-122.774146,43.62168],[-122.774053,43.621587],[-122.772318,43.619894],[-122.772227,43.6198],[-122.772142,43.619704],[-122.772063,43.619605],[-122.77199,43.619504],[-122.771923,43.6194],[-122.771863,43.619295],[-122.771809,43.619187],[-122.771762,43.619078],[-122.771722,43.618967],[-122.771689,43.618856],[-122.771663,43.618743],[-122.77147,43.617775],[-122.771457,43.617715],[-122.771444,43.617632],[-122.771437,43.61755],[-122.771437,43.617467],[-122.771442,43.617384],[-122.771454,43.617301],[-122.771473,43.61722],[-122.771497,43.617139],[-122.771528,43.617059],[-122.771739,43.616747],[-122.772104,43.616301],[-122.772151,43.616242],[-122.772202,43.616176],[-122.772246,43.616108],[-122.772283,43.616037],[-122.772314,43.615965],[-122.772339,43.615891],[-122.772357,43.615817],[-122.772342,43.615528],[-122.772035,43.613613],[-122.772082,43.613195],[-122.772027,43.612908],[-122.771539,43.612303],[-122.771122,43.611942],[-122.771062,43.611886],[-122.771008,43.611826],[-122.77096,43.611764],[-122.770919,43.611699],[-122.770885,43.611632],[-122.770829,43.611229],[-122.770895,43.610589],[-122.771015,43.610323],[-122.77105,43.610036],[-122.770984,43.609743],[-122.770744,43.609235],[-122.770744,43.609235],[-122.770446,43.609238],[-122.770637,43.609521],[-122.770678,43.610176],[-122.77051,43.611201],[-122.770501,43.611281],[-122.770499,43.61136],[-122.770505,43.61144],[-122.770518,43.611519],[-122.770539,43.611597],[-122.770567,43.611674],[-122.770601,43.61175],[-122.770643,43.611823],[-122.770692,43.611895],[-122.770747,43.611964],[-122.770809,43.61203],[-122.770877,43.612092],[-122.771322,43.612436],[-122.771631,43.612839],[-122.771662,43.612917],[-122.771686,43.612996],[-122.771702,43.613076],[-122.77177,43.613497],[-122.77181,43.613632],[-122.772029,43.614995],[-122.77208,43.61555],[-122.772087,43.615618],[-122.772088,43.615686],[-122.772082,43.615753],[-122.772069,43.615821],[-122.77205,43.615887],[-122.772024,43.615952],[-122.771991,43.616016],[-122.771953,43.616078],[-122.771908,43.616137],[-122.771791,43.616305],[-122.771654,43.616502],[-122.771528,43.616656],[-122.771465,43.616738],[-122.771409,43.616823],[-122.77136,43.616909],[-122.771317,43.616998],[-122.771282,43.617088],[-122.771253,43.617179],[-122.771231,43.617271],[-122.771217,43.617364],[-122.77121,43.617458],[-122.771211,43.617552],[-122.771218,43.617645],[-122.771233,43.617738],[-122.771245,43.617799],[-122.771439,43.618766],[-122.771464,43.618877],[-122.771496,43.618986],[-122.771533,43.619094],[-122.771577,43.619201],[-122.771627,43.619307],[-122.771683,43.619411],[-122.771744,43.619513],[-122.771812,43.619613],[-122.771885,43.619711],[-122.771963,43.619807],[-122.772047,43.619901],[-122.772137,43.619992],[-122.773872,43.621685],[-122.773961,43.621775],[-122.774048,43.621866],[-122.774131,43.621959],[-122.774765,43.622931],[-122.774826,43.623073],[-122.774881,43.623216],[-122.774928,43.623361],[-122.77497,43.623508],[-122.775004,43.623656],[-122.775032,43.623804],[-122.775053,43.623954],[-122.775066,43.624103],[-122.775073,43.624253],[-122.775054,43.624278],[-122.775079,43.626161],[-122.775084,43.626257],[-122.775095,43.626352],[-122.775114,43.626447],[-122.775139,43.626541],[-122.77517,43.626634],[-122.775209,43.626726],[-122.775253,43.626816],[-122.775305,43.626904],[-122.775362,43.62699],[-122.775425,43.627074],[-122.775495,43.627155],[-122.77557,43.627234],[-122.775651,43.627309],[-122.77656,43.628097],[-122.776759,43.628324],[-122.777161,43.629067],[-122.777658,43.629548],[-122.778328,43.629839],[-122.778871,43.630184],[-122.779075,43.63034],[-122.779117,43.630371],[-122.779179,43.630445],[-122.779235,43.630522],[-122.779284,43.6306],[-122.779327,43.630681],[-122.779364,43.630764],[-122.779393,43.630848],[-122.779416,43.630933],[-122.779432,43.631019],[-122.779442,43.631105],[-122.779444,43.631192],[-122.779439,43.631278],[-122.779428,43.631364],[-122.779298,43.631606],[-122.779127,43.631893],[-122.779001,43.632081],[-122.778563,43.632696],[-122.778534,43.632738],[-122.778512,43.632782],[-122.778498,43.632828],[-122.77849,43.632875],[-122.77849,43.632922],[-122.778498,43.632968],[-122.778512,43.633014],[-122.778534,43.633058],[-122.778563,43.633101],[-122.778598,43.63314],[-122.778639,43.633176],[-122.778686,43.633209],[-122.780743,43.634495],[-122.780853,43.634561],[-122.780968,43.634622],[-122.781086,43.634679],[-122.781209,43.634732],[-122.781334,43.63478],[-122.781463,43.634823],[-122.781595,43.634862],[-122.78173,43.634895],[-122.781866,43.634924],[-122.782005,43.634948],[-122.782145,43.634966],[-122.782978,43.635145],[-122.783121,43.635175],[-122.783309,43.635155],[-122.783847,43.635215],[-122.783977,43.635253],[-122.784105,43.635296],[-122.784229,43.635343],[-122.78435,43.635394],[-122.784467,43.635451],[-122.78458,43.635511],[-122.784688,43.635576],[-122.784792,43.635644],[-122.784891,43.635716],[-122.784985,43.635792],[-122.785073,43.635871],[-122.785156,43.635953],[-122.785233,43.636039],[-122.785303,43.636127],[-122.785368,43.636217],[-122.785426,43.63631],[-122.785477,43.636404],[-122.785522,43.636501],[-122.785477,43.636779],[-122.785644,43.637355],[-122.785707,43.637571],[-122.785751,43.637839],[-122.785756,43.638158],[-122.786119,43.638444],[-122.78616,43.638483],[-122.786205,43.638519],[-122.786255,43.638551],[-122.78631,43.638579],[-122.786368,43.638604],[-122.78643,43.638623],[-122.786494,43.638638],[-122.78656,43.638649],[-122.786626,43.638654],[-122.786694,43.638654],[-122.78676,43.638649],[-122.786826,43.638639],[-122.787192,43.638571],[-122.787567,43.638529],[-122.788314,43.63839],[-122.788393,43.638377],[-122.788474,43.638369],[-122.788555,43.638366],[-122.788636,43.638367],[-122.788716,43.638372],[-122.788796,43.638382],[-122.788875,43.638397],[-122.788951,43.638416],[-122.789026,43.638439],[-122.789098,43.638466],[-122.789166,43.638497],[-122.789247,43.638537],[-122.789636,43.638854],[-122.790063,43.638939],[-122.790133,43.638976],[-122.790199,43.639018],[-122.790259,43.639064],[-122.790314,43.639113],[-122.790364,43.639165],[-122.790407,43.639221],[-122.790776,43.639948],[-122.791067,43.640148],[-122.791413,43.640636],[-122.791447,43.640623],[-122.792783,43.642504]]],[[[-122.744292,43.676858],[-122.744396,43.676873],[-122.744584,43.676891],[-122.744776,43.67691],[-122.744957,43.676927],[-122.745159,43.676946],[-122.74536,43.676964],[-122.745549,43.676987],[-122.745744,43.677005],[-122.745943,43.677024],[-122.746125,43.677043],[-122.746311,43.677061],[-122.746505,43.677083],[-122.746698,43.677098],[-122.746892,43.677118],[-122.747087,43.677137],[-122.747279,43.677158],[-122.74747,43.677179],[-122.74766,43.677197],[-122.747849,43.677216],[-122.748043,43.677236],[-122.748241,43.677258],[-122.748454,43.677278],[-122.748617,43.677297],[-122.748785,43.677312],[-122.748976,43.677333],[-122.749197,43.677355],[-122.749391,43.677376],[-122.749605,43.677398],[-122.749774,43.677415],[-122.749976,43.677435],[-122.750186,43.677454],[-122.750386,43.677473],[-122.750577,43.677492],[-122.750766,43.677512],[-122.750959,43.677532],[-122.75116,43.677553],[-122.751357,43.677574],[-122.751521,43.677592],[-122.751714,43.677613],[-122.751849,43.677632],[-122.751976,43.677653],[-122.752108,43.677683],[-122.752293,43.677732],[-122.75246,43.677783],[-122.752602,43.677832],[-122.752758,43.677887],[-122.752906,43.677948],[-122.753121,43.678038],[-122.753285,43.678109],[-122.753443,43.67818],[-122.753608,43.678253],[-122.753767,43.678327],[-122.753909,43.678403],[-122.754038,43.678504],[-122.754133,43.678593],[-122.754218,43.678671],[-122.754296,43.678758],[-122.754374,43.678855],[-122.754415,43.67893],[-122.754453,43.679025],[-122.754471,43.679105],[-122.754469,43.679197],[-122.754452,43.679282],[-122.754421,43.679385],[-122.754369,43.679525],[-122.754328,43.679681],[-122.754311,43.679787],[-122.754313,43.679897],[-122.75454,43.679898],[-122.754539,43.67989],[-122.754538,43.679796],[-122.754552,43.679706],[-122.75459,43.679562],[-122.754641,43.679424],[-122.754674,43.679311],[-122.754695,43.67921],[-122.754697,43.679093],[-122.754674,43.678989],[-122.754629,43.678875],[-122.754578,43.678782],[-122.754489,43.678671],[-122.754402,43.678574],[-122.754311,43.678491],[-122.754211,43.678397],[-122.75406,43.678279],[-122.753894,43.67819],[-122.753727,43.678113],[-122.753561,43.678039],[-122.753402,43.677968],[-122.753235,43.677895],[-122.753017,43.677804],[-122.752863,43.677741],[-122.752701,43.677683],[-122.752552,43.677631],[-122.752375,43.677578],[-122.75218,43.677526],[-122.752034,43.677493],[-122.751895,43.67747],[-122.751752,43.67745],[-122.751555,43.677428],[-122.75139,43.67741],[-122.751192,43.677389],[-122.750991,43.677368],[-122.750798,43.677348],[-122.750608,43.677328],[-122.750416,43.677309],[-122.750215,43.67729],[-122.750005,43.67727],[-122.749805,43.677251],[-122.749636,43.677233],[-122.749423,43.677212],[-122.749229,43.677191],[-122.749007,43.677169],[-122.748815,43.677148],[-122.74865,43.677133],[-122.748487,43.677114],[-122.748272,43.677094],[-122.748076,43.677072],[-122.74788,43.677052],[-122.74769,43.677032],[-122.747501,43.677014],[-122.747312,43.676994],[-122.747118,43.676972],[-122.746922,43.676954],[-122.746726,43.676933],[-122.746533,43.676919],[-122.746343,43.676897],[-122.746155,43.676879],[-122.745973,43.67686],[-122.745773,43.676841],[-122.745582,43.676823],[-122.745392,43.6768],[-122.745187,43.676782],[-122.744985,43.676763],[-122.744805,43.676746],[-122.744614,43.676726],[-122.744427,43.676709],[-122.744291,43.676691],[-122.744292,43.676858]]]]}},{"type":"Feature","properties":{"MAPTAXLOT":"2201000000100","MAPNUMBER":"22010000","TAXLOT":"100","ACCTNO":"0966448","MAPACRES":822.81837492},"geometry":{"type":"Polygon","coordinates":[[[-122.783945,43.683501],[-122.784039,43.687083],[-122.784087,43.690675],[-122.784133,43.694266],[-122.78413,43.695916],[-122.789134,43.696073],[-122.794027,43.696032],[-122.798916,43.695974],[-122.803804,43.695915],[-122.808693,43.695856],[-122.808669,43.692325],[-122.808649,43.688801],[-122.80858,43.681824],[-122.793738,43.680664],[-122.783851,43.679919],[-122.783945,43.683501]]]}},{"type":"Feature","properties":{"MAPTAXLOT":"2201000000700","MAPNUMBER":"22010000","TAXLOT":"700","ACCTNO":"0966539","MAPACRES":29.64029819},"geometry":{"type":"Polygon","coordinates":[[[-122.870016,43.676572],[-122.873156,43.676558],[-122.873159,43.675787],[-122.873087,43.672758],[-122.869183,43.672793],[-122.870016,43.676572]]]}},{"type":"Feature","properties":{"MAPTAXLOT":"2201000000800","MAPNUMBER":"22010000","TAXLOT":"800","ACCTNO":"0966547","MAPACRES":773.79132543},"geometry":{"type":"Polygon","coordinates":[[[-122.793738,43.680664],[-122.80858,43.681824],[-122.808476,43.678301],[-122.808372,43.674777],[-122.808287,43.67125],[-122.808177,43.667721],[-122.803172,43.667307],[-122.798168,43.666892],[-122.793163,43.666477],[-122.78832,43.666056],[-122.783475,43.665633],[-122.783851,43.679919],[-122.793738,43.680664]]]}},{"type":"Feature","properties":{"MAPTAXLOT":"2201000001700","MAPNUMBER":"22010000","TAXLOT":"1700","ACCTNO":"0966646","MAPACRES":37.64073033},"geometry":{"type":"MultiPolygon","coordinates":[[[[-122.803843,43.657778],[-122.803866,43.657863],[-122.803894,43.657947],[-122.803928,43.65803],[-122.804727,43.659859],[-122.804809,43.66004],[-122.804898,43.660219],[-122.808144,43.660455],[-122.80946,43.660456],[-122.810663,43.660457],[-122.810709,43.658095],[-122.809487,43.658086],[-122.808261,43.658076],[-122.808233,43.658076],[-122.803867,43.65778],[-122.803843,43.657778]]],[[[-122.803262,43.6601],[-122.804647,43.660201],[-122.804577,43.660055],[-122.804511,43.659909],[-122.803712,43.65808],[-122.80368,43.658002],[-122.803652,43.657922],[-122.803629,43.657843],[-122.80361,43.657762],[-122.803292,43.65774],[-122.803262,43.6601]]]]}},{"type":"Feature","properties":{"MAPTAXLOT":"2201000001800","MAPNUMBER":"22010000","TAXLOT":"1800","ACCTNO":"0966653","MAPACRES":39.97662453},"geometry":{"type":"Polygon","coordinates":[[[-122.798195,43.663305],[-122.803217,43.6637],[-122.803262,43.6601],[-122.798223,43.659732],[-122.798195,43.663305]]]}},{"type":"Feature","properties":{"MAPTAXLOT":"2201000001900","MAPNUMBER":"22010000","TAXLOT":"1900","ACCTNO":"0966661","MAPACRES":592.88684366},"geometry":{"type":"MultiPolygon","coordinates":[[[[-122.803292,43.65774],[-122.803296,43.657399],[-122.803307,43.656498],[-122.8038,43.656532],[-122.803859,43.656343],[-122.803881,43.656264],[-122.803895,43.656184],[-122.803902,43.656103],[-122.803901,43.656022],[-122.803893,43.655941],[-122.803878,43.655861],[-122.803856,43.655782],[-122.803826,43.655704],[-122.80379,43.655628],[-122.803746,43.655553],[-122.803696,43.655481],[-122.80364,43.655411],[-122.803577,43.655345],[-122.803508,43.655281],[-122.803434,43.655221],[-122.803355,43.655164],[-122.80327,43.655111],[-122.803181,43.655063],[-122.803088,43.655019],[-122.799583,43.653478],[-122.799343,43.653369],[-122.799106,43.653255],[-122.798873,43.653137],[-122.798645,43.653015],[-122.798421,43.652888],[-122.798202,43.652758],[-122.798184,43.656163],[-122.793123,43.65582],[-122.793125,43.652167],[-122.788036,43.651872],[-122.782872,43.651572],[-122.782879,43.655095],[-122.78288,43.658613],[-122.788179,43.658999],[-122.788249,43.662522],[-122.78832,43.666056],[-122.793163,43.666477],[-122.798168,43.666892],[-122.803172,43.667307],[-122.808177,43.667721],[-122.808171,43.666418],[-122.808058,43.666364],[-122.80795,43.666305],[-122.807846,43.666242],[-122.807747,43.666176],[-122.807653,43.666105],[-122.807564,43.666031],[-122.807481,43.665953],[-122.807404,43.665873],[-122.807333,43.665789],[-122.807268,43.665703],[-122.80721,43.665615],[-122.807158,43.665524],[-122.807113,43.665432],[-122.807075,43.665337],[-122.807044,43.665242],[-122.806769,43.664281],[-122.806715,43.664103],[-122.806655,43.663925],[-122.806589,43.663749],[-122.806518,43.663574],[-122.806441,43.6634],[-122.805918,43.662262],[-122.805842,43.662105],[-122.805758,43.661949],[-122.805668,43.661796],[-122.805572,43.661645],[-122.805468,43.661497],[-122.805254,43.661201],[-122.80514,43.661039],[-122.805031,43.660875],[-122.804927,43.660709],[-122.804828,43.660541],[-122.804735,43.660372],[-122.804647,43.660201],[-122.803262,43.6601],[-122.803217,43.6637],[-122.798195,43.663305],[-122.798223,43.659732],[-122.803262,43.6601],[-122.803292,43.65774]]],[[[-122.798579,43.652769],[-122.798795,43.652891],[-122.799015,43.653009],[-122.79924,43.653122],[-122.799469,43.653232],[-122.799701,43.653337],[-122.803205,43.654878],[-122.803306,43.654925],[-122.803402,43.654977],[-122.803494,43.655033],[-122.803581,43.655094],[-122.803662,43.655158],[-122.803737,43.655225],[-122.803807,43.655296],[-122.80387,43.65537],[-122.803927,43.655447],[-122.803977,43.655526],[-122.804021,43.655607],[-122.804057,43.65569],[-122.804086,43.655775],[-122.804107,43.655861],[-122.804121,43.655947],[-122.804128,43.656034],[-122.804127,43.656121],[-122.804119,43.656208],[-122.804103,43.656294],[-122.80408,43.65638],[-122.804027,43.656548],[-122.808279,43.656839],[-122.808427,43.653222],[-122.803351,43.652872],[-122.798276,43.652522],[-122.798159,43.652514],[-122.798367,43.652643],[-122.798579,43.652769]]],[[[-122.805102,43.660587],[-122.805213,43.660769],[-122.805331,43.660948],[-122.805455,43.661124],[-122.805669,43.66142],[-122.805758,43.661547],[-122.805843,43.661677],[-122.805923,43.661808],[-122.805998,43.66194],[-122.806068,43.662074],[-122.806133,43.66221],[-122.806656,43.663347],[-122.806735,43.663525],[-122.806808,43.663704],[-122.806875,43.663884],[-122.806936,43.664066],[-122.806991,43.664248],[-122.807266,43.665208],[-122.807296,43.6653],[-122.807333,43.665391],[-122.807378,43.665481],[-122.807429,43.665568],[-122.807488,43.665653],[-122.807552,43.665735],[-122.807624,43.665815],[-122.807701,43.665891],[-122.807784,43.665964],[-122.807873,43.666034],[-122.807967,43.6661],[-122.808066,43.666162],[-122.80817,43.666219],[-122.80816,43.664088],[-122.808144,43.660455],[-122.804898,43.660219],[-122.804997,43.660404],[-122.805102,43.660587]]]]}},{"type":"Feature","properties":{"MAPTAXLOT":"2201000002000","MAPNUMBER":"22010000","TAXLOT":"2000","ACCTNO":"0966679","MAPACRES":38.90945377},"geometry":{"type":"Polygon","coordinates":[[[-122.827906,43.660469],[-122.827884,43.664195],[-122.832659,43.663649],[-122.832606,43.659961],[-122.827906,43.660469]]]}},{"type":"Feature","properties":{"MAPTAXLOT":"2201000002100","MAPNUMBER":"22010000","TAXLOT":"2100","ACCTNO":"0966687","MAPACRES":39.51972898},"geometry":{"type":"Polygon","coordinates":[[[-122.827884,43.664195],[-122.827861,43.667922],[-122.832713,43.667336],[-122.832659,43.663649],[-122.827884,43.664195]]]}},{"type":"Feature","properties":{"MAPTAXLOT":"2201000002200","MAPNUMBER":"22010000","TAXLOT":"2200","ACCTNO":"0966695","MAPACRES":79.40817469},"geometry":{"type":"Polygon","coordinates":[[[-122.832659,43.663649],[-122.832713,43.667336],[-122.837573,43.666753],[-122.842502,43.666154],[-122.842448,43.66253],[-122.83837,43.662996],[-122.837507,43.663095],[-122.832659,43.663649]]]}},{"type":"Feature","properties":{"MAPTAXLOT":"2201000002300","MAPNUMBER":"22010000","TAXLOT":"2300","ACCTNO":"0966703","MAPACRES":212.89437676},"geometry":{"type":"Polygon","coordinates":[[[-122.832606,43.659961],[-122.832659,43.663649],[-122.837507,43.663095],[-122.83837,43.662996],[-122.842383,43.658905],[-122.842264,43.655377],[-122.837377,43.655919],[-122.832555,43.656453],[-122.832503,43.652944],[-122.827695,43.653491],[-122.8278,43.65698],[-122.827906,43.660469],[-122.832606,43.659961]]]}},{"type":"Feature","properties":{"MAPTAXLOT":"2201000002301","MAPNUMBER":"22010000","TAXLOT":"2301","ACCTNO":"0966711","MAPACRES":16.39627414},"geometry":{"type":"Polygon","coordinates":[[[-122.842383,43.658905],[-122.83837,43.662996],[-122.842448,43.66253],[-122.842383,43.658905]]]}},{"type":"Feature","properties":{"MAPTAXLOT":"2201000002400","MAPNUMBER":"22010000","TAXLOT":"2400","ACCTNO":"0966729","MAPACRES":75.60281634},"geometry":{"type":"Polygon","coordinates":[[[-122.832503,43.652944],[-122.832555,43.656453],[-122.837377,43.655919],[-122.842264,43.655377],[-122.842144,43.651849],[-122.837312,43.652397],[-122.832503,43.652944]]]}},{"type":"Feature","properties":{"MAPTAXLOT":"2201000002600","MAPNUMBER":"22010000","TAXLOT":"2600","ACCTNO":"0966778","MAPACRES":4985.52371164},"geometry":{"type":"Polygon","coordinates":[[[-122.852395,43.682267],[-122.857122,43.6823],[-122.86185,43.682336],[-122.866578,43.682371],[-122.871305,43.682406],[-122.87302,43.682419],[-122.87309,43.679385],[-122.873121,43.678071],[-122.873156,43.676558],[-122.870016,43.676572],[-122.869183,43.672793],[-122.873087,43.672758],[-122.873082,43.67256],[-122.873081,43.672522],[-122.873006,43.669333],[-122.873012,43.668959],[-122.873052,43.666721],[-122.873071,43.665655],[-122.87308,43.66516],[-122.873128,43.661976],[-122.873129,43.661844],[-122.873149,43.65853],[-122.87315,43.65838],[-122.87317,43.655217],[-122.873173,43.654782],[-122.873192,43.651904],[-122.873196,43.651185],[-122.873215,43.647714],[-122.873216,43.647588],[-122.872888,43.643525],[-122.872882,43.643449],[-122.872548,43.639336],[-122.872546,43.63931],[-122.872556,43.635813],[-122.872557,43.635147],[-122.872566,43.632316],[-122.872579,43.6319],[-122.873031,43.629365],[-122.873033,43.629251],[-122.873519,43.626626],[-122.873522,43.626453],[-122.873631,43.623357],[-122.869585,43.623367],[-122.856434,43.623474],[-122.851525,43.623513],[-122.841678,43.623369],[-122.841652,43.62665],[-122.836799,43.626714],[-122.83191,43.626779],[-122.831837,43.623436],[-122.836757,43.623403],[-122.841678,43.623369],[-122.841579,43.616364],[-122.841741,43.608849],[-122.836815,43.608873],[-122.831875,43.60889],[-122.82695,43.608911],[-122.822025,43.608932],[-122.822033,43.612586],[-122.822041,43.616241],[-122.822075,43.618041],[-122.822109,43.619842],[-122.822127,43.620743],[-122.822144,43.621643],[-122.822178,43.623444],[-122.822326,43.626904],[-122.822473,43.630365],[-122.822259,43.633769],[-122.822045,43.637174],[-122.832132,43.6371],[-122.836929,43.637088],[-122.841725,43.637077],[-122.847193,43.636081],[-122.847131,43.640194],[-122.84183,43.64077],[-122.841938,43.644463],[-122.842144,43.651849],[-122.842264,43.655377],[-122.842383,43.658905],[-122.842448,43.66253],[-122.842502,43.666154],[-122.843644,43.669583],[-122.844786,43.673013],[-122.84593,43.676676],[-122.847074,43.680339],[-122.85181,43.680301],[-122.852395,43.682267]]]}},{"type":"Feature","properties":{"MAPTAXLOT":"2201000002700","MAPNUMBER":"22010000","TAXLOT":"2700","ACCTNO":"0966828","MAPACRES":46.5897186},"geometry":{"type":"Polygon","coordinates":[[[-122.841725,43.637077],[-122.84183,43.64077],[-122.847131,43.640194],[-122.847193,43.636081],[-122.841725,43.637077]]]}},{"type":"Feature","properties":{"MAPTAXLOT":"2201000002800","MAPNUMBER":"22010000","TAXLOT":"2800","ACCTNO":"0966836","MAPACRES":592.74222243},"geometry":{"type":"Polygon","coordinates":[[[-122.825798,43.64801],[-122.827695,43.653491],[-122.832503,43.652944],[-122.837312,43.652397],[-122.842144,43.651849],[-122.841938,43.644463],[-122.84183,43.64077],[-122.841725,43.637077],[-122.836929,43.637088],[-122.832132,43.6371],[-122.822045,43.637174],[-122.824634,43.64437],[-122.825798,43.64801]]]}},{"type":"Feature","properties":{"MAPTAXLOT":"2201000002900","MAPNUMBER":"22010000","TAXLOT":"2900","ACCTNO":"0966844","MAPACRES":459.90143341},"geometry":{"type":"Polygon","coordinates":[[[-122.822828,43.653474],[-122.827695,43.653491],[-122.825798,43.64801],[-122.824634,43.64437],[-122.822045,43.637174],[-122.817141,43.637131],[-122.812237,43.637088],[-122.807552,43.637131],[-122.802869,43.637174],[-122.804131,43.640602],[-122.805394,43.644031],[-122.814711,43.644196],[-122.819629,43.644282],[-122.820886,43.647894],[-122.815958,43.647778],[-122.817164,43.651242],[-122.817933,43.653454],[-122.822828,43.653474]]]}},{"type":"Feature","properties":{"MAPTAXLOT":"2201000003000","MAPNUMBER":"22010000","TAXLOT":"3000","ACCTNO":"0966851","MAPACRES":229.83101994},"geometry":{"type":"Polygon","coordinates":[[[-122.81318,43.653338],[-122.817933,43.653454],[-122.817164,43.651242],[-122.815958,43.647778],[-122.820886,43.647894],[-122.819629,43.644282],[-122.814711,43.644196],[-122.805394,43.644031],[-122.806557,43.647554],[-122.807719,43.651077],[-122.808427,43.653222],[-122.81318,43.653338]]]}},{"type":"Feature","properties":{"MAPTAXLOT":"2201000003100","MAPNUMBER":"22010000","TAXLOT":"3100","ACCTNO":"0966869","MAPACRES":50.64831462},"geometry":{"type":"Polygon","coordinates":[[[-122.803351,43.652872],[-122.808427,43.653222],[-122.807719,43.651077],[-122.806557,43.647554],[-122.803207,43.647612],[-122.803351,43.652872]]]}},{"type":"Feature","properties":{"MAPTAXLOT":"2201000003200","MAPNUMBER":"22010000","TAXLOT":"3200","ACCTNO":"0966877","MAPACRES":573.40754924},"geometry":{"type":"MultiPolygon","coordinates":[[[[-122.79511,43.649807],[-122.795246,43.650138],[-122.795287,43.65021],[-122.795333,43.650279],[-122.795384,43.650347],[-122.79544,43.650413],[-122.7955,43.650477],[-122.795737,43.650576],[-122.795982,43.650883],[-122.796697,43.651432],[-122.797437,43.652004],[-122.797611,43.652136],[-122.79779,43.652265],[-122.797973,43.652391],[-122.798159,43.652514],[-122.798276,43.652522],[-122.803351,43.652872],[-122.803207,43.647612],[-122.806557,43.647554],[-122.805394,43.644031],[-122.804131,43.640602],[-122.802869,43.637174],[-122.798009,43.637187],[-122.79315,43.637199],[-122.788039,43.637305],[-122.786125,43.637345],[-122.786157,43.637532],[-122.786051,43.637813],[-122.786066,43.637884],[-122.786086,43.637954],[-122.786112,43.638023],[-122.786144,43.638091],[-122.786181,43.638157],[-122.786223,43.638221],[-122.786271,43.638284],[-122.786323,43.638345],[-122.786354,43.638374],[-122.786389,43.6384],[-122.786428,43.638422],[-122.786471,43.638442],[-122.786517,43.638457],[-122.786565,43.638468],[-122.786615,43.638474],[-122.786665,43.638476],[-122.786715,43.638474],[-122.786765,43.638467],[-122.787491,43.638317],[-122.788239,43.638177],[-122.788332,43.638162],[-122.788427,43.638152],[-122.788522,43.638147],[-122.788618,43.638147],[-122.788713,43.638151],[-122.788808,43.638161],[-122.788901,43.638175],[-122.788993,43.638194],[-122.789083,43.638218],[-122.78917,43.638246],[-122.789255,43.638279],[-122.789336,43.638316],[-122.790232,43.638757],[-122.79031,43.638798],[-122.790383,43.638844],[-122.790452,43.638893],[-122.790517,43.638945],[-122.790575,43.639001],[-122.790628,43.639059],[-122.790676,43.63912],[-122.791335,43.640048],[-122.791475,43.640304],[-122.792985,43.642429],[-122.793125,43.642632],[-122.79326,43.642837],[-122.793388,43.643044],[-122.79351,43.643253],[-122.793626,43.643464],[-122.793736,43.643677],[-122.793839,43.643892],[-122.793936,43.644108],[-122.794027,43.644325],[-122.79407,43.64444],[-122.794109,43.644556],[-122.794143,43.644672],[-122.794172,43.644789],[-122.794197,43.644907],[-122.79511,43.649807]]],[[[-122.782937,43.640881],[-122.78804,43.640814],[-122.788039,43.644278],[-122.788039,43.647873],[-122.788036,43.651872],[-122.793125,43.652167],[-122.797783,43.652488],[-122.797609,43.652367],[-122.797438,43.652243],[-122.797271,43.652117],[-122.796533,43.651545],[-122.796532,43.651545],[-122.796077,43.651196],[-122.795762,43.651035],[-122.79549,43.650746],[-122.795404,43.650677],[-122.795324,43.650604],[-122.795249,43.650527],[-122.79518,43.650448],[-122.795118,43.650366],[-122.795062,43.650282],[-122.795013,43.650195],[-122.794971,43.650107],[-122.794936,43.650017],[-122.794907,43.649925],[-122.794867,43.649831],[-122.794784,43.649492],[-122.794721,43.648944],[-122.793972,43.644929],[-122.793942,43.644788],[-122.793905,43.644648],[-122.793861,43.644509],[-122.793809,43.644371],[-122.79372,43.644157],[-122.793625,43.643944],[-122.793523,43.643733],[-122.793415,43.643524],[-122.793301,43.643316],[-122.79318,43.64311],[-122.793054,43.642906],[-122.792922,43.642704],[-122.792783,43.642504],[-122.791447,43.640623],[-122.791413,43.640636],[-122.791067,43.640148],[-122.790776,43.639948],[-122.790407,43.639221],[-122.790364,43.639165],[-122.790314,43.639113],[-122.790259,43.639064],[-122.790199,43.639018],[-122.790133,43.638976],[-122.790063,43.638939],[-122.789636,43.638854],[-122.789247,43.638537],[-122.789166,43.638497],[-122.789098,43.638466],[-122.789026,43.638439],[-122.788951,43.638416],[-122.788875,43.638397],[-122.788796,43.638382],[-122.788716,43.638372],[-122.788636,43.638367],[-122.788555,43.638366],[-122.788474,43.638369],[-122.788393,43.638377],[-122.788314,43.63839],[-122.787567,43.638529],[-122.787192,43.638571],[-122.786826,43.638639],[-122.78676,43.638649],[-122.786694,43.638654],[-122.786626,43.638654],[-122.78656,43.638649],[-122.786494,43.638638],[-122.78643,43.638623],[-122.786368,43.638604],[-122.78631,43.638579],[-122.786255,43.638551],[-122.786205,43.638519],[-122.78616,43.638483],[-122.786119,43.638444],[-122.785756,43.638158],[-122.785751,43.637839],[-122.785707,43.637571],[-122.785644,43.637355],[-122.782959,43.637411],[-122.782937,43.640881]]]]}},{"type":"Feature","properties":{"MAPTAXLOT":"2201000004400","MAPNUMBER":"22010000","TAXLOT":"4400","ACCTNO":"0966992","MAPACRES":347.16849592},"geometry":{"type":"Polygon","coordinates":[[[-122.798009,43.637187],[-122.802869,43.637174],[-122.802887,43.63366],[-122.802906,43.630147],[-122.802772,43.626576],[-122.797816,43.626615],[-122.79775,43.62304],[-122.792868,43.623069],[-122.79294,43.626652],[-122.793011,43.630236],[-122.788013,43.630281],[-122.788026,43.633816],[-122.788039,43.637305],[-122.79315,43.637199],[-122.798009,43.637187]]]}},{"type":"Feature","properties":{"MAPTAXLOT":"2201000004500","MAPNUMBER":"22010000","TAXLOT":"4500","ACCTNO":"0967008","MAPACRES":38.9710509},"geometry":{"type":"Polygon","coordinates":[[[-122.797816,43.626615],[-122.802772,43.626576],[-122.802638,43.623005],[-122.79775,43.62304],[-122.797816,43.626615]]]}},{"type":"Feature","properties":{"MAPTAXLOT":"2201000004600","MAPNUMBER":"22010000","TAXLOT":"4600","ACCTNO":"0967016","MAPACRES":406.8276886},"geometry":{"type":"Polygon","coordinates":[[[-122.807552,43.637131],[-122.812237,43.637088],[-122.812285,43.633673],[-122.812333,43.630258],[-122.817403,43.630311],[-122.817358,43.626864],[-122.822326,43.626904],[-122.822178,43.623444],[-122.817313,43.623417],[-122.812448,43.623389],[-122.807543,43.623197],[-122.802638,43.623005],[-122.802772,43.626576],[-122.802906,43.630147],[-122.802887,43.63366],[-122.802869,43.637174],[-122.807552,43.637131]]]}},{"type":"Feature","properties":{"MAPTAXLOT":"2201000004700","MAPNUMBER":"22010000","TAXLOT":"4700","ACCTNO":"0967024","MAPACRES":38.39395127},"geometry":{"type":"Polygon","coordinates":[[[-122.817403,43.630311],[-122.822473,43.630365],[-122.822326,43.626904],[-122.817358,43.626864],[-122.817403,43.630311]]]}},{"type":"Feature","properties":{"MAPTAXLOT":"2201000004800","MAPNUMBER":"22010000","TAXLOT":"4800","ACCTNO":"0967032","MAPACRES":113.39551143},"geometry":{"type":"Polygon","coordinates":[[[-122.812237,43.637088],[-122.817141,43.637131],[-122.817272,43.633721],[-122.822259,43.633769],[-122.822473,43.630365],[-122.817403,43.630311],[-122.812333,43.630258],[-122.812285,43.633673],[-122.812237,43.637088]]]}},{"type":"Feature","properties":{"MAPTAXLOT":"2201000004900","MAPNUMBER":"22010000","TAXLOT":"4900","ACCTNO":"0967040","MAPACRES":37.34596937},"geometry":{"type":"Polygon","coordinates":[[[-122.817141,43.637131],[-122.822045,43.637174],[-122.822259,43.633769],[-122.817272,43.633721],[-122.817141,43.637131]]]}},{"type":"Feature","properties":{"MAPTAXLOT":"2201000005100","MAPNUMBER":"22010000","TAXLOT":"5100","ACCTNO":"0967099","MAPACRES":71.85311622},"geometry":{"type":"Polygon","coordinates":[[[-122.836799,43.626714],[-122.841652,43.62665],[-122.841678,43.623369],[-122.836757,43.623403],[-122.831837,43.623436],[-122.83191,43.626779],[-122.836799,43.626714]]]}},{"type":"Feature","properties":{"MAPTAXLOT":"2201000005400","MAPNUMBER":"22010000","TAXLOT":"5400","ACCTNO":"0967222","MAPACRES":747.16367467},"geometry":{"type":"Polygon","coordinates":[[[-122.869585,43.623367],[-122.873631,43.623357],[-122.873641,43.623049],[-122.873735,43.619644],[-122.873734,43.619584],[-122.871469,43.619611],[-122.871514,43.615837],[-122.856467,43.616103],[-122.856497,43.608715],[-122.8516,43.608831],[-122.846671,43.60884],[-122.841741,43.608849],[-122.841579,43.616364],[-122.841678,43.623369],[-122.851525,43.623513],[-122.856434,43.623474],[-122.869585,43.623367]]]}},{"type":"Feature","properties":{"MAPTAXLOT":"2201000005500","MAPNUMBER":"22010000","TAXLOT":"5500","ACCTNO":"0967230","MAPACRES":305.52700433},"geometry":{"type":"Polygon","coordinates":[[[-122.871469,43.619611],[-122.873734,43.619584],[-122.873746,43.616004],[-122.873748,43.615797],[-122.873724,43.612363],[-122.873734,43.612],[-122.873807,43.608775],[-122.873823,43.608204],[-122.871436,43.608274],[-122.866456,43.608421],[-122.861477,43.608568],[-122.856497,43.608715],[-122.856467,43.616103],[-122.871514,43.615837],[-122.871469,43.619611]]]}},{"type":"Feature","properties":{"MAPTAXLOT":"2201000005800","MAPNUMBER":"22010000","TAXLOT":"5800","ACCTNO":"0967313","MAPACRES":571.04884057},"geometry":{"type":"Polygon","coordinates":[[[-122.817313,43.623417],[-122.822178,43.623444],[-122.822144,43.621643],[-122.822127,43.620743],[-122.819705,43.620698],[-122.819664,43.617988],[-122.822075,43.618041],[-122.822041,43.616241],[-122.822033,43.612586],[-122.822025,43.608932],[-122.817154,43.608924],[-122.812283,43.608916],[-122.807376,43.608942],[-122.807417,43.61243],[-122.802498,43.612376],[-122.802428,43.61578],[-122.802533,43.619392],[-122.802638,43.623005],[-122.807543,43.623197],[-122.812448,43.623389],[-122.817313,43.623417]]]}},{"type":"Feature","properties":{"MAPTAXLOT":"2201000005801","MAPNUMBER":"22010000","TAXLOT":"5801","ACCTNO":"0967321","MAPACRES":14.4799543},"geometry":{"type":"Polygon","coordinates":[[[-122.819705,43.620698],[-122.822127,43.620743],[-122.822109,43.619842],[-122.822075,43.618041],[-122.819664,43.617988],[-122.819705,43.620698]]]}},{"type":"Feature","properties":{"MAPTAXLOT":"2201000005900","MAPNUMBER":"22010000","TAXLOT":"5900","ACCTNO":"0967339","MAPACRES":37.12965994},"geometry":{"type":"Polygon","coordinates":[[[-122.802498,43.612376],[-122.807417,43.61243],[-122.807376,43.608942],[-122.802569,43.608972],[-122.802498,43.612376]]]}},{"type":"Feature","properties":{"MAPTAXLOT":"2201000006000","MAPNUMBER":"22010000","TAXLOT":"6000","ACCTNO":"0967347","MAPACRES":71.79467052},"geometry":{"type":"Polygon","coordinates":[[[-122.797778,43.612423],[-122.797769,43.615878],[-122.802428,43.61578],[-122.802498,43.612376],[-122.802569,43.608972],[-122.797787,43.608956],[-122.797778,43.612423]]]}},{"type":"Feature","properties":{"MAPTAXLOT":"2201000006100","MAPNUMBER":"22010000","TAXLOT":"6100","ACCTNO":"0967354","MAPACRES":531.40790293},"geometry":{"type":"Polygon","coordinates":[[[-122.79775,43.62304],[-122.802638,43.623005],[-122.802533,43.619392],[-122.802428,43.61578],[-122.797769,43.615878],[-122.797778,43.612423],[-122.797787,43.608956],[-122.793006,43.608939],[-122.788187,43.608956],[-122.783369,43.608974],[-122.783287,43.612566],[-122.783218,43.616165],[-122.783163,43.619645],[-122.783104,43.623131],[-122.787986,43.6231],[-122.792868,43.623069],[-122.79775,43.62304]]]}},{"type":"Feature","properties":{"MAPTAXLOT":"2201080000077","MAPNUMBER":"22010800","TAXLOT":"77","ACCTNO":"000None","MAPACRES":6.27837597},"geometry":{"type":"Polygon","coordinates":[[[-122.837676,43.682236],[-122.838037,43.682237],[-122.838029,43.682231],[-122.83795,43.68218],[-122.837868,43.682132],[-122.837781,43.682089],[-122.83769,43.682049],[-122.837597,43.682014],[-122.8375,43.681983],[-122.837401,43.681957],[-122.8373,43.681935],[-122.837197,43.681918],[-122.837093,43.681906],[-122.835327,43.681741],[-122.835201,43.681727],[-122.835076,43.681707],[-122.834953,43.681682],[-122.834832,43.681653],[-122.834713,43.681619],[-122.834597,43.681579],[-122.834484,43.681536],[-122.834375,43.681488],[-122.83427,43.681435],[-122.834169,43.681378],[-122.834072,43.681317],[-122.83398,43.681253],[-122.833894,43.681185],[-122.833813,43.681113],[-122.833737,43.681039],[-122.833667,43.680961],[-122.833603,43.680881],[-122.833546,43.680798],[-122.833495,43.680713],[-122.83345,43.680626],[-122.833413,43.680537],[-122.833382,43.680447],[-122.833358,43.680356],[-122.833341,43.680264],[-122.833331,43.680172],[-122.833329,43.680079],[-122.833333,43.679986],[-122.833345,43.679894],[-122.833455,43.679227],[-122.833467,43.679138],[-122.833472,43.679048],[-122.833472,43.678959],[-122.833466,43.67887],[-122.833453,43.678781],[-122.833435,43.678692],[-122.83341,43.678604],[-122.83338,43.678518],[-122.833387,43.678179],[-122.833392,43.677914],[-122.833298,43.677632],[-122.832955,43.677285],[-122.832949,43.677279],[-122.83289,43.67702],[-122.832867,43.676937],[-122.832838,43.676855],[-122.832801,43.676775],[-122.832758,43.676697],[-122.832709,43.67662],[-122.832653,43.676546],[-122.832487,43.67634],[-122.832433,43.676277],[-122.832372,43.676217],[-122.832306,43.676161],[-122.832234,43.676108],[-122.832158,43.676059],[-122.832077,43.676013],[-122.831992,43.675972],[-122.831903,43.675935],[-122.831811,43.675903],[-122.831716,43.675876],[-122.831619,43.675853],[-122.83152,43.675836],[-122.829695,43.675562],[-122.829531,43.675535],[-122.829369,43.675503],[-122.829209,43.675466],[-122.829051,43.675425],[-122.828896,43.67538],[-122.828279,43.675189],[-122.828289,43.675371],[-122.828806,43.675531],[-122.82897,43.675579],[-122.829137,43.675623],[-122.829306,43.675661],[-122.829476,43.675694],[-122.829649,43.675723],[-122.831474,43.675997],[-122.831565,43.676013],[-122.831655,43.676035],[-122.831742,43.676061],[-122.831826,43.676092],[-122.831906,43.676128],[-122.831983,43.676167],[-122.832055,43.676211],[-122.832122,43.676259],[-122.832184,43.676311],[-122.832241,43.676365],[-122.832292,43.676423],[-122.832458,43.676629],[-122.832507,43.676694],[-122.83255,43.676762],[-122.832588,43.676831],[-122.83262,43.676902],[-122.832646,43.676974],[-122.832666,43.677047],[-122.832813,43.677691],[-122.832835,43.677775],[-122.83286,43.677858],[-122.83289,43.677941],[-122.832924,43.678023],[-122.833013,43.678224],[-122.833135,43.678498],[-122.83317,43.678585],[-122.833199,43.678672],[-122.83322,43.67876],[-122.833235,43.678849],[-122.833244,43.678939],[-122.833246,43.679029],[-122.833241,43.679118],[-122.83323,43.679208],[-122.833119,43.679874],[-122.833107,43.679968],[-122.833102,43.680061],[-122.833103,43.680155],[-122.833111,43.680248],[-122.833125,43.680341],[-122.833146,43.680433],[-122.833173,43.680525],[-122.833207,43.680615],[-122.833247,43.680704],[-122.833293,43.680791],[-122.833345,43.680877],[-122.833404,43.68096],[-122.833468,43.681041],[-122.833538,43.68112],[-122.83364,43.681244],[-122.833726,43.681318],[-122.833817,43.681388],[-122.833913,43.681455],[-122.834014,43.681518],[-122.834119,43.681577],[-122.834228,43.681632],[-122.834408,43.681694],[-122.834528,43.681739],[-122.834651,43.681779],[-122.834776,43.681814],[-122.834904,43.681844],[-122.835034,43.681869],[-122.835165,43.681889],[-122.835298,43.681904],[-122.837064,43.682069],[-122.837157,43.68208],[-122.837249,43.682096],[-122.837339,43.682115],[-122.837427,43.682139],[-122.837513,43.682168],[-122.837596,43.6822],[-122.837676,43.682236]]]}},{"type":"Feature","properties":{"MAPTAXLOT":"2201080000100","MAPNUMBER":"22010800","TAXLOT":"100","ACCTNO":"0967891","MAPACRES":335.35957645},"geometry":{"type":"MultiPolygon","coordinates":[[[[-122.837681,43.670376],[-122.83779,43.674017],[-122.832893,43.67472],[-122.832955,43.677285],[-122.833298,43.677632],[-122.833392,43.677914],[-122.833387,43.678179],[-122.83338,43.678518],[-122.83341,43.678604],[-122.833435,43.678692],[-122.833453,43.678781],[-122.833466,43.67887],[-122.833472,43.678959],[-122.833472,43.679048],[-122.833467,43.679138],[-122.833455,43.679227],[-122.833345,43.679894],[-122.833333,43.679986],[-122.833329,43.680079],[-122.833331,43.680172],[-122.833341,43.680264],[-122.833358,43.680356],[-122.833382,43.680447],[-122.833413,43.680537],[-122.83345,43.680626],[-122.833495,43.680713],[-122.833546,43.680798],[-122.833603,43.680881],[-122.833667,43.680961],[-122.833737,43.681039],[-122.833813,43.681113],[-122.833894,43.681185],[-122.83398,43.681253],[-122.834072,43.681317],[-122.834169,43.681378],[-122.83427,43.681435],[-122.834375,43.681488],[-122.834484,43.681536],[-122.834597,43.681579],[-122.834713,43.681619],[-122.834832,43.681653],[-122.834953,43.681682],[-122.835076,43.681707],[-122.835201,43.681727],[-122.835327,43.681741],[-122.837093,43.681906],[-122.837197,43.681918],[-122.8373,43.681935],[-122.837401,43.681957],[-122.8375,43.681983],[-122.837597,43.682014],[-122.83769,43.682049],[-122.837781,43.682089],[-122.837868,43.682132],[-122.83795,43.68218],[-122.838029,43.682231],[-122.838037,43.682237],[-122.842801,43.682235],[-122.847666,43.682234],[-122.847074,43.680339],[-122.84593,43.676676],[-122.844786,43.673013],[-122.843644,43.669583],[-122.837681,43.670376]]],[[[-122.832978,43.678228],[-122.82825,43.678794],[-122.828218,43.682193],[-122.833078,43.682215],[-122.837676,43.682236],[-122.837596,43.6822],[-122.837513,43.682168],[-122.837427,43.682139],[-122.837339,43.682115],[-122.837249,43.682096],[-122.837157,43.68208],[-122.837064,43.682069],[-122.835298,43.681904],[-122.835165,43.681889],[-122.835034,43.681869],[-122.834904,43.681844],[-122.834776,43.681814],[-122.834651,43.681779],[-122.834528,43.681739],[-122.834408,43.681694],[-122.834228,43.681632],[-122.834119,43.681577],[-122.834014,43.681518],[-122.833913,43.681455],[-122.833817,43.681388],[-122.833726,43.681318],[-122.83364,43.681244],[-122.833538,43.68112],[-122.833468,43.681041],[-122.833404,43.68096],[-122.833345,43.680877],[-122.833293,43.680791],[-122.833247,43.680704],[-122.833207,43.680615],[-122.833173,43.680525],[-122.833146,43.680433],[-122.833125,43.680341],[-122.833111,43.680248],[-122.833103,43.680155],[-122.833102,43.680061],[-122.833107,43.679968],[-122.833119,43.679874],[-122.83323,43.679208],[-122.833241,43.679118],[-122.833246,43.679029],[-122.833244,43.678939],[-122.833235,43.678849],[-122.83322,43.67876],[-122.833199,43.678672],[-122.83317,43.678585],[-122.833135,43.678498],[-122.833013,43.678224],[-122.832978,43.678228]]]]}},{"type":"Feature","properties":{"MAPTAXLOT":"2201080000200","MAPNUMBER":"22010800","TAXLOT":"200","ACCTNO":"0967909","MAPACRES":52.56270148},"geometry":{"type":"MultiPolygon","coordinates":[[[[-122.828279,43.675189],[-122.828896,43.67538],[-122.829051,43.675425],[-122.829209,43.675466],[-122.829369,43.675503],[-122.829531,43.675535],[-122.829695,43.675562],[-122.83152,43.675836],[-122.831619,43.675853],[-122.831716,43.675876],[-122.831811,43.675903],[-122.831903,43.675935],[-122.831992,43.675972],[-122.832077,43.676013],[-122.832158,43.676059],[-122.832234,43.676108],[-122.832306,43.676161],[-122.832372,43.676217],[-122.832433,43.676277],[-122.832487,43.67634],[-122.832653,43.676546],[-122.832709,43.67662],[-122.832758,43.676697],[-122.832801,43.676775],[-122.832838,43.676855],[-122.832867,43.676937],[-122.83289,43.67702],[-122.832949,43.677279],[-122.832955,43.677285],[-122.832893,43.67472],[-122.828075,43.671651],[-122.828279,43.675189]]],[[[-122.82829,43.67538],[-122.82825,43.678794],[-122.832978,43.678228],[-122.833013,43.678224],[-122.832924,43.678023],[-122.83289,43.677941],[-122.83286,43.677858],[-122.832835,43.677775],[-122.832813,43.677691],[-122.832666,43.677047],[-122.832646,43.676974],[-122.83262,43.676902],[-122.832588,43.676831],[-122.83255,43.676762],[-122.832507,43.676694],[-122.832458,43.676629],[-122.832292,43.676423],[-122.832241,43.676365],[-122.832184,43.676311],[-122.832122,43.676259],[-122.832055,43.676211],[-122.831983,43.676167],[-122.831906,43.676128],[-122.831826,43.676092],[-122.831742,43.676061],[-122.831655,43.676035],[-122.831565,43.676013],[-122.831474,43.675997],[-122.829649,43.675723],[-122.829476,43.675694],[-122.829306,43.675661],[-122.829137,43.675623],[-122.82897,43.675579],[-122.828806,43.675531],[-122.828289,43.675371],[-122.82829,43.67538]]]]}},{"type":"Feature","properties":{"MAPTAXLOT":"2201080000202","MAPNUMBER":"22010800","TAXLOT":"202","ACCTNO":"0967925","MAPACRES":39.5220427},"geometry":{"type":"Polygon","coordinates":[[[-122.827861,43.667922],[-122.828075,43.671651],[-122.832802,43.671023],[-122.832713,43.667336],[-122.827861,43.667922]]]}},{"type":"Feature","properties":{"MAPTAXLOT":"2201080000203","MAPNUMBER":"22010800","TAXLOT":"203","ACCTNO":"1081817","MAPACRES":19.40254558},"geometry":{"type":"Polygon","coordinates":[[[-122.828075,43.671651],[-122.832893,43.67472],[-122.832802,43.671023],[-122.828075,43.671651]]]}},{"type":"Feature","properties":{"MAPTAXLOT":"2201080000400","MAPNUMBER":"22010800","TAXLOT":"400","ACCTNO":"0967933","MAPACRES":122.86969296},"geometry":{"type":"Polygon","coordinates":[[[-122.832802,43.671023],[-122.832893,43.67472],[-122.83779,43.674017],[-122.837681,43.670376],[-122.843644,43.669583],[-122.842502,43.666154],[-122.837573,43.666753],[-122.832713,43.667336],[-122.832802,43.671023]]]}},{"type":"Feature","properties":{"MAPTAXLOT":"2201090000077","MAPNUMBER":"22010900","TAXLOT":"77","ACCTNO":"000None","MAPACRES":7.29781972},"geometry":{"type":"Polygon","coordinates":[[[-122.828012,43.675285],[-122.828289,43.675371],[-122.828279,43.675189],[-122.828101,43.675134],[-122.827974,43.675098],[-122.827846,43.675067],[-122.827715,43.67504],[-122.827035,43.674919],[-122.826846,43.674883],[-122.826658,43.674844],[-122.826472,43.6748],[-122.825191,43.674488],[-122.825065,43.674455],[-122.82494,43.674417],[-122.824818,43.674376],[-122.824698,43.67433],[-122.824582,43.674281],[-122.824468,43.674228],[-122.823638,43.673819],[-122.823476,43.673741],[-122.823312,43.673667],[-122.823145,43.673596],[-122.822976,43.673529],[-122.822805,43.673464],[-122.822631,43.673403],[-122.822456,43.673346],[-122.818664,43.672144],[-122.818557,43.672108],[-122.818452,43.672068],[-122.81835,43.672025],[-122.818251,43.671979],[-122.818142,43.671922],[-122.818037,43.671862],[-122.817936,43.671797],[-122.81784,43.671729],[-122.81775,43.671657],[-122.817664,43.671582],[-122.817584,43.671504],[-122.817509,43.671423],[-122.817441,43.671339],[-122.817378,43.671253],[-122.816872,43.670508],[-122.816789,43.670392],[-122.816699,43.670279],[-122.816604,43.670168],[-122.816502,43.67006],[-122.816394,43.669955],[-122.81628,43.669853],[-122.816161,43.669755],[-122.816037,43.669661],[-122.815907,43.66957],[-122.815772,43.669483],[-122.815633,43.6694],[-122.815489,43.669321],[-122.81534,43.669247],[-122.813195,43.668217],[-122.812061,43.667672],[-122.811653,43.667677],[-122.811789,43.667739],[-122.813199,43.668416],[-122.815215,43.669384],[-122.815356,43.669455],[-122.815492,43.669529],[-122.815625,43.669608],[-122.815753,43.669691],[-122.815876,43.669777],[-122.815994,43.669867],[-122.816107,43.66996],[-122.816215,43.670056],[-122.816317,43.670156],[-122.816414,43.670258],[-122.816505,43.670363],[-122.81659,43.670471],[-122.816669,43.670581],[-122.817175,43.671326],[-122.817237,43.671412],[-122.817305,43.671497],[-122.817379,43.671578],[-122.817457,43.671657],[-122.817541,43.671734],[-122.81763,43.671807],[-122.817724,43.671877],[-122.817822,43.671944],[-122.817924,43.672008],[-122.81803,43.672067],[-122.81814,43.672123],[-122.818254,43.672176],[-122.818358,43.672218],[-122.818464,43.672258],[-122.818573,43.672295],[-122.822365,43.673496],[-122.822565,43.673563],[-122.822763,43.673634],[-122.822958,43.673709],[-122.823149,43.673788],[-122.823331,43.67387],[-122.82351,43.673955],[-122.824341,43.674364],[-122.824463,43.674421],[-122.824588,43.674474],[-122.824717,43.674523],[-122.824848,43.674568],[-122.824982,43.674608],[-122.825119,43.674644],[-122.826399,43.674956],[-122.826592,43.675001],[-122.826785,43.675042],[-122.826981,43.675079],[-122.82766,43.6752],[-122.827779,43.675224],[-122.827897,43.675252],[-122.828012,43.675285]]]}},{"type":"Feature","properties":{"MAPTAXLOT":"2201090000100","MAPNUMBER":"22010900","TAXLOT":"100","ACCTNO":"0967941","MAPACRES":307.81082667},"geometry":{"type":"MultiPolygon","coordinates":[[[[-122.808372,43.674777],[-122.808476,43.678301],[-122.80858,43.681824],[-122.813488,43.681918],[-122.818396,43.682012],[-122.823321,43.6821],[-122.823249,43.67867],[-122.818344,43.678547],[-122.818295,43.675078],[-122.81826,43.672593],[-122.818254,43.672176],[-122.81814,43.672123],[-122.81803,43.672067],[-122.817924,43.672008],[-122.817822,43.671944],[-122.817724,43.671877],[-122.81763,43.671807],[-122.817541,43.671734],[-122.817457,43.671657],[-122.817379,43.671578],[-122.817305,43.671497],[-122.817237,43.671412],[-122.817175,43.671326],[-122.816669,43.670581],[-122.81659,43.670471],[-122.816505,43.670363],[-122.816414,43.670258],[-122.816317,43.670156],[-122.816215,43.670056],[-122.816107,43.66996],[-122.815994,43.669867],[-122.815876,43.669777],[-122.815753,43.669691],[-122.815625,43.669608],[-122.815492,43.669529],[-122.815356,43.669455],[-122.815215,43.669384],[-122.813199,43.668416],[-122.813261,43.671351],[-122.808287,43.67125],[-122.808372,43.674777]]],[[[-122.813195,43.668217],[-122.81534,43.669247],[-122.815489,43.669321],[-122.815633,43.6694],[-122.815772,43.669483],[-122.815907,43.66957],[-122.816037,43.669661],[-122.816161,43.669755],[-122.81628,43.669853],[-122.816394,43.669955],[-122.816502,43.67006],[-122.816604,43.670168],[-122.816699,43.670279],[-122.816789,43.670392],[-122.816872,43.670508],[-122.817378,43.671253],[-122.817441,43.671339],[-122.817509,43.671423],[-122.817584,43.671504],[-122.817664,43.671582],[-122.81775,43.671657],[-122.81784,43.671729],[-122.817936,43.671797],[-122.818037,43.671862],[-122.818142,43.671922],[-122.818251,43.671979],[-122.818244,43.671452],[-122.81819,43.667598],[-122.815687,43.667628],[-122.814435,43.667643],[-122.813183,43.667658],[-122.813195,43.668217]]]]}},{"type":"Feature","properties":{"MAPTAXLOT":"2201090000200","MAPNUMBER":"22010900","TAXLOT":"200","ACCTNO":"0967958","MAPACRES":37.40472479},"geometry":{"type":"Polygon","coordinates":[[[-122.823321,43.6821],[-122.828218,43.682193],[-122.82825,43.678794],[-122.823249,43.67867],[-122.823321,43.6821]]]}},{"type":"Feature","properties":{"MAPTAXLOT":"2201090000300","MAPNUMBER":"22010900","TAXLOT":"300","ACCTNO":"0967966","MAPACRES":38.37636719},"geometry":{"type":"Polygon","coordinates":[[[-122.823249,43.67867],[-122.82825,43.678794],[-122.82829,43.67538],[-122.823178,43.675226],[-122.823249,43.67867]]]}},{"type":"Feature","properties":{"MAPTAXLOT":"2201090000400","MAPNUMBER":"22010900","TAXLOT":"400","ACCTNO":"0967974","MAPACRES":37.42841347},"geometry":{"type":"Polygon","coordinates":[[[-122.818344,43.678547],[-122.823249,43.67867],[-122.823178,43.675226],[-122.818295,43.675078],[-122.818344,43.678547]]]}},{"type":"Feature","properties":{"MAPTAXLOT":"2201090000500","MAPNUMBER":"22010900","TAXLOT":"500","ACCTNO":"0967982","MAPACRES":20.85533621},"geometry":{"type":"Polygon","coordinates":[[[-122.818295,43.675078],[-122.823178,43.675226],[-122.823152,43.673955],[-122.822914,43.673851],[-122.822369,43.673628],[-122.822026,43.673489],[-122.821416,43.673362],[-122.820959,43.673291],[-122.820607,43.673225],[-122.820217,43.673118],[-122.819689,43.672974],[-122.819222,43.672828],[-122.818652,43.672685],[-122.81826,43.672593],[-122.818295,43.675078]]]}},{"type":"Feature","properties":{"MAPTAXLOT":"2201090000600","MAPNUMBER":"22010900","TAXLOT":"600","ACCTNO":"0967990","MAPACRES":39.2282427},"geometry":{"type":"MultiPolygon","coordinates":[[[[-122.823145,43.673596],[-122.823312,43.673667],[-122.823476,43.673741],[-122.823638,43.673819],[-122.824468,43.674228],[-122.824582,43.674281],[-122.824698,43.67433],[-122.824818,43.674376],[-122.82494,43.674417],[-122.825065,43.674455],[-122.825191,43.674488],[-122.826472,43.6748],[-122.826658,43.674844],[-122.826846,43.674883],[-122.827035,43.674919],[-122.827715,43.67504],[-122.827846,43.675067],[-122.827974,43.675098],[-122.828101,43.675134],[-122.828279,43.675189],[-122.828075,43.671651],[-122.823103,43.67155],[-122.823145,43.673596]]],[[[-122.823152,43.673955],[-122.823178,43.675226],[-122.82829,43.67538],[-122.828289,43.675371],[-122.828012,43.675285],[-122.827897,43.675252],[-122.827779,43.675224],[-122.82766,43.6752],[-122.826981,43.675079],[-122.826785,43.675042],[-122.826592,43.675001],[-122.826399,43.674956],[-122.825119,43.674644],[-122.824982,43.674608],[-122.824848,43.674568],[-122.824717,43.674523],[-122.824588,43.674474],[-122.824463,43.674421],[-122.824341,43.674364],[-122.82351,43.673955],[-122.823331,43.67387],[-122.823149,43.673788],[-122.823152,43.673955]]]]}},{"type":"Feature","properties":{"MAPTAXLOT":"2201090000800","MAPNUMBER":"22010900","TAXLOT":"800","ACCTNO":"0968014","MAPACRES":98.30589735},"geometry":{"type":"MultiPolygon","coordinates":[[[[-122.818251,43.671979],[-122.81835,43.672025],[-122.818452,43.672068],[-122.818557,43.672108],[-122.818664,43.672144],[-122.822456,43.673346],[-122.822631,43.673403],[-122.822805,43.673464],[-122.822976,43.673529],[-122.823145,43.673596],[-122.823103,43.67155],[-122.828075,43.671651],[-122.827861,43.667922],[-122.823026,43.66776],[-122.81819,43.667598],[-122.818244,43.671452],[-122.818251,43.671979]]],[[[-122.81826,43.672593],[-122.818652,43.672685],[-122.819222,43.672828],[-122.819689,43.672974],[-122.820217,43.673118],[-122.820607,43.673225],[-122.820959,43.673291],[-122.821416,43.673362],[-122.822026,43.673489],[-122.822369,43.673628],[-122.822914,43.673851],[-122.823152,43.673955],[-122.823149,43.673788],[-122.822958,43.673709],[-122.822763,43.673634],[-122.822565,43.673563],[-122.822365,43.673496],[-122.818573,43.672295],[-122.818464,43.672258],[-122.818358,43.672218],[-122.818254,43.672176],[-122.81826,43.672593]]]]}},{"type":"Feature","properties":{"MAPTAXLOT":"2201090000900","MAPNUMBER":"22010900","TAXLOT":"900","ACCTNO":"0968022","MAPACRES":39.30057809},"geometry":{"type":"MultiPolygon","coordinates":[[[[-122.808287,43.67125],[-122.813261,43.671351],[-122.813199,43.668416],[-122.811789,43.667739],[-122.811653,43.667677],[-122.808177,43.667721],[-122.808287,43.67125]]],[[[-122.813195,43.668217],[-122.813183,43.667658],[-122.812061,43.667672],[-122.813195,43.668217]]]]}},{"type":"Feature","properties":{"MAPTAXLOT":"2201160000077","MAPNUMBER":"22011600","TAXLOT":"77","ACCTNO":"000None","MAPACRES":1.50858512},"geometry":{"type":"Polygon","coordinates":[[[-122.811653,43.667677],[-122.812061,43.667672],[-122.811914,43.667602],[-122.811779,43.66754],[-122.811641,43.667483],[-122.811499,43.66743],[-122.810079,43.666924],[-122.808498,43.666362],[-122.808385,43.666319],[-122.808276,43.666271],[-122.80817,43.666219],[-122.808171,43.666418],[-122.808283,43.666466],[-122.808398,43.66651],[-122.811399,43.667577],[-122.811528,43.667626],[-122.811653,43.667677]]]}},{"type":"Feature","properties":{"MAPTAXLOT":"2201160000100","MAPNUMBER":"22011600","TAXLOT":"100","ACCTNO":"0968030","MAPACRES":43.82381222},"geometry":{"type":"MultiPolygon","coordinates":[[[[-122.809222,43.664082],[-122.810079,43.666924],[-122.811499,43.66743],[-122.811641,43.667483],[-122.811779,43.66754],[-122.811914,43.667602],[-122.812061,43.667672],[-122.813183,43.667658],[-122.814435,43.667643],[-122.814418,43.664123],[-122.813182,43.664116],[-122.813182,43.663294],[-122.809222,43.664082]]],[[[-122.808177,43.667721],[-122.811653,43.667677],[-122.811528,43.667626],[-122.811399,43.667577],[-122.808398,43.66651],[-122.808283,43.666466],[-122.808171,43.666418],[-122.808177,43.667721]]]]}},{"type":"Feature","properties":{"MAPTAXLOT":"2201160000200","MAPNUMBER":"22011600","TAXLOT":"200","ACCTNO":"0968048","MAPACRES":44.81336497},"geometry":{"type":"Polygon","coordinates":[[[-122.80817,43.666219],[-122.808276,43.666271],[-122.808385,43.666319],[-122.808498,43.666362],[-122.810079,43.666924],[-122.809222,43.664082],[-122.813182,43.663294],[-122.813182,43.66046],[-122.810663,43.660457],[-122.80946,43.660456],[-122.808144,43.660455],[-122.80816,43.664088],[-122.80817,43.666219]]]}},{"type":"Feature","properties":{"MAPTAXLOT":"2201160000201","MAPNUMBER":"22011600","TAXLOT":"201","ACCTNO":"1373784","MAPACRES":39.50953965},"geometry":{"type":"MultiPolygon","coordinates":[[[[-122.803872,43.657039],[-122.803845,43.657137],[-122.803825,43.657235],[-122.803812,43.657335],[-122.803806,43.657434],[-122.803807,43.657521],[-122.803814,43.657607],[-122.803826,43.657693],[-122.803843,43.657778],[-122.803867,43.65778],[-122.808233,43.658076],[-122.808261,43.658076],[-122.809487,43.658086],[-122.810709,43.658095],[-122.810663,43.660457],[-122.813182,43.66046],[-122.813181,43.656875],[-122.810733,43.656858],[-122.81073,43.656858],[-122.809505,43.656848],[-122.808279,43.656839],[-122.804027,43.656548],[-122.803872,43.657039]]],[[[-122.803296,43.657399],[-122.803292,43.65774],[-122.80361,43.657762],[-122.803595,43.657677],[-122.803585,43.657591],[-122.80358,43.657505],[-122.80358,43.657419],[-122.803587,43.657314],[-122.803601,43.657209],[-122.803622,43.657105],[-122.803651,43.657002],[-122.8038,43.656532],[-122.803307,43.656498],[-122.803296,43.657399]]]]}},{"type":"Feature","properties":{"MAPTAXLOT":"2201160000400","MAPNUMBER":"22011600","TAXLOT":"400","ACCTNO":"0968063","MAPACRES":77.4553316},"geometry":{"type":"Polygon","coordinates":[[[-122.823026,43.66776],[-122.822976,43.664169],[-122.822925,43.660466],[-122.818061,43.660463],[-122.818127,43.664143],[-122.81819,43.667598],[-122.823026,43.66776]]]}},{"type":"Feature","properties":{"MAPTAXLOT":"2201160000600","MAPNUMBER":"22011600","TAXLOT":"600","ACCTNO":"0968089","MAPACRES":414.22846151},"geometry":{"type":"Polygon","coordinates":[[[-122.823026,43.66776],[-122.827861,43.667922],[-122.827884,43.664195],[-122.827906,43.660469],[-122.8278,43.65698],[-122.827695,43.653491],[-122.822828,43.653474],[-122.817933,43.653454],[-122.81318,43.653338],[-122.808427,43.653222],[-122.808279,43.656839],[-122.809505,43.656848],[-122.81073,43.656858],[-122.810733,43.656858],[-122.813181,43.656875],[-122.813182,43.66046],[-122.813182,43.663294],[-122.813182,43.664116],[-122.814418,43.664123],[-122.814435,43.667643],[-122.815687,43.667628],[-122.81819,43.667598],[-122.818127,43.664143],[-122.818061,43.660463],[-122.822925,43.660466],[-122.822976,43.664169],[-122.823026,43.66776]]]}}]}