{"type":"FeatureCollection","features":[{"type":"Feature","properties":{"MAPTAXLOT":"2001000003600","MAPNUMBER":"20010000","TAXLOT":"3600","ACCTNO":"0877314","MAPACRES":648.88856836},"geometry":{"type":"Polygon","coordinates":[[[-122.78436,43.82319],[-122.804979,43.823614],[-122.804965,43.809071],[-122.784541,43.809104],[-122.78436,43.82319]]]}},{"type":"Feature","properties":{"MAPTAXLOT":"2001000003700","MAPNUMBER":"20010000","TAXLOT":"3700","ACCTNO":"0877322","MAPACRES":648.94177833},"geometry":{"type":"Polygon","coordinates":[[[-122.779237,43.823141],[-122.78436,43.82319],[-122.784541,43.809104],[-122.764067,43.808454],[-122.763886,43.815823],[-122.763862,43.822989],[-122.768987,43.82304],[-122.774112,43.82309],[-122.779237,43.823141]]]}},{"type":"Feature","properties":{"MAPTAXLOT":"2001000003800","MAPNUMBER":"20010000","TAXLOT":"3800","ACCTNO":"0877330","MAPACRES":480.32507623},"geometry":{"type":"Polygon","coordinates":[[[-122.753884,43.822883],[-122.763862,43.822989],[-122.763886,43.815823],[-122.764067,43.808454],[-122.754119,43.808376],[-122.744226,43.808252],[-122.744226,43.808252],[-122.744226,43.808252],[-122.744225,43.808309],[-122.744225,43.808309],[-122.744196,43.809758],[-122.74414,43.811888],[-122.744138,43.811956],[-122.744137,43.812007],[-122.744109,43.813349],[-122.744048,43.815618],[-122.744047,43.81566],[-122.744047,43.81566],[-122.753991,43.815745],[-122.753884,43.822883]]]}},{"type":"Feature","properties":{"MAPTAXLOT":"2001000003900","MAPNUMBER":"20010000","TAXLOT":"3900","ACCTNO":"0877348","MAPACRES":155.92772679},"geometry":{"type":"Polygon","coordinates":[[[-122.743945,43.822721],[-122.743945,43.822721],[-122.753884,43.822883],[-122.753991,43.815745],[-122.744047,43.81566],[-122.744047,43.81566],[-122.744047,43.81566],[-122.744042,43.815995],[-122.744028,43.816939],[-122.744004,43.818643],[-122.743996,43.819191],[-122.743977,43.820464],[-122.743957,43.821895],[-122.743945,43.822721]]]}},{"type":"Feature","properties":{"MAPTAXLOT":"2001000004000","MAPNUMBER":"20010000","TAXLOT":"4000","ACCTNO":"0877355","MAPACRES":628.49260309},"geometry":{"type":"Polygon","coordinates":[[[-122.744226,43.808252],[-122.744226,43.808252],[-122.754119,43.808376],[-122.764067,43.808454],[-122.764302,43.801339],[-122.764462,43.794265],[-122.759489,43.794159],[-122.754513,43.794053],[-122.749538,43.793946],[-122.744567,43.793838],[-122.744567,43.793838],[-122.744543,43.795439],[-122.744505,43.797454],[-122.744504,43.797513],[-122.744503,43.797545],[-122.744483,43.79902],[-122.744441,43.801126],[-122.74444,43.801188],[-122.744369,43.802601],[-122.744312,43.804722],[-122.744311,43.804778],[-122.744281,43.80618],[-122.744229,43.808157],[-122.744226,43.808252]]]}},{"type":"Feature","properties":{"MAPTAXLOT":"2001000004100","MAPNUMBER":"20010000","TAXLOT":"4100","ACCTNO":"0877363","MAPACRES":644.35089219},"geometry":{"type":"Polygon","coordinates":[[[-122.764067,43.808454],[-122.784541,43.809104],[-122.784551,43.801739],[-122.784497,43.794498],[-122.779492,43.79444],[-122.774484,43.794382],[-122.769474,43.794324],[-122.764462,43.794265],[-122.764302,43.801339],[-122.764067,43.808454]]]}},{"type":"Feature","properties":{"MAPTAXLOT":"2001000004200","MAPNUMBER":"20010000","TAXLOT":"4200","ACCTNO":"0877371","MAPACRES":652.65118673},"geometry":{"type":"Polygon","coordinates":[[[-122.784541,43.809104],[-122.804965,43.809071],[-122.80462,43.794518],[-122.799597,43.79451],[-122.794565,43.794501],[-122.789535,43.7945],[-122.784497,43.794498],[-122.784551,43.801739],[-122.784541,43.809104]]]}},{"type":"Feature","properties":{"MAPTAXLOT":"2001000005700","MAPNUMBER":"20010000","TAXLOT":"5700","ACCTNO":"0877512","MAPACRES":121.45123981},"geometry":{"type":"Polygon","coordinates":[[[-122.799597,43.79451],[-122.80462,43.794518],[-122.804585,43.79086],[-122.799584,43.790858],[-122.794583,43.790855],[-122.789552,43.790853],[-122.789535,43.7945],[-122.794565,43.794501],[-122.799597,43.79451]]]}},{"type":"Feature","properties":{"MAPTAXLOT":"2001000005701","MAPNUMBER":"20010000","TAXLOT":"5701","ACCTNO":"0877520","MAPACRES":241.57215572},"geometry":{"type":"Polygon","coordinates":[[[-122.794583,43.790855],[-122.799584,43.790858],[-122.804585,43.79086],[-122.804544,43.787202],[-122.804509,43.783544],[-122.804478,43.7799],[-122.804478,43.779888],[-122.804478,43.779885],[-122.804362,43.779884],[-122.799555,43.779835],[-122.799396,43.779833],[-122.794635,43.779784],[-122.794635,43.779813],[-122.794635,43.779859],[-122.79462,43.783552],[-122.794602,43.787193],[-122.794583,43.790855]]]}},{"type":"Feature","properties":{"MAPTAXLOT":"2001000005900","MAPNUMBER":"20010000","TAXLOT":"5900","ACCTNO":"0877538","MAPACRES":285.50748786},"geometry":{"type":"Polygon","coordinates":[[[-122.784497,43.794498],[-122.789535,43.7945],[-122.789552,43.790853],[-122.794583,43.790855],[-122.794602,43.787193],[-122.79462,43.783552],[-122.794635,43.779859],[-122.794635,43.779813],[-122.794635,43.779784],[-122.794433,43.779788],[-122.789625,43.779965],[-122.789474,43.779968],[-122.78459,43.779916],[-122.78459,43.77992],[-122.784589,43.779949],[-122.784513,43.783558],[-122.784435,43.787201],[-122.784467,43.790849],[-122.784497,43.794498]]]}},{"type":"Feature","properties":{"MAPTAXLOT":"2001000006000","MAPNUMBER":"20010000","TAXLOT":"6000","ACCTNO":"0877546","MAPACRES":319.51239155},"geometry":{"type":"Polygon","coordinates":[[[-122.779492,43.79444],[-122.784497,43.794498],[-122.784467,43.790849],[-122.784435,43.787201],[-122.779542,43.787172],[-122.774541,43.787141],[-122.769539,43.78711],[-122.76453,43.787079],[-122.764501,43.790669],[-122.764462,43.794265],[-122.769474,43.794324],[-122.774484,43.794382],[-122.779492,43.79444]]]}},{"type":"Feature","properties":{"MAPTAXLOT":"2001000006100","MAPNUMBER":"20010000","TAXLOT":"6100","ACCTNO":"0877553","MAPACRES":316.93421707},"geometry":{"type":"Polygon","coordinates":[[[-122.764614,43.779896],[-122.764614,43.779906],[-122.764575,43.783482],[-122.76453,43.787079],[-122.769539,43.78711],[-122.774541,43.787141],[-122.779542,43.787172],[-122.784435,43.787201],[-122.784513,43.783558],[-122.784589,43.779949],[-122.78459,43.77992],[-122.78459,43.779916],[-122.783812,43.779922],[-122.779694,43.779957],[-122.779594,43.779957],[-122.774804,43.779964],[-122.774601,43.779963],[-122.769939,43.77997],[-122.769939,43.77997],[-122.769938,43.77997],[-122.769914,43.77997],[-122.7699,43.77997],[-122.769607,43.779967],[-122.76904,43.779958],[-122.764945,43.779893],[-122.764614,43.779892],[-122.764614,43.779896]]]}},{"type":"Feature","properties":{"MAPTAXLOT":"2001000006300","MAPNUMBER":"20010000","TAXLOT":"6300","ACCTNO":"0877561","MAPACRES":547.27711789},"geometry":{"type":"Polygon","coordinates":[[[-122.749538,43.793946],[-122.754513,43.794053],[-122.759489,43.794159],[-122.764462,43.794265],[-122.764501,43.790669],[-122.76453,43.787079],[-122.764575,43.783482],[-122.764614,43.779906],[-122.764614,43.779896],[-122.764614,43.779892],[-122.759975,43.779862],[-122.759649,43.779861],[-122.755005,43.779831],[-122.754684,43.77983],[-122.752698,43.779819],[-122.750034,43.779804],[-122.749719,43.779803],[-122.744754,43.779767],[-122.744737,43.783315],[-122.744732,43.784747],[-122.744724,43.786855],[-122.744724,43.786859],[-122.744724,43.786859],[-122.749629,43.786914],[-122.749585,43.790429],[-122.749538,43.793946]]]}},{"type":"Feature","properties":{"MAPTAXLOT":"2001000006400","MAPNUMBER":"20010000","TAXLOT":"6400","ACCTNO":"0877579","MAPACRES":76.24901571},"geometry":{"type":"Polygon","coordinates":[[[-122.744567,43.793838],[-122.749538,43.793946],[-122.749585,43.790429],[-122.749629,43.786914],[-122.744724,43.786859],[-122.744724,43.786859],[-122.744724,43.786861],[-122.744719,43.78827],[-122.744719,43.788354],[-122.744719,43.788354],[-122.744663,43.790349],[-122.744621,43.791895],[-122.744567,43.793838]]]}},{"type":"Feature","properties":{"MAPTAXLOT":"2015000000100","MAPNUMBER":"20150000","TAXLOT":"100","ACCTNO":"0926335","MAPACRES":11492.43194972},"geometry":{"type":"Polygon","coordinates":[[[-122.722466,43.863312],[-122.722254,43.866899],[-122.727304,43.866875],[-122.737393,43.866863],[-122.745305,43.866512],[-122.745305,43.866512],[-122.745303,43.866453],[-122.745236,43.863902],[-122.745236,43.863901],[-122.745236,43.863901],[-122.745214,43.862794],[-122.745214,43.862794],[-122.745214,43.862794],[-122.74515,43.860172],[-122.74513,43.859076],[-122.745066,43.856442],[-122.745046,43.855356],[-122.744981,43.852713],[-122.744961,43.851637],[-122.744851,43.849134],[-122.744893,43.848026],[-122.744784,43.845557],[-122.744736,43.844397],[-122.744565,43.841959],[-122.744565,43.841958],[-122.744474,43.840744],[-122.744307,43.83838],[-122.744196,43.837092],[-122.744196,43.837091],[-122.744103,43.834786],[-122.744084,43.8335],[-122.743991,43.831199],[-122.743991,43.831199],[-122.74399,43.831193],[-122.743972,43.829907],[-122.743971,43.827591],[-122.743972,43.827522],[-122.743973,43.826315],[-122.743973,43.824108],[-122.743973,43.823988],[-122.743965,43.823988],[-122.736889,43.823999],[-122.726951,43.824021],[-122.726932,43.816791],[-122.717128,43.816773],[-122.717087,43.813174],[-122.707152,43.813275],[-122.707125,43.809673],[-122.70716,43.795387],[-122.727031,43.795437],[-122.727024,43.791847],[-122.732019,43.791862],[-122.73201,43.788286],[-122.736996,43.788314],[-122.736981,43.784482],[-122.740835,43.784613],[-122.740858,43.779822],[-122.736965,43.779878],[-122.736962,43.779878],[-122.736485,43.779885],[-122.736482,43.779886],[-122.727028,43.780018],[-122.727021,43.780018],[-122.726541,43.780023],[-122.726534,43.780023],[-122.717092,43.780117],[-122.717082,43.780117],[-122.716582,43.780122],[-122.716573,43.780122],[-122.707156,43.780216],[-122.707143,43.780216],[-122.706624,43.780221],[-122.706612,43.780221],[-122.697288,43.780356],[-122.696748,43.780361],[-122.696737,43.780362],[-122.687433,43.780497],[-122.686862,43.78051],[-122.677501,43.780737],[-122.677104,43.780746],[-122.66747,43.780967],[-122.667452,43.788294],[-122.667435,43.795504],[-122.667401,43.809836],[-122.667284,43.824196],[-122.667229,43.831327],[-122.667173,43.838475],[-122.66717,43.842049],[-122.667167,43.845625],[-122.667165,43.846189],[-122.667154,43.848456],[-122.667135,43.852775],[-122.677227,43.852745],[-122.687322,43.852715],[-122.686997,43.85996],[-122.692065,43.859962],[-122.692098,43.866938],[-122.692098,43.866938],[-122.697146,43.866943],[-122.697495,43.866944],[-122.7071,43.866972],[-122.717203,43.866923],[-122.717426,43.863337],[-122.722466,43.863312]],[[-122.707808,43.848927],[-122.712858,43.848982],[-122.712826,43.852628],[-122.712732,43.856205],[-122.707605,43.856184],[-122.702353,43.856237],[-122.702327,43.852591],[-122.702334,43.848986],[-122.707808,43.848927]],[[-122.712282,43.827671],[-122.712336,43.831222],[-122.712392,43.834771],[-122.707444,43.834765],[-122.707429,43.831211],[-122.70735,43.827655],[-122.712282,43.827671]]]}},{"type":"Feature","properties":{"MAPTAXLOT":"2015000000800","MAPNUMBER":"20150000","TAXLOT":"800","ACCTNO":"0926400","MAPACRES":537.9920103},"geometry":{"type":"Polygon","coordinates":[[[-122.726932,43.816791],[-122.726951,43.824021],[-122.736889,43.823999],[-122.743965,43.823988],[-122.743973,43.823988],[-122.743945,43.822722],[-122.743945,43.822721],[-122.743957,43.821895],[-122.743977,43.820464],[-122.743996,43.819191],[-122.744004,43.818643],[-122.744028,43.816939],[-122.744042,43.815995],[-122.744047,43.81566],[-122.744047,43.81566],[-122.744048,43.815618],[-122.744109,43.813349],[-122.744137,43.812007],[-122.744138,43.811956],[-122.74414,43.811888],[-122.744196,43.809758],[-122.744191,43.809758],[-122.744187,43.809758],[-122.736846,43.809787],[-122.73153,43.809746],[-122.726966,43.809705],[-122.726932,43.816791]]]}},{"type":"Feature","properties":{"MAPTAXLOT":"2015000001100","MAPNUMBER":"20150000","TAXLOT":"1100","ACCTNO":"0926434","MAPACRES":549.69706492},"geometry":{"type":"Polygon","coordinates":[[[-122.727005,43.802622],[-122.726966,43.809705],[-122.73153,43.809746],[-122.736846,43.809787],[-122.744187,43.809758],[-122.744191,43.809758],[-122.744196,43.809758],[-122.744225,43.808309],[-122.744225,43.808309],[-122.744226,43.808252],[-122.744226,43.808252],[-122.744229,43.808157],[-122.744281,43.80618],[-122.744311,43.804778],[-122.744312,43.804722],[-122.744369,43.802601],[-122.74444,43.801188],[-122.744441,43.801126],[-122.744483,43.79902],[-122.744503,43.797545],[-122.744504,43.797513],[-122.744505,43.797454],[-122.744543,43.795439],[-122.74454,43.795439],[-122.74454,43.795439],[-122.737023,43.795438],[-122.727031,43.795437],[-122.727005,43.802622]]]}},{"type":"Feature","properties":{"MAPTAXLOT":"2015000001200","MAPNUMBER":"20150000","TAXLOT":"1200","ACCTNO":"0926442","MAPACRES":343.42078931},"geometry":{"type":"Polygon","coordinates":[[[-122.727031,43.795437],[-122.737023,43.795438],[-122.74454,43.795439],[-122.74454,43.795439],[-122.744543,43.795439],[-122.744567,43.793838],[-122.744567,43.793838],[-122.744621,43.791895],[-122.744663,43.790349],[-122.744719,43.788354],[-122.744719,43.788354],[-122.744719,43.78827],[-122.744724,43.786861],[-122.744724,43.786859],[-122.744724,43.786855],[-122.744732,43.784747],[-122.744737,43.783315],[-122.744754,43.779767],[-122.740858,43.779822],[-122.740835,43.784613],[-122.736981,43.784482],[-122.736996,43.788314],[-122.73201,43.788286],[-122.732019,43.791862],[-122.727024,43.791847],[-122.727031,43.795437]]]}},{"type":"Feature","properties":{"MAPTAXLOT":"2101000000100","MAPNUMBER":"21010000","TAXLOT":"100","ACCTNO":"0928323","MAPACRES":509.00853008},"geometry":{"type":"Polygon","coordinates":[[[-122.764614,43.779892],[-122.764945,43.779893],[-122.76904,43.779958],[-122.769607,43.779967],[-122.7699,43.77997],[-122.769914,43.77997],[-122.769914,43.77993],[-122.769912,43.777844],[-122.769903,43.774245],[-122.769884,43.77065],[-122.769874,43.768854],[-122.764888,43.768563],[-122.764897,43.770355],[-122.764906,43.772146],[-122.759927,43.771845],[-122.759916,43.770059],[-122.759893,43.766481],[-122.754946,43.7662],[-122.75,43.765921],[-122.75001,43.769474],[-122.750018,43.77302],[-122.750026,43.776568],[-122.750034,43.7798],[-122.750034,43.779802],[-122.750034,43.779804],[-122.752698,43.779819],[-122.754684,43.77983],[-122.755005,43.779831],[-122.759649,43.779861],[-122.759975,43.779862],[-122.764614,43.779892]]]}},{"type":"Feature","properties":{"MAPTAXLOT":"2101000000101","MAPNUMBER":"21010000","TAXLOT":"101","ACCTNO":"1140902","MAPACRES":163.25988307},"geometry":{"type":"Polygon","coordinates":[[[-122.744741,43.769164],[-122.744741,43.769164],[-122.744745,43.772494],[-122.744745,43.772494],[-122.744745,43.772698],[-122.744745,43.772699],[-122.744749,43.776232],[-122.744749,43.776233],[-122.744754,43.779767],[-122.749719,43.779803],[-122.750034,43.779804],[-122.750034,43.779802],[-122.750034,43.7798],[-122.750026,43.776568],[-122.750018,43.77302],[-122.75001,43.769474],[-122.75,43.765921],[-122.744737,43.76563],[-122.744741,43.769164]]]}},{"type":"Feature","properties":{"MAPTAXLOT":"2101000000102","MAPNUMBER":"21010000","TAXLOT":"102","ACCTNO":"1140910","MAPACRES":78.89275262},"geometry":{"type":"Polygon","coordinates":[[[-122.759927,43.771845],[-122.764906,43.772146],[-122.764897,43.770355],[-122.764888,43.768563],[-122.769874,43.768854],[-122.769864,43.767057],[-122.764878,43.766769],[-122.759893,43.766481],[-122.759916,43.770059],[-122.759927,43.771845]]]}},{"type":"Feature","properties":{"MAPTAXLOT":"2101000000200","MAPNUMBER":"21010000","TAXLOT":"200","ACCTNO":"0928356","MAPACRES":544.11046769},"geometry":{"type":"Polygon","coordinates":[[[-122.769874,43.768854],[-122.769884,43.77065],[-122.769903,43.774245],[-122.769912,43.777844],[-122.769914,43.77993],[-122.769914,43.77997],[-122.769938,43.77997],[-122.769939,43.77997],[-122.769939,43.77997],[-122.774601,43.779963],[-122.774804,43.779964],[-122.779594,43.779957],[-122.779694,43.779957],[-122.783812,43.779922],[-122.78459,43.779916],[-122.789474,43.779968],[-122.789474,43.779934],[-122.789474,43.778374],[-122.789476,43.774809],[-122.789492,43.767705],[-122.784583,43.767543],[-122.779676,43.767382],[-122.77477,43.767219],[-122.769864,43.767057],[-122.769874,43.768854]]]}},{"type":"Feature","properties":{"MAPTAXLOT":"2101000000300","MAPNUMBER":"21010000","TAXLOT":"300","ACCTNO":"0928372","MAPACRES":533.28533651},"geometry":{"type":"Polygon","coordinates":[[[-122.804478,43.779885],[-122.809314,43.77994],[-122.809314,43.779933],[-122.809314,43.778337],[-122.809315,43.774781],[-122.809322,43.767696],[-122.799406,43.767701],[-122.789492,43.767705],[-122.789476,43.774809],[-122.789474,43.778374],[-122.789474,43.779934],[-122.789474,43.779968],[-122.789625,43.779965],[-122.794433,43.779788],[-122.794635,43.779784],[-122.799396,43.779833],[-122.799555,43.779835],[-122.804362,43.779884],[-122.804478,43.779885]]]}},{"type":"Feature","properties":{"MAPTAXLOT":"2101000001300","MAPNUMBER":"21010000","TAXLOT":"1300","ACCTNO":"0928489","MAPACRES":626.6128473},"geometry":{"type":"Polygon","coordinates":[[[-122.799406,43.767701],[-122.809322,43.767696],[-122.809316,43.764116],[-122.809311,43.760536],[-122.809307,43.756956],[-122.809304,43.753376],[-122.804352,43.753388],[-122.799399,43.7534],[-122.794447,43.753412],[-122.789494,43.753425],[-122.789492,43.756995],[-122.789491,43.760565],[-122.789491,43.764135],[-122.789492,43.767705],[-122.799406,43.767701]]]}},{"type":"Feature","properties":{"MAPTAXLOT":"2101000001400","MAPNUMBER":"21010000","TAXLOT":"1400","ACCTNO":"0928497","MAPACRES":543.08237091},"geometry":{"type":"Polygon","coordinates":[[[-122.784583,43.767543],[-122.789492,43.767705],[-122.789491,43.764135],[-122.789491,43.760565],[-122.789492,43.756995],[-122.789494,43.753425],[-122.784553,43.753271],[-122.784561,43.75684],[-122.782095,43.756763],[-122.782107,43.760329],[-122.779645,43.76025],[-122.779629,43.756685],[-122.779613,43.75312],[-122.774672,43.752966],[-122.769732,43.752815],[-122.769765,43.756375],[-122.774697,43.75653],[-122.774709,43.758312],[-122.769782,43.758155],[-122.769798,43.759935],[-122.769831,43.763496],[-122.769864,43.767057],[-122.77477,43.767219],[-122.779676,43.767382],[-122.784583,43.767543]]]}},{"type":"Feature","properties":{"MAPTAXLOT":"2101000001401","MAPNUMBER":"21010000","TAXLOT":"1401","ACCTNO":"1140936","MAPACRES":58.34542119},"geometry":{"type":"Polygon","coordinates":[[[-122.779645,43.76025],[-122.782107,43.760329],[-122.782095,43.756763],[-122.784561,43.75684],[-122.784553,43.753271],[-122.779613,43.75312],[-122.779629,43.756685],[-122.779645,43.76025]]]}},{"type":"Feature","properties":{"MAPTAXLOT":"2101000001402","MAPNUMBER":"21010000","TAXLOT":"1402","ACCTNO":"1140944","MAPACRES":19.40156064},"geometry":{"type":"Polygon","coordinates":[[[-122.769782,43.758155],[-122.774709,43.758312],[-122.774697,43.75653],[-122.769765,43.756375],[-122.769782,43.758155]]]}},{"type":"Feature","properties":{"MAPTAXLOT":"2101000001500","MAPNUMBER":"21010000","TAXLOT":"1500","ACCTNO":"0928521","MAPACRES":709.11686286},"geometry":{"type":"Polygon","coordinates":[[[-122.764878,43.766769],[-122.769864,43.767057],[-122.769831,43.763496],[-122.769798,43.759935],[-122.769782,43.758155],[-122.769765,43.756375],[-122.769732,43.752815],[-122.764757,43.752544],[-122.759781,43.752274],[-122.754755,43.752004],[-122.74973,43.751735],[-122.744709,43.751468],[-122.744716,43.755008],[-122.744716,43.755009],[-122.744723,43.758549],[-122.744723,43.75855],[-122.74473,43.76209],[-122.74473,43.76209],[-122.744737,43.76563],[-122.75,43.765921],[-122.749934,43.762381],[-122.7499,43.760607],[-122.754876,43.760885],[-122.7549,43.762659],[-122.754946,43.7662],[-122.759893,43.766481],[-122.75988,43.76471],[-122.764863,43.764994],[-122.764878,43.766769]]]}},{"type":"Feature","properties":{"MAPTAXLOT":"2101000001501","MAPNUMBER":"21010000","TAXLOT":"1501","ACCTNO":"1140977","MAPACRES":58.22947558},"geometry":{"type":"Polygon","coordinates":[[[-122.75,43.765921],[-122.754946,43.7662],[-122.7549,43.762659],[-122.754876,43.760885],[-122.7499,43.760607],[-122.749934,43.762381],[-122.75,43.765921]]]}},{"type":"Feature","properties":{"MAPTAXLOT":"2101000001502","MAPNUMBER":"21010000","TAXLOT":"1502","ACCTNO":"1140985","MAPACRES":19.53162562},"geometry":{"type":"Polygon","coordinates":[[[-122.759893,43.766481],[-122.764878,43.766769],[-122.764863,43.764994],[-122.75988,43.76471],[-122.759893,43.766481]]]}},{"type":"Feature","properties":{"MAPTAXLOT":"2101000001700","MAPNUMBER":"21010000","TAXLOT":"1700","ACCTNO":"0928570","MAPACRES":632.66861271},"geometry":{"type":"Polygon","coordinates":[[[-122.784553,43.753271],[-122.789494,43.753425],[-122.789491,43.74981],[-122.789489,43.746194],[-122.789487,43.742579],[-122.789485,43.738964],[-122.769622,43.738388],[-122.769732,43.752815],[-122.774672,43.752966],[-122.779613,43.75312],[-122.784553,43.753271]]]}},{"type":"Feature","properties":{"MAPTAXLOT":"2101000001800","MAPNUMBER":"21010000","TAXLOT":"1800","ACCTNO":"0928596","MAPACRES":395.77072194},"geometry":{"type":"Polygon","coordinates":[[[-122.804352,43.753388],[-122.809304,43.753376],[-122.809302,43.749765],[-122.80435,43.749776],[-122.799397,43.749788],[-122.799395,43.746174],[-122.799393,43.742561],[-122.799391,43.738946],[-122.794438,43.738954],[-122.789485,43.738964],[-122.789487,43.742579],[-122.789489,43.746194],[-122.789491,43.74981],[-122.789494,43.753425],[-122.794447,43.753412],[-122.799399,43.7534],[-122.804352,43.753388]]]}},{"type":"Feature","properties":{"MAPTAXLOT":"2101000003600","MAPNUMBER":"21010000","TAXLOT":"3600","ACCTNO":"0928760","MAPACRES":3627.07046283},"geometry":{"type":"Polygon","coordinates":[[[-122.744752,43.744341],[-122.744709,43.751468],[-122.74973,43.751735],[-122.754755,43.752004],[-122.759781,43.752274],[-122.764757,43.752544],[-122.769732,43.752815],[-122.769622,43.738388],[-122.789485,43.738964],[-122.789488,43.731762],[-122.789489,43.724559],[-122.789465,43.717353],[-122.789427,43.710185],[-122.784415,43.71007],[-122.779398,43.709897],[-122.774391,43.709817],[-122.76938,43.70961],[-122.764397,43.709562],[-122.761381,43.709534],[-122.759415,43.709515],[-122.75448,43.709272],[-122.74951,43.709027],[-122.744502,43.708781],[-122.744565,43.712208],[-122.744595,43.715732],[-122.744624,43.719255],[-122.744642,43.721388],[-122.744642,43.721395],[-122.744654,43.722778],[-122.74467,43.726351],[-122.74467,43.726358],[-122.744686,43.729939],[-122.744702,43.733519],[-122.744717,43.736878],[-122.744718,43.737099],[-122.744718,43.737106],[-122.744752,43.744341]]]}},{"type":"Feature","properties":{"MAPTAXLOT":"2115000000200","MAPNUMBER":"21150000","TAXLOT":"200","ACCTNO":"0944981","MAPACRES":19968.69982205},"geometry":{"type":"Polygon","coordinates":[[[-122.696737,43.780362],[-122.696748,43.780361],[-122.697288,43.780356],[-122.706612,43.780221],[-122.706624,43.780221],[-122.707143,43.780216],[-122.707156,43.780216],[-122.716573,43.780122],[-122.716582,43.780122],[-122.717082,43.780117],[-122.717092,43.780117],[-122.726534,43.780023],[-122.726541,43.780023],[-122.727021,43.780018],[-122.727028,43.780018],[-122.736482,43.779886],[-122.736485,43.779885],[-122.736962,43.779878],[-122.736965,43.779878],[-122.740858,43.779822],[-122.744754,43.779767],[-122.744749,43.776233],[-122.744749,43.776232],[-122.744745,43.772699],[-122.744745,43.772698],[-122.744745,43.772494],[-122.744745,43.772494],[-122.744741,43.769164],[-122.744741,43.769164],[-122.744737,43.76563],[-122.74473,43.76209],[-122.74473,43.76209],[-122.744723,43.75855],[-122.744723,43.758549],[-122.744716,43.755009],[-122.744716,43.755008],[-122.744709,43.751468],[-122.744752,43.744341],[-122.744718,43.737106],[-122.744718,43.737099],[-122.744717,43.736878],[-122.744702,43.733519],[-122.744686,43.729939],[-122.74467,43.726358],[-122.74467,43.726351],[-122.744654,43.722778],[-122.744642,43.721395],[-122.744642,43.721388],[-122.744624,43.719255],[-122.744595,43.715732],[-122.744565,43.712208],[-122.744502,43.708781],[-122.741478,43.708713],[-122.73648,43.708758],[-122.726478,43.708841],[-122.706531,43.709026],[-122.7065,43.694612],[-122.696657,43.694775],[-122.686824,43.694863],[-122.68663,43.694864],[-122.677013,43.694907],[-122.667087,43.694862],[-122.657143,43.694879],[-122.647199,43.694886],[-122.6373,43.694943],[-122.632638,43.694971],[-122.632637,43.694971],[-122.627534,43.695001],[-122.627413,43.695002],[-122.627421,43.696927],[-122.627421,43.696928],[-122.627432,43.702243],[-122.627518,43.702242],[-122.635832,43.702172],[-122.637367,43.702159],[-122.637433,43.709385],[-122.627635,43.709474],[-122.627586,43.709475],[-122.627586,43.709475],[-122.627593,43.711457],[-122.627594,43.716653],[-122.627557,43.718694],[-122.627451,43.723867],[-122.627446,43.725923],[-122.627436,43.731076],[-122.627448,43.733095],[-122.627499,43.738277],[-122.627504,43.740268],[-122.627529,43.74548],[-122.627538,43.747479],[-122.62754,43.747755],[-122.627578,43.752697],[-122.627578,43.752698],[-122.627613,43.754693],[-122.62772,43.759904],[-122.627728,43.7619],[-122.627765,43.767096],[-122.627765,43.767097],[-122.64309,43.76694],[-122.647392,43.766896],[-122.647412,43.774075],[-122.647418,43.777671],[-122.647432,43.781194],[-122.657338,43.781081],[-122.657451,43.78108],[-122.667245,43.780969],[-122.66747,43.780967],[-122.677104,43.780746],[-122.677501,43.780737],[-122.686862,43.78051],[-122.687433,43.780497],[-122.696737,43.780362]],[[-122.686957,43.73775],[-122.69184,43.737722],[-122.706584,43.737637],[-122.706583,43.744858],[-122.706583,43.744858],[-122.691837,43.744918],[-122.691839,43.74132],[-122.686918,43.741361],[-122.686919,43.737751],[-122.686957,43.73775]]]}}]}