{"type":"FeatureCollection","features":[{"type":"Feature","properties":{"MAPTAXLOT":"1602000000100","MAPNUMBER":"16020000","TAXLOT":"100","ACCTNO":"0032233","MAPACRES":650.43626028},"geometry":{"type":"Polygon","coordinates":[[[-122.966277,44.193429],[-122.966027,44.200685],[-122.97604,44.200627],[-122.986652,44.200565],[-122.986665,44.194149],[-122.986667,44.193287],[-122.986667,44.193287],[-122.986667,44.193287],[-122.986669,44.192155],[-122.986675,44.189192],[-122.986681,44.186082],[-122.986682,44.186009],[-122.976335,44.186094],[-122.966532,44.186173],[-122.966277,44.193429]]]}},{"type":"Feature","properties":{"MAPTAXLOT":"1602000000200","MAPNUMBER":"16020000","TAXLOT":"200","ACCTNO":"0032241","MAPACRES":647.17783927},"geometry":{"type":"Polygon","coordinates":[[[-122.946055,44.200992],[-122.966027,44.200685],[-122.966277,44.193429],[-122.966532,44.186173],[-122.946391,44.1861],[-122.946055,44.200992]]]}},{"type":"Feature","properties":{"MAPTAXLOT":"1602000000300","MAPNUMBER":"16020000","TAXLOT":"300","ACCTNO":"0032258","MAPACRES":645.6711121},"geometry":{"type":"Polygon","coordinates":[[[-122.925927,44.200962],[-122.946055,44.200992],[-122.946391,44.1861],[-122.926265,44.18662],[-122.926096,44.193791],[-122.926035,44.196355],[-122.926032,44.196486],[-122.926011,44.197376],[-122.925927,44.200962]]]}},{"type":"Feature","properties":{"MAPTAXLOT":"1602000000600","MAPNUMBER":"16020000","TAXLOT":"600","ACCTNO":"0032282","MAPACRES":648.39918993},"geometry":{"type":"Polygon","coordinates":[[[-122.926228,44.179243],[-122.926265,44.18662],[-122.946391,44.1861],[-122.946248,44.171466],[-122.926189,44.171866],[-122.926228,44.179243]]]}},{"type":"Feature","properties":{"MAPTAXLOT":"1602000000700","MAPNUMBER":"16020000","TAXLOT":"700","ACCTNO":"0032290","MAPACRES":650.32395949},"geometry":{"type":"Polygon","coordinates":[[[-122.946391,44.1861],[-122.966532,44.186173],[-122.96651,44.178819],[-122.966474,44.171466],[-122.946248,44.171466],[-122.946391,44.1861]]]}},{"type":"Feature","properties":{"MAPTAXLOT":"1602000000800","MAPNUMBER":"16020000","TAXLOT":"800","ACCTNO":"0032308","MAPACRES":648.23285},"geometry":{"type":"Polygon","coordinates":[[[-122.966532,44.186173],[-122.976335,44.186094],[-122.986682,44.186009],[-122.986682,44.186009],[-122.986656,44.178819],[-122.986656,44.178747],[-122.986693,44.175776],[-122.986747,44.171458],[-122.97632,44.171461],[-122.966474,44.171466],[-122.96651,44.178819],[-122.966532,44.186173]]]}},{"type":"Feature","properties":{"MAPTAXLOT":"1602000000900","MAPNUMBER":"16020000","TAXLOT":"900","ACCTNO":"0032316","MAPACRES":647.33973924},"geometry":{"type":"Polygon","coordinates":[[[-122.97632,44.171461],[-122.986747,44.171458],[-122.986761,44.167814],[-122.986775,44.164173],[-122.986797,44.160526],[-122.986819,44.156889],[-122.976691,44.156717],[-122.967088,44.156554],[-122.966793,44.164012],[-122.966474,44.171466],[-122.97632,44.171461]]]}},{"type":"Feature","properties":{"MAPTAXLOT":"1602000001000","MAPNUMBER":"16020000","TAXLOT":"1000","ACCTNO":"0032324","MAPACRES":663.48902199},"geometry":{"type":"Polygon","coordinates":[[[-122.946248,44.171466],[-122.966474,44.171466],[-122.966793,44.164012],[-122.967088,44.156554],[-122.956653,44.156752],[-122.946245,44.156971],[-122.946248,44.171466]]]}},{"type":"Feature","properties":{"MAPTAXLOT":"1602000001100","MAPNUMBER":"16020000","TAXLOT":"1100","ACCTNO":"0032332","MAPACRES":638.99275795},"geometry":{"type":"Polygon","coordinates":[[[-122.926189,44.171866],[-122.946248,44.171466],[-122.946245,44.156971],[-122.926268,44.157262],[-122.92627,44.164564],[-122.926189,44.171866]]]}},{"type":"Feature","properties":{"MAPTAXLOT":"1603110000100","MAPNUMBER":"16031100","TAXLOT":"100","ACCTNO":"0038255","MAPACRES":171.87422035},"geometry":{"type":"Polygon","coordinates":[[[-123.006342,44.201905],[-123.016245,44.201884],[-123.016344,44.200216],[-123.016393,44.200072],[-123.016332,44.196956],[-123.006585,44.197061],[-123.003864,44.197091],[-122.996627,44.197156],[-122.996594,44.20022],[-123.006541,44.200094],[-123.006342,44.201905]]]}},{"type":"Feature","properties":{"MAPTAXLOT":"1603110000300","MAPNUMBER":"16031100","TAXLOT":"300","ACCTNO":"0038297","MAPACRES":261.91099684},"geometry":{"type":"Polygon","coordinates":[[[-123.016332,44.196956],[-123.017607,44.196951],[-123.01906,44.194049],[-123.020505,44.189205],[-123.006699,44.189278],[-123.003856,44.189293],[-123.003864,44.197091],[-123.006585,44.197061],[-123.016332,44.196956]]]}},{"type":"Feature","properties":{"MAPTAXLOT":"1603120000100","MAPNUMBER":"16031200","TAXLOT":"100","ACCTNO":"0038313","MAPACRES":497.23782063},"geometry":{"type":"Polygon","coordinates":[[[-122.986665,44.194149],[-122.986652,44.200565],[-122.996594,44.20022],[-122.996627,44.197156],[-123.003864,44.197091],[-123.003856,44.189293],[-123.003867,44.185645],[-122.99681,44.185821],[-122.986682,44.186009],[-122.986681,44.186082],[-122.986675,44.189192],[-122.986669,44.192155],[-122.986667,44.193287],[-122.986667,44.193287],[-122.986667,44.193287],[-122.986665,44.194149]]]}},{"type":"Feature","properties":{"MAPTAXLOT":"1603130000100","MAPNUMBER":"16031300","TAXLOT":"100","ACCTNO":"0038321","MAPACRES":558.41173263},"geometry":{"type":"Polygon","coordinates":[[[-122.986682,44.186009],[-122.99681,44.185821],[-123.003867,44.185645],[-123.006754,44.185573],[-123.006688,44.178375],[-123.006744,44.174755],[-123.006798,44.171127],[-123.001826,44.171217],[-123.001785,44.174859],[-122.996826,44.174965],[-122.991801,44.175061],[-122.99186,44.171382],[-122.986747,44.171458],[-122.986693,44.175776],[-122.986656,44.178747],[-122.986656,44.178819],[-122.986682,44.186009],[-122.986682,44.186009]]]}},{"type":"Feature","properties":{"MAPTAXLOT":"1603130000200","MAPNUMBER":"16031300","TAXLOT":"200","ACCTNO":"0038339","MAPACRES":80.14348496},"geometry":{"type":"Polygon","coordinates":[[[-122.991801,44.175061],[-122.996826,44.174965],[-123.001785,44.174859],[-123.001826,44.171217],[-122.99679,44.171308],[-122.99186,44.171382],[-122.991801,44.175061]]]}},{"type":"Feature","properties":{"MAPTAXLOT":"1603140000100","MAPNUMBER":"16031400","TAXLOT":"100","ACCTNO":"1314655","MAPACRES":539.13949461},"geometry":{"type":"Polygon","coordinates":[[[-123.006754,44.185573],[-123.003867,44.185645],[-123.003856,44.189293],[-123.006699,44.189278],[-123.020505,44.189205],[-123.020563,44.189015],[-123.023684,44.187041],[-123.022664,44.185435],[-123.019087,44.179804],[-123.026607,44.179815],[-123.02866,44.179808],[-123.028644,44.174617],[-123.028649,44.173264],[-123.016464,44.173112],[-123.016474,44.178221],[-123.011647,44.178292],[-123.006688,44.178375],[-123.006754,44.185573]]]}},{"type":"Feature","properties":{"MAPTAXLOT":"1603140000500","MAPNUMBER":"16031400","TAXLOT":"500","ACCTNO":"0038396","MAPACRES":78.41904343},"geometry":{"type":"Polygon","coordinates":[[[-123.006688,44.178375],[-123.011647,44.178292],[-123.011731,44.171095],[-123.006798,44.171127],[-123.006744,44.174755],[-123.006688,44.178375]]]}},{"type":"Feature","properties":{"MAPTAXLOT":"1603230000101","MAPNUMBER":"16032300","TAXLOT":"101","ACCTNO":"0039337","MAPACRES":427.38382664},"geometry":{"type":"Polygon","coordinates":[[[-123.026739,44.171025],[-123.02866,44.171035],[-123.028665,44.169704],[-123.02869,44.163467],[-123.026855,44.163677],[-123.026854,44.163743],[-123.016459,44.163825],[-123.006914,44.163915],[-123.006699,44.163918],[-123.001876,44.163987],[-123.00185,44.167603],[-123.001826,44.171217],[-123.006798,44.171127],[-123.011731,44.171095],[-123.016465,44.171068],[-123.026739,44.171025]]]}},{"type":"Feature","properties":{"MAPTAXLOT":"1603240000101","MAPNUMBER":"16032400","TAXLOT":"101","ACCTNO":"0039386","MAPACRES":202.14564295},"geometry":{"type":"Polygon","coordinates":[[[-122.99679,44.171308],[-123.001826,44.171217],[-123.00185,44.167603],[-123.001876,44.163987],[-123.001917,44.160351],[-122.996727,44.160415],[-122.996747,44.164039],[-122.996767,44.167676],[-122.986761,44.167814],[-122.986747,44.171458],[-122.99186,44.171382],[-122.99679,44.171308]]]}}]}