{"type":"FeatureCollection","features":[{"type":"Feature","properties":{"MAPTAXLOT":"2345000000100","MAPNUMBER":"23450000","TAXLOT":"100","ACCTNO":"0976124","MAPACRES":20138.28167352},"geometry":{"type":"Polygon","coordinates":[[[-122.271514,43.612808],[-122.276498,43.612817],[-122.276499,43.612817],[-122.281483,43.612827],[-122.281483,43.612827],[-122.286467,43.612836],[-122.286467,43.612836],[-122.29105,43.612844],[-122.291451,43.612845],[-122.291451,43.612845],[-122.296436,43.612854],[-122.296436,43.612854],[-122.301421,43.612863],[-122.301421,43.612863],[-122.306405,43.612872],[-122.306405,43.612872],[-122.310983,43.61288],[-122.31139,43.612881],[-122.31139,43.612881],[-122.316375,43.612889],[-122.316376,43.612889],[-122.321361,43.612898],[-122.321361,43.612898],[-122.326346,43.612906],[-122.326346,43.612906],[-122.330911,43.612914],[-122.331332,43.612915],[-122.331332,43.612915],[-122.336318,43.612923],[-122.336318,43.612923],[-122.341305,43.612931],[-122.341305,43.612931],[-122.346292,43.612939],[-122.346292,43.612939],[-122.350844,43.612946],[-122.351278,43.612947],[-122.351279,43.612947],[-122.356267,43.612953],[-122.361256,43.612959],[-122.361256,43.612959],[-122.366245,43.612965],[-122.370777,43.612973],[-122.37256,43.612975],[-122.372549,43.611064],[-122.377351,43.611073],[-122.382153,43.611081],[-122.386662,43.611992],[-122.391171,43.612903],[-122.39117,43.612395],[-122.391167,43.609282],[-122.391166,43.608775],[-122.391163,43.605661],[-122.391159,43.60204],[-122.391155,43.599259],[-122.391155,43.598419],[-122.391155,43.597916],[-122.391155,43.594798],[-122.391155,43.591177],[-122.390086,43.585422],[-122.390094,43.584777],[-122.390141,43.581156],[-122.390187,43.577536],[-122.390233,43.573915],[-122.390271,43.570978],[-122.39028,43.570295],[-122.390447,43.556568],[-122.390448,43.555812],[-122.390451,43.552966],[-122.390454,43.549365],[-122.390455,43.548989],[-122.390458,43.545764],[-122.390458,43.54557],[-122.390461,43.542161],[-122.384992,43.542162],[-122.384968,43.531154],[-122.380004,43.531205],[-122.380009,43.534827],[-122.375045,43.534876],[-122.37504,43.531256],[-122.370083,43.531306],[-122.370074,43.52765],[-122.365591,43.527676],[-122.36513,43.527679],[-122.360622,43.527705],[-122.360186,43.527706],[-122.3557,43.527713],[-122.355223,43.527714],[-122.350778,43.527722],[-122.350261,43.527729],[-122.350243,43.531333],[-122.350225,43.534965],[-122.350195,43.538561],[-122.350165,43.542157],[-122.345225,43.542142],[-122.340286,43.542127],[-122.335281,43.542104],[-122.330276,43.54208],[-122.330283,43.545718],[-122.330288,43.548985],[-122.330289,43.549356],[-122.310359,43.54929],[-122.310345,43.545665],[-122.310331,43.54204],[-122.305332,43.542047],[-122.300332,43.542054],[-122.300456,43.534792],[-122.290654,43.534666],[-122.290716,43.531053],[-122.290777,43.52744],[-122.285835,43.527466],[-122.280892,43.527493],[-122.27595,43.527519],[-122.271007,43.527545],[-122.270976,43.531161],[-122.270945,43.534777],[-122.270914,43.538393],[-122.270883,43.54201],[-122.270883,43.54563],[-122.270883,43.549251],[-122.271118,43.555812],[-122.271118,43.559433],[-122.271118,43.563053],[-122.271118,43.566674],[-122.271118,43.570295],[-122.271118,43.573915],[-122.271118,43.577536],[-122.271118,43.581156],[-122.271118,43.584777],[-122.271118,43.588397],[-122.271118,43.592018],[-122.271118,43.595638],[-122.271118,43.599259],[-122.271118,43.6128],[-122.271118,43.612808],[-122.271118,43.612808],[-122.271514,43.612808],[-122.271514,43.612808]]]}},{"type":"Feature","properties":{"MAPTAXLOT":"2345000000200","MAPNUMBER":"23450000","TAXLOT":"200","ACCTNO":"0976132","MAPACRES":321.22173553},"geometry":{"type":"Polygon","coordinates":[[[-122.310359,43.54929],[-122.330289,43.549356],[-122.330288,43.548985],[-122.330283,43.545718],[-122.330276,43.54208],[-122.32529,43.54207],[-122.320304,43.54206],[-122.315317,43.54205],[-122.310331,43.54204],[-122.310345,43.545665],[-122.310359,43.54929]]]}},{"type":"Feature","properties":{"MAPTAXLOT":"2345000000300","MAPNUMBER":"23450000","TAXLOT":"300","ACCTNO":"0976140","MAPACRES":339.08722698},"geometry":{"type":"Polygon","coordinates":[[[-122.384968,43.531154],[-122.384992,43.542162],[-122.390461,43.542161],[-122.390461,43.541967],[-122.390467,43.538538],[-122.390467,43.538534],[-122.390467,43.538344],[-122.390474,43.534721],[-122.39048,43.531098],[-122.390486,43.527474],[-122.385504,43.527517],[-122.384961,43.527522],[-122.380523,43.52756],[-122.379998,43.527565],[-122.375541,43.527604],[-122.375036,43.527608],[-122.37056,43.527647],[-122.370074,43.52765],[-122.370083,43.531306],[-122.37504,43.531256],[-122.375045,43.534876],[-122.380009,43.534827],[-122.380004,43.531205],[-122.384968,43.531154]]]}},{"type":"Feature","properties":{"MAPTAXLOT":"2345000000400","MAPNUMBER":"23450000","TAXLOT":"400","ACCTNO":"0976157","MAPACRES":632.18996579},"geometry":{"type":"Polygon","coordinates":[[[-122.345225,43.542142],[-122.350165,43.542157],[-122.350195,43.538561],[-122.350225,43.534965],[-122.350243,43.531333],[-122.350261,43.527729],[-122.345532,43.527798],[-122.345273,43.527802],[-122.340285,43.527874],[-122.33529,43.527853],[-122.330294,43.527832],[-122.330292,43.531287],[-122.33029,43.534894],[-122.330283,43.538487],[-122.330276,43.54208],[-122.335281,43.542104],[-122.340286,43.542127],[-122.345225,43.542142]]]}},{"type":"Feature","properties":{"MAPTAXLOT":"2345000000500","MAPNUMBER":"23450000","TAXLOT":"500","ACCTNO":"0976165","MAPACRES":633.32357427},"geometry":{"type":"Polygon","coordinates":[[[-122.32529,43.54207],[-122.330276,43.54208],[-122.330283,43.538487],[-122.33029,43.534894],[-122.330292,43.531287],[-122.330294,43.527832],[-122.325296,43.527792],[-122.320299,43.527752],[-122.315369,43.527679],[-122.310439,43.527607],[-122.310388,43.531225],[-122.310337,43.534842],[-122.310334,43.538441],[-122.310331,43.54204],[-122.315317,43.54205],[-122.320304,43.54206],[-122.32529,43.54207]]]}},{"type":"Feature","properties":{"MAPTAXLOT":"2345000000600","MAPNUMBER":"23450000","TAXLOT":"600","ACCTNO":"0976173","MAPACRES":476.0426009},"geometry":{"type":"Polygon","coordinates":[[[-122.305332,43.542047],[-122.310331,43.54204],[-122.310334,43.538441],[-122.310337,43.534842],[-122.310388,43.531225],[-122.310439,43.527607],[-122.305509,43.527563],[-122.30058,43.527518],[-122.295679,43.527479],[-122.290777,43.52744],[-122.290716,43.531053],[-122.290654,43.534666],[-122.300456,43.534792],[-122.300332,43.542054],[-122.305332,43.542047]]]}}]}