{"type":"FeatureCollection","features":[{"type":"Feature","properties":{"MAPTAXLOT":"2006000003600","MAPNUMBER":"20060000","TAXLOT":"3600","ACCTNO":"0925337","MAPACRES":608.33088231},"geometry":{"type":"Polygon","coordinates":[[[-123.411421,43.823994],[-123.431342,43.824118],[-123.430781,43.817039],[-123.430849,43.810022],[-123.420952,43.80993],[-123.411426,43.809877],[-123.411426,43.813497],[-123.411426,43.817119],[-123.411421,43.823994]]]}},{"type":"Feature","properties":{"MAPTAXLOT":"2006000003700","MAPNUMBER":"20060000","TAXLOT":"3700","ACCTNO":"0925345","MAPACRES":760.01111332},"geometry":{"type":"Polygon","coordinates":[[[-123.387926,43.812591],[-123.38786,43.823783],[-123.39375,43.823836],[-123.39964,43.823889],[-123.40553,43.823942],[-123.411421,43.823994],[-123.411426,43.817119],[-123.411426,43.813497],[-123.411426,43.809877],[-123.397839,43.809071],[-123.387948,43.80886],[-123.387926,43.812591]]]}},{"type":"Feature","properties":{"MAPTAXLOT":"2006000003800","MAPNUMBER":"20060000","TAXLOT":"3800","ACCTNO":"0925360","MAPACRES":641.42212463},"geometry":{"type":"Polygon","coordinates":[[[-123.368459,43.823633],[-123.38786,43.823783],[-123.387926,43.812591],[-123.387948,43.80886],[-123.368048,43.80882],[-123.368267,43.812552],[-123.36849,43.816283],[-123.368459,43.823633]]]}},{"type":"Feature","properties":{"MAPTAXLOT":"2006000003900","MAPNUMBER":"20060000","TAXLOT":"3900","ACCTNO":"0925378","MAPACRES":450.88851459},"geometry":{"type":"Polygon","coordinates":[[[-123.358372,43.823689],[-123.368459,43.823633],[-123.36849,43.816283],[-123.368267,43.812552],[-123.363225,43.812623],[-123.363082,43.808917],[-123.358119,43.809016],[-123.358182,43.812694],[-123.353194,43.812764],[-123.353235,43.816415],[-123.353282,43.820066],[-123.348256,43.820102],[-123.348286,43.823746],[-123.353329,43.823718],[-123.358372,43.823689]]]}},{"type":"Feature","properties":{"MAPTAXLOT":"2006000004000","MAPNUMBER":"20060000","TAXLOT":"4000","ACCTNO":"0925386","MAPACRES":41.13657611},"geometry":{"type":"Polygon","coordinates":[[[-123.363225,43.812623],[-123.368267,43.812552],[-123.368048,43.80882],[-123.363082,43.808917],[-123.363225,43.812623]]]}}]}