{"type":"FeatureCollection","features":[{"type":"Feature","properties":{"MAPTAXLOT":"2325000000100","MAPNUMBER":"23250000","TAXLOT":"100","ACCTNO":"0975464","MAPACRES":2709.91883586},"geometry":{"type":"Polygon","coordinates":[[[-122.548313,43.599909],[-122.568298,43.59999],[-122.568296,43.599774],[-122.5682,43.585486],[-122.548161,43.585428],[-122.538149,43.585416],[-122.528137,43.585404],[-122.528132,43.584172],[-122.518694,43.584224],[-122.508896,43.584225],[-122.508889,43.584225],[-122.508805,43.591251],[-122.508779,43.598266],[-122.508737,43.605341],[-122.508905,43.608951],[-122.509039,43.611761],[-122.509055,43.612113],[-122.50912,43.612113],[-122.510207,43.612112],[-122.519024,43.612081],[-122.523466,43.612065],[-122.523462,43.611737],[-122.523394,43.605454],[-122.523439,43.605455],[-122.528276,43.60549],[-122.528274,43.607071],[-122.52827,43.610687],[-122.52827,43.611728],[-122.52827,43.612047],[-122.528992,43.612046],[-122.529042,43.612046],[-122.53826,43.612004],[-122.538947,43.612004],[-122.54825,43.611961],[-122.54825,43.611698],[-122.54825,43.610767],[-122.548254,43.607149],[-122.548273,43.599909],[-122.538278,43.599878],[-122.538181,43.589032],[-122.538199,43.589032],[-122.548188,43.589048],[-122.54827,43.599628],[-122.548273,43.599909],[-122.548313,43.599909]]]}},{"type":"Feature","properties":{"MAPTAXLOT":"2325000000200","MAPNUMBER":"23250000","TAXLOT":"200","ACCTNO":"0975472","MAPACRES":70.65510843},"geometry":{"type":"Polygon","coordinates":[[[-122.523466,43.612065],[-122.52827,43.612047],[-122.52827,43.611728],[-122.52827,43.610687],[-122.528274,43.607071],[-122.528276,43.60549],[-122.523439,43.605455],[-122.523394,43.605454],[-122.523462,43.611737],[-122.523466,43.612065]]]}},{"type":"Feature","properties":{"MAPTAXLOT":"2325000000300","MAPNUMBER":"23250000","TAXLOT":"300","ACCTNO":"0975480","MAPACRES":530.64602108},"geometry":{"type":"Polygon","coordinates":[[[-122.558848,43.611918],[-122.568241,43.611874],[-122.568241,43.61167],[-122.568241,43.610848],[-122.568251,43.60723],[-122.568298,43.59999],[-122.548313,43.599909],[-122.548273,43.599909],[-122.548254,43.607149],[-122.54825,43.610767],[-122.54825,43.611698],[-122.54825,43.611961],[-122.548902,43.611961],[-122.548949,43.611961],[-122.558245,43.611918],[-122.558848,43.611918]]]}},{"type":"Feature","properties":{"MAPTAXLOT":"2325000000400","MAPNUMBER":"23250000","TAXLOT":"400","ACCTNO":"0975498","MAPACRES":521.34896844},"geometry":{"type":"Polygon","coordinates":[[[-122.578721,43.611819],[-122.588123,43.611764],[-122.588123,43.611608],[-122.588121,43.610816],[-122.588112,43.607193],[-122.588072,43.599936],[-122.568345,43.59999],[-122.568298,43.59999],[-122.568251,43.60723],[-122.568241,43.610848],[-122.568241,43.61167],[-122.568241,43.611874],[-122.568793,43.611874],[-122.568844,43.611874],[-122.578182,43.611819],[-122.578721,43.611819]]]}},{"type":"Feature","properties":{"MAPTAXLOT":"2325000000500","MAPNUMBER":"23250000","TAXLOT":"500","ACCTNO":"0975506","MAPACRES":521.40442799},"geometry":{"type":"Polygon","coordinates":[[[-122.598584,43.611736],[-122.608014,43.611708],[-122.608014,43.611595],[-122.608013,43.610748],[-122.608007,43.60713],[-122.607992,43.599894],[-122.588122,43.599936],[-122.588072,43.599936],[-122.588112,43.607193],[-122.588121,43.610816],[-122.588123,43.611608],[-122.588123,43.611764],[-122.58865,43.611764],[-122.588712,43.611764],[-122.598069,43.611736],[-122.598584,43.611736]]]}},{"type":"Feature","properties":{"MAPTAXLOT":"2325000000800","MAPNUMBER":"23250000","TAXLOT":"800","ACCTNO":"0975530","MAPACRES":637.51113847},"geometry":{"type":"Polygon","coordinates":[[[-122.588072,43.599936],[-122.588122,43.599936],[-122.607992,43.599894],[-122.607991,43.599775],[-122.607901,43.585434],[-122.588106,43.585448],[-122.588081,43.585448],[-122.588072,43.599775],[-122.588072,43.599936]]]}},{"type":"Feature","properties":{"MAPTAXLOT":"2325000000900","MAPNUMBER":"23250000","TAXLOT":"900","ACCTNO":"0975548","MAPACRES":637.10302669},"geometry":{"type":"Polygon","coordinates":[[[-122.568298,43.59999],[-122.568345,43.59999],[-122.588072,43.599936],[-122.588072,43.599775],[-122.588081,43.585448],[-122.568218,43.585486],[-122.5682,43.585486],[-122.568296,43.599774],[-122.568298,43.59999]]]}},{"type":"Feature","properties":{"MAPTAXLOT":"2325000001000","MAPNUMBER":"23250000","TAXLOT":"1000","ACCTNO":"0975555","MAPACRES":240.61196639},"geometry":{"type":"Polygon","coordinates":[[[-122.538278,43.599878],[-122.548273,43.599909],[-122.54827,43.599628],[-122.548188,43.589048],[-122.538199,43.589032],[-122.538181,43.589032],[-122.538278,43.599878]]]}},{"type":"Feature","properties":{"MAPTAXLOT":"2325000001100","MAPNUMBER":"23250000","TAXLOT":"1100","ACCTNO":"0975563","MAPACRES":11524.77959864},"geometry":{"type":"Polygon","coordinates":[[[-122.5682,43.585486],[-122.568218,43.585486],[-122.588081,43.585448],[-122.588081,43.585266],[-122.5881,43.572796],[-122.587777,43.573084],[-122.583395,43.570499],[-122.583545,43.570364],[-122.584825,43.569221],[-122.584688,43.56914],[-122.584266,43.568891],[-122.584416,43.568757],[-122.585697,43.567613],[-122.58688,43.568311],[-122.58689,43.56818],[-122.588107,43.568238],[-122.588107,43.568031],[-122.588126,43.556496],[-122.588142,43.542006],[-122.588158,43.542006],[-122.608035,43.541992],[-122.608004,43.553638],[-122.608003,43.553816],[-122.610227,43.553524],[-122.610551,43.554945],[-122.61059,43.555112],[-122.609577,43.555238],[-122.609277,43.555276],[-122.611979,43.556611],[-122.612116,43.556499],[-122.613444,43.555404],[-122.615079,43.556466],[-122.615351,43.556465],[-122.617966,43.556456],[-122.62283,43.556438],[-122.62283,43.556282],[-122.622836,43.553956],[-122.62285,43.549199],[-122.622853,43.546718],[-122.622866,43.54196],[-122.622869,43.539479],[-122.622881,43.534722],[-122.622884,43.532241],[-122.622896,43.527485],[-122.618003,43.527489],[-122.613039,43.527494],[-122.608075,43.527498],[-122.60311,43.527503],[-122.598144,43.527508],[-122.593179,43.527513],[-122.588214,43.527518],[-122.583248,43.527514],[-122.578282,43.52751],[-122.57332,43.527506],[-122.573316,43.527506],[-122.56835,43.527502],[-122.563383,43.527508],[-122.558415,43.527513],[-122.553448,43.527519],[-122.54848,43.527525],[-122.543514,43.527529],[-122.538548,43.527534],[-122.533582,43.527539],[-122.528616,43.527544],[-122.523655,43.52754],[-122.518695,43.527535],[-122.513734,43.527531],[-122.508853,43.527527],[-122.508774,43.527527],[-122.508695,43.531892],[-122.508645,43.534644],[-122.508642,43.534793],[-122.50854,43.541698],[-122.508614,43.548882],[-122.508745,43.555476],[-122.508755,43.555986],[-122.508755,43.555992],[-122.508886,43.563092],[-122.508889,43.563182],[-122.508798,43.570199],[-122.508837,43.577344],[-122.508837,43.577415],[-122.508889,43.584225],[-122.508896,43.584225],[-122.518694,43.584224],[-122.528132,43.584172],[-122.528137,43.585404],[-122.538149,43.585416],[-122.548161,43.585428],[-122.548161,43.585114],[-122.548158,43.581807],[-122.548162,43.581807],[-122.568195,43.581863],[-122.5682,43.585247],[-122.5682,43.585486]]]}},{"type":"Feature","properties":{"MAPTAXLOT":"2325000001200","MAPNUMBER":"23250000","TAXLOT":"1200","ACCTNO":"0975571","MAPACRES":160.90790733},"geometry":{"type":"Polygon","coordinates":[[[-122.548161,43.585428],[-122.5682,43.585486],[-122.5682,43.585247],[-122.568195,43.581863],[-122.548162,43.581807],[-122.548158,43.581807],[-122.548161,43.585114],[-122.548161,43.585428]]]}},{"type":"Feature","properties":{"MAPTAXLOT":"2325170000100","MAPNUMBER":"23251700","TAXLOT":"100","ACCTNO":"0975589","MAPACRES":511.51594925},"geometry":{"type":"Polygon","coordinates":[[[-122.588081,43.585448],[-122.588106,43.585448],[-122.607901,43.585434],[-122.607901,43.585297],[-122.60791,43.58352],[-122.606832,43.583268],[-122.606917,43.583143],[-122.607203,43.582719],[-122.607293,43.582585],[-122.607834,43.581783],[-122.607918,43.581803],[-122.607919,43.581666],[-122.607971,43.57097],[-122.602462,43.570971],[-122.6017,43.571282],[-122.598004,43.57114],[-122.59347,43.570967],[-122.592617,43.570934],[-122.594914,43.571545],[-122.594981,43.571562],[-122.594847,43.571825],[-122.594759,43.571998],[-122.600151,43.572962],[-122.600211,43.572973],[-122.599506,43.57436],[-122.599425,43.57452],[-122.601191,43.574841],[-122.60649,43.574694],[-122.606585,43.576189],[-122.606594,43.576333],[-122.601295,43.576483],[-122.601289,43.576392],[-122.595805,43.575395],[-122.595707,43.573844],[-122.593974,43.573544],[-122.594061,43.573372],[-122.594196,43.573106],[-122.59413,43.573089],[-122.58913,43.57176],[-122.589209,43.571807],[-122.588116,43.572782],[-122.5881,43.572796],[-122.588081,43.585266],[-122.588081,43.585448]],[[-122.606975,43.578305],[-122.606875,43.57981],[-122.606865,43.579948],[-122.601213,43.579773],[-122.601323,43.578131],[-122.601338,43.578131],[-122.606975,43.578305]],[[-122.604071,43.58446],[-122.598572,43.583586],[-122.598621,43.583429],[-122.599064,43.58198],[-122.604548,43.582851],[-122.604562,43.582853],[-122.604071,43.58446]]]}},{"type":"Feature","properties":{"MAPTAXLOT":"2325170000400","MAPNUMBER":"23251700","TAXLOT":"400","ACCTNO":"0975613","MAPACRES":78.88059762},"geometry":{"type":"Polygon","coordinates":[[[-122.601289,43.576392],[-122.601295,43.576483],[-122.606594,43.576333],[-122.606585,43.576189],[-122.60649,43.574694],[-122.601191,43.574841],[-122.599425,43.57452],[-122.599506,43.57436],[-122.600211,43.572973],[-122.600151,43.572962],[-122.594759,43.571998],[-122.594847,43.571825],[-122.594981,43.571562],[-122.594914,43.571545],[-122.592617,43.570934],[-122.592347,43.570925],[-122.59235,43.570866],[-122.590026,43.570246],[-122.589309,43.570871],[-122.588771,43.571339],[-122.588628,43.571464],[-122.588834,43.571586],[-122.589084,43.571733],[-122.589128,43.571759],[-122.58913,43.57176],[-122.59413,43.573089],[-122.594196,43.573106],[-122.594061,43.573372],[-122.593974,43.573544],[-122.595707,43.573844],[-122.595805,43.575395],[-122.601289,43.576392]]]}},{"type":"Feature","properties":{"MAPTAXLOT":"2325200000100","MAPNUMBER":"23252000","TAXLOT":"100","ACCTNO":"0975761","MAPACRES":91.08101565},"geometry":{"type":"Polygon","coordinates":[[[-122.584825,43.569221],[-122.583545,43.570364],[-122.583395,43.570499],[-122.587777,43.573084],[-122.5881,43.572796],[-122.588116,43.572782],[-122.589209,43.571807],[-122.58913,43.57176],[-122.589128,43.571759],[-122.589084,43.571733],[-122.588834,43.571586],[-122.588628,43.571464],[-122.588771,43.571339],[-122.589309,43.570871],[-122.590026,43.570246],[-122.59008,43.570199],[-122.589953,43.570124],[-122.589676,43.569961],[-122.590059,43.569979],[-122.592406,43.570091],[-122.592364,43.570673],[-122.59235,43.570863],[-122.59235,43.570866],[-122.592347,43.570925],[-122.592617,43.570934],[-122.59347,43.570967],[-122.598004,43.57114],[-122.6017,43.571282],[-122.601713,43.571112],[-122.601827,43.569641],[-122.598132,43.569499],[-122.592471,43.569284],[-122.592536,43.568448],[-122.588107,43.568238],[-122.58689,43.56818],[-122.58688,43.568311],[-122.585697,43.567613],[-122.584416,43.568757],[-122.584266,43.568891],[-122.584688,43.56914],[-122.584825,43.569221]]]}},{"type":"Feature","properties":{"MAPTAXLOT":"2325200000200","MAPNUMBER":"23252000","TAXLOT":"200","ACCTNO":"0975787","MAPACRES":478.33645842},"geometry":{"type":"MultiPolygon","coordinates":[[[[-122.592471,43.569284],[-122.598132,43.569499],[-122.601827,43.569641],[-122.601835,43.569638],[-122.606659,43.567652],[-122.606481,43.567569],[-122.605031,43.566897],[-122.605142,43.566771],[-122.605409,43.566468],[-122.605298,43.566448],[-122.602119,43.565876],[-122.601776,43.565814],[-122.604523,43.567822],[-122.604628,43.567899],[-122.603251,43.568894],[-122.603021,43.56906],[-122.602958,43.569014],[-122.59904,43.56615],[-122.599174,43.566053],[-122.600007,43.565452],[-122.599861,43.565387],[-122.595407,43.563418],[-122.591478,43.560472],[-122.591591,43.560343],[-122.592703,43.559086],[-122.596632,43.562033],[-122.601401,43.564141],[-122.606523,43.565063],[-122.606634,43.565083],[-122.606347,43.565408],[-122.606235,43.565535],[-122.60798,43.566332],[-122.60798,43.566159],[-122.607995,43.556588],[-122.607796,43.556492],[-122.588132,43.556496],[-122.588126,43.556496],[-122.588107,43.568031],[-122.588107,43.568238],[-122.592536,43.568448],[-122.592471,43.569284]]],[[[-122.606649,43.569106],[-122.606637,43.569263],[-122.602871,43.570803],[-122.602462,43.570971],[-122.607971,43.57097],[-122.607972,43.570815],[-122.607976,43.568263],[-122.606766,43.567701],[-122.606757,43.567697],[-122.606649,43.569106]]],[[[-122.589953,43.570124],[-122.59008,43.570199],[-122.590026,43.570246],[-122.59235,43.570866],[-122.59235,43.570863],[-122.592364,43.570673],[-122.592406,43.570091],[-122.590059,43.569979],[-122.589676,43.569961],[-122.589953,43.570124]]]]}},{"type":"Feature","properties":{"MAPTAXLOT":"2325290000100","MAPNUMBER":"23252900","TAXLOT":"100","ACCTNO":"0975829","MAPACRES":611.59002416},"geometry":{"type":"Polygon","coordinates":[[[-122.588126,43.556496],[-122.588132,43.556496],[-122.607796,43.556492],[-122.607427,43.556314],[-122.606154,43.555697],[-122.605073,43.555811],[-122.604767,43.554505],[-122.602506,43.552562],[-122.602635,43.552465],[-122.604091,43.551377],[-122.607067,43.553939],[-122.608003,43.553816],[-122.608004,43.553638],[-122.608035,43.541992],[-122.588158,43.542006],[-122.588142,43.542006],[-122.588126,43.556496]]]}}]}