{"type":"FeatureCollection","features":[{"type":"Feature","properties":{"MAPTAXLOT":"1902000001800","MAPNUMBER":"19020000","TAXLOT":"1800","ACCTNO":"0823219","MAPACRES":121.33427105},"geometry":{"type":"Polygon","coordinates":[[[-122.866415,43.884226],[-122.866392,43.887832],[-122.866365,43.891446],[-122.866336,43.895057],[-122.866337,43.895057],[-122.871416,43.895102],[-122.871416,43.895101],[-122.871466,43.887872],[-122.871491,43.884264],[-122.866415,43.884226],[-122.866415,43.884226]]]}},{"type":"Feature","properties":{"MAPTAXLOT":"1902000001900","MAPNUMBER":"19020000","TAXLOT":"1900","ACCTNO":"0823227","MAPACRES":526.34887155},"geometry":{"type":"Polygon","coordinates":[[[-122.871416,43.895102],[-122.876496,43.895148],[-122.881563,43.895182],[-122.886656,43.895216],[-122.886656,43.895216],[-122.886659,43.894811],[-122.88668,43.891607],[-122.886704,43.887992],[-122.886728,43.884377],[-122.886753,43.880761],[-122.876595,43.880691],[-122.871516,43.880656],[-122.866438,43.880621],[-122.866415,43.884226],[-122.871491,43.884264],[-122.871466,43.887872],[-122.871416,43.895101],[-122.871416,43.895102]]]}},{"type":"Feature","properties":{"MAPTAXLOT":"1902000002100","MAPNUMBER":"19020000","TAXLOT":"2100","ACCTNO":"0823243","MAPACRES":79.15147878},"geometry":{"type":"Polygon","coordinates":[[[-122.886704,43.887992],[-122.891686,43.888001],[-122.891697,43.884397],[-122.891709,43.880793],[-122.886753,43.880761],[-122.886728,43.884377],[-122.886704,43.887992]]]}},{"type":"Feature","properties":{"MAPTAXLOT":"1902000002200","MAPNUMBER":"19020000","TAXLOT":"2200","ACCTNO":"0823250","MAPACRES":158.14090063},"geometry":{"type":"Polygon","coordinates":[[[-122.891663,43.895236],[-122.89667,43.89525],[-122.896669,43.891632],[-122.896668,43.888009],[-122.891686,43.888001],[-122.886704,43.887992],[-122.88668,43.891607],[-122.886659,43.894811],[-122.888451,43.895008],[-122.888678,43.895228],[-122.891663,43.895236]]]}},{"type":"Feature","properties":{"MAPTAXLOT":"1902000002300","MAPNUMBER":"19020000","TAXLOT":"2300","ACCTNO":"0823268","MAPACRES":78.8979603},"geometry":{"type":"Polygon","coordinates":[[[-122.891686,43.888001],[-122.896668,43.888009],[-122.896667,43.884417],[-122.896666,43.880825],[-122.891709,43.880793],[-122.891697,43.884397],[-122.891686,43.888001]]]}},{"type":"Feature","properties":{"MAPTAXLOT":"1902000002400","MAPNUMBER":"19020000","TAXLOT":"2400","ACCTNO":"0823276","MAPACRES":160.33448931},"geometry":{"type":"Polygon","coordinates":[[[-122.901677,43.895267],[-122.906684,43.895284],[-122.906695,43.891655],[-122.906707,43.888026],[-122.90165,43.888018],[-122.896668,43.888009],[-122.896669,43.891632],[-122.89667,43.89525],[-122.901677,43.895267]]]}},{"type":"Feature","properties":{"MAPTAXLOT":"1902000002500","MAPNUMBER":"19020000","TAXLOT":"2500","ACCTNO":"0823284","MAPACRES":39.36965904},"geometry":{"type":"Polygon","coordinates":[[[-122.896668,43.888009],[-122.90165,43.888018],[-122.901636,43.884437],[-122.896667,43.884417],[-122.896668,43.888009]]]}},{"type":"Feature","properties":{"MAPTAXLOT":"1902000002600","MAPNUMBER":"19020000","TAXLOT":"2600","ACCTNO":"0823292","MAPACRES":39.68569906},"geometry":{"type":"Polygon","coordinates":[[[-122.90165,43.888018],[-122.906707,43.888026],[-122.906643,43.884457],[-122.901636,43.884437],[-122.90165,43.888018]]]}},{"type":"Feature","properties":{"MAPTAXLOT":"1902000002700","MAPNUMBER":"19020000","TAXLOT":"2700","ACCTNO":"0823300","MAPACRES":78.56670327},"geometry":{"type":"Polygon","coordinates":[[[-122.901636,43.884437],[-122.906643,43.884457],[-122.90658,43.880888],[-122.901623,43.880857],[-122.896666,43.880825],[-122.896667,43.884417],[-122.901636,43.884437]]]}},{"type":"Feature","properties":{"MAPTAXLOT":"1902000004800","MAPNUMBER":"19020000","TAXLOT":"4800","ACCTNO":"0823565","MAPACRES":635.5648576},"geometry":{"type":"Polygon","coordinates":[[[-122.941401,43.881029],[-122.946432,43.881069],[-122.946457,43.873773],[-122.946559,43.866507],[-122.941547,43.866538],[-122.941545,43.866538],[-122.936533,43.866568],[-122.93653,43.866568],[-122.931571,43.866566],[-122.931568,43.866566],[-122.926609,43.866564],[-122.926549,43.87009],[-122.926491,43.873616],[-122.926465,43.87723],[-122.926441,43.880843],[-122.931405,43.88092],[-122.935184,43.880978],[-122.93637,43.880988],[-122.936438,43.880988],[-122.937253,43.880995],[-122.941401,43.881029]]]}},{"type":"Feature","properties":{"MAPTAXLOT":"1902000004900","MAPNUMBER":"19020000","TAXLOT":"4900","ACCTNO":"0823581","MAPACRES":275.07355389},"geometry":{"type":"Polygon","coordinates":[[[-122.921475,43.880855],[-122.926441,43.880843],[-122.926465,43.87723],[-122.926491,43.873616],[-122.926549,43.87009],[-122.926609,43.866564],[-122.923075,43.866557],[-122.923072,43.866557],[-122.921601,43.866553],[-122.921598,43.866553],[-122.91806,43.866547],[-122.918057,43.866547],[-122.91659,43.866544],[-122.916588,43.866544],[-122.916569,43.870084],[-122.921568,43.870087],[-122.921537,43.873632],[-122.916549,43.873649],[-122.916529,43.877257],[-122.91651,43.880866],[-122.921475,43.880855]]]}},{"type":"Feature","properties":{"MAPTAXLOT":"1902000005000","MAPNUMBER":"19020000","TAXLOT":"5000","ACCTNO":"0823599","MAPACRES":118.78893491},"geometry":{"type":"Polygon","coordinates":[[[-122.911545,43.880877],[-122.91651,43.880866],[-122.916529,43.877257],[-122.91155,43.877271],[-122.911556,43.873665],[-122.906563,43.87368],[-122.906571,43.877284],[-122.90658,43.880888],[-122.911545,43.880877]]]}},{"type":"Feature","properties":{"MAPTAXLOT":"1902000005100","MAPNUMBER":"19020000","TAXLOT":"5100","ACCTNO":"0823607","MAPACRES":236.96835122},"geometry":{"type":"Polygon","coordinates":[[[-122.91155,43.877271],[-122.916529,43.877257],[-122.916549,43.873649],[-122.921537,43.873632],[-122.921568,43.870087],[-122.916569,43.870084],[-122.916588,43.866544],[-122.913045,43.866521],[-122.913042,43.866521],[-122.911569,43.86651],[-122.911567,43.86651],[-122.90803,43.866488],[-122.908027,43.866488],[-122.906549,43.866473],[-122.906546,43.866473],[-122.906555,43.870077],[-122.906563,43.87368],[-122.911556,43.873665],[-122.91155,43.877271]]]}},{"type":"Feature","properties":{"MAPTAXLOT":"1902000005200","MAPNUMBER":"19020000","TAXLOT":"5200","ACCTNO":"0823615","MAPACRES":634.01218813},"geometry":{"type":"Polygon","coordinates":[[[-122.901623,43.880857],[-122.90658,43.880888],[-122.906571,43.877284],[-122.906563,43.87368],[-122.906555,43.870077],[-122.906546,43.866473],[-122.903055,43.866453],[-122.903053,43.866453],[-122.901518,43.866447],[-122.901516,43.866447],[-122.898081,43.866428],[-122.898079,43.866428],[-122.896488,43.866422],[-122.896486,43.866422],[-122.893073,43.866403],[-122.89307,43.866403],[-122.891482,43.866396],[-122.89148,43.866396],[-122.888064,43.866377],[-122.888062,43.866377],[-122.886476,43.866373],[-122.886753,43.880761],[-122.891709,43.880793],[-122.896666,43.880825],[-122.901623,43.880857]]]}},{"type":"Feature","properties":{"MAPTAXLOT":"1902000005300","MAPNUMBER":"19020000","TAXLOT":"5300","ACCTNO":"0823623","MAPACRES":640.46186678},"geometry":{"type":"Polygon","coordinates":[[[-122.866438,43.880621],[-122.871516,43.880656],[-122.876595,43.880691],[-122.886753,43.880761],[-122.886476,43.866373],[-122.88306,43.866361],[-122.883058,43.866361],[-122.881475,43.866356],[-122.881473,43.866356],[-122.878056,43.866345],[-122.878054,43.866345],[-122.876473,43.86634],[-122.873051,43.866271],[-122.871464,43.866239],[-122.86816,43.866173],[-122.866454,43.866139],[-122.866454,43.866264],[-122.866452,43.869759],[-122.866451,43.873379],[-122.866444,43.877],[-122.866438,43.88062],[-122.866438,43.880621]]]}},{"type":"Feature","properties":{"MAPTAXLOT":"1902270000077","MAPNUMBER":"19022700","TAXLOT":"77","ACCTNO":"000None","MAPACRES":1.03478911},"geometry":{"type":"Polygon","coordinates":[[[-122.922149,43.88452],[-122.926422,43.884522],[-122.926422,43.884402],[-122.926401,43.884412],[-122.922149,43.88441],[-122.922149,43.884465],[-122.922149,43.88452]]]}},{"type":"Feature","properties":{"MAPTAXLOT":"1902270000100","MAPNUMBER":"19022700","TAXLOT":"100","ACCTNO":"0828614","MAPACRES":310.78720871},"geometry":{"type":"Polygon","coordinates":[[[-122.921503,43.895248],[-122.926388,43.895331],[-122.92639,43.894428],[-122.926394,43.892465],[-122.926395,43.892396],[-122.926396,43.891711],[-122.921496,43.891697],[-122.916592,43.891683],[-122.911625,43.891669],[-122.911598,43.888043],[-122.911571,43.88446],[-122.916537,43.884463],[-122.91651,43.880866],[-122.911545,43.880877],[-122.90658,43.880888],[-122.906643,43.884457],[-122.906707,43.888026],[-122.906695,43.891655],[-122.906684,43.895284],[-122.911651,43.895224],[-122.916618,43.895165],[-122.921503,43.895248]]]}},{"type":"Feature","properties":{"MAPTAXLOT":"1902270000200","MAPNUMBER":"19022700","TAXLOT":"200","ACCTNO":"0828622","MAPACRES":33.59511001},"geometry":{"type":"Polygon","coordinates":[[[-122.921496,43.891697],[-122.926396,43.891711],[-122.926405,43.888091],[-122.921489,43.888075],[-122.921496,43.891697]],[[-122.924703,43.890369],[-122.924439,43.891121],[-122.922899,43.890024],[-122.922265,43.889723],[-122.921818,43.889323],[-122.922475,43.888954],[-122.923888,43.889457],[-122.924703,43.890369]]]}},{"type":"Feature","properties":{"MAPTAXLOT":"1902270000300","MAPNUMBER":"19022700","TAXLOT":"300","ACCTNO":"0828630","MAPACRES":5.61138524},"geometry":{"type":"Polygon","coordinates":[[[-122.922899,43.890024],[-122.924439,43.891121],[-122.924703,43.890369],[-122.923888,43.889457],[-122.922475,43.888954],[-122.921818,43.889323],[-122.922265,43.889723],[-122.922899,43.890024]]]}},{"type":"Feature","properties":{"MAPTAXLOT":"1902270000400","MAPNUMBER":"19022700","TAXLOT":"400","ACCTNO":"0828648","MAPACRES":196.37056863},"geometry":{"type":"Polygon","coordinates":[[[-122.916592,43.891683],[-122.921496,43.891697],[-122.921489,43.888075],[-122.926405,43.888091],[-122.926422,43.884522],[-122.922149,43.88452],[-122.922149,43.884465],[-122.921482,43.884465],[-122.916537,43.884463],[-122.911571,43.88446],[-122.911598,43.888043],[-122.911625,43.891669],[-122.916592,43.891683]]]}},{"type":"Feature","properties":{"MAPTAXLOT":"1902270000600","MAPNUMBER":"19022700","TAXLOT":"600","ACCTNO":"0828655","MAPACRES":78.40137211},"geometry":{"type":"Polygon","coordinates":[[[-122.922149,43.88441],[-122.926401,43.884412],[-122.926422,43.884402],[-122.926441,43.880843],[-122.921475,43.880855],[-122.91651,43.880866],[-122.916537,43.884463],[-122.921482,43.884465],[-122.922149,43.884465],[-122.922149,43.88441]]]}},{"type":"Feature","properties":{"MAPTAXLOT":"1902280000077","MAPNUMBER":"19022800","TAXLOT":"77","ACCTNO":"000None","MAPACRES":10.89552643},"geometry":{"type":"Polygon","coordinates":[[[-122.943637,43.895776],[-122.943881,43.895777],[-122.943841,43.895701],[-122.943585,43.895211],[-122.943374,43.894807],[-122.943103,43.894289],[-122.943037,43.894169],[-122.942965,43.89405],[-122.942888,43.893932],[-122.942806,43.893817],[-122.942719,43.893703],[-122.942627,43.893592],[-122.94253,43.893483],[-122.942446,43.893395],[-122.942281,43.893226],[-122.942087,43.893026],[-122.942016,43.892955],[-122.941944,43.892885],[-122.941799,43.892751],[-122.941648,43.89262],[-122.941491,43.892493],[-122.940635,43.891818],[-122.939831,43.891184],[-122.939754,43.891123],[-122.939544,43.890959],[-122.938717,43.890759],[-122.938552,43.890573],[-122.938276,43.889717],[-122.938161,43.889538],[-122.93797,43.889238],[-122.937597,43.88901],[-122.937179,43.888952],[-122.937024,43.88893],[-122.936363,43.888751],[-122.936064,43.888669],[-122.934875,43.888163],[-122.934786,43.888125],[-122.934395,43.887466],[-122.933593,43.887322],[-122.932932,43.886921],[-122.932959,43.886159],[-122.932397,43.88583],[-122.932194,43.885599],[-122.931926,43.885367],[-122.931636,43.885117],[-122.931213,43.885046],[-122.93063,43.885271],[-122.93015,43.88539],[-122.929832,43.885423],[-122.929518,43.885427],[-122.929213,43.885376],[-122.928704,43.885256],[-122.928138,43.885099],[-122.927819,43.884958],[-122.926931,43.884172],[-122.926428,43.8844],[-122.926422,43.884402],[-122.926422,43.884522],[-122.926427,43.884522],[-122.926444,43.884522],[-122.926898,43.884317],[-122.927718,43.885042],[-122.92807,43.885198],[-122.928654,43.88536],[-122.929173,43.885482],[-122.929502,43.885537],[-122.929844,43.885532],[-122.930186,43.885497],[-122.930691,43.885372],[-122.931234,43.885162],[-122.931553,43.885215],[-122.93181,43.885437],[-122.932071,43.885664],[-122.932282,43.885904],[-122.932806,43.88621],[-122.932779,43.886971],[-122.933522,43.887422],[-122.934285,43.88756],[-122.934642,43.888161],[-122.934667,43.888202],[-122.935999,43.888769],[-122.936363,43.888868],[-122.936983,43.889036],[-122.937529,43.889113],[-122.937846,43.889306],[-122.938132,43.889753],[-122.93841,43.890617],[-122.938619,43.890851],[-122.939459,43.891054],[-122.939557,43.891131],[-122.938725,43.891372],[-122.937446,43.89136],[-122.936641,43.891143],[-122.936362,43.891034],[-122.935285,43.890615],[-122.935024,43.890658],[-122.934014,43.891481],[-122.933776,43.891542],[-122.932635,43.891507],[-122.932254,43.891633],[-122.932141,43.891754],[-122.931926,43.891983],[-122.931381,43.892083],[-122.931381,43.89205],[-122.931192,43.89209],[-122.930961,43.892328],[-122.930611,43.892477],[-122.929572,43.892718],[-122.929499,43.892775],[-122.929416,43.89284],[-122.929059,43.893119],[-122.928651,43.89365],[-122.928749,43.893692],[-122.928849,43.893731],[-122.929226,43.893231],[-122.929321,43.893157],[-122.929698,43.892862],[-122.930704,43.892628],[-122.931119,43.892452],[-122.931332,43.892232],[-122.93138,43.892222],[-122.93138,43.892196],[-122.93148,43.892178],[-122.931569,43.892161],[-122.93202,43.892079],[-122.932323,43.891756],[-122.932356,43.89172],[-122.932665,43.891618],[-122.933798,43.891653],[-122.934101,43.891576],[-122.934252,43.891452],[-122.935105,43.890757],[-122.935263,43.890731],[-122.936361,43.891159],[-122.936578,43.891243],[-122.93658,43.891244],[-122.937418,43.89147],[-122.938753,43.891482],[-122.939552,43.891251],[-122.940137,43.891671],[-122.940323,43.891816],[-122.941323,43.892604],[-122.941476,43.892728],[-122.941623,43.892856],[-122.941765,43.892987],[-122.941901,43.893121],[-122.94226,43.89349],[-122.942368,43.893605],[-122.942471,43.893723],[-122.942567,43.893843],[-122.942657,43.893966],[-122.942741,43.894091],[-122.942819,43.894218],[-122.94289,43.894348],[-122.943155,43.894854],[-122.943356,43.895239],[-122.943416,43.895353],[-122.943463,43.895443],[-122.943637,43.895776]]]}},{"type":"Feature","properties":{"MAPTAXLOT":"1902280000800","MAPNUMBER":"19022800","TAXLOT":"800","ACCTNO":"0828879","MAPACRES":1.13047831},"geometry":{"type":"Polygon","coordinates":[[[-122.936363,43.888751],[-122.937024,43.88893],[-122.937179,43.888952],[-122.937179,43.888397],[-122.937179,43.888254],[-122.936364,43.888208],[-122.936364,43.888217],[-122.936363,43.888751]]]}},{"type":"Feature","properties":{"MAPTAXLOT":"1902280000802","MAPNUMBER":"19022800","TAXLOT":"802","ACCTNO":"0828895","MAPACRES":2.97512151},"geometry":{"type":"Polygon","coordinates":[[[-122.936366,43.885573],[-122.937181,43.88558],[-122.937731,43.885584],[-122.937731,43.885568],[-122.937732,43.884597],[-122.937197,43.884592],[-122.936381,43.884586],[-122.936367,43.884585],[-122.936366,43.885555],[-122.936366,43.885573]]]}},{"type":"Feature","properties":{"MAPTAXLOT":"1902280000803","MAPNUMBER":"19022800","TAXLOT":"803","ACCTNO":"1004694","MAPACRES":9.98862195},"geometry":{"type":"Polygon","coordinates":[[[-122.937446,43.89136],[-122.938725,43.891372],[-122.939557,43.891131],[-122.939459,43.891054],[-122.938619,43.890851],[-122.93841,43.890617],[-122.938132,43.889753],[-122.937846,43.889306],[-122.937529,43.889113],[-122.936983,43.889036],[-122.936363,43.888868],[-122.936362,43.891034],[-122.936641,43.891143],[-122.937446,43.89136]]]}},{"type":"Feature","properties":{"MAPTAXLOT":"1902280000805","MAPNUMBER":"19022800","TAXLOT":"805","ACCTNO":"1004710","MAPACRES":10.32842424},"geometry":{"type":"Polygon","coordinates":[[[-122.938276,43.889717],[-122.938552,43.890573],[-122.939246,43.88996],[-122.943744,43.889987],[-122.943753,43.889164],[-122.938879,43.889135],[-122.938161,43.889538],[-122.938276,43.889717]]]}},{"type":"Feature","properties":{"MAPTAXLOT":"1902280000806","MAPNUMBER":"19022800","TAXLOT":"806","ACCTNO":"1060043","MAPACRES":22.43279592},"geometry":{"type":"Polygon","coordinates":[[[-122.939847,43.891061],[-122.946307,43.8911],[-122.946303,43.88918],[-122.943753,43.889164],[-122.943744,43.889987],[-122.939246,43.88996],[-122.938552,43.890573],[-122.938717,43.890759],[-122.939544,43.890959],[-122.939754,43.891123],[-122.939847,43.891061]]]}},{"type":"Feature","properties":{"MAPTAXLOT":"1902280000808","MAPNUMBER":"19022800","TAXLOT":"808","ACCTNO":"1144839","MAPACRES":90.36513563},"geometry":{"type":"Polygon","coordinates":[[[-122.937179,43.888952],[-122.937597,43.88901],[-122.93797,43.889238],[-122.938161,43.889538],[-122.938879,43.889135],[-122.943753,43.889164],[-122.946303,43.88918],[-122.946301,43.888259],[-122.946367,43.884667],[-122.941385,43.884626],[-122.937732,43.884597],[-122.937731,43.885568],[-122.937731,43.885584],[-122.937181,43.88558],[-122.937179,43.888254],[-122.937179,43.888397],[-122.937179,43.888952]]]}},{"type":"Feature","properties":{"MAPTAXLOT":"1902280000810","MAPNUMBER":"19022800","TAXLOT":"810","ACCTNO":"1132834","MAPACRES":4.77582937},"geometry":{"type":"Polygon","coordinates":[[[-122.936364,43.888208],[-122.937179,43.888254],[-122.937181,43.88558],[-122.936366,43.885573],[-122.936364,43.888175],[-122.936364,43.888208]]]}},{"type":"Feature","properties":{"MAPTAXLOT":"1902280001000","MAPNUMBER":"19022800","TAXLOT":"1000","ACCTNO":"1011889","MAPACRES":39.88847665},"geometry":{"type":"Polygon","coordinates":[[[-122.93637,43.880996],[-122.936367,43.884567],[-122.936367,43.884585],[-122.936381,43.884586],[-122.937197,43.884592],[-122.937732,43.884597],[-122.941385,43.884626],[-122.941385,43.884617],[-122.941393,43.882829],[-122.941393,43.882826],[-122.941401,43.881029],[-122.937253,43.880995],[-122.936438,43.880988],[-122.93637,43.880988],[-122.93637,43.880996]]]}},{"type":"Feature","properties":{"MAPTAXLOT":"1902280001100","MAPNUMBER":"19022800","TAXLOT":"1100","ACCTNO":"0828937","MAPACRES":155.44780937},"geometry":{"type":"MultiPolygon","coordinates":[[[[-122.931636,43.885117],[-122.931926,43.885367],[-122.932194,43.885599],[-122.932397,43.88583],[-122.932959,43.886159],[-122.932932,43.886921],[-122.933593,43.887322],[-122.934395,43.887466],[-122.934786,43.888125],[-122.934875,43.888163],[-122.936364,43.888175],[-122.936366,43.885573],[-122.936366,43.885555],[-122.936367,43.884585],[-122.936367,43.884567],[-122.93637,43.880996],[-122.93637,43.880988],[-122.935184,43.880978],[-122.931405,43.88092],[-122.926441,43.880843],[-122.926422,43.884402],[-122.926428,43.8844],[-122.926931,43.884172],[-122.927819,43.884958],[-122.928138,43.885099],[-122.928704,43.885256],[-122.929213,43.885376],[-122.929518,43.885427],[-122.929832,43.885423],[-122.93015,43.88539],[-122.93063,43.885271],[-122.931213,43.885046],[-122.931636,43.885117]]],[[[-122.926405,43.888091],[-122.926414,43.888091],[-122.931389,43.888133],[-122.934642,43.888161],[-122.934285,43.88756],[-122.933522,43.887422],[-122.932779,43.886971],[-122.932806,43.88621],[-122.932282,43.885904],[-122.932071,43.885664],[-122.93181,43.885437],[-122.931553,43.885215],[-122.931234,43.885162],[-122.930691,43.885372],[-122.930186,43.885497],[-122.929844,43.885532],[-122.929502,43.885537],[-122.929173,43.885482],[-122.928654,43.88536],[-122.92807,43.885198],[-122.927718,43.885042],[-122.926898,43.884317],[-122.926444,43.884522],[-122.926427,43.884522],[-122.926422,43.884522],[-122.926405,43.888091]]]]}},{"type":"Feature","properties":{"MAPTAXLOT":"1902280001200","MAPNUMBER":"19022800","TAXLOT":"1200","ACCTNO":"0828945","MAPACRES":1.00530029},"geometry":{"type":"Polygon","coordinates":[[[-122.936064,43.888669],[-122.936363,43.888751],[-122.936364,43.888217],[-122.936364,43.888208],[-122.936364,43.888175],[-122.934875,43.888163],[-122.936064,43.888669]]]}},{"type":"Feature","properties":{"MAPTAXLOT":"1902280001202","MAPNUMBER":"19022800","TAXLOT":"1202","ACCTNO":"1915714","MAPACRES":72.59820996},"geometry":{"type":"Polygon","coordinates":[[[-122.926396,43.891711],[-122.926401,43.891711],[-122.931381,43.891749],[-122.932141,43.891754],[-122.932254,43.891633],[-122.932635,43.891507],[-122.933776,43.891542],[-122.934014,43.891481],[-122.935024,43.890658],[-122.935285,43.890615],[-122.936362,43.891034],[-122.936363,43.888868],[-122.935999,43.888769],[-122.934667,43.888202],[-122.934642,43.888161],[-122.931389,43.888133],[-122.926414,43.888091],[-122.926405,43.888091],[-122.926396,43.891711]]]}},{"type":"Feature","properties":{"MAPTAXLOT":"2002000000100","MAPNUMBER":"20020000","TAXLOT":"100","ACCTNO":"0878924","MAPACRES":574.68607083},"geometry":{"type":"Polygon","coordinates":[[[-122.886476,43.866373],[-122.888062,43.866377],[-122.888064,43.866377],[-122.888124,43.863841],[-122.888163,43.862116],[-122.888203,43.860391],[-122.888125,43.856777],[-122.888046,43.853164],[-122.883083,43.853137],[-122.87812,43.853109],[-122.873167,43.853183],[-122.868523,43.853252],[-122.868476,43.85493],[-122.868429,43.856608],[-122.868426,43.856698],[-122.868334,43.859964],[-122.868332,43.860037],[-122.86833,43.860143],[-122.86824,43.86332],[-122.868236,43.863454],[-122.868233,43.863589],[-122.86816,43.866173],[-122.871464,43.866239],[-122.873051,43.866271],[-122.876473,43.86634],[-122.878054,43.866345],[-122.878056,43.866345],[-122.881473,43.866356],[-122.881475,43.866356],[-122.883058,43.866361],[-122.88306,43.866361],[-122.886476,43.866373]]]}},{"type":"Feature","properties":{"MAPTAXLOT":"2002000000200","MAPNUMBER":"20020000","TAXLOT":"200","ACCTNO":"0878932","MAPACRES":203.30844627},"geometry":{"type":"Polygon","coordinates":[[[-122.896488,43.866422],[-122.898079,43.866428],[-122.898081,43.866428],[-122.898067,43.863884],[-122.898047,43.860434],[-122.903014,43.860456],[-122.902988,43.856728],[-122.902963,43.853159],[-122.902963,43.853159],[-122.900485,43.85316],[-122.900485,43.85316],[-122.900507,43.856736],[-122.898026,43.856745],[-122.895532,43.856753],[-122.895541,43.858588],[-122.893045,43.858587],[-122.893052,43.860412],[-122.893058,43.862137],[-122.888163,43.862116],[-122.888124,43.863841],[-122.888064,43.866377],[-122.89148,43.866396],[-122.891482,43.866396],[-122.89307,43.866403],[-122.893073,43.866403],[-122.896486,43.866422],[-122.896488,43.866422]]]}},{"type":"Feature","properties":{"MAPTAXLOT":"2002000000201","MAPNUMBER":"20020000","TAXLOT":"201","ACCTNO":"1471851","MAPACRES":166.23165718},"geometry":{"type":"Polygon","coordinates":[[[-122.888163,43.862116],[-122.893058,43.862137],[-122.893052,43.860412],[-122.893045,43.858587],[-122.895541,43.858588],[-122.895532,43.856753],[-122.898026,43.856745],[-122.900507,43.856736],[-122.900485,43.85316],[-122.900485,43.85316],[-122.898006,43.853161],[-122.893026,43.853163],[-122.888046,43.853164],[-122.888125,43.856777],[-122.888203,43.860391],[-122.888163,43.862116]]]}},{"type":"Feature","properties":{"MAPTAXLOT":"2002000000600","MAPNUMBER":"20020000","TAXLOT":"600","ACCTNO":"0878940","MAPACRES":209.00099361},"geometry":{"type":"Polygon","coordinates":[[[-122.906549,43.866473],[-122.908027,43.866488],[-122.90803,43.866488],[-122.907932,43.863927],[-122.907922,43.863653],[-122.907798,43.860477],[-122.9078,43.86037],[-122.907863,43.856711],[-122.907867,43.856425],[-122.907921,43.853157],[-122.903011,43.853159],[-122.902963,43.853159],[-122.902963,43.853159],[-122.902988,43.856728],[-122.903014,43.860456],[-122.898047,43.860434],[-122.898067,43.863884],[-122.898081,43.866428],[-122.901516,43.866447],[-122.901518,43.866447],[-122.903053,43.866453],[-122.903055,43.866453],[-122.906546,43.866473],[-122.906549,43.866473]]]}},{"type":"Feature","properties":{"MAPTAXLOT":"2002000000700","MAPNUMBER":"20020000","TAXLOT":"700","ACCTNO":"0878957","MAPACRES":271.15696262},"geometry":{"type":"Polygon","coordinates":[[[-122.923075,43.866557],[-122.926609,43.866564],[-122.926921,43.863346],[-122.927267,43.85978],[-122.927242,43.859781],[-122.922982,43.85991],[-122.917977,43.860062],[-122.912992,43.860213],[-122.9078,43.86037],[-122.907798,43.860477],[-122.907922,43.863653],[-122.907932,43.863927],[-122.90803,43.866488],[-122.911567,43.86651],[-122.911569,43.86651],[-122.913042,43.866521],[-122.913045,43.866521],[-122.916588,43.866544],[-122.91659,43.866544],[-122.918057,43.866547],[-122.91806,43.866547],[-122.921598,43.866553],[-122.921601,43.866553],[-122.923072,43.866557],[-122.923075,43.866557]]]}},{"type":"Feature","properties":{"MAPTAXLOT":"2002000000800","MAPNUMBER":"20020000","TAXLOT":"800","ACCTNO":"0878965","MAPACRES":254.31188228},"geometry":{"type":"Polygon","coordinates":[[[-122.907863,43.856711],[-122.9078,43.86037],[-122.912992,43.860213],[-122.917977,43.860062],[-122.922982,43.85991],[-122.92293,43.856222],[-122.922879,43.852498],[-122.91788,43.852459],[-122.91668,43.85249],[-122.915444,43.852522],[-122.912929,43.852507],[-122.907925,43.852479],[-122.907921,43.853157],[-122.907867,43.856425],[-122.907863,43.856711]]]}},{"type":"Feature","properties":{"MAPTAXLOT":"2002000000900","MAPNUMBER":"20020000","TAXLOT":"900","ACCTNO":"0878973","MAPACRES":36.05775964},"geometry":{"type":"Polygon","coordinates":[[[-122.92293,43.856222],[-122.922982,43.85991],[-122.927242,43.859781],[-122.927267,43.85978],[-122.927591,43.856159],[-122.927579,43.856159],[-122.92293,43.856222]]]}},{"type":"Feature","properties":{"MAPTAXLOT":"2002000001000","MAPNUMBER":"20020000","TAXLOT":"1000","ACCTNO":"0878981","MAPACRES":39.31423569},"geometry":{"type":"Polygon","coordinates":[[[-122.92293,43.856222],[-122.927579,43.856159],[-122.927591,43.856159],[-122.927917,43.852537],[-122.922879,43.852498],[-122.92293,43.856222]]]}},{"type":"Feature","properties":{"MAPTAXLOT":"2002000001100","MAPNUMBER":"20020000","TAXLOT":"1100","ACCTNO":"0878999","MAPACRES":381.17166694},"geometry":{"type":"Polygon","coordinates":[[[-122.946559,43.866507],[-122.946561,43.866507],[-122.946757,43.863155],[-122.941818,43.863203],[-122.936824,43.863251],[-122.937141,43.85966],[-122.937458,43.85605],[-122.937784,43.852352],[-122.932851,43.852445],[-122.927917,43.852537],[-122.927591,43.856159],[-122.927267,43.85978],[-122.926921,43.863346],[-122.926609,43.866564],[-122.931568,43.866566],[-122.931571,43.866566],[-122.93653,43.866568],[-122.936533,43.866568],[-122.941545,43.866538],[-122.941547,43.866538],[-122.946559,43.866507]]]}},{"type":"Feature","properties":{"MAPTAXLOT":"2002000001500","MAPNUMBER":"20020000","TAXLOT":"1500","ACCTNO":"0879039","MAPACRES":235.77115572},"geometry":{"type":"Polygon","coordinates":[[[-122.941818,43.863203],[-122.946757,43.863155],[-122.946969,43.859539],[-122.947099,43.858088],[-122.947291,43.855941],[-122.947613,43.852342],[-122.942699,43.852347],[-122.937784,43.852352],[-122.937458,43.85605],[-122.937141,43.85966],[-122.936824,43.863251],[-122.941818,43.863203]]]}},{"type":"Feature","properties":{"MAPTAXLOT":"2002000002900","MAPNUMBER":"20020000","TAXLOT":"2900","ACCTNO":"0879187","MAPACRES":564.71108913},"geometry":{"type":"Polygon","coordinates":[[[-122.942699,43.852347],[-122.947613,43.852342],[-122.947784,43.845155],[-122.947827,43.843358],[-122.942911,43.843401],[-122.942954,43.841603],[-122.94304,43.838007],[-122.938125,43.838047],[-122.93321,43.838087],[-122.928295,43.838126],[-122.9282,43.841729],[-122.928106,43.845332],[-122.927917,43.852537],[-122.932851,43.852445],[-122.937784,43.852352],[-122.942699,43.852347]]]}},{"type":"Feature","properties":{"MAPTAXLOT":"2002000003000","MAPNUMBER":"20020000","TAXLOT":"3000","ACCTNO":"0879195","MAPACRES":637.64765729},"geometry":{"type":"Polygon","coordinates":[[[-122.922879,43.852498],[-122.927917,43.852537],[-122.928106,43.845332],[-122.9282,43.841729],[-122.928295,43.838126],[-122.923252,43.838125],[-122.918209,43.838123],[-122.913159,43.838105],[-122.908109,43.838087],[-122.908099,43.838677],[-122.908069,43.84169],[-122.908064,43.842298],[-122.908034,43.845293],[-122.908029,43.845918],[-122.907981,43.848886],[-122.907972,43.849539],[-122.907925,43.852479],[-122.912929,43.852507],[-122.915444,43.852522],[-122.91668,43.85249],[-122.91788,43.852459],[-122.922879,43.852498]]]}},{"type":"Feature","properties":{"MAPTAXLOT":"2002000003100","MAPNUMBER":"20020000","TAXLOT":"3100","ACCTNO":"0879203","MAPACRES":39.70028091},"geometry":{"type":"Polygon","coordinates":[[[-122.888135,43.845937],[-122.89308,43.845933],[-122.893107,43.842305],[-122.888141,43.842307],[-122.888135,43.845937]]]}},{"type":"Feature","properties":{"MAPTAXLOT":"2002000003101","MAPNUMBER":"20020000","TAXLOT":"3101","ACCTNO":"0879211","MAPACRES":358.70127725},"geometry":{"type":"Polygon","coordinates":[[[-122.903011,43.853159],[-122.907921,43.853157],[-122.907925,43.852479],[-122.907972,43.849539],[-122.907981,43.848886],[-122.908029,43.845918],[-122.903069,43.845923],[-122.90311,43.842301],[-122.898093,43.842303],[-122.898123,43.838641],[-122.893135,43.838659],[-122.888146,43.838678],[-122.888141,43.842307],[-122.893107,43.842305],[-122.89308,43.845933],[-122.893053,43.849548],[-122.898035,43.849545],[-122.898006,43.853161],[-122.900485,43.85316],[-122.902963,43.853159],[-122.903011,43.853159]]]}},{"type":"Feature","properties":{"MAPTAXLOT":"2002000003200","MAPNUMBER":"20020000","TAXLOT":"3200","ACCTNO":"0879229","MAPACRES":119.80540955},"geometry":{"type":"Polygon","coordinates":[[[-122.903069,43.845923],[-122.908029,43.845918],[-122.908034,43.845293],[-122.908064,43.842298],[-122.908069,43.84169],[-122.908099,43.838677],[-122.903151,43.838659],[-122.898123,43.838641],[-122.898093,43.842303],[-122.90311,43.842301],[-122.903069,43.845923]]]}},{"type":"Feature","properties":{"MAPTAXLOT":"2002000003400","MAPNUMBER":"20020000","TAXLOT":"3400","ACCTNO":"0879237","MAPACRES":118.92994625},"geometry":{"type":"Polygon","coordinates":[[[-122.893026,43.853163],[-122.898006,43.853161],[-122.898035,43.849545],[-122.893053,43.849548],[-122.89308,43.845933],[-122.888135,43.845937],[-122.888091,43.849551],[-122.888046,43.853164],[-122.893026,43.853163]]]}},{"type":"Feature","properties":{"MAPTAXLOT":"2002000003500","MAPNUMBER":"20020000","TAXLOT":"3500","ACCTNO":"0879245","MAPACRES":39.48979033},"geometry":{"type":"Polygon","coordinates":[[[-122.883083,43.853137],[-122.888046,43.853164],[-122.888091,43.849551],[-122.883097,43.849564],[-122.883083,43.853137]]]}},{"type":"Feature","properties":{"MAPTAXLOT":"2002000003600","MAPNUMBER":"20020000","TAXLOT":"3600","ACCTNO":"0879252","MAPACRES":79.89647629},"geometry":{"type":"Polygon","coordinates":[[[-122.883097,43.849564],[-122.888091,43.849551],[-122.888135,43.845937],[-122.88311,43.845941],[-122.878125,43.845944],[-122.878122,43.849577],[-122.883097,43.849564]]]}},{"type":"Feature","properties":{"MAPTAXLOT":"2002000003601","MAPNUMBER":"20020000","TAXLOT":"3601","ACCTNO":"1471760","MAPACRES":38.96626733},"geometry":{"type":"Polygon","coordinates":[[[-122.87812,43.853109],[-122.883083,43.853137],[-122.883097,43.849564],[-122.878122,43.849577],[-122.87812,43.853109]]]}},{"type":"Feature","properties":{"MAPTAXLOT":"2002000003700","MAPNUMBER":"20020000","TAXLOT":"3700","ACCTNO":"0879260","MAPACRES":199.22767542},"geometry":{"type":"Polygon","coordinates":[[[-122.88311,43.845941],[-122.888135,43.845937],[-122.888141,43.842307],[-122.888146,43.838678],[-122.883138,43.838712],[-122.87813,43.838747],[-122.873126,43.838714],[-122.873136,43.842302],[-122.878127,43.842304],[-122.878125,43.845944],[-122.88311,43.845941]]]}},{"type":"Feature","properties":{"MAPTAXLOT":"2002000003800","MAPNUMBER":"20020000","TAXLOT":"3800","ACCTNO":"0879278","MAPACRES":153.05841671},"geometry":{"type":"Polygon","coordinates":[[[-122.873167,43.853183],[-122.87812,43.853109],[-122.878122,43.849577],[-122.878125,43.845944],[-122.873146,43.845948],[-122.868549,43.84595],[-122.868548,43.84595],[-122.868536,43.849601],[-122.868523,43.853252],[-122.873167,43.853183]]]}},{"type":"Feature","properties":{"MAPTAXLOT":"2002000003900","MAPNUMBER":"20020000","TAXLOT":"3900","ACCTNO":"0879286","MAPACRES":113.32086244},"geometry":{"type":"Polygon","coordinates":[[[-122.873146,43.845948],[-122.878125,43.845944],[-122.878127,43.842304],[-122.873136,43.842302],[-122.873126,43.838714],[-122.868573,43.838685],[-122.868561,43.8423],[-122.868548,43.84595],[-122.868549,43.84595],[-122.873146,43.845948]]]}},{"type":"Feature","properties":{"MAPTAXLOT":"2002000004000","MAPNUMBER":"20020000","TAXLOT":"4000","ACCTNO":"0879294","MAPACRES":620.83551081},"geometry":{"type":"Polygon","coordinates":[[[-122.868804,43.82742],[-122.868805,43.827843],[-122.868819,43.831163],[-122.86881,43.831411],[-122.868696,43.834906],[-122.868691,43.835048],[-122.868573,43.838649],[-122.868573,43.838685],[-122.873126,43.838714],[-122.87813,43.838747],[-122.883138,43.838712],[-122.888146,43.838678],[-122.888169,43.835045],[-122.888192,43.831413],[-122.888202,43.827819],[-122.888211,43.824225],[-122.883263,43.824238],[-122.878315,43.82425],[-122.873368,43.824263],[-122.868792,43.824275],[-122.868804,43.82742]]]}},{"type":"Feature","properties":{"MAPTAXLOT":"2002000004100","MAPNUMBER":"20020000","TAXLOT":"4100","ACCTNO":"0879302","MAPACRES":82.2998264},"geometry":{"type":"Polygon","coordinates":[[[-122.893135,43.838659],[-122.898123,43.838641],[-122.898123,43.834792],[-122.893143,43.834919],[-122.888169,43.835045],[-122.888146,43.838678],[-122.893135,43.838659]]]}},{"type":"Feature","properties":{"MAPTAXLOT":"2002000004200","MAPNUMBER":"20020000","TAXLOT":"4200","ACCTNO":"0879310","MAPACRES":357.23019341},"geometry":{"type":"Polygon","coordinates":[[[-122.888192,43.831413],[-122.888169,43.835045],[-122.893143,43.834919],[-122.893152,43.831291],[-122.89316,43.827712],[-122.898124,43.827604],[-122.898124,43.831169],[-122.903175,43.831045],[-122.903164,43.834664],[-122.908171,43.834536],[-122.908172,43.834504],[-122.908234,43.83092],[-122.908252,43.827383],[-122.90827,43.823846],[-122.903197,43.823926],[-122.898124,43.824006],[-122.893168,43.824116],[-122.888211,43.824225],[-122.888202,43.827819],[-122.888192,43.831413]]]}},{"type":"Feature","properties":{"MAPTAXLOT":"2002000004300","MAPNUMBER":"20020000","TAXLOT":"4300","ACCTNO":"0879328","MAPACRES":207.66748273},"geometry":{"type":"Polygon","coordinates":[[[-122.903151,43.838659],[-122.908099,43.838677],[-122.908109,43.838087],[-122.908171,43.834536],[-122.903164,43.834664],[-122.903175,43.831045],[-122.898124,43.831169],[-122.898124,43.827604],[-122.89316,43.827712],[-122.893152,43.831291],[-122.893143,43.834919],[-122.898123,43.834792],[-122.898123,43.838641],[-122.903151,43.838659]]]}},{"type":"Feature","properties":{"MAPTAXLOT":"2002000004400","MAPNUMBER":"20020000","TAXLOT":"4400","ACCTNO":"0879336","MAPACRES":357.24466548},"geometry":{"type":"Polygon","coordinates":[[[-122.918228,43.834531],[-122.923271,43.834544],[-122.92329,43.830971],[-122.92331,43.827343],[-122.923329,43.823718],[-122.918286,43.823766],[-122.913278,43.823806],[-122.90827,43.823846],[-122.908252,43.827383],[-122.908234,43.83092],[-122.908172,43.834504],[-122.913189,43.834517],[-122.918228,43.834531]]]}},{"type":"Feature","properties":{"MAPTAXLOT":"2002000004500","MAPNUMBER":"20020000","TAXLOT":"4500","ACCTNO":"0879344","MAPACRES":278.83553453},"geometry":{"type":"Polygon","coordinates":[[[-122.923252,43.838125],[-122.928295,43.838126],[-122.928263,43.834557],[-122.928231,43.830988],[-122.928302,43.827329],[-122.928372,43.823671],[-122.923329,43.823718],[-122.92331,43.827343],[-122.92329,43.830971],[-122.923271,43.834544],[-122.918228,43.834531],[-122.913189,43.834517],[-122.908172,43.834504],[-122.908171,43.834536],[-122.908109,43.838087],[-122.913159,43.838105],[-122.918209,43.838123],[-122.923252,43.838125]]]}},{"type":"Feature","properties":{"MAPTAXLOT":"2002000004600","MAPNUMBER":"20020000","TAXLOT":"4600","ACCTNO":"0879351","MAPACRES":156.64366559},"geometry":{"type":"Polygon","coordinates":[[[-122.93321,43.838087],[-122.938125,43.838047],[-122.938157,43.834447],[-122.93819,43.830847],[-122.933261,43.830917],[-122.928231,43.830988],[-122.928263,43.834557],[-122.928295,43.838126],[-122.93321,43.838087]]]}},{"type":"Feature","properties":{"MAPTAXLOT":"2002000004700","MAPNUMBER":"20020000","TAXLOT":"4700","ACCTNO":"0879369","MAPACRES":376.30995545},"geometry":{"type":"Polygon","coordinates":[[[-122.938125,43.838047],[-122.94304,43.838007],[-122.943084,43.834392],[-122.943128,43.830776],[-122.945596,43.830741],[-122.945646,43.827107],[-122.94812,43.827075],[-122.948176,43.823445],[-122.943215,43.823531],[-122.938255,43.823618],[-122.933313,43.823644],[-122.928372,43.823671],[-122.928302,43.827329],[-122.928231,43.830988],[-122.933261,43.830917],[-122.93819,43.830847],[-122.938157,43.834447],[-122.938125,43.838047]]]}},{"type":"Feature","properties":{"MAPTAXLOT":"2002000005300","MAPNUMBER":"20020000","TAXLOT":"5300","ACCTNO":"0879427","MAPACRES":158.47031731},"geometry":{"type":"Polygon","coordinates":[[[-122.943215,43.823531],[-122.948176,43.823445],[-122.948202,43.819844],[-122.943235,43.819903],[-122.938279,43.819963],[-122.933331,43.820022],[-122.928419,43.82008],[-122.928372,43.823671],[-122.933313,43.823644],[-122.938255,43.823618],[-122.943215,43.823531]]]}},{"type":"Feature","properties":{"MAPTAXLOT":"2002000005400","MAPNUMBER":"20020000","TAXLOT":"5400","ACCTNO":"0879435","MAPACRES":157.00851245},"geometry":{"type":"Polygon","coordinates":[[[-122.943235,43.819903],[-122.948202,43.819844],[-122.948228,43.816243],[-122.943254,43.816305],[-122.938302,43.816367],[-122.933348,43.816429],[-122.928465,43.81649],[-122.928419,43.82008],[-122.933331,43.820022],[-122.938279,43.819963],[-122.943235,43.819903]]]}},{"type":"Feature","properties":{"MAPTAXLOT":"2002000005800","MAPNUMBER":"20020000","TAXLOT":"5800","ACCTNO":"0879476","MAPACRES":639.61731468},"geometry":{"type":"Polygon","coordinates":[[[-122.923329,43.823718],[-122.928372,43.823671],[-122.928419,43.82008],[-122.928465,43.81649],[-122.92844,43.812924],[-122.928415,43.809358],[-122.923376,43.809417],[-122.918335,43.809476],[-122.913214,43.809502],[-122.908094,43.809528],[-122.908138,43.813108],[-122.908182,43.816687],[-122.908226,43.820267],[-122.90827,43.823846],[-122.913278,43.823806],[-122.918286,43.823766],[-122.923329,43.823718]]]}},{"type":"Feature","properties":{"MAPTAXLOT":"2002000005900","MAPNUMBER":"20020000","TAXLOT":"5900","ACCTNO":"0879484","MAPACRES":119.25953571},"geometry":{"type":"Polygon","coordinates":[[[-122.903197,43.823926],[-122.90827,43.823846],[-122.908226,43.820267],[-122.908182,43.816687],[-122.903205,43.816765],[-122.903201,43.820354],[-122.898177,43.820441],[-122.898124,43.824006],[-122.903197,43.823926]]]}},{"type":"Feature","properties":{"MAPTAXLOT":"2002000006000","MAPNUMBER":"20020000","TAXLOT":"6000","ACCTNO":"0879492","MAPACRES":39.67497435},"geometry":{"type":"Polygon","coordinates":[[[-122.898177,43.820441],[-122.903201,43.820354],[-122.903205,43.816765],[-122.898229,43.816843],[-122.898177,43.820441]]]}},{"type":"Feature","properties":{"MAPTAXLOT":"2002000006200","MAPNUMBER":"20020000","TAXLOT":"6200","ACCTNO":"0879518","MAPACRES":157.47086333},"geometry":{"type":"Polygon","coordinates":[[[-122.888265,43.820611],[-122.888211,43.824225],[-122.893168,43.824116],[-122.898124,43.824006],[-122.898177,43.820441],[-122.898229,43.816843],[-122.893277,43.816921],[-122.888319,43.816998],[-122.888265,43.820611]]]}},{"type":"Feature","properties":{"MAPTAXLOT":"2002000006400","MAPNUMBER":"20020000","TAXLOT":"6400","ACCTNO":"0879534","MAPACRES":613.32111823},"geometry":{"type":"Polygon","coordinates":[[[-122.868792,43.824275],[-122.873368,43.824263],[-122.878315,43.82425],[-122.883263,43.824238],[-122.888211,43.824225],[-122.888265,43.820611],[-122.888319,43.816998],[-122.888375,43.813519],[-122.888431,43.810039],[-122.883463,43.810045],[-122.878495,43.810051],[-122.873563,43.81001],[-122.8688,43.809971],[-122.868799,43.809971],[-122.868796,43.812833],[-122.868794,43.813546],[-122.86879,43.816419],[-122.86879,43.817121],[-122.868791,43.820048],[-122.868791,43.820698],[-122.868792,43.82341],[-122.868792,43.823677],[-122.868792,43.823976],[-122.868792,43.824275]]]}}]}