{"type":"FeatureCollection","features":[{"type":"Feature","properties":{"MAPTAXLOT":"1955000000100","MAPNUMBER":"19550000","TAXLOT":"100","ACCTNO":"1857620","MAPACRES":22523.44564212},"geometry":{"type":"Polygon","coordinates":[[[-122.26572,43.952272],[-122.271398,43.952271],[-122.271399,43.950036],[-122.271401,43.94642],[-122.271403,43.942804],[-122.271405,43.939188],[-122.271402,43.935567],[-122.271398,43.931946],[-122.271395,43.928324],[-122.271392,43.924703],[-122.271388,43.921082],[-122.271383,43.917461],[-122.271379,43.91384],[-122.271374,43.910219],[-122.271368,43.906598],[-122.271362,43.902977],[-122.271356,43.899355],[-122.27135,43.895734],[-122.27134,43.892112],[-122.27133,43.88849],[-122.27132,43.884868],[-122.27131,43.881245],[-122.271304,43.877623],[-122.271297,43.874001],[-122.271291,43.870378],[-122.271284,43.866756],[-122.267067,43.866755],[-122.26206,43.866753],[-122.257054,43.866752],[-122.252048,43.86675],[-122.247039,43.866753],[-122.242031,43.866756],[-122.237022,43.866759],[-122.232014,43.866762],[-122.227006,43.866759],[-122.221998,43.866755],[-122.21699,43.866751],[-122.211983,43.866747],[-122.206977,43.866752],[-122.201971,43.866757],[-122.196966,43.866761],[-122.19196,43.866766],[-122.186955,43.866771],[-122.18195,43.866775],[-122.176945,43.866779],[-122.17194,43.866784],[-122.166934,43.866787],[-122.161928,43.866791],[-122.156922,43.866794],[-122.151916,43.866798],[-122.151916,43.866859],[-122.151955,43.881289],[-122.152004,43.895792],[-122.151996,43.910296],[-122.152045,43.924797],[-122.152054,43.939298],[-122.152065,43.946542],[-122.152068,43.950163],[-122.152069,43.952365],[-122.155467,43.952365],[-122.157064,43.952365],[-122.161127,43.952366],[-122.16206,43.952366],[-122.16549,43.952366],[-122.167055,43.952366],[-122.17205,43.952366],[-122.175513,43.952367],[-122.177073,43.952367],[-122.181171,43.952367],[-122.182095,43.952368],[-122.185535,43.952368],[-122.187117,43.952368],[-122.192139,43.952369],[-122.195556,43.952365],[-122.197142,43.952364],[-122.201215,43.952356],[-122.202145,43.952354],[-122.205577,43.95235],[-122.207148,43.952349],[-122.212151,43.952339],[-122.215599,43.952335],[-122.217175,43.952334],[-122.221265,43.952328],[-122.222199,43.952326],[-122.225622,43.952322],[-122.227223,43.952321],[-122.232247,43.952313],[-122.235645,43.952309],[-122.237257,43.952308],[-122.24131,43.952301],[-122.242268,43.9523],[-122.245669,43.952296],[-122.247279,43.952295],[-122.252289,43.952287],[-122.255693,43.952284],[-122.257302,43.952283],[-122.262316,43.952275],[-122.26572,43.952272]]]}},{"type":"Feature","properties":{"MAPTAXLOT":"2055000000066","MAPNUMBER":"20550000","TAXLOT":"66","ACCTNO":"000None","MAPACRES":24.3958512},"geometry":{"type":"Polygon","coordinates":[[[-122.240933,43.835927],[-122.240851,43.835803],[-122.240785,43.835691],[-122.240734,43.835544],[-122.240731,43.835442],[-122.240698,43.835397],[-122.240696,43.835307],[-122.240692,43.835193],[-122.240689,43.835069],[-122.240716,43.834921],[-122.240727,43.834762],[-122.240723,43.834603],[-122.24075,43.834467],[-122.240762,43.834342],[-122.240773,43.834194],[-122.240785,43.834047],[-122.24078,43.833888],[-122.240775,43.833707],[-122.240724,43.833571],[-122.240707,43.833515],[-122.240659,43.833482],[-122.240673,43.833425],[-122.240672,43.833391],[-122.240606,43.83329],[-122.240478,43.833178],[-122.24035,43.833089],[-122.240255,43.833057],[-122.240221,43.832955],[-122.240093,43.832866],[-122.239982,43.832811],[-122.23987,43.832745],[-122.239695,43.832657],[-122.239537,43.83258],[-122.239394,43.832525],[-122.239269,43.832516],[-122.239143,43.832495],[-122.239018,43.832531],[-122.238893,43.832533],[-122.238814,43.8325],[-122.238688,43.832479],[-122.238564,43.832527],[-122.238392,43.83254],[-122.238285,43.832633],[-122.238209,43.832713],[-122.238117,43.832783],[-122.238025,43.832841],[-122.238027,43.83292],[-122.237951,43.832989],[-122.237858,43.833047],[-122.237701,43.833027],[-122.237544,43.833018],[-122.237435,43.833031],[-122.23739,43.833111],[-122.237392,43.833179],[-122.237331,43.833225],[-122.237286,43.833305],[-122.237304,43.833385],[-122.237384,43.83344],[-122.23748,43.833495],[-122.237607,43.833573],[-122.237719,43.83365],[-122.237799,43.833717],[-122.237848,43.833796],[-122.237772,43.833854],[-122.237694,43.833889],[-122.237697,43.833968],[-122.237714,43.834025],[-122.237731,43.834081],[-122.237687,43.834173],[-122.237627,43.834264],[-122.237552,43.83439],[-122.237478,43.834516],[-122.237432,43.834562],[-122.237432,43.834585],[-122.237497,43.83464],[-122.237577,43.834696],[-122.237642,43.834797],[-122.237676,43.834876],[-122.237678,43.834955],[-122.237666,43.835069],[-122.237684,43.83517],[-122.237718,43.835272],[-122.237783,43.835328],[-122.237832,43.835418],[-122.237899,43.835541],[-122.237997,43.835687],[-122.23811,43.83581],[-122.238192,43.835934],[-122.238274,43.836057],[-122.238385,43.836124],[-122.238512,43.83619],[-122.238638,43.836199],[-122.238733,43.836221],[-122.23886,43.836287],[-122.23894,43.836342],[-122.23902,43.836398],[-122.239162,43.836464],[-122.239289,43.836507],[-122.239415,43.836528],[-122.239525,43.836549],[-122.239714,43.83658],[-122.239872,43.836612],[-122.240013,43.836609],[-122.240137,43.836585],[-122.240277,43.836537],[-122.240369,43.836468],[-122.240492,43.836398],[-122.240631,43.836317],[-122.240786,43.83628],[-122.240974,43.836255],[-122.241162,43.836263],[-122.241142,43.836231],[-122.24115,43.836197],[-122.241139,43.836138],[-122.241092,43.8361],[-122.241049,43.83609],[-122.241029,43.836061],[-122.240999,43.836033],[-122.240964,43.835977],[-122.240933,43.835927]]]}},{"type":"Feature","properties":{"MAPTAXLOT":"2055000000100","MAPNUMBER":"20550000","TAXLOT":"100","ACCTNO":"0928307","MAPACRES":7064.45129715},"geometry":{"type":"Polygon","coordinates":[[[-122.267067,43.866755],[-122.271284,43.866756],[-122.271284,43.865248],[-122.271286,43.86163],[-122.271288,43.858011],[-122.27129,43.854392],[-122.271293,43.850768],[-122.271297,43.847145],[-122.2713,43.843521],[-122.271303,43.839897],[-122.267033,43.839907],[-122.262032,43.839919],[-122.252032,43.839936],[-122.231996,43.839972],[-122.212005,43.840014],[-122.19197,43.839959],[-122.171956,43.839922],[-122.151939,43.839918],[-122.151937,43.843539],[-122.151934,43.84716],[-122.151931,43.85078],[-122.151928,43.854401],[-122.151925,43.858022],[-122.151921,43.861642],[-122.151917,43.865263],[-122.151916,43.866798],[-122.156922,43.866794],[-122.161928,43.866791],[-122.166934,43.866787],[-122.17194,43.866784],[-122.176945,43.866779],[-122.18195,43.866775],[-122.186955,43.866771],[-122.19196,43.866766],[-122.196966,43.866761],[-122.201971,43.866757],[-122.206977,43.866752],[-122.211983,43.866747],[-122.21699,43.866751],[-122.221998,43.866755],[-122.227006,43.866759],[-122.232014,43.866762],[-122.237022,43.866759],[-122.242031,43.866756],[-122.247039,43.866753],[-122.252048,43.86675],[-122.257054,43.866752],[-122.26206,43.866753],[-122.267067,43.866755]]]}},{"type":"Feature","properties":{"MAPTAXLOT":"2055000000200","MAPNUMBER":"20550000","TAXLOT":"200","ACCTNO":"0928315","MAPACRES":15266.03503555},"geometry":{"type":"Polygon","coordinates":[[[-122.267033,43.839907],[-122.271303,43.839897],[-122.271309,43.836275],[-122.271315,43.832652],[-122.27132,43.829029],[-122.271326,43.825406],[-122.271332,43.821783],[-122.271338,43.818161],[-122.271344,43.814538],[-122.27135,43.810916],[-122.271355,43.807293],[-122.27136,43.80367],[-122.271366,43.800048],[-122.271371,43.796425],[-122.271377,43.792802],[-122.271384,43.78918],[-122.27139,43.785557],[-122.271397,43.781935],[-122.26701,43.781941],[-122.262011,43.781949],[-122.257011,43.781958],[-122.252012,43.781966],[-122.247011,43.781972],[-122.242011,43.781978],[-122.23701,43.781984],[-122.23201,43.781989],[-122.227008,43.781988],[-122.222007,43.781986],[-122.217006,43.781985],[-122.212004,43.781984],[-122.207,43.781983],[-122.201996,43.781982],[-122.196993,43.781982],[-122.191989,43.781981],[-122.186986,43.781979],[-122.181984,43.781976],[-122.176981,43.781974],[-122.171978,43.781971],[-122.166977,43.781973],[-122.161975,43.781975],[-122.156973,43.781977],[-122.151971,43.781979],[-122.151969,43.7856],[-122.151967,43.789221],[-122.151965,43.792843],[-122.151963,43.796464],[-122.151961,43.800086],[-122.151959,43.803707],[-122.151957,43.807329],[-122.151955,43.81095],[-122.151953,43.814571],[-122.151951,43.818193],[-122.151949,43.821814],[-122.151947,43.825435],[-122.151945,43.829056],[-122.151943,43.832677],[-122.151941,43.836297],[-122.151939,43.839918],[-122.171956,43.839922],[-122.19197,43.839959],[-122.212005,43.840014],[-122.231996,43.839972],[-122.252032,43.839936],[-122.262032,43.839919],[-122.267033,43.839907]],[[-122.241162,43.836263],[-122.240974,43.836255],[-122.240786,43.83628],[-122.240631,43.836317],[-122.240492,43.836398],[-122.240369,43.836468],[-122.240277,43.836537],[-122.240137,43.836585],[-122.240013,43.836609],[-122.239872,43.836612],[-122.239714,43.83658],[-122.239525,43.836549],[-122.239415,43.836528],[-122.239289,43.836507],[-122.239162,43.836464],[-122.23902,43.836398],[-122.23894,43.836342],[-122.23886,43.836287],[-122.238733,43.836221],[-122.238638,43.836199],[-122.238512,43.83619],[-122.238385,43.836124],[-122.238274,43.836057],[-122.238192,43.835934],[-122.23811,43.83581],[-122.237997,43.835687],[-122.237899,43.835541],[-122.237832,43.835418],[-122.237783,43.835328],[-122.237718,43.835272],[-122.237684,43.83517],[-122.237666,43.835069],[-122.237678,43.834955],[-122.237676,43.834876],[-122.237642,43.834797],[-122.237577,43.834696],[-122.237497,43.83464],[-122.237432,43.834585],[-122.237432,43.834562],[-122.237478,43.834516],[-122.237552,43.83439],[-122.237627,43.834264],[-122.237687,43.834173],[-122.237731,43.834081],[-122.237714,43.834025],[-122.237697,43.833968],[-122.237694,43.833889],[-122.237772,43.833854],[-122.237848,43.833796],[-122.237799,43.833717],[-122.237719,43.83365],[-122.237607,43.833573],[-122.23748,43.833495],[-122.237384,43.83344],[-122.237304,43.833385],[-122.237286,43.833305],[-122.237331,43.833225],[-122.237392,43.833179],[-122.23739,43.833111],[-122.237435,43.833031],[-122.237544,43.833018],[-122.237701,43.833027],[-122.237858,43.833047],[-122.237951,43.832989],[-122.238027,43.83292],[-122.238025,43.832841],[-122.238117,43.832783],[-122.238209,43.832713],[-122.238285,43.832633],[-122.238392,43.83254],[-122.238564,43.832527],[-122.238688,43.832479],[-122.238814,43.8325],[-122.238893,43.832533],[-122.239018,43.832531],[-122.239143,43.832495],[-122.239269,43.832516],[-122.239394,43.832525],[-122.239537,43.83258],[-122.239695,43.832657],[-122.23987,43.832745],[-122.239982,43.832811],[-122.240093,43.832866],[-122.240221,43.832955],[-122.240255,43.833057],[-122.24035,43.833089],[-122.240478,43.833178],[-122.240606,43.83329],[-122.240672,43.833391],[-122.240673,43.833425],[-122.240659,43.833482],[-122.240707,43.833515],[-122.240724,43.833571],[-122.240775,43.833707],[-122.24078,43.833888],[-122.240785,43.834047],[-122.240773,43.834194],[-122.240762,43.834342],[-122.24075,43.834467],[-122.240723,43.834603],[-122.240727,43.834762],[-122.240716,43.834921],[-122.240689,43.835069],[-122.240692,43.835193],[-122.240696,43.835307],[-122.240698,43.835397],[-122.240731,43.835442],[-122.240734,43.835544],[-122.240785,43.835691],[-122.240851,43.835803],[-122.240933,43.835927],[-122.240964,43.835977],[-122.240999,43.836033],[-122.241029,43.836061],[-122.241049,43.83609],[-122.241092,43.8361],[-122.241139,43.836138],[-122.24115,43.836197],[-122.241142,43.836231],[-122.241162,43.836263]]]}}]}