{"type":"FeatureCollection","features":[{"type":"Feature","properties":{"MAPTAXLOT":"2115000000200","MAPNUMBER":"21150000","TAXLOT":"200","ACCTNO":"0944981","MAPACRES":19968.69982205},"geometry":{"type":"Polygon","coordinates":[[[-122.696737,43.780362],[-122.696748,43.780361],[-122.697288,43.780356],[-122.706612,43.780221],[-122.706624,43.780221],[-122.707143,43.780216],[-122.707156,43.780216],[-122.716573,43.780122],[-122.716582,43.780122],[-122.717082,43.780117],[-122.717092,43.780117],[-122.726534,43.780023],[-122.726541,43.780023],[-122.727021,43.780018],[-122.727028,43.780018],[-122.736482,43.779886],[-122.736485,43.779885],[-122.736962,43.779878],[-122.736965,43.779878],[-122.740858,43.779822],[-122.744754,43.779767],[-122.744749,43.776233],[-122.744749,43.776232],[-122.744745,43.772699],[-122.744745,43.772698],[-122.744745,43.772494],[-122.744745,43.772494],[-122.744741,43.769164],[-122.744741,43.769164],[-122.744737,43.76563],[-122.74473,43.76209],[-122.74473,43.76209],[-122.744723,43.75855],[-122.744723,43.758549],[-122.744716,43.755009],[-122.744716,43.755008],[-122.744709,43.751468],[-122.744752,43.744341],[-122.744718,43.737106],[-122.744718,43.737099],[-122.744717,43.736878],[-122.744702,43.733519],[-122.744686,43.729939],[-122.74467,43.726358],[-122.74467,43.726351],[-122.744654,43.722778],[-122.744642,43.721395],[-122.744642,43.721388],[-122.744624,43.719255],[-122.744595,43.715732],[-122.744565,43.712208],[-122.744502,43.708781],[-122.741478,43.708713],[-122.73648,43.708758],[-122.726478,43.708841],[-122.706531,43.709026],[-122.7065,43.694612],[-122.696657,43.694775],[-122.686824,43.694863],[-122.68663,43.694864],[-122.677013,43.694907],[-122.667087,43.694862],[-122.657143,43.694879],[-122.647199,43.694886],[-122.6373,43.694943],[-122.632638,43.694971],[-122.632637,43.694971],[-122.627534,43.695001],[-122.627413,43.695002],[-122.627421,43.696927],[-122.627421,43.696928],[-122.627432,43.702243],[-122.627518,43.702242],[-122.635832,43.702172],[-122.637367,43.702159],[-122.637433,43.709385],[-122.627635,43.709474],[-122.627586,43.709475],[-122.627586,43.709475],[-122.627593,43.711457],[-122.627594,43.716653],[-122.627557,43.718694],[-122.627451,43.723867],[-122.627446,43.725923],[-122.627436,43.731076],[-122.627448,43.733095],[-122.627499,43.738277],[-122.627504,43.740268],[-122.627529,43.74548],[-122.627538,43.747479],[-122.62754,43.747755],[-122.627578,43.752697],[-122.627578,43.752698],[-122.627613,43.754693],[-122.62772,43.759904],[-122.627728,43.7619],[-122.627765,43.767096],[-122.627765,43.767097],[-122.64309,43.76694],[-122.647392,43.766896],[-122.647412,43.774075],[-122.647418,43.777671],[-122.647432,43.781194],[-122.657338,43.781081],[-122.657451,43.78108],[-122.667245,43.780969],[-122.66747,43.780967],[-122.677104,43.780746],[-122.677501,43.780737],[-122.686862,43.78051],[-122.687433,43.780497],[-122.696737,43.780362]],[[-122.686957,43.73775],[-122.69184,43.737722],[-122.706584,43.737637],[-122.706583,43.744858],[-122.706583,43.744858],[-122.691837,43.744918],[-122.691839,43.74132],[-122.686918,43.741361],[-122.686919,43.737751],[-122.686957,43.73775]]]}},{"type":"Feature","properties":{"MAPTAXLOT":"2115000000400","MAPNUMBER":"21150000","TAXLOT":"400","ACCTNO":"0945004","MAPACRES":274.26906322},"geometry":{"type":"Polygon","coordinates":[[[-122.691837,43.744918],[-122.706583,43.744858],[-122.706583,43.744858],[-122.706584,43.737637],[-122.69184,43.737722],[-122.686957,43.73775],[-122.686919,43.737751],[-122.686918,43.741361],[-122.691839,43.74132],[-122.691837,43.744918]]]}},{"type":"Feature","properties":{"MAPTAXLOT":"2115000000500","MAPNUMBER":"21150000","TAXLOT":"500","ACCTNO":"0945012","MAPACRES":143.66350587},"geometry":{"type":"Polygon","coordinates":[[[-122.726478,43.708839],[-122.726478,43.708841],[-122.73648,43.708758],[-122.741478,43.708713],[-122.744502,43.708781],[-122.744527,43.705108],[-122.726494,43.705239],[-122.726466,43.70524],[-122.726478,43.708839]]]}},{"type":"Feature","properties":{"MAPTAXLOT":"2115000000600","MAPNUMBER":"21150000","TAXLOT":"600","ACCTNO":"0945020","MAPACRES":1066.9716577},"geometry":{"type":"Polygon","coordinates":[[[-122.706531,43.709026],[-122.726478,43.708841],[-122.726478,43.708839],[-122.726466,43.70524],[-122.726494,43.705239],[-122.744527,43.705108],[-122.744518,43.701507],[-122.744482,43.697907],[-122.744394,43.694363],[-122.741409,43.694323],[-122.736418,43.694357],[-122.726436,43.694436],[-122.706584,43.694611],[-122.7065,43.694612],[-122.706531,43.709026]]]}},{"type":"Feature","properties":{"MAPTAXLOT":"2215000000100","MAPNUMBER":"22150000","TAXLOT":"100","ACCTNO":"0971612","MAPACRES":586.6889673},"geometry":{"type":"Polygon","coordinates":[[[-122.657143,43.694879],[-122.667087,43.694862],[-122.667088,43.694848],[-122.667102,43.692441],[-122.667122,43.688819],[-122.667149,43.681575],[-122.64729,43.681569],[-122.647192,43.681569],[-122.6472,43.688811],[-122.6472,43.692432],[-122.647199,43.694871],[-122.647199,43.694886],[-122.657143,43.694879]]]}},{"type":"Feature","properties":{"MAPTAXLOT":"2215000000300","MAPNUMBER":"22150000","TAXLOT":"300","ACCTNO":"0971638","MAPACRES":579.91953989},"geometry":{"type":"Polygon","coordinates":[[[-122.68663,43.694864],[-122.686824,43.694863],[-122.686824,43.694851],[-122.686826,43.692426],[-122.686816,43.688809],[-122.686821,43.687433],[-122.68677,43.681576],[-122.682117,43.681577],[-122.677128,43.681578],[-122.667239,43.681575],[-122.667149,43.681575],[-122.667122,43.688819],[-122.667102,43.692441],[-122.667088,43.694848],[-122.667087,43.694862],[-122.677013,43.694907],[-122.68663,43.694864]]]}},{"type":"Feature","properties":{"MAPTAXLOT":"2215000000400","MAPNUMBER":"22150000","TAXLOT":"400","ACCTNO":"0971646","MAPACRES":6579.67097864},"geometry":{"type":"MultiPolygon","coordinates":[[[[-122.730646,43.674977],[-122.730876,43.674975],[-122.731087,43.674978],[-122.731302,43.67498],[-122.731467,43.674984],[-122.731604,43.674986],[-122.731766,43.674997],[-122.73191,43.675011],[-122.732047,43.675029],[-122.73215,43.675042],[-122.732182,43.675047],[-122.732331,43.675074],[-122.732463,43.675103],[-122.732675,43.67515],[-122.732884,43.675195],[-122.733108,43.675243],[-122.733316,43.675286],[-122.733507,43.675328],[-122.733722,43.675373],[-122.733902,43.675417],[-122.734066,43.675448],[-122.73425,43.67549],[-122.734455,43.675526],[-122.734662,43.675573],[-122.734869,43.675616],[-122.735073,43.675655],[-122.735259,43.675696],[-122.735452,43.675736],[-122.735656,43.675774],[-122.735782,43.675798],[-122.735883,43.675817],[-122.735998,43.675834],[-122.736161,43.675861],[-122.736309,43.675883],[-122.736519,43.675907],[-122.73674,43.675932],[-122.736958,43.675952],[-122.737174,43.675975],[-122.737385,43.675995],[-122.737614,43.676019],[-122.737826,43.67604],[-122.738047,43.676065],[-122.738245,43.676086],[-122.738478,43.676108],[-122.738691,43.676131],[-122.738894,43.676152],[-122.739105,43.676174],[-122.739302,43.676194],[-122.739513,43.676211],[-122.739728,43.676233],[-122.739968,43.676255],[-122.740179,43.676275],[-122.740382,43.676293],[-122.74058,43.676316],[-122.740784,43.676331],[-122.741008,43.676352],[-122.741209,43.67637],[-122.741416,43.676391],[-122.741628,43.676411],[-122.741841,43.67643],[-122.742047,43.676449],[-122.742258,43.676472],[-122.742442,43.676491],[-122.742652,43.676511],[-122.742841,43.676531],[-122.744291,43.676691],[-122.74429,43.676411],[-122.744267,43.672857],[-122.744245,43.669303],[-122.744222,43.665749],[-122.744144,43.662282],[-122.744066,43.658815],[-122.744076,43.655313],[-122.744086,43.651812],[-122.744032,43.648223],[-122.744027,43.647774],[-122.743985,43.644623],[-122.743982,43.641022],[-122.74398,43.637422],[-122.743984,43.634852],[-122.743985,43.63385],[-122.743989,43.631155],[-122.74399,43.630279],[-122.744012,43.62744],[-122.744017,43.626784],[-122.744038,43.62396],[-122.74404,43.623725],[-122.741509,43.623718],[-122.736528,43.623711],[-122.726624,43.623723],[-122.726567,43.623723],[-122.726595,43.630974],[-122.726602,43.634599],[-122.726605,43.63731],[-122.726589,43.638217],[-122.726589,43.638222],[-122.721704,43.638212],[-122.716725,43.638202],[-122.706825,43.638181],[-122.70677,43.638181],[-122.706773,43.645425],[-122.706772,43.649047],[-122.70677,43.651424],[-122.70677,43.651432],[-122.706426,43.651429],[-122.706362,43.651428],[-122.706369,43.652656],[-122.706369,43.652664],[-122.701836,43.652667],[-122.696856,43.652669],[-122.686967,43.652666],[-122.686901,43.652666],[-122.686952,43.659896],[-122.686955,43.660975],[-122.687068,43.660975],[-122.687247,43.660975],[-122.687433,43.660984],[-122.687621,43.660996],[-122.687792,43.661007],[-122.68797,43.661014],[-122.68814,43.661017],[-122.688317,43.661012],[-122.688493,43.661009],[-122.688677,43.661004],[-122.688838,43.661011],[-122.689001,43.661018],[-122.68917,43.661035],[-122.68931,43.661059],[-122.689444,43.661095],[-122.689593,43.66113],[-122.689723,43.661156],[-122.68987,43.661179],[-122.690083,43.661212],[-122.690283,43.661234],[-122.690466,43.661264],[-122.69065,43.661299],[-122.690814,43.661342],[-122.690981,43.661388],[-122.691122,43.66144],[-122.691273,43.661494],[-122.691416,43.661563],[-122.691548,43.661628],[-122.691683,43.661711],[-122.691827,43.661785],[-122.691967,43.661858],[-122.692121,43.661926],[-122.69225,43.66199],[-122.692389,43.662056],[-122.692527,43.662133],[-122.692722,43.662249],[-122.693058,43.662453],[-122.693205,43.662539],[-122.693364,43.66263],[-122.69353,43.66272],[-122.693686,43.662811],[-122.69384,43.662909],[-122.693947,43.662964],[-122.694052,43.663001],[-122.694194,43.663022],[-122.694309,43.663024],[-122.694438,43.663012],[-122.694589,43.662989],[-122.694749,43.662968],[-122.694936,43.662945],[-122.695129,43.662912],[-122.695323,43.662896],[-122.695541,43.662891],[-122.695737,43.662905],[-122.695925,43.662926],[-122.696099,43.662957],[-122.696285,43.662991],[-122.696478,43.663039],[-122.696666,43.663095],[-122.696836,43.66315],[-122.697214,43.663269],[-122.697372,43.66333],[-122.697518,43.663411],[-122.697645,43.663487],[-122.697754,43.663572],[-122.697866,43.663662],[-122.697996,43.66378],[-122.698135,43.663887],[-122.698269,43.664005],[-122.698401,43.664104],[-122.698523,43.664206],[-122.698651,43.66431],[-122.698766,43.664426],[-122.698873,43.664544],[-122.698963,43.664655],[-122.699046,43.664774],[-122.699119,43.664871],[-122.699207,43.664949],[-122.699301,43.66502],[-122.699416,43.665076],[-122.699526,43.665121],[-122.699662,43.66516],[-122.699785,43.665182],[-122.700096,43.665205],[-122.700269,43.665211],[-122.700452,43.665222],[-122.700643,43.665231],[-122.700799,43.665248],[-122.70099,43.665272],[-122.701169,43.6653],[-122.701301,43.665321],[-122.701502,43.665368],[-122.70168,43.665419],[-122.70185,43.665487],[-122.702016,43.665556],[-122.702147,43.665625],[-122.702214,43.665657],[-122.706484,43.665684],[-122.706527,43.669531],[-122.706637,43.669594],[-122.706761,43.669659],[-122.706893,43.669737],[-122.707029,43.669817],[-122.707146,43.669902],[-122.707268,43.669976],[-122.707412,43.670069],[-122.707585,43.670155],[-122.707739,43.670239],[-122.707908,43.67032],[-122.708071,43.670406],[-122.70825,43.670499],[-122.708373,43.670587],[-122.708478,43.670693],[-122.708538,43.670807],[-122.708579,43.670908],[-122.708596,43.67104],[-122.708617,43.671191],[-122.708621,43.671346],[-122.70863,43.671493],[-122.708624,43.671637],[-122.708629,43.67178],[-122.708639,43.671911],[-122.708679,43.672048],[-122.70869,43.672089],[-122.708703,43.672144],[-122.708713,43.67218],[-122.708743,43.672228],[-122.70879,43.672294],[-122.708826,43.672338],[-122.708892,43.672393],[-122.708932,43.672424],[-122.708972,43.672452],[-122.709033,43.672487],[-122.709065,43.672503],[-122.709132,43.672532],[-122.709195,43.672554],[-122.709261,43.672568],[-122.709309,43.672579],[-122.709329,43.672579],[-122.709405,43.672581],[-122.709417,43.672581],[-122.709561,43.67256],[-122.709666,43.672528],[-122.709784,43.672485],[-122.709879,43.672437],[-122.710026,43.672353],[-122.710174,43.672275],[-122.710315,43.67219],[-122.710422,43.672131],[-122.710565,43.672043],[-122.710714,43.671964],[-122.710847,43.671901],[-122.71099,43.671855],[-122.711162,43.671822],[-122.711313,43.671809],[-122.711494,43.671797],[-122.711647,43.671787],[-122.711835,43.671781],[-122.711995,43.671783],[-122.71217,43.671785],[-122.712304,43.671783],[-122.71248,43.671779],[-122.712633,43.671766],[-122.712781,43.671762],[-122.712925,43.671767],[-122.713086,43.671789],[-122.713212,43.671808],[-122.713414,43.671838],[-122.713573,43.671859],[-122.713716,43.671873],[-122.713892,43.671889],[-122.714072,43.671901],[-122.714241,43.671908],[-122.714436,43.671922],[-122.714584,43.671941],[-122.714728,43.67197],[-122.714861,43.672011],[-122.714979,43.672053],[-122.71513,43.672112],[-122.71528,43.672162],[-122.715458,43.672223],[-122.715611,43.672269],[-122.715735,43.672316],[-122.715864,43.672368],[-122.715891,43.672382],[-122.715984,43.672431],[-122.716075,43.672485],[-122.716185,43.672563],[-122.716269,43.672627],[-122.716355,43.672704],[-122.716449,43.672802],[-122.716542,43.672906],[-122.716633,43.673002],[-122.716706,43.673078],[-122.716798,43.673156],[-122.716892,43.673216],[-122.716993,43.673277],[-122.717079,43.673315],[-122.717159,43.673346],[-122.717316,43.673388],[-122.717471,43.673409],[-122.71767,43.673427],[-122.717834,43.673437],[-122.718049,43.673447],[-122.718276,43.673458],[-122.718472,43.673471],[-122.718658,43.673483],[-122.718854,43.673496],[-122.719033,43.673505],[-122.719202,43.673512],[-122.71937,43.673512],[-122.719562,43.673506],[-122.719744,43.673496],[-122.719921,43.673479],[-122.720108,43.673458],[-122.720299,43.673437],[-122.720482,43.673415],[-122.720661,43.673386],[-122.720837,43.673354],[-122.721013,43.673315],[-122.721188,43.673276],[-122.721353,43.673242],[-122.721534,43.673219],[-122.721728,43.673202],[-122.721922,43.673194],[-122.722093,43.673191],[-122.722292,43.673196],[-122.722485,43.673203],[-122.722678,43.673216],[-122.722868,43.67323],[-122.723073,43.67325],[-122.723245,43.673268],[-122.723423,43.673277],[-122.72359,43.67328],[-122.723764,43.67327],[-122.723957,43.67325],[-122.724148,43.673236],[-122.724326,43.673225],[-122.724509,43.673217],[-122.724699,43.673209],[-122.724861,43.673202],[-122.725055,43.673201],[-122.725229,43.673213],[-122.725401,43.673245],[-122.725582,43.673284],[-122.725762,43.673359],[-122.725884,43.673442],[-122.726021,43.673554],[-122.726136,43.673655],[-122.726264,43.673757],[-122.726385,43.673857],[-122.726509,43.673959],[-122.726625,43.674062],[-122.726735,43.674158],[-122.726841,43.674262],[-122.726944,43.674369],[-122.727046,43.674472],[-122.727155,43.674582],[-122.727263,43.674678],[-122.727365,43.67475],[-122.72749,43.674824],[-122.727651,43.674879],[-122.727791,43.674917],[-122.727945,43.674938],[-122.728097,43.674962],[-122.728255,43.674971],[-122.728408,43.674985],[-122.728564,43.674988],[-122.728782,43.674992],[-122.729069,43.674992],[-122.729255,43.674993],[-122.729452,43.674996],[-122.72963,43.674992],[-122.729821,43.67499],[-122.730036,43.674986],[-122.730241,43.674983],[-122.730427,43.674978],[-122.730646,43.674977]]],[[[-122.68677,43.681563],[-122.68677,43.681576],[-122.686821,43.687433],[-122.686816,43.688809],[-122.686826,43.692426],[-122.686824,43.694851],[-122.686824,43.694863],[-122.696657,43.694775],[-122.7065,43.694612],[-122.706584,43.694611],[-122.726436,43.694436],[-122.736418,43.694357],[-122.741409,43.694323],[-122.744394,43.694363],[-122.744446,43.690733],[-122.744427,43.68716],[-122.744426,43.687129],[-122.744369,43.683563],[-122.744312,43.679965],[-122.744292,43.676858],[-122.742808,43.676694],[-122.742621,43.676674],[-122.742411,43.676654],[-122.742225,43.676635],[-122.742016,43.676612],[-122.741812,43.676594],[-122.7416,43.676574],[-122.741386,43.676555],[-122.74118,43.676533],[-122.740979,43.676516],[-122.740759,43.676495],[-122.74055,43.67648],[-122.740349,43.676456],[-122.74015,43.676438],[-122.73994,43.676418],[-122.739698,43.676396],[-122.739484,43.676375],[-122.739274,43.676358],[-122.739073,43.676337],[-122.738862,43.676315],[-122.738659,43.676294],[-122.738447,43.676271],[-122.738214,43.676249],[-122.738013,43.676228],[-122.737793,43.676203],[-122.737583,43.676182],[-122.737354,43.676158],[-122.737143,43.676138],[-122.736927,43.676115],[-122.736708,43.676095],[-122.736485,43.676069],[-122.736269,43.676046],[-122.736113,43.676022],[-122.73595,43.675995],[-122.735832,43.675978],[-122.735724,43.675957],[-122.735599,43.675934],[-122.735392,43.675895],[-122.735195,43.675854],[-122.735012,43.675814],[-122.734809,43.675775],[-122.734597,43.67573],[-122.734395,43.675685],[-122.734189,43.675649],[-122.734004,43.675607],[-122.733837,43.675575],[-122.733654,43.67553],[-122.733443,43.675486],[-122.733252,43.675444],[-122.733045,43.675401],[-122.732819,43.675353],[-122.732609,43.675307],[-122.732397,43.67526],[-122.73227,43.675232],[-122.732134,43.675208],[-122.732109,43.675204],[-122.732007,43.675191],[-122.731874,43.675174],[-122.731741,43.67516],[-122.731592,43.67515],[-122.731461,43.675149],[-122.731296,43.675144],[-122.731084,43.675142],[-122.730875,43.67514],[-122.730648,43.675141],[-122.730432,43.675142],[-122.730247,43.675147],[-122.730041,43.67515],[-122.729825,43.675155],[-122.729634,43.675157],[-122.729453,43.67516],[-122.729252,43.675157],[-122.729068,43.675156],[-122.72878,43.675156],[-122.728559,43.675153],[-122.72839,43.67515],[-122.728232,43.675135],[-122.728064,43.675125],[-122.7279,43.675099],[-122.727731,43.675076],[-122.727563,43.675031],[-122.727368,43.674964],[-122.727214,43.674873],[-122.727095,43.67479],[-122.726975,43.674682],[-122.726862,43.674568],[-122.726759,43.674464],[-122.726657,43.674359],[-122.726556,43.674259],[-122.72645,43.674166],[-122.726336,43.674065],[-122.726215,43.673966],[-122.726094,43.673867],[-122.725965,43.673762],[-122.725849,43.673661],[-122.725721,43.673557],[-122.725626,43.673493],[-122.725492,43.673436],[-122.725341,43.673404],[-122.725189,43.673376],[-122.725045,43.673366],[-122.724868,43.673366],[-122.724713,43.673373],[-122.724522,43.673381],[-122.724342,43.673389],[-122.724169,43.6734],[-122.723984,43.673414],[-122.723789,43.673433],[-122.723596,43.673445],[-122.723412,43.673441],[-122.723222,43.673432],[-122.723042,43.673413],[-122.722841,43.673394],[-122.722655,43.673379],[-122.722469,43.673367],[-122.722283,43.673361],[-122.722092,43.673356],[-122.721931,43.673359],[-122.721748,43.673366],[-122.721568,43.673382],[-122.721403,43.673402],[-122.721253,43.673433],[-122.721079,43.673472],[-122.720898,43.673512],[-122.720714,43.673547],[-122.720525,43.673577],[-122.720335,43.6736],[-122.720142,43.673621],[-122.719953,43.673642],[-122.719768,43.67366],[-122.719576,43.67367],[-122.719375,43.673677],[-122.719195,43.673677],[-122.719019,43.673669],[-122.718836,43.67366],[-122.718637,43.673647],[-122.718452,43.673635],[-122.718257,43.673622],[-122.718034,43.673611],[-122.717817,43.673601],[-122.717647,43.673591],[-122.717436,43.673571],[-122.717257,43.673547],[-122.717067,43.673497],[-122.716966,43.673458],[-122.71686,43.673411],[-122.716745,43.673341],[-122.716637,43.673272],[-122.716527,43.673179],[-122.716447,43.673097],[-122.716353,43.672998],[-122.71626,43.672894],[-122.716173,43.672802],[-122.716099,43.672736],[-122.716024,43.672679],[-122.715924,43.672608],[-122.715845,43.672561],[-122.715757,43.672515],[-122.715742,43.672507],[-122.715628,43.672461],[-122.715515,43.672419],[-122.715366,43.672373],[-122.715184,43.672312],[-122.715028,43.672259],[-122.714876,43.6722],[-122.714767,43.672161],[-122.714653,43.672126],[-122.714533,43.672102],[-122.714405,43.672085],[-122.714223,43.672072],[-122.714056,43.672065],[-122.713868,43.672053],[-122.713687,43.672036],[-122.713538,43.672022],[-122.713371,43.671999],[-122.713166,43.671969],[-122.713041,43.67195],[-122.712898,43.671931],[-122.71278,43.671927],[-122.71265,43.67193],[-122.712497,43.671943],[-122.71231,43.671947],[-122.712172,43.67195],[-122.711991,43.671948],[-122.711838,43.671945],[-122.711663,43.671952],[-122.711514,43.671961],[-122.711337,43.671973],[-122.711205,43.671984],[-122.711066,43.672011],[-122.710955,43.672046],[-122.710843,43.6721],[-122.710706,43.672173],[-122.710564,43.67226],[-122.710456,43.672319],[-122.710312,43.672405],[-122.710163,43.672484],[-122.710014,43.67257],[-122.709901,43.672626],[-122.709761,43.672678],[-122.709627,43.672718],[-122.709436,43.672746],[-122.709399,43.672745],[-122.709324,43.672744],[-122.709272,43.672743],[-122.709195,43.672726],[-122.709112,43.672708],[-122.709025,43.672677],[-122.708943,43.672642],[-122.708897,43.672619],[-122.708823,43.672576],[-122.708771,43.67254],[-122.708724,43.672504],[-122.708642,43.672435],[-122.708592,43.672374],[-122.708539,43.672299],[-122.708496,43.672231],[-122.70848,43.672175],[-122.708467,43.672119],[-122.708456,43.672081],[-122.708414,43.671933],[-122.708402,43.671787],[-122.708397,43.671637],[-122.708403,43.671494],[-122.708394,43.671351],[-122.708391,43.671201],[-122.70837,43.671056],[-122.708356,43.67094],[-122.708323,43.670859],[-122.708277,43.670771],[-122.708201,43.670695],[-122.708103,43.670626],[-122.707939,43.67054],[-122.707778,43.670456],[-122.707608,43.670373],[-122.707453,43.670289],[-122.707272,43.670199],[-122.707119,43.6701],[-122.706993,43.670023],[-122.706877,43.66994],[-122.70675,43.669865],[-122.706623,43.66979],[-122.70653,43.669741],[-122.706567,43.672987],[-122.706567,43.672997],[-122.696598,43.672903],[-122.696517,43.672902],[-122.696795,43.680113],[-122.696795,43.680124],[-122.68686,43.680199],[-122.686774,43.6802],[-122.68677,43.681563]]],[[[-122.686962,43.663512],[-122.686964,43.665687],[-122.686964,43.665699],[-122.696484,43.66562],[-122.701795,43.665654],[-122.701739,43.665631],[-122.701583,43.665568],[-122.701425,43.665523],[-122.701241,43.66548],[-122.701122,43.66546],[-122.700947,43.665434],[-122.700762,43.66541],[-122.700619,43.665395],[-122.700435,43.665386],[-122.700254,43.665375],[-122.700079,43.665369],[-122.699746,43.665345],[-122.699594,43.665317],[-122.699429,43.665271],[-122.699297,43.665217],[-122.699154,43.665147],[-122.699037,43.665058],[-122.698931,43.664964],[-122.698845,43.664851],[-122.698764,43.664734],[-122.69868,43.664631],[-122.698579,43.664519],[-122.698474,43.664413],[-122.698353,43.664315],[-122.698233,43.664215],[-122.6981,43.664115],[-122.697965,43.663997],[-122.697824,43.663888],[-122.697693,43.663768],[-122.697587,43.663683],[-122.697489,43.663607],[-122.697377,43.66354],[-122.697249,43.663469],[-122.697115,43.663418],[-122.696744,43.663301],[-122.696577,43.663246],[-122.696398,43.663194],[-122.696221,43.663149],[-122.696045,43.663117],[-122.695881,43.663088],[-122.695709,43.663069],[-122.695533,43.663056],[-122.695339,43.66306],[-122.695168,43.663075],[-122.694981,43.663106],[-122.694788,43.663131],[-122.694632,43.663151],[-122.694475,43.663174],[-122.694321,43.663189],[-122.694168,43.663187],[-122.693979,43.663158],[-122.693831,43.663107],[-122.693699,43.663038],[-122.69354,43.662937],[-122.693391,43.66285],[-122.693226,43.66276],[-122.693064,43.662668],[-122.692914,43.66258],[-122.692577,43.662376],[-122.692386,43.662262],[-122.692258,43.66219],[-122.692123,43.662127],[-122.691998,43.662064],[-122.691842,43.661995],[-122.691696,43.661919],[-122.691544,43.661841],[-122.691411,43.66176],[-122.69129,43.6617],[-122.691159,43.661637],[-122.69102,43.661587],[-122.690889,43.661539],[-122.690735,43.661496],[-122.690582,43.661456],[-122.690412,43.661424],[-122.690241,43.661396],[-122.690043,43.661374],[-122.689823,43.66134],[-122.689669,43.661316],[-122.689528,43.661288],[-122.68937,43.661251],[-122.689244,43.661217],[-122.689129,43.661197],[-122.688979,43.661182],[-122.688824,43.661176],[-122.688674,43.661169],[-122.6885,43.661173],[-122.688324,43.661176],[-122.688142,43.661181],[-122.687961,43.661179],[-122.687776,43.661171],[-122.687601,43.66116],[-122.687415,43.661148],[-122.68724,43.661139],[-122.687068,43.66114],[-122.686956,43.66114],[-122.686962,43.663512]]]]}},{"type":"Feature","properties":{"MAPTAXLOT":"2215000000500","MAPNUMBER":"22150000","TAXLOT":"500","ACCTNO":"0971679","MAPACRES":480.13207547},"geometry":{"type":"MultiPolygon","coordinates":[[[[-122.686529,43.674353],[-122.686774,43.6802],[-122.68686,43.680199],[-122.696795,43.680124],[-122.696795,43.680113],[-122.696517,43.672902],[-122.696598,43.672903],[-122.706567,43.672997],[-122.706567,43.672987],[-122.70653,43.669741],[-122.7065,43.669725],[-122.706379,43.669655],[-122.70626,43.669598],[-122.706126,43.669539],[-122.705973,43.669487],[-122.705848,43.669448],[-122.70572,43.669422],[-122.705572,43.669394],[-122.70542,43.669375],[-122.705259,43.669353],[-122.705072,43.669334],[-122.70492,43.669305],[-122.704796,43.669282],[-122.704638,43.669235],[-122.704499,43.669181],[-122.704389,43.669105],[-122.704305,43.669011],[-122.704261,43.668916],[-122.704214,43.66881],[-122.704184,43.668692],[-122.704144,43.668578],[-122.704114,43.668465],[-122.704076,43.668351],[-122.704038,43.668232],[-122.703995,43.668121],[-122.703949,43.667999],[-122.703893,43.667878],[-122.703852,43.667753],[-122.703806,43.667624],[-122.703793,43.667485],[-122.703767,43.667258],[-122.703759,43.66714],[-122.70374,43.667022],[-122.703725,43.666919],[-122.703701,43.666826],[-122.70367,43.66674],[-122.703615,43.666651],[-122.703552,43.666558],[-122.703469,43.666474],[-122.703385,43.666388],[-122.703297,43.666314],[-122.703211,43.666246],[-122.703107,43.666181],[-122.703007,43.666117],[-122.702897,43.666071],[-122.702759,43.666027],[-122.702633,43.665998],[-122.702455,43.665945],[-122.702301,43.66589],[-122.702155,43.665826],[-122.702019,43.665761],[-122.701892,43.665695],[-122.701795,43.665654],[-122.696484,43.66562],[-122.686964,43.665699],[-122.686674,43.665702],[-122.686598,43.665703],[-122.686568,43.667116],[-122.686568,43.66713],[-122.686474,43.672806],[-122.686529,43.674353]]],[[[-122.702276,43.665686],[-122.702411,43.665746],[-122.702548,43.665795],[-122.70271,43.665843],[-122.702839,43.665873],[-122.703,43.665924],[-122.703139,43.665983],[-122.703256,43.666057],[-122.703369,43.666128],[-122.703466,43.666204],[-122.703564,43.666286],[-122.703654,43.666379],[-122.703747,43.666474],[-122.70382,43.666581],[-122.703885,43.666686],[-122.703922,43.66679],[-122.70395,43.666895],[-122.703966,43.667004],[-122.703985,43.667127],[-122.703994,43.667248],[-122.704019,43.667473],[-122.70403,43.667598],[-122.704072,43.667713],[-122.704112,43.667833],[-122.704166,43.667951],[-122.704213,43.668077],[-122.704258,43.668191],[-122.704296,43.668313],[-122.704335,43.668429],[-122.704366,43.668542],[-122.704406,43.668657],[-122.704434,43.668769],[-122.704477,43.668864],[-122.704511,43.668939],[-122.704565,43.668999],[-122.704633,43.669046],[-122.704735,43.669086],[-122.704868,43.669125],[-122.704977,43.669145],[-122.705117,43.669173],[-122.705295,43.669191],[-122.70546,43.669213],[-122.70562,43.669233],[-122.70578,43.669263],[-122.705923,43.669293],[-122.706066,43.669337],[-122.706234,43.669394],[-122.706381,43.669459],[-122.706512,43.669522],[-122.706527,43.669531],[-122.706484,43.665684],[-122.702214,43.665657],[-122.702276,43.665686]]]]}},{"type":"Feature","properties":{"MAPTAXLOT":"2215000000600","MAPNUMBER":"22150000","TAXLOT":"600","ACCTNO":"0971687","MAPACRES":625.50470716},"geometry":{"type":"Polygon","coordinates":[[[-122.682117,43.681577],[-122.68677,43.681576],[-122.68677,43.681563],[-122.686774,43.6802],[-122.686529,43.674353],[-122.686474,43.672806],[-122.686568,43.66713],[-122.681932,43.667118],[-122.67695,43.667105],[-122.667069,43.667089],[-122.666988,43.667089],[-122.667149,43.68156],[-122.667149,43.681575],[-122.667239,43.681575],[-122.677128,43.681578],[-122.682117,43.681577]]]}},{"type":"Feature","properties":{"MAPTAXLOT":"2215000000700","MAPNUMBER":"22150000","TAXLOT":"700","ACCTNO":"0971695","MAPACRES":639.32589848},"geometry":{"type":"Polygon","coordinates":[[[-122.647192,43.681569],[-122.64729,43.681569],[-122.667149,43.681575],[-122.667149,43.68156],[-122.666988,43.667089],[-122.647168,43.667079],[-122.647079,43.667079],[-122.647191,43.681549],[-122.647192,43.681569]]]}}]}