{"type":"FeatureCollection","features":[{"type":"Feature","properties":{"MAPTAXLOT":"1825000000077","MAPNUMBER":"18250000","TAXLOT":"77","ACCTNO":"000None","MAPACRES":28.62348278},"geometry":{"type":"MultiPolygon","coordinates":[[[[-122.55653,43.975446],[-122.557071,43.975443],[-122.55944,43.975421],[-122.559614,43.975404],[-122.559867,43.975381],[-122.560043,43.975384],[-122.560259,43.97534],[-122.560489,43.97529],[-122.560891,43.975218],[-122.562582,43.974812],[-122.566314,43.973939],[-122.566474,43.973901],[-122.568084,43.973524],[-122.569688,43.97316],[-122.569869,43.973138],[-122.570029,43.973123],[-122.570182,43.973133],[-122.570322,43.973143],[-122.570437,43.973158],[-122.570591,43.973205],[-122.571358,43.973458],[-122.571605,43.973501],[-122.571786,43.973512],[-122.571974,43.973509],[-122.572176,43.973484],[-122.572358,43.973425],[-122.572489,43.973368],[-122.572659,43.973273],[-122.573058,43.973061],[-122.573296,43.972976],[-122.573528,43.972916],[-122.573723,43.972882],[-122.573985,43.972864],[-122.574201,43.972854],[-122.574509,43.972874],[-122.575038,43.972916],[-122.575328,43.972944],[-122.575592,43.972952],[-122.575856,43.972954],[-122.576159,43.972942],[-122.576412,43.972904],[-122.576798,43.972865],[-122.577157,43.9728],[-122.577622,43.97272],[-122.578064,43.972628],[-122.578406,43.972584],[-122.578719,43.97256],[-122.578983,43.972568],[-122.579294,43.972575],[-122.579669,43.972607],[-122.579975,43.972627],[-122.580327,43.972653],[-122.580648,43.972723],[-122.581015,43.972781],[-122.581364,43.972871],[-122.581722,43.972957],[-122.582008,43.972998],[-122.582397,43.97303],[-122.582728,43.973063],[-122.583072,43.973102],[-122.583367,43.973117],[-122.583765,43.973103],[-122.584242,43.973095],[-122.584629,43.973062],[-122.585024,43.973035],[-122.585502,43.972974],[-122.585898,43.972908],[-122.586223,43.972837],[-122.586414,43.972788],[-122.586499,43.972766],[-122.586529,43.972759],[-122.586796,43.97266],[-122.587108,43.972511],[-122.587412,43.972367],[-122.587593,43.97225],[-122.587736,43.972148],[-122.588296,43.97169],[-122.588503,43.97152],[-122.589969,43.970447],[-122.590295,43.970226],[-122.590646,43.969912],[-122.590975,43.969623],[-122.591313,43.96936],[-122.591496,43.969225],[-122.591608,43.969142],[-122.591914,43.96893],[-122.592211,43.968724],[-122.592517,43.968512],[-122.592795,43.968327],[-122.593012,43.968196],[-122.593304,43.968038],[-122.593623,43.967919],[-122.593927,43.967825],[-122.594243,43.967755],[-122.594708,43.967656],[-122.595078,43.96755],[-122.595419,43.967433],[-122.59582,43.967269],[-122.59627,43.967066],[-122.59656,43.966944],[-122.59659,43.966932],[-122.596699,43.966886],[-122.597181,43.96673],[-122.597481,43.96664],[-122.597879,43.966524],[-122.598268,43.966422],[-122.598624,43.966397],[-122.598787,43.966388],[-122.599063,43.966455],[-122.599354,43.966581],[-122.599562,43.966685],[-122.599866,43.966754],[-122.600206,43.966801],[-122.600464,43.966822],[-122.600698,43.966867],[-122.600906,43.966924],[-122.600938,43.966933],[-122.600977,43.966943],[-122.601238,43.967063],[-122.601479,43.967216],[-122.60149,43.967223],[-122.601812,43.967438],[-122.60212,43.967611],[-122.602416,43.967737],[-122.602698,43.967849],[-122.602918,43.967942],[-122.603288,43.968071],[-122.603551,43.968195],[-122.603836,43.968308],[-122.604032,43.968377],[-122.604195,43.968422],[-122.60433,43.968441],[-122.604479,43.968453],[-122.604651,43.968399],[-122.604835,43.968328],[-122.605567,43.967965],[-122.605807,43.967863],[-122.606061,43.967724],[-122.606253,43.967579],[-122.606389,43.967441],[-122.60646,43.967337],[-122.606477,43.967313],[-122.606477,43.967312],[-122.606547,43.967209],[-122.606648,43.96693],[-122.606652,43.966919],[-122.606655,43.966914],[-122.606863,43.966436],[-122.607351,43.965271],[-122.607735,43.96455],[-122.60793,43.964257],[-122.608105,43.963987],[-122.608269,43.963831],[-122.608481,43.963695],[-122.608646,43.963601],[-122.608903,43.96353],[-122.609075,43.963378],[-122.609179,43.96332],[-122.609584,43.963325],[-122.60993,43.96338],[-122.610285,43.963488],[-122.610707,43.963622],[-122.611055,43.963759],[-122.611348,43.963835],[-122.611672,43.963869],[-122.611879,43.963884],[-122.612005,43.963918],[-122.612158,43.964047],[-122.612352,43.964217],[-122.612604,43.964442],[-122.612833,43.964599],[-122.612977,43.96467],[-122.613145,43.964697],[-122.613292,43.964694],[-122.613414,43.964662],[-122.61356,43.964609],[-122.613703,43.964515],[-122.613925,43.964417],[-122.61411,43.964342],[-122.614322,43.964248],[-122.614528,43.964165],[-122.614727,43.964055],[-122.614872,43.963972],[-122.615009,43.963868],[-122.61511,43.963778],[-122.6152,43.963667],[-122.615288,43.963539],[-122.615373,43.963374],[-122.615513,43.963137],[-122.615612,43.963024],[-122.615709,43.962926],[-122.615841,43.962849],[-122.615995,43.962805],[-122.61616,43.962772],[-122.616321,43.962769],[-122.616506,43.962795],[-122.61667,43.962836],[-122.616981,43.962931],[-122.61745,43.963122],[-122.617704,43.963221],[-122.617897,43.963302],[-122.618218,43.963414],[-122.618916,43.963635],[-122.619152,43.963711],[-122.619308,43.963801],[-122.619428,43.963942],[-122.619522,43.964124],[-122.619646,43.96433],[-122.619773,43.964546],[-122.619922,43.964695],[-122.620113,43.964827],[-122.620318,43.964942],[-122.620598,43.965089],[-122.620889,43.965197],[-122.621147,43.965265],[-122.62145,43.965338],[-122.621744,43.965386],[-122.622168,43.965443],[-122.622638,43.965506],[-122.62326,43.965566],[-122.623651,43.965604],[-122.62403,43.965611],[-122.624452,43.965556],[-122.624933,43.96545],[-122.625359,43.965391],[-122.626318,43.965225],[-122.626322,43.965112],[-122.625327,43.965284],[-122.624896,43.965344],[-122.624417,43.96545],[-122.624019,43.965501],[-122.623663,43.965495],[-122.62328,43.965457],[-122.622662,43.965397],[-122.622196,43.965335],[-122.621774,43.965278],[-122.621491,43.965233],[-122.621197,43.965161],[-122.62095,43.965096],[-122.620678,43.964995],[-122.62041,43.964854],[-122.620213,43.964744],[-122.620037,43.964623],[-122.619907,43.964492],[-122.619786,43.964286],[-122.619663,43.964083],[-122.619565,43.963893],[-122.619423,43.963728],[-122.619232,43.963617],[-122.618978,43.963534],[-122.618281,43.963314],[-122.617968,43.963205],[-122.617779,43.963125],[-122.617524,43.963026],[-122.617048,43.962833],[-122.616725,43.962733],[-122.616546,43.962689],[-122.616334,43.962659],[-122.616137,43.962662],[-122.615947,43.9627],[-122.615764,43.962753],[-122.615597,43.96285],[-122.615486,43.962963],[-122.615378,43.963086],[-122.615231,43.963333],[-122.615148,43.963495],[-122.615066,43.963615],[-122.614984,43.963715],[-122.614894,43.963796],[-122.614769,43.963891],[-122.614633,43.963969],[-122.614445,43.964073],[-122.614245,43.964153],[-122.614033,43.964247],[-122.613848,43.964322],[-122.613611,43.964427],[-122.613473,43.964518],[-122.613354,43.964561],[-122.613263,43.964585],[-122.61316,43.964587],[-122.613039,43.964567],[-122.612928,43.964513],[-122.612716,43.964367],[-122.612469,43.964148],[-122.612275,43.963976],[-122.612095,43.963826],[-122.611914,43.963776],[-122.61169,43.96376],[-122.611385,43.963728],[-122.611117,43.963658],[-122.610774,43.963523],[-122.610345,43.963387],[-122.609976,43.963276],[-122.609602,43.963215],[-122.609128,43.96321],[-122.608968,43.963299],[-122.60881,43.963438],[-122.60857,43.963505],[-122.608384,43.963611],[-122.608157,43.963756],[-122.607975,43.96393],[-122.607793,43.96421],[-122.607596,43.964506],[-122.607207,43.965235],[-122.606718,43.966404],[-122.606502,43.966899],[-122.606496,43.966914],[-122.606495,43.966919],[-122.606472,43.96698],[-122.606457,43.967023],[-122.606403,43.96717],[-122.606341,43.967264],[-122.606258,43.967384],[-122.606135,43.967509],[-122.60596,43.967642],[-122.605722,43.967771],[-122.605485,43.967872],[-122.604756,43.968234],[-122.604585,43.9683],[-122.604456,43.968341],[-122.604353,43.968332],[-122.604237,43.968316],[-122.604092,43.968277],[-122.603907,43.96821],[-122.603629,43.968101],[-122.603363,43.967975],[-122.60299,43.967846],[-122.602773,43.967753],[-122.602492,43.967642],[-122.602206,43.96752],[-122.601911,43.967354],[-122.601591,43.967141],[-122.601478,43.967069],[-122.60133,43.966974],[-122.601237,43.966932],[-122.601218,43.966924],[-122.601045,43.966845],[-122.600745,43.966763],[-122.600492,43.966714],[-122.600229,43.966692],[-122.599903,43.966648],[-122.599629,43.966585],[-122.599436,43.966489],[-122.599127,43.966354],[-122.598806,43.966277],[-122.598611,43.966287],[-122.598234,43.966314],[-122.597824,43.966421],[-122.597424,43.966539],[-122.597121,43.966629],[-122.596629,43.966788],[-122.596287,43.966932],[-122.596257,43.966945],[-122.596192,43.966972],[-122.595742,43.967174],[-122.595349,43.967335],[-122.595017,43.96745],[-122.594659,43.967552],[-122.594199,43.96765],[-122.593875,43.967722],[-122.593558,43.96782],[-122.593223,43.967945],[-122.592917,43.968109],[-122.592695,43.968245],[-122.592413,43.968432],[-122.592106,43.968645],[-122.591809,43.968851],[-122.591502,43.969064],[-122.591495,43.969069],[-122.591203,43.969284],[-122.59086,43.969551],[-122.590528,43.969843],[-122.590184,43.970151],[-122.589863,43.970368],[-122.588392,43.971445],[-122.588182,43.971618],[-122.587626,43.972073],[-122.587489,43.97217],[-122.587319,43.97228],[-122.587024,43.972419],[-122.586719,43.972565],[-122.586499,43.972646],[-122.586469,43.972657],[-122.586416,43.972671],[-122.586175,43.972732],[-122.585859,43.972802],[-122.585472,43.972866],[-122.585004,43.972926],[-122.584613,43.972952],[-122.584231,43.972985],[-122.583759,43.972993],[-122.583369,43.973007],[-122.58309,43.972993],[-122.58275,43.972954],[-122.582416,43.972921],[-122.582032,43.972889],[-122.58176,43.97285],[-122.581413,43.972767],[-122.581057,43.972676],[-122.580686,43.972617],[-122.580357,43.972544],[-122.57999,43.972518],[-122.579685,43.972498],[-122.579305,43.972465],[-122.578989,43.972458],[-122.578714,43.97245],[-122.578384,43.972476],[-122.57803,43.972521],[-122.577583,43.972614],[-122.577121,43.972693],[-122.576768,43.972757],[-122.576386,43.972796],[-122.57614,43.972833],[-122.575853,43.972844],[-122.575596,43.972842],[-122.575341,43.972834],[-122.575056,43.972807],[-122.574524,43.972765],[-122.574203,43.972744],[-122.573973,43.972755],[-122.573698,43.972773],[-122.573484,43.972811],[-122.573236,43.972875],[-122.572978,43.972967],[-122.572567,43.973185],[-122.572403,43.973277],[-122.572287,43.973328],[-122.572132,43.973378],[-122.57196,43.973399],[-122.57179,43.973402],[-122.571629,43.973393],[-122.571408,43.973354],[-122.570652,43.973104],[-122.57048,43.973053],[-122.570343,43.973034],[-122.570196,43.973023],[-122.570026,43.973013],[-122.569846,43.97303],[-122.569652,43.973053],[-122.568038,43.973419],[-122.566474,43.973786],[-122.566314,43.973823],[-122.562535,43.974708],[-122.560849,43.975113],[-122.560449,43.975185],[-122.560217,43.975234],[-122.560024,43.975274],[-122.559859,43.975271],[-122.559594,43.975296],[-122.559429,43.975311],[-122.557069,43.975334],[-122.556535,43.975337],[-122.556276,43.975322],[-122.555915,43.975315],[-122.555593,43.975308],[-122.555274,43.975301],[-122.555001,43.975274],[-122.554799,43.975246],[-122.554626,43.975212],[-122.554449,43.975158],[-122.554265,43.975105],[-122.554061,43.975014],[-122.553852,43.974921],[-122.553617,43.974816],[-122.553357,43.974687],[-122.553046,43.974498],[-122.552697,43.974322],[-122.552303,43.974127],[-122.551919,43.973958],[-122.551568,43.973804],[-122.551195,43.973598],[-122.550827,43.973422],[-122.550328,43.973205],[-122.549818,43.972936],[-122.549472,43.97278],[-122.549163,43.972618],[-122.54879,43.972431],[-122.548479,43.972268],[-122.548112,43.972085],[-122.547954,43.972015],[-122.54765,43.971902],[-122.547378,43.97181],[-122.54703,43.971685],[-122.546708,43.971606],[-122.546527,43.971563],[-122.546531,43.971679],[-122.54666,43.97171],[-122.546971,43.971787],[-122.547312,43.971909],[-122.547583,43.972001],[-122.547879,43.972111],[-122.54803,43.972177],[-122.548392,43.972357],[-122.548702,43.97252],[-122.549075,43.972708],[-122.549387,43.972871],[-122.549733,43.973027],[-122.550244,43.973296],[-122.550746,43.973514],[-122.551106,43.973687],[-122.551482,43.973895],[-122.55184,43.974052],[-122.55222,43.974219],[-122.55261,43.974412],[-122.552954,43.974585],[-122.553265,43.974774],[-122.553534,43.974908],[-122.553772,43.975014],[-122.553981,43.975107],[-122.554196,43.975203],[-122.554392,43.97526],[-122.554577,43.975316],[-122.554765,43.975353],[-122.554977,43.975382],[-122.555261,43.97541],[-122.555588,43.975418],[-122.555911,43.975425],[-122.556268,43.975432],[-122.55653,43.975446]]],[[[-122.51217,43.978027],[-122.511927,43.978083],[-122.511677,43.978183],[-122.511394,43.978338],[-122.511165,43.978445],[-122.510917,43.978573],[-122.510628,43.978725],[-122.510382,43.978833],[-122.510127,43.978964],[-122.509922,43.979113],[-122.50974,43.979238],[-122.509466,43.979418],[-122.509194,43.979625],[-122.508887,43.979857],[-122.508574,43.980101],[-122.50833,43.980266],[-122.508173,43.980378],[-122.508009,43.980483],[-122.507859,43.980577],[-122.507713,43.980674],[-122.507504,43.980774],[-122.507317,43.980882],[-122.50709,43.981008],[-122.506873,43.98112],[-122.506723,43.981187],[-122.506648,43.981225],[-122.506625,43.981232],[-122.506553,43.981255],[-122.506526,43.981261],[-122.50638,43.98129],[-122.50621,43.981325],[-122.505943,43.981386],[-122.505943,43.981386],[-122.505941,43.981441],[-122.505938,43.9815],[-122.505994,43.981489],[-122.506254,43.98143],[-122.506422,43.981395],[-122.506605,43.981359],[-122.506723,43.981321],[-122.506807,43.981278],[-122.506829,43.981269],[-122.506908,43.981233],[-122.506957,43.981211],[-122.50718,43.981096],[-122.507411,43.980968],[-122.507593,43.980863],[-122.507807,43.980761],[-122.50796,43.980659],[-122.508109,43.980566],[-122.508277,43.980458],[-122.508436,43.980345],[-122.508682,43.980178],[-122.508998,43.979932],[-122.509304,43.979701],[-122.509573,43.979497],[-122.509843,43.979318],[-122.510028,43.979191],[-122.510226,43.979048],[-122.510465,43.978925],[-122.510713,43.978817],[-122.511006,43.978662],[-122.511251,43.978535],[-122.511481,43.978427],[-122.51176,43.978275],[-122.511988,43.978185],[-122.512225,43.978129],[-122.512535,43.978027],[-122.512739,43.97798],[-122.51299,43.977951],[-122.513192,43.977935],[-122.513447,43.977924],[-122.513815,43.977924],[-122.514101,43.977912],[-122.514388,43.977914],[-122.514648,43.977902],[-122.514843,43.977828],[-122.51514,43.977691],[-122.515345,43.977569],[-122.515544,43.977457],[-122.51571,43.977377],[-122.515923,43.97727],[-122.516135,43.977162],[-122.516322,43.97706],[-122.516546,43.976925],[-122.516662,43.976843],[-122.516822,43.976722],[-122.516989,43.976582],[-122.517131,43.976461],[-122.517253,43.976335],[-122.517367,43.976229],[-122.517433,43.976154],[-122.517504,43.976106],[-122.517617,43.976033],[-122.517709,43.975976],[-122.517862,43.975905],[-122.518028,43.975838],[-122.518145,43.97579],[-122.518306,43.975715],[-122.518458,43.97564],[-122.518686,43.97552],[-122.518814,43.975462],[-122.518963,43.975401],[-122.519091,43.975349],[-122.519334,43.975282],[-122.519716,43.975171],[-122.520054,43.975075],[-122.520349,43.974985],[-122.520615,43.974896],[-122.520917,43.9748],[-122.521203,43.974704],[-122.521498,43.974594],[-122.521705,43.974505],[-122.521859,43.974429],[-122.522001,43.97435],[-122.52213,43.974223],[-122.522253,43.974084],[-122.522375,43.973944],[-122.522471,43.973811],[-122.522566,43.973678],[-122.522641,43.97355],[-122.522764,43.973418],[-122.522875,43.973321],[-122.522994,43.973219],[-122.523108,43.973144],[-122.523258,43.973071],[-122.523358,43.973008],[-122.523518,43.972958],[-122.523668,43.972931],[-122.523855,43.972916],[-122.52421,43.972916],[-122.524504,43.972911],[-122.524644,43.972915],[-122.524822,43.972924],[-122.525194,43.972944],[-122.525384,43.972941],[-122.525624,43.972986],[-122.525863,43.973039],[-122.526054,43.973097],[-122.526183,43.973152],[-122.526186,43.973026],[-122.526122,43.972999],[-122.525915,43.972935],[-122.525666,43.97288],[-122.525401,43.972831],[-122.525198,43.972834],[-122.524833,43.972815],[-122.524652,43.972805],[-122.524505,43.972801],[-122.524208,43.972806],[-122.523846,43.972806],[-122.523641,43.972823],[-122.52347,43.972854],[-122.523276,43.972914],[-122.523165,43.972984],[-122.523014,43.973058],[-122.522884,43.973143],[-122.522758,43.973251],[-122.522643,43.973353],[-122.522507,43.973497],[-122.522429,43.973631],[-122.522336,43.97376],[-122.522243,43.973889],[-122.522124,43.974025],[-122.522005,43.974161],[-122.521891,43.974272],[-122.52177,43.97434],[-122.521623,43.974412],[-122.521424,43.974498],[-122.521136,43.974605],[-122.520854,43.9747],[-122.520553,43.974796],[-122.520288,43.974884],[-122.519997,43.974973],[-122.51966,43.975069],[-122.519279,43.975179],[-122.519026,43.97525],[-122.518888,43.975306],[-122.518736,43.975367],[-122.5186,43.97543],[-122.51837,43.975551],[-122.518222,43.975624],[-122.518066,43.975696],[-122.517953,43.975743],[-122.517783,43.975811],[-122.517618,43.975888],[-122.517517,43.975951],[-122.517402,43.976025],[-122.517315,43.976083],[-122.517243,43.976166],[-122.517131,43.97627],[-122.517011,43.976394],[-122.516874,43.976511],[-122.51671,43.976648],[-122.516555,43.976766],[-122.516444,43.976843],[-122.516228,43.976974],[-122.516046,43.977073],[-122.515835,43.97718],[-122.515624,43.977287],[-122.515455,43.977368],[-122.51525,43.977483],[-122.515051,43.977602],[-122.514766,43.977733],[-122.514606,43.977794],[-122.514384,43.977804],[-122.514097,43.977803],[-122.51381,43.977814],[-122.513443,43.977814],[-122.513179,43.977825],[-122.51297,43.977842],[-122.512704,43.977873],[-122.51248,43.977924],[-122.51217,43.978027]]]]}},{"type":"Feature","properties":{"MAPTAXLOT":"1825000000100","MAPNUMBER":"18250000","TAXLOT":"100","ACCTNO":"0809507","MAPACRES":780.13168636},"geometry":{"type":"Polygon","coordinates":[[[-122.508995,44.042814],[-122.511563,44.04283],[-122.512341,44.042834],[-122.516481,44.042859],[-122.517146,44.042863],[-122.517241,44.042864],[-122.521399,44.042892],[-122.522058,44.042897],[-122.525998,44.042924],[-122.526316,44.042926],[-122.526318,44.042926],[-122.526409,44.039017],[-122.526487,44.035402],[-122.526565,44.031787],[-122.526883,44.024626],[-122.50727,44.024559],[-122.507269,44.024559],[-122.507385,44.031593],[-122.507373,44.031788],[-122.506707,44.042812],[-122.507535,44.042803],[-122.508995,44.042814]]]}},{"type":"Feature","properties":{"MAPTAXLOT":"1825000000200","MAPNUMBER":"18250000","TAXLOT":"200","ACCTNO":"0809515","MAPACRES":808.19370889},"geometry":{"type":"Polygon","coordinates":[[[-122.526565,44.031787],[-122.526487,44.035402],[-122.526409,44.039017],[-122.526318,44.042926],[-122.526968,44.042929],[-122.526971,44.042929],[-122.531377,44.042933],[-122.531931,44.042933],[-122.536438,44.042938],[-122.536893,44.042938],[-122.541498,44.042971],[-122.541933,44.042974],[-122.546558,44.043008],[-122.546578,44.039062],[-122.546594,44.035445],[-122.54661,44.031828],[-122.546673,44.024658],[-122.526883,44.024626],[-122.526565,44.031787]]]}},{"type":"Feature","properties":{"MAPTAXLOT":"1825000000300","MAPNUMBER":"18250000","TAXLOT":"300","ACCTNO":"0809523","MAPACRES":806.06296277},"geometry":{"type":"Polygon","coordinates":[[[-122.54661,44.031828],[-122.546594,44.035445],[-122.546578,44.039062],[-122.546558,44.043008],[-122.546645,44.043009],[-122.546972,44.043011],[-122.551554,44.043062],[-122.551945,44.043066],[-122.556549,44.043118],[-122.556917,44.043121],[-122.561544,44.043175],[-122.561805,44.043178],[-122.564333,44.043207],[-122.56654,44.043233],[-122.56654,44.043231],[-122.566527,44.039233],[-122.566517,44.035613],[-122.566506,44.031992],[-122.566464,44.024774],[-122.546673,44.024658],[-122.54661,44.031828]]]}},{"type":"Feature","properties":{"MAPTAXLOT":"1825000000400","MAPNUMBER":"18250000","TAXLOT":"400","ACCTNO":"0809531","MAPACRES":798.56775596},"geometry":{"type":"Polygon","coordinates":[[[-122.566692,44.043233],[-122.571581,44.043239],[-122.571619,44.043239],[-122.571619,44.043239],[-122.576469,44.043244],[-122.576699,44.043244],[-122.581325,44.043247],[-122.581778,44.043248],[-122.58618,44.043251],[-122.586178,44.039294],[-122.586175,44.035673],[-122.586173,44.032051],[-122.586167,44.024813],[-122.566464,44.024774],[-122.566506,44.031992],[-122.566517,44.035613],[-122.566527,44.039233],[-122.56654,44.043231],[-122.56654,44.043233],[-122.566692,44.043233]]]}},{"type":"Feature","properties":{"MAPTAXLOT":"1825000000500","MAPNUMBER":"18250000","TAXLOT":"500","ACCTNO":"0809549","MAPACRES":795.10702139},"geometry":{"type":"Polygon","coordinates":[[[-122.601553,44.043133],[-122.605783,44.043082],[-122.605778,44.039176],[-122.605774,44.035554],[-122.60577,44.031932],[-122.605763,44.024687],[-122.586167,44.024813],[-122.586173,44.032051],[-122.586175,44.035673],[-122.586178,44.039294],[-122.58618,44.043251],[-122.586858,44.043248],[-122.586858,44.043248],[-122.586858,44.043248],[-122.591107,44.043225],[-122.591756,44.043221],[-122.591756,44.043221],[-122.591756,44.043221],[-122.591757,44.043221],[-122.596033,44.043199],[-122.596655,44.043191],[-122.596655,44.043191],[-122.596655,44.043191],[-122.596655,44.043191],[-122.600908,44.04314],[-122.601553,44.043133],[-122.601553,44.043133],[-122.601553,44.043133]]]}},{"type":"Feature","properties":{"MAPTAXLOT":"1825000001000","MAPNUMBER":"18250000","TAXLOT":"1000","ACCTNO":"0809606","MAPACRES":625.34209941},"geometry":{"type":"Polygon","coordinates":[[[-122.586167,44.024813],[-122.605763,44.024687],[-122.605845,44.01025],[-122.586139,44.01034],[-122.586167,44.024813]]]}},{"type":"Feature","properties":{"MAPTAXLOT":"1825000001100","MAPNUMBER":"18250000","TAXLOT":"1100","ACCTNO":"0809614","MAPACRES":625.79017599},"geometry":{"type":"Polygon","coordinates":[[[-122.566464,44.024774],[-122.586167,44.024813],[-122.586139,44.01034],[-122.566488,44.010355],[-122.566464,44.024774]]]}},{"type":"Feature","properties":{"MAPTAXLOT":"1825000001200","MAPNUMBER":"18250000","TAXLOT":"1200","ACCTNO":"0809622","MAPACRES":624.86622872},"geometry":{"type":"Polygon","coordinates":[[[-122.546673,44.024658],[-122.566464,44.024774],[-122.566488,44.010355],[-122.54675,44.010356],[-122.546673,44.024658]]]}},{"type":"Feature","properties":{"MAPTAXLOT":"1825000001300","MAPNUMBER":"18250000","TAXLOT":"1300","ACCTNO":"0809630","MAPACRES":623.03096286},"geometry":{"type":"Polygon","coordinates":[[[-122.526883,44.024626],[-122.546673,44.024658],[-122.54675,44.010356],[-122.526972,44.010319],[-122.526883,44.024626]]]}},{"type":"Feature","properties":{"MAPTAXLOT":"1825000001400","MAPNUMBER":"18250000","TAXLOT":"1400","ACCTNO":"0809648","MAPACRES":620.66292964},"geometry":{"type":"Polygon","coordinates":[[[-122.507269,44.024559],[-122.50727,44.024559],[-122.526883,44.024626],[-122.526972,44.010319],[-122.507303,44.010087],[-122.507302,44.010087],[-122.50728,44.010355],[-122.507402,44.017318],[-122.507403,44.017442],[-122.507266,44.02432],[-122.507269,44.024555],[-122.507269,44.024559]]]}},{"type":"Feature","properties":{"MAPTAXLOT":"1825000001500","MAPNUMBER":"18250000","TAXLOT":"1500","ACCTNO":"0809655","MAPACRES":612.39616942},"geometry":{"type":"Polygon","coordinates":[[[-122.506838,43.995675],[-122.506909,43.996245],[-122.507701,44.002411],[-122.50776,44.002875],[-122.507761,44.00288],[-122.50784,44.003515],[-122.507309,44.009998],[-122.507303,44.010082],[-122.507302,44.010087],[-122.507303,44.010087],[-122.526972,44.010319],[-122.526681,43.996026],[-122.506837,43.99567],[-122.506838,43.995675]]]}},{"type":"Feature","properties":{"MAPTAXLOT":"1825000001600","MAPNUMBER":"18250000","TAXLOT":"1600","ACCTNO":"0809663","MAPACRES":623.7711663},"geometry":{"type":"Polygon","coordinates":[[[-122.526972,44.010319],[-122.54675,44.010356],[-122.546547,43.996067],[-122.526681,43.996026],[-122.526972,44.010319]]]}},{"type":"Feature","properties":{"MAPTAXLOT":"1825000001700","MAPNUMBER":"18250000","TAXLOT":"1700","ACCTNO":"0809671","MAPACRES":626.47659036},"geometry":{"type":"Polygon","coordinates":[[[-122.54675,44.010356],[-122.566488,44.010355],[-122.566449,43.995937],[-122.546547,43.996067],[-122.54675,44.010356]]]}},{"type":"Feature","properties":{"MAPTAXLOT":"1825000001800","MAPNUMBER":"18250000","TAXLOT":"1800","ACCTNO":"0809689","MAPACRES":629.34050676},"geometry":{"type":"Polygon","coordinates":[[[-122.566488,44.010355],[-122.586139,44.01034],[-122.586396,43.995888],[-122.566449,43.995937],[-122.566488,44.010355]]]}},{"type":"Feature","properties":{"MAPTAXLOT":"1825000001900","MAPNUMBER":"18250000","TAXLOT":"1900","ACCTNO":"0809697","MAPACRES":630.27276254},"geometry":{"type":"Polygon","coordinates":[[[-122.586139,44.01034],[-122.605845,44.01025],[-122.606316,43.995807],[-122.586396,43.995888],[-122.586139,44.01034]]]}},{"type":"Feature","properties":{"MAPTAXLOT":"1825000002200","MAPNUMBER":"18250000","TAXLOT":"2200","ACCTNO":"0809721","MAPACRES":640.29011078},"geometry":{"type":"Polygon","coordinates":[[[-122.586396,43.995888],[-122.606316,43.995807],[-122.606607,43.981318],[-122.586363,43.981425],[-122.586396,43.995888]]]}},{"type":"Feature","properties":{"MAPTAXLOT":"1825000002300","MAPNUMBER":"18250000","TAXLOT":"2300","ACCTNO":"0809739","MAPACRES":637.97321749},"geometry":{"type":"Polygon","coordinates":[[[-122.566449,43.995937],[-122.586396,43.995888],[-122.586363,43.981425],[-122.566204,43.981513],[-122.566449,43.995937]]]}},{"type":"Feature","properties":{"MAPTAXLOT":"1825000002400","MAPNUMBER":"18250000","TAXLOT":"2400","ACCTNO":"0809747","MAPACRES":635.79952843},"geometry":{"type":"Polygon","coordinates":[[[-122.546547,43.996067],[-122.566449,43.995937],[-122.566204,43.981513],[-122.545864,43.981808],[-122.546547,43.996067]]]}},{"type":"Feature","properties":{"MAPTAXLOT":"1825000002500","MAPNUMBER":"18250000","TAXLOT":"2500","ACCTNO":"0809754","MAPACRES":626.34412631},"geometry":{"type":"Polygon","coordinates":[[[-122.526681,43.996026],[-122.546547,43.996067],[-122.545864,43.981808],[-122.535688,43.981794],[-122.525823,43.981777],[-122.526681,43.996026]]]}},{"type":"Feature","properties":{"MAPTAXLOT":"1825000002600","MAPNUMBER":"18250000","TAXLOT":"2600","ACCTNO":"0809762","MAPACRES":633.14000881},"geometry":{"type":"MultiPolygon","coordinates":[[[[-122.506807,43.981278],[-122.506723,43.981321],[-122.506605,43.981359],[-122.506422,43.981395],[-122.506254,43.98143],[-122.505994,43.981489],[-122.505938,43.9815],[-122.505928,43.981753],[-122.505928,43.981759],[-122.505987,43.988454],[-122.505987,43.98846],[-122.505991,43.988974],[-122.506837,43.99567],[-122.526681,43.996026],[-122.525823,43.981777],[-122.506829,43.981269],[-122.506807,43.981278]]],[[[-122.505943,43.981386],[-122.505943,43.981386],[-122.50621,43.981325],[-122.50638,43.98129],[-122.506526,43.981261],[-122.505949,43.981245],[-122.505949,43.981245],[-122.505943,43.981386]]]]}},{"type":"Feature","properties":{"MAPTAXLOT":"1825000002700","MAPNUMBER":"18250000","TAXLOT":"2700","ACCTNO":"0809770","MAPACRES":626.21619596},"geometry":{"type":"MultiPolygon","coordinates":[[[[-122.505949,43.981239],[-122.505949,43.981245],[-122.505949,43.981245],[-122.506526,43.981261],[-122.506553,43.981255],[-122.506625,43.981232],[-122.506648,43.981225],[-122.506723,43.981187],[-122.506873,43.98112],[-122.50709,43.981008],[-122.507317,43.980882],[-122.507504,43.980774],[-122.507713,43.980674],[-122.507859,43.980577],[-122.508009,43.980483],[-122.508173,43.980378],[-122.50833,43.980266],[-122.508574,43.980101],[-122.508887,43.979857],[-122.509194,43.979625],[-122.509466,43.979418],[-122.50974,43.979238],[-122.509922,43.979113],[-122.510127,43.978964],[-122.510382,43.978833],[-122.510628,43.978725],[-122.510917,43.978573],[-122.511165,43.978445],[-122.511394,43.978338],[-122.511677,43.978183],[-122.511927,43.978083],[-122.51217,43.978027],[-122.51248,43.977924],[-122.512704,43.977873],[-122.51297,43.977842],[-122.513179,43.977825],[-122.513443,43.977814],[-122.51381,43.977814],[-122.514097,43.977803],[-122.514384,43.977804],[-122.514606,43.977794],[-122.514766,43.977733],[-122.515051,43.977602],[-122.51525,43.977483],[-122.515455,43.977368],[-122.515624,43.977287],[-122.515835,43.97718],[-122.516046,43.977073],[-122.516228,43.976974],[-122.516444,43.976843],[-122.516555,43.976766],[-122.51671,43.976648],[-122.516874,43.976511],[-122.517011,43.976394],[-122.517131,43.97627],[-122.517243,43.976166],[-122.517315,43.976083],[-122.517402,43.976025],[-122.517517,43.975951],[-122.517618,43.975888],[-122.517783,43.975811],[-122.517953,43.975743],[-122.518066,43.975696],[-122.518222,43.975624],[-122.51837,43.975551],[-122.5186,43.97543],[-122.518736,43.975367],[-122.518888,43.975306],[-122.519026,43.97525],[-122.519279,43.975179],[-122.51966,43.975069],[-122.519997,43.974973],[-122.520288,43.974884],[-122.520553,43.974796],[-122.520854,43.9747],[-122.521136,43.974605],[-122.521424,43.974498],[-122.521623,43.974412],[-122.52177,43.97434],[-122.521891,43.974272],[-122.522005,43.974161],[-122.522124,43.974025],[-122.522243,43.973889],[-122.522336,43.97376],[-122.522429,43.973631],[-122.522507,43.973497],[-122.522643,43.973353],[-122.522758,43.973251],[-122.522884,43.973143],[-122.523014,43.973058],[-122.523165,43.972984],[-122.523276,43.972914],[-122.52347,43.972854],[-122.523641,43.972823],[-122.523846,43.972806],[-122.524208,43.972806],[-122.524505,43.972801],[-122.524652,43.972805],[-122.524833,43.972815],[-122.525198,43.972834],[-122.525401,43.972831],[-122.525666,43.97288],[-122.525915,43.972935],[-122.526122,43.972999],[-122.526186,43.973026],[-122.526225,43.971439],[-122.526326,43.967256],[-122.516329,43.967313],[-122.506292,43.966708],[-122.506292,43.966708],[-122.506262,43.967298],[-122.506262,43.967305],[-122.506182,43.975],[-122.505949,43.981239]]],[[[-122.51299,43.977951],[-122.512739,43.97798],[-122.512535,43.978027],[-122.512225,43.978129],[-122.511988,43.978185],[-122.51176,43.978275],[-122.511481,43.978427],[-122.511251,43.978535],[-122.511006,43.978662],[-122.510713,43.978817],[-122.510465,43.978925],[-122.510226,43.979048],[-122.510028,43.979191],[-122.509843,43.979318],[-122.509573,43.979497],[-122.509304,43.979701],[-122.508998,43.979932],[-122.508682,43.980178],[-122.508436,43.980345],[-122.508277,43.980458],[-122.508109,43.980566],[-122.50796,43.980659],[-122.507807,43.980761],[-122.507593,43.980863],[-122.507411,43.980968],[-122.50718,43.981096],[-122.506957,43.981211],[-122.506908,43.981233],[-122.506829,43.981269],[-122.525823,43.981777],[-122.526148,43.974613],[-122.526179,43.973331],[-122.526183,43.973152],[-122.526054,43.973097],[-122.525863,43.973039],[-122.525624,43.972986],[-122.525384,43.972941],[-122.525194,43.972944],[-122.524822,43.972924],[-122.524644,43.972915],[-122.524504,43.972911],[-122.52421,43.972916],[-122.523855,43.972916],[-122.523668,43.972931],[-122.523518,43.972958],[-122.523358,43.973008],[-122.523258,43.973071],[-122.523108,43.973144],[-122.522994,43.973219],[-122.522875,43.973321],[-122.522764,43.973418],[-122.522641,43.97355],[-122.522566,43.973678],[-122.522471,43.973811],[-122.522375,43.973944],[-122.522253,43.974084],[-122.52213,43.974223],[-122.522001,43.97435],[-122.521859,43.974429],[-122.521705,43.974505],[-122.521498,43.974594],[-122.521203,43.974704],[-122.520917,43.9748],[-122.520615,43.974896],[-122.520349,43.974985],[-122.520054,43.975075],[-122.519716,43.975171],[-122.519334,43.975282],[-122.519091,43.975349],[-122.518963,43.975401],[-122.518814,43.975462],[-122.518686,43.97552],[-122.518458,43.97564],[-122.518306,43.975715],[-122.518145,43.97579],[-122.518028,43.975838],[-122.517862,43.975905],[-122.517709,43.975976],[-122.517617,43.976033],[-122.517504,43.976106],[-122.517433,43.976154],[-122.517367,43.976229],[-122.517253,43.976335],[-122.517131,43.976461],[-122.516989,43.976582],[-122.516822,43.976722],[-122.516662,43.976843],[-122.516546,43.976925],[-122.516322,43.97706],[-122.516135,43.977162],[-122.515923,43.97727],[-122.51571,43.977377],[-122.515544,43.977457],[-122.515345,43.977569],[-122.51514,43.977691],[-122.514843,43.977828],[-122.514648,43.977902],[-122.514388,43.977914],[-122.514101,43.977912],[-122.513815,43.977924],[-122.513447,43.977924],[-122.513192,43.977935],[-122.51299,43.977951]]]]}},{"type":"Feature","properties":{"MAPTAXLOT":"1825000002800","MAPNUMBER":"18250000","TAXLOT":"2800","ACCTNO":"0809788","MAPACRES":630.15423249},"geometry":{"type":"MultiPolygon","coordinates":[[[[-122.545864,43.981808],[-122.566204,43.981513],[-122.566314,43.973939],[-122.562582,43.974812],[-122.560891,43.975218],[-122.560489,43.97529],[-122.560259,43.97534],[-122.560043,43.975384],[-122.559867,43.975381],[-122.559614,43.975404],[-122.55944,43.975421],[-122.557071,43.975443],[-122.55653,43.975446],[-122.556268,43.975432],[-122.555911,43.975425],[-122.555588,43.975418],[-122.555261,43.97541],[-122.554977,43.975382],[-122.554765,43.975353],[-122.554577,43.975316],[-122.554392,43.97526],[-122.554196,43.975203],[-122.553981,43.975107],[-122.553772,43.975014],[-122.553534,43.974908],[-122.553265,43.974774],[-122.552954,43.974585],[-122.55261,43.974412],[-122.55222,43.974219],[-122.55184,43.974052],[-122.551482,43.973895],[-122.551106,43.973687],[-122.550746,43.973514],[-122.550244,43.973296],[-122.549733,43.973027],[-122.549387,43.972871],[-122.549075,43.972708],[-122.548702,43.97252],[-122.548392,43.972357],[-122.54803,43.972177],[-122.547879,43.972111],[-122.547583,43.972001],[-122.547312,43.971909],[-122.546971,43.971787],[-122.54666,43.97171],[-122.546531,43.971679],[-122.546624,43.974644],[-122.545864,43.981808]]],[[[-122.556535,43.975337],[-122.557069,43.975334],[-122.559429,43.975311],[-122.559594,43.975296],[-122.559859,43.975271],[-122.560024,43.975274],[-122.560217,43.975234],[-122.560449,43.975185],[-122.560849,43.975113],[-122.562535,43.974708],[-122.566314,43.973823],[-122.566411,43.967061],[-122.546393,43.967308],[-122.546527,43.971563],[-122.546708,43.971606],[-122.54703,43.971685],[-122.547378,43.97181],[-122.54765,43.971902],[-122.547954,43.972015],[-122.548112,43.972085],[-122.548479,43.972268],[-122.54879,43.972431],[-122.549163,43.972618],[-122.549472,43.97278],[-122.549818,43.972936],[-122.550328,43.973205],[-122.550827,43.973422],[-122.551195,43.973598],[-122.551568,43.973804],[-122.551919,43.973958],[-122.552303,43.974127],[-122.552697,43.974322],[-122.553046,43.974498],[-122.553357,43.974687],[-122.553617,43.974816],[-122.553852,43.974921],[-122.554061,43.975014],[-122.554265,43.975105],[-122.554449,43.975158],[-122.554626,43.975212],[-122.554799,43.975246],[-122.555001,43.975274],[-122.555274,43.975301],[-122.555593,43.975308],[-122.555915,43.975315],[-122.556276,43.975322],[-122.556535,43.975337]]]]}},{"type":"Feature","properties":{"MAPTAXLOT":"1825000002900","MAPNUMBER":"18250000","TAXLOT":"2900","ACCTNO":"0809796","MAPACRES":634.94904666},"geometry":{"type":"MultiPolygon","coordinates":[[[[-122.566474,43.973901],[-122.566314,43.973939],[-122.566204,43.981513],[-122.586363,43.981425],[-122.586414,43.972788],[-122.586223,43.972837],[-122.585898,43.972908],[-122.585502,43.972974],[-122.585024,43.973035],[-122.584629,43.973062],[-122.584242,43.973095],[-122.583765,43.973103],[-122.583367,43.973117],[-122.583072,43.973102],[-122.582728,43.973063],[-122.582397,43.97303],[-122.582008,43.972998],[-122.581722,43.972957],[-122.581364,43.972871],[-122.581015,43.972781],[-122.580648,43.972723],[-122.580327,43.972653],[-122.579975,43.972627],[-122.579669,43.972607],[-122.579294,43.972575],[-122.578983,43.972568],[-122.578719,43.97256],[-122.578406,43.972584],[-122.578064,43.972628],[-122.577622,43.97272],[-122.577157,43.9728],[-122.576798,43.972865],[-122.576412,43.972904],[-122.576159,43.972942],[-122.575856,43.972954],[-122.575592,43.972952],[-122.575328,43.972944],[-122.575038,43.972916],[-122.574509,43.972874],[-122.574201,43.972854],[-122.573985,43.972864],[-122.573723,43.972882],[-122.573528,43.972916],[-122.573296,43.972976],[-122.573058,43.973061],[-122.572659,43.973273],[-122.572489,43.973368],[-122.572358,43.973425],[-122.572176,43.973484],[-122.571974,43.973509],[-122.571786,43.973512],[-122.571605,43.973501],[-122.571358,43.973458],[-122.570591,43.973205],[-122.570437,43.973158],[-122.570322,43.973143],[-122.570182,43.973133],[-122.570029,43.973123],[-122.569869,43.973138],[-122.569688,43.97316],[-122.568084,43.973524],[-122.566474,43.973901]]],[[[-122.566314,43.973823],[-122.566474,43.973786],[-122.568038,43.973419],[-122.569652,43.973053],[-122.569846,43.97303],[-122.570026,43.973013],[-122.570196,43.973023],[-122.570343,43.973034],[-122.57048,43.973053],[-122.570652,43.973104],[-122.571408,43.973354],[-122.571629,43.973393],[-122.57179,43.973402],[-122.57196,43.973399],[-122.572132,43.973378],[-122.572287,43.973328],[-122.572403,43.973277],[-122.572567,43.973185],[-122.572978,43.972967],[-122.573236,43.972875],[-122.573484,43.972811],[-122.573698,43.972773],[-122.573973,43.972755],[-122.574203,43.972744],[-122.574524,43.972765],[-122.575056,43.972807],[-122.575341,43.972834],[-122.575596,43.972842],[-122.575853,43.972844],[-122.57614,43.972833],[-122.576386,43.972796],[-122.576768,43.972757],[-122.577121,43.972693],[-122.577583,43.972614],[-122.57803,43.972521],[-122.578384,43.972476],[-122.578714,43.97245],[-122.578989,43.972458],[-122.579305,43.972465],[-122.579685,43.972498],[-122.57999,43.972518],[-122.580357,43.972544],[-122.580686,43.972617],[-122.581057,43.972676],[-122.581413,43.972767],[-122.58176,43.97285],[-122.582032,43.972889],[-122.582416,43.972921],[-122.58275,43.972954],[-122.58309,43.972993],[-122.583369,43.973007],[-122.583759,43.972993],[-122.584231,43.972985],[-122.584613,43.972952],[-122.585004,43.972926],[-122.585472,43.972866],[-122.585859,43.972802],[-122.586175,43.972732],[-122.586416,43.972671],[-122.586448,43.966969],[-122.566411,43.967061],[-122.566314,43.973823]]]]}},{"type":"Feature","properties":{"MAPTAXLOT":"1825000003000","MAPNUMBER":"18250000","TAXLOT":"3000","ACCTNO":"0809804","MAPACRES":477.69583731},"geometry":{"type":"MultiPolygon","coordinates":[[[[-122.586363,43.981425],[-122.606607,43.981318],[-122.60646,43.967337],[-122.606389,43.967441],[-122.606253,43.967579],[-122.606061,43.967724],[-122.605807,43.967863],[-122.605567,43.967965],[-122.604835,43.968328],[-122.604651,43.968399],[-122.604479,43.968453],[-122.60433,43.968441],[-122.604195,43.968422],[-122.604032,43.968377],[-122.603836,43.968308],[-122.603551,43.968195],[-122.603288,43.968071],[-122.602918,43.967942],[-122.602698,43.967849],[-122.602416,43.967737],[-122.60212,43.967611],[-122.601812,43.967438],[-122.60149,43.967223],[-122.601479,43.967216],[-122.601547,43.974129],[-122.591516,43.974158],[-122.591496,43.969225],[-122.591313,43.96936],[-122.590975,43.969623],[-122.590646,43.969912],[-122.590295,43.970226],[-122.589969,43.970447],[-122.588503,43.97152],[-122.588296,43.97169],[-122.587736,43.972148],[-122.587593,43.97225],[-122.587412,43.972367],[-122.587108,43.972511],[-122.586796,43.97266],[-122.586529,43.972759],[-122.586499,43.972766],[-122.586414,43.972788],[-122.586363,43.981425]]],[[[-122.586416,43.972671],[-122.586469,43.972657],[-122.586499,43.972646],[-122.586719,43.972565],[-122.587024,43.972419],[-122.587319,43.97228],[-122.587489,43.97217],[-122.587626,43.972073],[-122.588182,43.971618],[-122.588392,43.971445],[-122.589863,43.970368],[-122.590184,43.970151],[-122.590528,43.969843],[-122.59086,43.969551],[-122.591203,43.969284],[-122.591495,43.969069],[-122.591486,43.966957],[-122.586448,43.966969],[-122.586416,43.972671]]],[[[-122.601478,43.967069],[-122.601591,43.967141],[-122.601911,43.967354],[-122.602206,43.96752],[-122.602492,43.967642],[-122.602773,43.967753],[-122.60299,43.967846],[-122.603363,43.967975],[-122.603629,43.968101],[-122.603907,43.96821],[-122.604092,43.968277],[-122.604237,43.968316],[-122.604353,43.968332],[-122.604456,43.968341],[-122.604585,43.9683],[-122.604756,43.968234],[-122.605485,43.967872],[-122.605722,43.967771],[-122.60596,43.967642],[-122.606135,43.967509],[-122.606258,43.967384],[-122.606341,43.967264],[-122.606403,43.96717],[-122.606457,43.967023],[-122.606456,43.966919],[-122.601476,43.966932],[-122.601478,43.967069]]]]}},{"type":"Feature","properties":{"MAPTAXLOT":"1825000003400","MAPNUMBER":"18250000","TAXLOT":"3400","ACCTNO":"0809846","MAPACRES":634.19467748},"geometry":{"type":"MultiPolygon","coordinates":[[[[-122.599127,43.966354],[-122.599436,43.966489],[-122.599629,43.966585],[-122.599903,43.966648],[-122.600229,43.966692],[-122.600492,43.966714],[-122.600745,43.966763],[-122.601045,43.966845],[-122.601218,43.966924],[-122.601237,43.966932],[-122.601476,43.966932],[-122.606456,43.966919],[-122.606616,43.952498],[-122.606616,43.952497],[-122.599391,43.952498],[-122.596763,43.9525],[-122.58935,43.952492],[-122.586706,43.952496],[-122.586706,43.952498],[-122.586448,43.966969],[-122.591486,43.966957],[-122.596257,43.966945],[-122.596287,43.966932],[-122.596629,43.966788],[-122.597121,43.966629],[-122.597424,43.966539],[-122.597824,43.966421],[-122.598234,43.966314],[-122.598611,43.966287],[-122.598806,43.966277],[-122.599127,43.966354]]],[[[-122.598624,43.966397],[-122.598268,43.966422],[-122.597879,43.966524],[-122.597481,43.96664],[-122.597181,43.96673],[-122.596699,43.966886],[-122.59659,43.966932],[-122.59656,43.966944],[-122.600938,43.966933],[-122.600906,43.966924],[-122.600698,43.966867],[-122.600464,43.966822],[-122.600206,43.966801],[-122.599866,43.966754],[-122.599562,43.966685],[-122.599354,43.966581],[-122.599063,43.966455],[-122.598787,43.966388],[-122.598624,43.966397]]]]}},{"type":"Feature","properties":{"MAPTAXLOT":"1825000003500","MAPNUMBER":"18250000","TAXLOT":"3500","ACCTNO":"0809853","MAPACRES":640.77731291},"geometry":{"type":"Polygon","coordinates":[[[-122.566411,43.967061],[-122.586448,43.966969],[-122.586706,43.952498],[-122.586706,43.952496],[-122.579337,43.952475],[-122.576628,43.952459],[-122.569325,43.952556],[-122.566668,43.952583],[-122.566668,43.952586],[-122.566411,43.967061]]]}},{"type":"Feature","properties":{"MAPTAXLOT":"1825000003600","MAPNUMBER":"18250000","TAXLOT":"3600","ACCTNO":"0809861","MAPACRES":648.43027807},"geometry":{"type":"Polygon","coordinates":[[[-122.546393,43.967308],[-122.566411,43.967061],[-122.566668,43.952586],[-122.566668,43.952583],[-122.559347,43.952603],[-122.556547,43.952603],[-122.549368,43.9525],[-122.546436,43.952448],[-122.546436,43.952448],[-122.546436,43.952452],[-122.546393,43.967308]]]}},{"type":"Feature","properties":{"MAPTAXLOT":"1825000003700","MAPNUMBER":"18250000","TAXLOT":"3700","ACCTNO":"0809879","MAPACRES":652.52719247},"geometry":{"type":"Polygon","coordinates":[[[-122.536318,43.96735],[-122.546393,43.967308],[-122.546436,43.952452],[-122.546436,43.952448],[-122.539314,43.952481],[-122.536657,43.952489],[-122.529256,43.952486],[-122.526627,43.952478],[-122.526627,43.952484],[-122.526439,43.959899],[-122.526326,43.967256],[-122.533704,43.967326],[-122.535696,43.967345],[-122.536318,43.96735]]]}},{"type":"Feature","properties":{"MAPTAXLOT":"1825000003800","MAPNUMBER":"18250000","TAXLOT":"3800","ACCTNO":"0809887","MAPACRES":653.83781994},"geometry":{"type":"Polygon","coordinates":[[[-122.506292,43.966708],[-122.506292,43.966708],[-122.516329,43.967313],[-122.526326,43.967256],[-122.526439,43.959899],[-122.526627,43.952484],[-122.526627,43.952478],[-122.519247,43.952311],[-122.516439,43.952251],[-122.509239,43.952162],[-122.506472,43.952127],[-122.506472,43.952135],[-122.506649,43.959114],[-122.506649,43.959117],[-122.506639,43.959314],[-122.506292,43.966701],[-122.506292,43.966708]]]}},{"type":"Feature","properties":{"MAPTAXLOT":"1825260000077","MAPNUMBER":"18252600","TAXLOT":"77","ACCTNO":"000None","MAPACRES":4.65228074},"geometry":{"type":"MultiPolygon","coordinates":[[[[-122.544825,43.971454],[-122.545058,43.971469],[-122.545282,43.971478],[-122.545705,43.971509],[-122.545925,43.971549],[-122.546175,43.971596],[-122.546378,43.971643],[-122.546401,43.971649],[-122.546531,43.971679],[-122.546527,43.971563],[-122.546425,43.971539],[-122.546402,43.971534],[-122.546218,43.971491],[-122.545963,43.971443],[-122.545732,43.9714],[-122.545293,43.971369],[-122.545069,43.97136],[-122.544834,43.971344],[-122.544525,43.971337],[-122.544255,43.971341],[-122.543887,43.971341],[-122.543605,43.971353],[-122.543387,43.97137],[-122.543197,43.971392],[-122.543023,43.971383],[-122.542771,43.971387],[-122.542507,43.971379],[-122.5423,43.971363],[-122.541908,43.971357],[-122.541539,43.97137],[-122.541163,43.971383],[-122.540698,43.971398],[-122.540302,43.971411],[-122.539933,43.971437],[-122.539704,43.971454],[-122.539427,43.971505],[-122.539193,43.971528],[-122.538966,43.971538],[-122.538734,43.971536],[-122.538518,43.971502],[-122.538251,43.971456],[-122.538045,43.971408],[-122.53696,43.971181],[-122.536655,43.971127],[-122.536344,43.971106],[-122.536299,43.971103],[-122.536195,43.971095],[-122.536191,43.971203],[-122.53633,43.971215],[-122.53663,43.971235],[-122.53692,43.971287],[-122.538,43.971513],[-122.53821,43.971562],[-122.538484,43.971609],[-122.538717,43.971646],[-122.53897,43.971648],[-122.539208,43.971637],[-122.539456,43.971613],[-122.539731,43.971563],[-122.539949,43.971546],[-122.540313,43.971521],[-122.540705,43.971507],[-122.54117,43.971493],[-122.541546,43.971479],[-122.54191,43.971467],[-122.54229,43.971473],[-122.542496,43.971488],[-122.54277,43.971497],[-122.543019,43.971492],[-122.543204,43.971502],[-122.543407,43.971479],[-122.543618,43.971462],[-122.543891,43.971451],[-122.544257,43.971451],[-122.544524,43.971446],[-122.544825,43.971454]]],[[[-122.528691,43.973627],[-122.528958,43.973622],[-122.529244,43.973611],[-122.52951,43.973606],[-122.529779,43.973608],[-122.530023,43.973604],[-122.530297,43.973592],[-122.530506,43.973569],[-122.530741,43.973538],[-122.530931,43.973509],[-122.531123,43.973472],[-122.53133,43.973416],[-122.531547,43.97336],[-122.531762,43.973284],[-122.531932,43.973228],[-122.532121,43.973153],[-122.532256,43.973098],[-122.532423,43.97302],[-122.532565,43.972919],[-122.532684,43.972854],[-122.532843,43.972767],[-122.532979,43.97269],[-122.533166,43.972618],[-122.533431,43.972529],[-122.533687,43.972435],[-122.533939,43.972358],[-122.53411,43.972276],[-122.534315,43.972194],[-122.534386,43.972155],[-122.534289,43.97213],[-122.534262,43.972083],[-122.534232,43.972102],[-122.534031,43.972182],[-122.533867,43.972261],[-122.533622,43.972335],[-122.533365,43.972431],[-122.533098,43.97252],[-122.532896,43.972597],[-122.53275,43.97268],[-122.532593,43.972767],[-122.532466,43.972836],[-122.532328,43.972934],[-122.532177,43.973004],[-122.532047,43.973057],[-122.531864,43.97313],[-122.531698,43.973184],[-122.531488,43.973258],[-122.531278,43.973313],[-122.531077,43.973367],[-122.530895,43.973402],[-122.530711,43.973431],[-122.530481,43.97346],[-122.530281,43.973483],[-122.530017,43.973494],[-122.529778,43.973498],[-122.529509,43.973496],[-122.529238,43.973501],[-122.528952,43.973513],[-122.528699,43.973517],[-122.528532,43.973501],[-122.527955,43.973466],[-122.527642,43.973452],[-122.527378,43.973431],[-122.527126,43.973392],[-122.526858,43.973322],[-122.52661,43.973207],[-122.526376,43.973107],[-122.526338,43.973091],[-122.526186,43.973026],[-122.526183,43.973152],[-122.526299,43.973201],[-122.526337,43.973218],[-122.52653,43.9733],[-122.526791,43.973421],[-122.527084,43.973497],[-122.527354,43.973539],[-122.527629,43.973561],[-122.527944,43.973575],[-122.528516,43.97361],[-122.528691,43.973627]]]]}},{"type":"Feature","properties":{"MAPTAXLOT":"1825260000100","MAPNUMBER":"18252600","TAXLOT":"100","ACCTNO":"0809895","MAPACRES":483.44129433},"geometry":{"type":"MultiPolygon","coordinates":[[[[-122.525823,43.981777],[-122.535688,43.981794],[-122.545864,43.981808],[-122.546624,43.974644],[-122.546531,43.971679],[-122.546401,43.971649],[-122.546378,43.971643],[-122.546175,43.971596],[-122.545925,43.971549],[-122.545705,43.971509],[-122.545282,43.971478],[-122.545058,43.971469],[-122.544825,43.971454],[-122.544524,43.971446],[-122.544257,43.971451],[-122.543891,43.971451],[-122.543618,43.971462],[-122.543407,43.971479],[-122.543204,43.971502],[-122.543019,43.971492],[-122.54277,43.971497],[-122.542496,43.971488],[-122.54229,43.971473],[-122.54191,43.971467],[-122.541546,43.971479],[-122.54117,43.971493],[-122.540705,43.971507],[-122.540313,43.971521],[-122.539949,43.971546],[-122.539731,43.971563],[-122.539456,43.971613],[-122.539208,43.971637],[-122.53897,43.971648],[-122.538717,43.971646],[-122.538484,43.971609],[-122.53821,43.971562],[-122.538,43.971513],[-122.53692,43.971287],[-122.53663,43.971235],[-122.53633,43.971215],[-122.536191,43.971203],[-122.536189,43.971272],[-122.536186,43.971382],[-122.536159,43.972177],[-122.536151,43.972424],[-122.536001,43.974624],[-122.530444,43.974619],[-122.530333,43.974667],[-122.530148,43.974619],[-122.526148,43.974613],[-122.525823,43.981777]]],[[[-122.544834,43.971344],[-122.545069,43.97136],[-122.545293,43.971369],[-122.545732,43.9714],[-122.545963,43.971443],[-122.546218,43.971491],[-122.546402,43.971534],[-122.546425,43.971539],[-122.546527,43.971563],[-122.546393,43.967308],[-122.536318,43.96735],[-122.536227,43.970142],[-122.536196,43.971073],[-122.536195,43.971095],[-122.536299,43.971103],[-122.536344,43.971106],[-122.536655,43.971127],[-122.53696,43.971181],[-122.538045,43.971408],[-122.538251,43.971456],[-122.538518,43.971502],[-122.538734,43.971536],[-122.538966,43.971538],[-122.539193,43.971528],[-122.539427,43.971505],[-122.539704,43.971454],[-122.539933,43.971437],[-122.540302,43.971411],[-122.540698,43.971398],[-122.541163,43.971383],[-122.541539,43.97137],[-122.541908,43.971357],[-122.5423,43.971363],[-122.542507,43.971379],[-122.542771,43.971387],[-122.543023,43.971383],[-122.543197,43.971392],[-122.543387,43.97137],[-122.543605,43.971353],[-122.543887,43.971341],[-122.544255,43.971341],[-122.544525,43.971337],[-122.544834,43.971344]]]]}},{"type":"Feature","properties":{"MAPTAXLOT":"1825260000200","MAPNUMBER":"18252600","TAXLOT":"200","ACCTNO":"0809903","MAPACRES":14.23014696},"geometry":{"type":"Polygon","coordinates":[[[-122.530444,43.974619],[-122.536001,43.974624],[-122.536151,43.972424],[-122.535485,43.972712],[-122.533725,43.973216],[-122.532931,43.973635],[-122.53215,43.973767],[-122.5315,43.974164],[-122.530444,43.974619]]]}},{"type":"Feature","properties":{"MAPTAXLOT":"1825260000201","MAPNUMBER":"18252600","TAXLOT":"201","ACCTNO":"0809911","MAPACRES":5.07743832},"geometry":{"type":"Polygon","coordinates":[[[-122.526148,43.974613],[-122.530148,43.974619],[-122.528338,43.974149],[-122.527337,43.973795],[-122.526179,43.973331],[-122.526148,43.974613]]]}},{"type":"Feature","properties":{"MAPTAXLOT":"1825260000300","MAPNUMBER":"18252600","TAXLOT":"300","ACCTNO":"0809929","MAPACRES":52.42636951},"geometry":{"type":"MultiPolygon","coordinates":[[[[-122.528699,43.973517],[-122.528952,43.973513],[-122.529238,43.973501],[-122.529509,43.973496],[-122.529778,43.973498],[-122.530017,43.973494],[-122.530281,43.973483],[-122.530481,43.97346],[-122.530711,43.973431],[-122.530895,43.973402],[-122.531077,43.973367],[-122.531278,43.973313],[-122.531488,43.973258],[-122.531698,43.973184],[-122.531864,43.97313],[-122.532047,43.973057],[-122.532177,43.973004],[-122.532328,43.972934],[-122.532466,43.972836],[-122.532593,43.972767],[-122.53275,43.97268],[-122.532896,43.972597],[-122.533098,43.97252],[-122.533365,43.972431],[-122.533622,43.972335],[-122.533867,43.972261],[-122.534031,43.972182],[-122.534232,43.972102],[-122.534262,43.972083],[-122.534145,43.971876],[-122.533968,43.97178],[-122.533967,43.971632],[-122.533761,43.971378],[-122.53376,43.971114],[-122.533563,43.970846],[-122.533434,43.970794],[-122.533421,43.970378],[-122.533372,43.97039],[-122.526225,43.971439],[-122.526186,43.973026],[-122.526338,43.973091],[-122.526376,43.973107],[-122.52661,43.973207],[-122.526858,43.973322],[-122.527126,43.973392],[-122.527378,43.973431],[-122.527642,43.973452],[-122.527955,43.973466],[-122.528532,43.973501],[-122.528699,43.973517]]],[[[-122.527337,43.973795],[-122.528338,43.974149],[-122.530148,43.974619],[-122.530333,43.974667],[-122.530444,43.974619],[-122.5315,43.974164],[-122.53215,43.973767],[-122.532931,43.973635],[-122.533725,43.973216],[-122.535485,43.972712],[-122.534982,43.972309],[-122.534386,43.972155],[-122.534315,43.972194],[-122.53411,43.972276],[-122.533939,43.972358],[-122.533687,43.972435],[-122.533431,43.972529],[-122.533166,43.972618],[-122.532979,43.97269],[-122.532843,43.972767],[-122.532684,43.972854],[-122.532565,43.972919],[-122.532423,43.97302],[-122.532256,43.973098],[-122.532121,43.973153],[-122.531932,43.973228],[-122.531762,43.973284],[-122.531547,43.97336],[-122.53133,43.973416],[-122.531123,43.973472],[-122.530931,43.973509],[-122.530741,43.973538],[-122.530506,43.973569],[-122.530297,43.973592],[-122.530023,43.973604],[-122.529779,43.973608],[-122.52951,43.973606],[-122.529244,43.973611],[-122.528958,43.973622],[-122.528691,43.973627],[-122.528516,43.97361],[-122.527944,43.973575],[-122.527629,43.973561],[-122.527354,43.973539],[-122.527084,43.973497],[-122.526791,43.973421],[-122.52653,43.9733],[-122.526337,43.973218],[-122.526299,43.973201],[-122.526183,43.973152],[-122.526179,43.973331],[-122.527337,43.973795]]]]}},{"type":"Feature","properties":{"MAPTAXLOT":"1825260000400","MAPNUMBER":"18252600","TAXLOT":"400","ACCTNO":"0809937","MAPACRES":61.89777894},"geometry":{"type":"Polygon","coordinates":[[[-122.526326,43.967256],[-122.526225,43.971439],[-122.533372,43.97039],[-122.533421,43.970378],[-122.534082,43.96991],[-122.534535,43.968418],[-122.533704,43.967326],[-122.526326,43.967256]]]}},{"type":"Feature","properties":{"MAPTAXLOT":"1825260000401","MAPNUMBER":"18252600","TAXLOT":"401","ACCTNO":"1025749","MAPACRES":5.45128922},"geometry":{"type":"Polygon","coordinates":[[[-122.535295,43.970141],[-122.536227,43.970142],[-122.536318,43.96735],[-122.535696,43.967345],[-122.535751,43.967395],[-122.5358,43.967448],[-122.535843,43.967503],[-122.535879,43.967561],[-122.53591,43.967621],[-122.535933,43.967683],[-122.53595,43.967745],[-122.53596,43.967809],[-122.535962,43.967872],[-122.535958,43.967936],[-122.535947,43.967999],[-122.535929,43.968062],[-122.535904,43.968123],[-122.535872,43.968182],[-122.535834,43.96824],[-122.53579,43.968295],[-122.53574,43.968347],[-122.535684,43.968397],[-122.535623,43.968443],[-122.535557,43.968485],[-122.535144,43.968719],[-122.535093,43.968751],[-122.535046,43.968786],[-122.535003,43.968824],[-122.534966,43.968865],[-122.534934,43.968908],[-122.534908,43.968953],[-122.534887,43.969],[-122.534873,43.969048],[-122.534862,43.969111],[-122.534857,43.969174],[-122.534858,43.969237],[-122.534866,43.9693],[-122.534879,43.969362],[-122.534899,43.969424],[-122.534926,43.969484],[-122.534958,43.969543],[-122.534996,43.9696],[-122.535187,43.969862],[-122.535212,43.969901],[-122.535232,43.969942],[-122.535248,43.969984],[-122.535295,43.970141]]]}},{"type":"Feature","properties":{"MAPTAXLOT":"1825260000402","MAPNUMBER":"18252600","TAXLOT":"402","ACCTNO":"1025756","MAPACRES":5.35848648},"geometry":{"type":"Polygon","coordinates":[[[-122.534386,43.972155],[-122.534982,43.972309],[-122.535485,43.972712],[-122.536151,43.972424],[-122.536159,43.972177],[-122.536186,43.971382],[-122.536189,43.971272],[-122.536191,43.971203],[-122.536195,43.971095],[-122.536196,43.971073],[-122.536227,43.970142],[-122.535295,43.970141],[-122.535447,43.970656],[-122.53547,43.970723],[-122.5355,43.970789],[-122.535537,43.970853],[-122.535581,43.970914],[-122.53563,43.970974],[-122.535664,43.971007],[-122.535703,43.971037],[-122.535746,43.971064],[-122.535793,43.971087],[-122.535843,43.971107],[-122.535896,43.971122],[-122.535951,43.971133],[-122.536007,43.97114],[-122.535933,43.971138],[-122.535859,43.97114],[-122.535785,43.971147],[-122.535713,43.971158],[-122.535642,43.971174],[-122.535573,43.971195],[-122.535508,43.97122],[-122.535445,43.971249],[-122.535386,43.971281],[-122.535332,43.971318],[-122.535282,43.971357],[-122.535237,43.9714],[-122.53492,43.971742],[-122.534845,43.971809],[-122.534765,43.971872],[-122.534679,43.971932],[-122.534588,43.971988],[-122.534492,43.97204],[-122.534393,43.972087],[-122.534289,43.97213],[-122.534386,43.972155]]]}},{"type":"Feature","properties":{"MAPTAXLOT":"1825260000403","MAPNUMBER":"18252600","TAXLOT":"403","ACCTNO":"1047750","MAPACRES":13.86165343},"geometry":{"type":"Polygon","coordinates":[[[-122.534262,43.972083],[-122.534289,43.97213],[-122.534393,43.972087],[-122.534492,43.97204],[-122.534588,43.971988],[-122.534679,43.971932],[-122.534765,43.971872],[-122.534845,43.971809],[-122.53492,43.971742],[-122.535237,43.9714],[-122.535282,43.971357],[-122.535332,43.971318],[-122.535386,43.971281],[-122.535445,43.971249],[-122.535508,43.97122],[-122.535573,43.971195],[-122.535642,43.971174],[-122.535713,43.971158],[-122.535785,43.971147],[-122.535859,43.97114],[-122.535933,43.971138],[-122.536007,43.97114],[-122.535951,43.971133],[-122.535896,43.971122],[-122.535843,43.971107],[-122.535793,43.971087],[-122.535746,43.971064],[-122.535703,43.971037],[-122.535664,43.971007],[-122.53563,43.970974],[-122.535581,43.970914],[-122.535537,43.970853],[-122.5355,43.970789],[-122.53547,43.970723],[-122.535447,43.970656],[-122.535295,43.970141],[-122.535248,43.969984],[-122.535232,43.969942],[-122.535212,43.969901],[-122.535187,43.969862],[-122.534996,43.9696],[-122.534958,43.969543],[-122.534926,43.969484],[-122.534899,43.969424],[-122.534879,43.969362],[-122.534866,43.9693],[-122.534858,43.969237],[-122.534857,43.969174],[-122.534862,43.969111],[-122.534873,43.969048],[-122.534887,43.969],[-122.534908,43.968953],[-122.534934,43.968908],[-122.534966,43.968865],[-122.535003,43.968824],[-122.535046,43.968786],[-122.535093,43.968751],[-122.535144,43.968719],[-122.535557,43.968485],[-122.535623,43.968443],[-122.535684,43.968397],[-122.53574,43.968347],[-122.53579,43.968295],[-122.535834,43.96824],[-122.535872,43.968182],[-122.535904,43.968123],[-122.535929,43.968062],[-122.535947,43.967999],[-122.535958,43.967936],[-122.535962,43.967872],[-122.53596,43.967809],[-122.53595,43.967745],[-122.535933,43.967683],[-122.53591,43.967621],[-122.535879,43.967561],[-122.535843,43.967503],[-122.5358,43.967448],[-122.535751,43.967395],[-122.535696,43.967345],[-122.533704,43.967326],[-122.534535,43.968418],[-122.534082,43.96991],[-122.533421,43.970378],[-122.533434,43.970794],[-122.533563,43.970846],[-122.53376,43.971114],[-122.533761,43.971378],[-122.533967,43.971632],[-122.533968,43.97178],[-122.534145,43.971876],[-122.534262,43.972083]]]}}]}