{"type":"FeatureCollection","features":[{"type":"Feature","properties":{"MAPTAXLOT":"2006000003300","MAPNUMBER":"20060000","TAXLOT":"3300","ACCTNO":"0925287","MAPACRES":601.77789445},"geometry":{"type":"Polygon","coordinates":[[[-123.450891,43.816954],[-123.450891,43.816954],[-123.451021,43.823996],[-123.460586,43.824042],[-123.465386,43.824066],[-123.470186,43.824088],[-123.470191,43.823643],[-123.470226,43.820554],[-123.470232,43.820025],[-123.470266,43.817027],[-123.470266,43.816413],[-123.470261,43.813523],[-123.47026,43.812941],[-123.470255,43.810031],[-123.464751,43.809989],[-123.459248,43.809947],[-123.450763,43.80991],[-123.450891,43.816954]]]}},{"type":"Feature","properties":{"MAPTAXLOT":"2006000003400","MAPNUMBER":"20060000","TAXLOT":"3400","ACCTNO":"0925303","MAPACRES":308.03998033},"geometry":{"type":"Polygon","coordinates":[[[-123.440899,43.813481],[-123.440993,43.816996],[-123.441,43.817271],[-123.441022,43.818093],[-123.441181,43.824057],[-123.451021,43.823996],[-123.450891,43.816954],[-123.450891,43.816954],[-123.450763,43.80991],[-123.440806,43.809966],[-123.440899,43.813481]]]}},{"type":"Feature","properties":{"MAPTAXLOT":"2006000003500","MAPNUMBER":"20060000","TAXLOT":"3500","ACCTNO":"0925311","MAPACRES":1.37650423},"geometry":{"type":"Polygon","coordinates":[[[-123.440265,43.818096],[-123.441022,43.818093],[-123.441,43.817271],[-123.440243,43.817274],[-123.440265,43.818096]]]}},{"type":"Feature","properties":{"MAPTAXLOT":"2006000003501","MAPNUMBER":"20060000","TAXLOT":"3501","ACCTNO":"0925329","MAPACRES":311.65898402},"geometry":{"type":"Polygon","coordinates":[[[-123.431342,43.824118],[-123.441181,43.824057],[-123.441022,43.818093],[-123.440265,43.818096],[-123.440243,43.817274],[-123.441,43.817271],[-123.440993,43.816996],[-123.440899,43.813481],[-123.440806,43.809966],[-123.435827,43.809994],[-123.430849,43.810022],[-123.430781,43.817039],[-123.431342,43.824118]]]}},{"type":"Feature","properties":{"MAPTAXLOT":"2006000003600","MAPNUMBER":"20060000","TAXLOT":"3600","ACCTNO":"0925337","MAPACRES":608.33088231},"geometry":{"type":"Polygon","coordinates":[[[-123.411421,43.823994],[-123.431342,43.824118],[-123.430781,43.817039],[-123.430849,43.810022],[-123.420952,43.80993],[-123.411426,43.809877],[-123.411426,43.813497],[-123.411426,43.817119],[-123.411421,43.823994]]]}}]}