{"type":"FeatureCollection","features":[{"type":"Feature","properties":{"MAPTAXLOT":"1945000000100","MAPNUMBER":"19450000","TAXLOT":"100","ACCTNO":"0876951","MAPACRES":22155.24309164},"geometry":{"type":"Polygon","coordinates":[[[-122.386119,43.952282],[-122.38888,43.952275],[-122.38888,43.950046],[-122.38888,43.946424],[-122.388879,43.939178],[-122.388856,43.924684],[-122.388835,43.910193],[-122.388831,43.8957],[-122.388817,43.881206],[-122.388742,43.866715],[-122.38633,43.866715],[-122.381326,43.866716],[-122.376321,43.866718],[-122.371317,43.866719],[-122.366315,43.86672],[-122.366176,43.86672],[-122.365901,43.86672],[-122.361313,43.86672],[-122.356311,43.86672],[-122.351309,43.866721],[-122.346309,43.866719],[-122.341308,43.866717],[-122.336307,43.866716],[-122.331306,43.866714],[-122.326306,43.866715],[-122.321306,43.866716],[-122.316305,43.866717],[-122.311305,43.866718],[-122.306302,43.866722],[-122.3013,43.866725],[-122.296297,43.866729],[-122.291295,43.866733],[-122.286292,43.866738],[-122.281289,43.866744],[-122.276287,43.86675],[-122.271284,43.866756],[-122.271291,43.870378],[-122.271297,43.874001],[-122.271304,43.877623],[-122.27131,43.881245],[-122.27132,43.884868],[-122.27133,43.88849],[-122.27134,43.892112],[-122.27135,43.895734],[-122.271356,43.899355],[-122.271362,43.902977],[-122.271368,43.906598],[-122.271374,43.910219],[-122.271379,43.91384],[-122.271383,43.917461],[-122.271388,43.921082],[-122.271392,43.924703],[-122.271395,43.928324],[-122.271398,43.931946],[-122.271402,43.935567],[-122.271405,43.939188],[-122.271403,43.942804],[-122.271401,43.94642],[-122.271399,43.950036],[-122.271398,43.952271],[-122.275754,43.952264],[-122.281371,43.952251],[-122.285788,43.952243],[-122.291406,43.952244],[-122.295822,43.952238],[-122.301393,43.952229],[-122.305855,43.952223],[-122.311426,43.95222],[-122.315887,43.95222],[-122.321483,43.95222],[-122.32592,43.95222],[-122.331515,43.952221],[-122.335952,43.952222],[-122.341534,43.952224],[-122.345985,43.952226],[-122.351567,43.952227],[-122.356019,43.952231],[-122.361541,43.952238],[-122.366054,43.952242],[-122.371576,43.95225],[-122.376088,43.952259],[-122.381608,43.952273],[-122.386119,43.952282]]]}},{"type":"Feature","properties":{"MAPTAXLOT":"1955000000100","MAPNUMBER":"19550000","TAXLOT":"100","ACCTNO":"1857620","MAPACRES":22523.44564212},"geometry":{"type":"Polygon","coordinates":[[[-122.26572,43.952272],[-122.271398,43.952271],[-122.271399,43.950036],[-122.271401,43.94642],[-122.271403,43.942804],[-122.271405,43.939188],[-122.271402,43.935567],[-122.271398,43.931946],[-122.271395,43.928324],[-122.271392,43.924703],[-122.271388,43.921082],[-122.271383,43.917461],[-122.271379,43.91384],[-122.271374,43.910219],[-122.271368,43.906598],[-122.271362,43.902977],[-122.271356,43.899355],[-122.27135,43.895734],[-122.27134,43.892112],[-122.27133,43.88849],[-122.27132,43.884868],[-122.27131,43.881245],[-122.271304,43.877623],[-122.271297,43.874001],[-122.271291,43.870378],[-122.271284,43.866756],[-122.267067,43.866755],[-122.26206,43.866753],[-122.257054,43.866752],[-122.252048,43.86675],[-122.247039,43.866753],[-122.242031,43.866756],[-122.237022,43.866759],[-122.232014,43.866762],[-122.227006,43.866759],[-122.221998,43.866755],[-122.21699,43.866751],[-122.211983,43.866747],[-122.206977,43.866752],[-122.201971,43.866757],[-122.196966,43.866761],[-122.19196,43.866766],[-122.186955,43.866771],[-122.18195,43.866775],[-122.176945,43.866779],[-122.17194,43.866784],[-122.166934,43.866787],[-122.161928,43.866791],[-122.156922,43.866794],[-122.151916,43.866798],[-122.151916,43.866859],[-122.151955,43.881289],[-122.152004,43.895792],[-122.151996,43.910296],[-122.152045,43.924797],[-122.152054,43.939298],[-122.152065,43.946542],[-122.152068,43.950163],[-122.152069,43.952365],[-122.155467,43.952365],[-122.157064,43.952365],[-122.161127,43.952366],[-122.16206,43.952366],[-122.16549,43.952366],[-122.167055,43.952366],[-122.17205,43.952366],[-122.175513,43.952367],[-122.177073,43.952367],[-122.181171,43.952367],[-122.182095,43.952368],[-122.185535,43.952368],[-122.187117,43.952368],[-122.192139,43.952369],[-122.195556,43.952365],[-122.197142,43.952364],[-122.201215,43.952356],[-122.202145,43.952354],[-122.205577,43.95235],[-122.207148,43.952349],[-122.212151,43.952339],[-122.215599,43.952335],[-122.217175,43.952334],[-122.221265,43.952328],[-122.222199,43.952326],[-122.225622,43.952322],[-122.227223,43.952321],[-122.232247,43.952313],[-122.235645,43.952309],[-122.237257,43.952308],[-122.24131,43.952301],[-122.242268,43.9523],[-122.245669,43.952296],[-122.247279,43.952295],[-122.252289,43.952287],[-122.255693,43.952284],[-122.257302,43.952283],[-122.262316,43.952275],[-122.26572,43.952272]]]}},{"type":"Feature","properties":{"MAPTAXLOT":"2045000000100","MAPNUMBER":"20450000","TAXLOT":"100","ACCTNO":"0928299","MAPACRES":22556.84558198},"geometry":{"type":"MultiPolygon","coordinates":[[[[-122.271284,43.866756],[-122.276287,43.86675],[-122.281289,43.866744],[-122.286292,43.866738],[-122.291295,43.866733],[-122.296297,43.866729],[-122.3013,43.866725],[-122.306302,43.866722],[-122.311305,43.866718],[-122.316305,43.866717],[-122.321306,43.866716],[-122.326306,43.866715],[-122.331306,43.866714],[-122.336307,43.866716],[-122.341308,43.866717],[-122.346309,43.866719],[-122.351309,43.866721],[-122.356311,43.86672],[-122.361313,43.86672],[-122.365901,43.86672],[-122.365997,43.866674],[-122.366195,43.866579],[-122.366405,43.866541],[-122.366755,43.86652],[-122.367208,43.866512],[-122.367487,43.866391],[-122.367827,43.866261],[-122.368034,43.866182],[-122.368305,43.86604],[-122.368852,43.865783],[-122.369079,43.865659],[-122.369365,43.865473],[-122.369528,43.865319],[-122.369708,43.865167],[-122.369793,43.865003],[-122.370046,43.864887],[-122.370343,43.864899],[-122.370653,43.864879],[-122.370988,43.864828],[-122.371349,43.86476],[-122.371672,43.864708],[-122.372031,43.864672],[-122.372231,43.864625],[-122.372512,43.864517],[-122.372698,43.864392],[-122.372858,43.864316],[-122.372969,43.86419],[-122.373002,43.864127],[-122.372999,43.864037],[-122.37293,43.863869],[-122.372901,43.863646],[-122.372894,43.86341],[-122.372909,43.863187],[-122.372968,43.862981],[-122.373045,43.862701],[-122.373127,43.86244],[-122.373306,43.86227],[-122.373501,43.862123],[-122.373733,43.861994],[-122.373979,43.861824],[-122.374201,43.86164],[-122.374426,43.861361],[-122.374698,43.861075],[-122.375008,43.860793],[-122.375209,43.860548],[-122.375324,43.860357],[-122.375339,43.8602],[-122.375309,43.859913],[-122.375188,43.859425],[-122.375002,43.858933],[-122.37493,43.858659],[-122.374816,43.858443],[-122.374786,43.858283],[-122.374879,43.858122],[-122.375034,43.857971],[-122.375243,43.857831],[-122.375476,43.857793],[-122.375707,43.857759],[-122.375903,43.857713],[-122.376027,43.857646],[-122.376103,43.857544],[-122.376253,43.857381],[-122.376484,43.857207],[-122.376751,43.856941],[-122.377148,43.856577],[-122.377454,43.856315],[-122.377572,43.856119],[-122.377688,43.855925],[-122.377702,43.855714],[-122.377762,43.855506],[-122.377844,43.855296],[-122.378007,43.855078],[-122.378099,43.854753],[-122.378048,43.854467],[-122.378012,43.854002],[-122.377975,43.853503],[-122.378026,43.853049],[-122.37808,43.852743],[-122.378048,43.852391],[-122.378032,43.851879],[-122.378037,43.851352],[-122.378048,43.851009],[-122.3781,43.850619],[-122.378154,43.850276],[-122.37823,43.849948],[-122.378304,43.849612],[-122.378297,43.849387],[-122.378269,43.849157],[-122.378187,43.848603],[-122.378136,43.848337],[-122.378151,43.84811],[-122.378208,43.847928],[-122.378183,43.847769],[-122.378136,43.847601],[-122.378085,43.847368],[-122.378008,43.846992],[-122.378042,43.846662],[-122.378055,43.846411],[-122.378112,43.846195],[-122.378107,43.846033],[-122.378053,43.845664],[-122.377995,43.845158],[-122.377901,43.844865],[-122.377872,43.844621],[-122.377806,43.844474],[-122.377764,43.844388],[-122.377704,43.84432],[-122.377633,43.844258],[-122.377537,43.844232],[-122.377355,43.844154],[-122.377067,43.844001],[-122.376676,43.84376],[-122.37626,43.843549],[-122.375813,43.843209],[-122.375324,43.842718],[-122.374972,43.842353],[-122.374841,43.842233],[-122.374581,43.841994],[-122.37428,43.8418],[-122.373959,43.841578],[-122.373663,43.841462],[-122.373435,43.841362],[-122.373149,43.841322],[-122.372886,43.841295],[-122.372679,43.841242],[-122.372552,43.841069],[-122.372477,43.840948],[-122.372492,43.840696],[-122.372615,43.840408],[-122.372754,43.840115],[-122.37283,43.839803],[-122.373073,43.839349],[-122.373167,43.83905],[-122.373107,43.838471],[-122.373074,43.838098],[-122.373082,43.837662],[-122.373105,43.83703],[-122.373019,43.836338],[-122.372981,43.835779],[-122.372967,43.835329],[-122.372976,43.834929],[-122.372919,43.83449],[-122.372998,43.834255],[-122.372976,43.833568],[-122.372945,43.83326],[-122.37291,43.83281],[-122.372894,43.8323],[-122.372862,43.831945],[-122.372854,43.831679],[-122.372969,43.831556],[-122.373172,43.831293],[-122.373269,43.831144],[-122.373307,43.831022],[-122.373411,43.830829],[-122.373658,43.830435],[-122.373923,43.830092],[-122.374225,43.829459],[-122.374481,43.828817],[-122.374788,43.828118],[-122.374957,43.827358],[-122.375213,43.826695],[-122.375388,43.82611],[-122.375519,43.825888],[-122.375643,43.825472],[-122.376073,43.824228],[-122.376499,43.822886],[-122.376953,43.8215],[-122.377084,43.821214],[-122.377265,43.820895],[-122.37734,43.820656],[-122.377442,43.820438],[-122.377535,43.8199],[-122.377788,43.819136],[-122.37809,43.818213],[-122.378217,43.817849],[-122.378377,43.81754],[-122.378592,43.817273],[-122.378887,43.816906],[-122.37919,43.816634],[-122.379464,43.816468],[-122.379766,43.816261],[-122.380132,43.81611],[-122.380428,43.816027],[-122.380602,43.815932],[-122.380775,43.815782],[-122.380873,43.815572],[-122.380974,43.815315],[-122.381071,43.814918],[-122.381191,43.814359],[-122.381406,43.813319],[-122.381603,43.812223],[-122.38166,43.811889],[-122.381706,43.811542],[-122.381779,43.811292],[-122.381856,43.811093],[-122.382006,43.810926],[-122.382188,43.810763],[-122.382398,43.810621],[-122.382631,43.810532],[-122.382924,43.810428],[-122.383228,43.810341],[-122.383562,43.810238],[-122.383975,43.810108],[-122.384443,43.809962],[-122.38498,43.809782],[-122.385428,43.809652],[-122.385821,43.809522],[-122.386101,43.80946],[-122.38637,43.809373],[-122.386494,43.809255],[-122.386664,43.809145],[-122.386974,43.809052],[-122.387219,43.809023],[-122.387468,43.808995],[-122.387651,43.808937],[-122.388031,43.808833],[-122.388397,43.808713],[-122.388869,43.808558],[-122.38935,43.808436],[-122.389971,43.808231],[-122.390338,43.808094],[-122.39074,43.807957],[-122.391128,43.807812],[-122.39142,43.807701],[-122.391708,43.807605],[-122.39174,43.807599],[-122.391802,43.799838],[-122.390483,43.799836],[-122.390455,43.798038],[-122.390455,43.798026],[-122.390427,43.79624],[-122.391831,43.796236],[-122.391912,43.781783],[-122.386863,43.781761],[-122.381813,43.781739],[-122.376764,43.781717],[-122.371714,43.781695],[-122.366685,43.78171],[-122.361656,43.781725],[-122.356626,43.78174],[-122.351597,43.781755],[-122.346578,43.781766],[-122.341559,43.781777],[-122.33654,43.781788],[-122.331521,43.781799],[-122.326507,43.78181],[-122.321493,43.781821],[-122.316479,43.781833],[-122.311465,43.781844],[-122.306456,43.781854],[-122.301448,43.781865],[-122.296439,43.781875],[-122.29143,43.781885],[-122.286422,43.781898],[-122.281414,43.78191],[-122.276405,43.781922],[-122.271397,43.781935],[-122.27139,43.785557],[-122.271384,43.78918],[-122.271377,43.792802],[-122.271371,43.796425],[-122.271366,43.800048],[-122.27136,43.80367],[-122.271355,43.807293],[-122.27135,43.810916],[-122.271344,43.814538],[-122.271338,43.818161],[-122.271332,43.821783],[-122.271326,43.825406],[-122.27132,43.829029],[-122.271315,43.832652],[-122.271309,43.836275],[-122.271303,43.839897],[-122.2713,43.843521],[-122.271297,43.847145],[-122.271293,43.850768],[-122.27129,43.854392],[-122.271288,43.858011],[-122.271286,43.86163],[-122.271284,43.865248],[-122.271284,43.866756]]],[[[-122.369917,43.865076],[-122.369841,43.865224],[-122.369646,43.865388],[-122.369477,43.865548],[-122.369176,43.865743],[-122.36894,43.865873],[-122.368391,43.86613],[-122.368114,43.866275],[-122.367898,43.866358],[-122.367562,43.866486],[-122.367251,43.866622],[-122.366763,43.866629],[-122.36643,43.86665],[-122.366257,43.866681],[-122.366176,43.86672],[-122.366315,43.86672],[-122.371317,43.866719],[-122.376321,43.866718],[-122.381326,43.866716],[-122.38633,43.866715],[-122.388742,43.866715],[-122.391894,43.866713],[-122.391892,43.865031],[-122.391887,43.86141],[-122.391866,43.854168],[-122.391794,43.83968],[-122.391701,43.825197],[-122.391715,43.810716],[-122.391739,43.807712],[-122.391487,43.807799],[-122.391198,43.80791],[-122.390807,43.808055],[-122.390405,43.808193],[-122.390037,43.80833],[-122.389407,43.808537],[-122.388925,43.80866],[-122.38846,43.808813],[-122.388089,43.808934],[-122.387708,43.809039],[-122.387511,43.809101],[-122.387243,43.809131],[-122.387016,43.809158],[-122.386746,43.809239],[-122.386606,43.80933],[-122.386467,43.809461],[-122.386155,43.809563],[-122.385875,43.809625],[-122.385487,43.809753],[-122.38504,43.809882],[-122.384505,43.810062],[-122.384035,43.810209],[-122.383622,43.810338],[-122.383286,43.810442],[-122.382986,43.810528],[-122.382699,43.81063],[-122.382486,43.810711],[-122.382299,43.810837],[-122.382129,43.81099],[-122.381996,43.811138],[-122.381926,43.811318],[-122.381856,43.811559],[-122.381811,43.811901],[-122.381754,43.812237],[-122.381556,43.813334],[-122.381341,43.814375],[-122.38122,43.814936],[-122.381122,43.81534],[-122.381018,43.815605],[-122.38091,43.815837],[-122.380707,43.816012],[-122.380502,43.816123],[-122.380197,43.816209],[-122.379857,43.816349],[-122.379565,43.81655],[-122.379299,43.816712],[-122.379012,43.816968],[-122.378723,43.817328],[-122.378514,43.817587],[-122.378362,43.817881],[-122.378237,43.818239],[-122.377935,43.819161],[-122.377684,43.81992],[-122.37759,43.820462],[-122.377486,43.820686],[-122.37741,43.820928],[-122.377226,43.821253],[-122.377099,43.82153],[-122.376647,43.822911],[-122.37622,43.824254],[-122.37579,43.825497],[-122.375664,43.825922],[-122.375533,43.826143],[-122.37536,43.826721],[-122.375105,43.827382],[-122.374936,43.828143],[-122.374626,43.828849],[-122.37437,43.829492],[-122.374062,43.830138],[-122.373793,43.830485],[-122.373551,43.830872],[-122.373453,43.831054],[-122.373413,43.83118],[-122.373307,43.831344],[-122.373098,43.831614],[-122.373006,43.831711],[-122.373014,43.83194],[-122.373046,43.832295],[-122.373062,43.832806],[-122.373097,43.833253],[-122.373128,43.833562],[-122.37315,43.834267],[-122.373072,43.834498],[-122.373127,43.834924],[-122.373118,43.835329],[-122.373132,43.835775],[-122.37317,43.83633],[-122.373256,43.837027],[-122.373233,43.837664],[-122.373225,43.838095],[-122.373258,43.838464],[-122.37332,43.839058],[-122.373218,43.839381],[-122.372977,43.839833],[-122.372901,43.840142],[-122.372759,43.840442],[-122.372643,43.840715],[-122.37263,43.840927],[-122.372689,43.841021],[-122.372785,43.841153],[-122.372923,43.841188],[-122.373174,43.841214],[-122.37349,43.841258],[-122.373738,43.841366],[-122.374049,43.841488],[-122.374383,43.841719],[-122.374692,43.841918],[-122.37496,43.842165],[-122.375094,43.842288],[-122.375448,43.842655],[-122.37593,43.843138],[-122.376359,43.843465],[-122.376768,43.843673],[-122.377161,43.843915],[-122.377439,43.844062],[-122.377603,43.844133],[-122.377723,43.844165],[-122.377827,43.844255],[-122.377901,43.84434],[-122.37795,43.844438],[-122.378021,43.844599],[-122.378051,43.844848],[-122.378145,43.845141],[-122.378204,43.845654],[-122.378259,43.846026],[-122.378264,43.846204],[-122.378206,43.846423],[-122.378193,43.846668],[-122.378161,43.846988],[-122.378235,43.847352],[-122.378285,43.847582],[-122.378333,43.847752],[-122.378362,43.847934],[-122.378302,43.848125],[-122.378288,43.848332],[-122.378338,43.84859],[-122.378419,43.849147],[-122.378448,43.84938],[-122.378456,43.849619],[-122.37838,43.849966],[-122.378305,43.850291],[-122.378251,43.85063],[-122.378199,43.851015],[-122.378189,43.851353],[-122.378184,43.851878],[-122.378199,43.852387],[-122.378232,43.852746],[-122.378177,43.85306],[-122.378127,43.853505],[-122.378164,43.853996],[-122.378199,43.854457],[-122.378252,43.854757],[-122.378151,43.855116],[-122.377986,43.855337],[-122.37791,43.855532],[-122.377853,43.855728],[-122.377838,43.855951],[-122.377711,43.856163],[-122.377584,43.856373],[-122.377266,43.856647],[-122.376872,43.857008],[-122.3766,43.857277],[-122.376372,43.85745],[-122.376233,43.857601],[-122.376144,43.857719],[-122.375974,43.857812],[-122.375745,43.857865],[-122.375508,43.8579],[-122.375316,43.857931],[-122.375147,43.858045],[-122.375012,43.858177],[-122.374942,43.858298],[-122.374964,43.858415],[-122.375077,43.858629],[-122.37515,43.858909],[-122.375336,43.859401],[-122.37546,43.859899],[-122.375491,43.860199],[-122.375474,43.860383],[-122.375345,43.860598],[-122.375133,43.860855],[-122.37482,43.86114],[-122.374554,43.86142],[-122.374325,43.861705],[-122.374089,43.8619],[-122.373832,43.862078],[-122.373602,43.862205],[-122.373421,43.862342],[-122.373267,43.862487],[-122.373193,43.862724],[-122.373117,43.863003],[-122.37306,43.863201],[-122.373046,43.863412],[-122.373053,43.86364],[-122.37308,43.863849],[-122.37315,43.864019],[-122.373154,43.864146],[-122.373106,43.864239],[-122.372969,43.864395],[-122.372792,43.864479],[-122.372601,43.864608],[-122.37229,43.864726],[-122.372065,43.864779],[-122.371699,43.864816],[-122.371384,43.864867],[-122.371022,43.864935],[-122.370676,43.864988],[-122.370346,43.865009],[-122.370086,43.864999],[-122.369917,43.865076]]]]}},{"type":"Feature","properties":{"MAPTAXLOT":"2055000000066","MAPNUMBER":"20550000","TAXLOT":"66","ACCTNO":"000None","MAPACRES":24.3958512},"geometry":{"type":"Polygon","coordinates":[[[-122.240933,43.835927],[-122.240851,43.835803],[-122.240785,43.835691],[-122.240734,43.835544],[-122.240731,43.835442],[-122.240698,43.835397],[-122.240696,43.835307],[-122.240692,43.835193],[-122.240689,43.835069],[-122.240716,43.834921],[-122.240727,43.834762],[-122.240723,43.834603],[-122.24075,43.834467],[-122.240762,43.834342],[-122.240773,43.834194],[-122.240785,43.834047],[-122.24078,43.833888],[-122.240775,43.833707],[-122.240724,43.833571],[-122.240707,43.833515],[-122.240659,43.833482],[-122.240673,43.833425],[-122.240672,43.833391],[-122.240606,43.83329],[-122.240478,43.833178],[-122.24035,43.833089],[-122.240255,43.833057],[-122.240221,43.832955],[-122.240093,43.832866],[-122.239982,43.832811],[-122.23987,43.832745],[-122.239695,43.832657],[-122.239537,43.83258],[-122.239394,43.832525],[-122.239269,43.832516],[-122.239143,43.832495],[-122.239018,43.832531],[-122.238893,43.832533],[-122.238814,43.8325],[-122.238688,43.832479],[-122.238564,43.832527],[-122.238392,43.83254],[-122.238285,43.832633],[-122.238209,43.832713],[-122.238117,43.832783],[-122.238025,43.832841],[-122.238027,43.83292],[-122.237951,43.832989],[-122.237858,43.833047],[-122.237701,43.833027],[-122.237544,43.833018],[-122.237435,43.833031],[-122.23739,43.833111],[-122.237392,43.833179],[-122.237331,43.833225],[-122.237286,43.833305],[-122.237304,43.833385],[-122.237384,43.83344],[-122.23748,43.833495],[-122.237607,43.833573],[-122.237719,43.83365],[-122.237799,43.833717],[-122.237848,43.833796],[-122.237772,43.833854],[-122.237694,43.833889],[-122.237697,43.833968],[-122.237714,43.834025],[-122.237731,43.834081],[-122.237687,43.834173],[-122.237627,43.834264],[-122.237552,43.83439],[-122.237478,43.834516],[-122.237432,43.834562],[-122.237432,43.834585],[-122.237497,43.83464],[-122.237577,43.834696],[-122.237642,43.834797],[-122.237676,43.834876],[-122.237678,43.834955],[-122.237666,43.835069],[-122.237684,43.83517],[-122.237718,43.835272],[-122.237783,43.835328],[-122.237832,43.835418],[-122.237899,43.835541],[-122.237997,43.835687],[-122.23811,43.83581],[-122.238192,43.835934],[-122.238274,43.836057],[-122.238385,43.836124],[-122.238512,43.83619],[-122.238638,43.836199],[-122.238733,43.836221],[-122.23886,43.836287],[-122.23894,43.836342],[-122.23902,43.836398],[-122.239162,43.836464],[-122.239289,43.836507],[-122.239415,43.836528],[-122.239525,43.836549],[-122.239714,43.83658],[-122.239872,43.836612],[-122.240013,43.836609],[-122.240137,43.836585],[-122.240277,43.836537],[-122.240369,43.836468],[-122.240492,43.836398],[-122.240631,43.836317],[-122.240786,43.83628],[-122.240974,43.836255],[-122.241162,43.836263],[-122.241142,43.836231],[-122.24115,43.836197],[-122.241139,43.836138],[-122.241092,43.8361],[-122.241049,43.83609],[-122.241029,43.836061],[-122.240999,43.836033],[-122.240964,43.835977],[-122.240933,43.835927]]]}},{"type":"Feature","properties":{"MAPTAXLOT":"2055000000100","MAPNUMBER":"20550000","TAXLOT":"100","ACCTNO":"0928307","MAPACRES":7064.45129715},"geometry":{"type":"Polygon","coordinates":[[[-122.267067,43.866755],[-122.271284,43.866756],[-122.271284,43.865248],[-122.271286,43.86163],[-122.271288,43.858011],[-122.27129,43.854392],[-122.271293,43.850768],[-122.271297,43.847145],[-122.2713,43.843521],[-122.271303,43.839897],[-122.267033,43.839907],[-122.262032,43.839919],[-122.252032,43.839936],[-122.231996,43.839972],[-122.212005,43.840014],[-122.19197,43.839959],[-122.171956,43.839922],[-122.151939,43.839918],[-122.151937,43.843539],[-122.151934,43.84716],[-122.151931,43.85078],[-122.151928,43.854401],[-122.151925,43.858022],[-122.151921,43.861642],[-122.151917,43.865263],[-122.151916,43.866798],[-122.156922,43.866794],[-122.161928,43.866791],[-122.166934,43.866787],[-122.17194,43.866784],[-122.176945,43.866779],[-122.18195,43.866775],[-122.186955,43.866771],[-122.19196,43.866766],[-122.196966,43.866761],[-122.201971,43.866757],[-122.206977,43.866752],[-122.211983,43.866747],[-122.21699,43.866751],[-122.221998,43.866755],[-122.227006,43.866759],[-122.232014,43.866762],[-122.237022,43.866759],[-122.242031,43.866756],[-122.247039,43.866753],[-122.252048,43.86675],[-122.257054,43.866752],[-122.26206,43.866753],[-122.267067,43.866755]]]}},{"type":"Feature","properties":{"MAPTAXLOT":"2055000000200","MAPNUMBER":"20550000","TAXLOT":"200","ACCTNO":"0928315","MAPACRES":15266.03503555},"geometry":{"type":"Polygon","coordinates":[[[-122.267033,43.839907],[-122.271303,43.839897],[-122.271309,43.836275],[-122.271315,43.832652],[-122.27132,43.829029],[-122.271326,43.825406],[-122.271332,43.821783],[-122.271338,43.818161],[-122.271344,43.814538],[-122.27135,43.810916],[-122.271355,43.807293],[-122.27136,43.80367],[-122.271366,43.800048],[-122.271371,43.796425],[-122.271377,43.792802],[-122.271384,43.78918],[-122.27139,43.785557],[-122.271397,43.781935],[-122.26701,43.781941],[-122.262011,43.781949],[-122.257011,43.781958],[-122.252012,43.781966],[-122.247011,43.781972],[-122.242011,43.781978],[-122.23701,43.781984],[-122.23201,43.781989],[-122.227008,43.781988],[-122.222007,43.781986],[-122.217006,43.781985],[-122.212004,43.781984],[-122.207,43.781983],[-122.201996,43.781982],[-122.196993,43.781982],[-122.191989,43.781981],[-122.186986,43.781979],[-122.181984,43.781976],[-122.176981,43.781974],[-122.171978,43.781971],[-122.166977,43.781973],[-122.161975,43.781975],[-122.156973,43.781977],[-122.151971,43.781979],[-122.151969,43.7856],[-122.151967,43.789221],[-122.151965,43.792843],[-122.151963,43.796464],[-122.151961,43.800086],[-122.151959,43.803707],[-122.151957,43.807329],[-122.151955,43.81095],[-122.151953,43.814571],[-122.151951,43.818193],[-122.151949,43.821814],[-122.151947,43.825435],[-122.151945,43.829056],[-122.151943,43.832677],[-122.151941,43.836297],[-122.151939,43.839918],[-122.171956,43.839922],[-122.19197,43.839959],[-122.212005,43.840014],[-122.231996,43.839972],[-122.252032,43.839936],[-122.262032,43.839919],[-122.267033,43.839907]],[[-122.241162,43.836263],[-122.240974,43.836255],[-122.240786,43.83628],[-122.240631,43.836317],[-122.240492,43.836398],[-122.240369,43.836468],[-122.240277,43.836537],[-122.240137,43.836585],[-122.240013,43.836609],[-122.239872,43.836612],[-122.239714,43.83658],[-122.239525,43.836549],[-122.239415,43.836528],[-122.239289,43.836507],[-122.239162,43.836464],[-122.23902,43.836398],[-122.23894,43.836342],[-122.23886,43.836287],[-122.238733,43.836221],[-122.238638,43.836199],[-122.238512,43.83619],[-122.238385,43.836124],[-122.238274,43.836057],[-122.238192,43.835934],[-122.23811,43.83581],[-122.237997,43.835687],[-122.237899,43.835541],[-122.237832,43.835418],[-122.237783,43.835328],[-122.237718,43.835272],[-122.237684,43.83517],[-122.237666,43.835069],[-122.237678,43.834955],[-122.237676,43.834876],[-122.237642,43.834797],[-122.237577,43.834696],[-122.237497,43.83464],[-122.237432,43.834585],[-122.237432,43.834562],[-122.237478,43.834516],[-122.237552,43.83439],[-122.237627,43.834264],[-122.237687,43.834173],[-122.237731,43.834081],[-122.237714,43.834025],[-122.237697,43.833968],[-122.237694,43.833889],[-122.237772,43.833854],[-122.237848,43.833796],[-122.237799,43.833717],[-122.237719,43.83365],[-122.237607,43.833573],[-122.23748,43.833495],[-122.237384,43.83344],[-122.237304,43.833385],[-122.237286,43.833305],[-122.237331,43.833225],[-122.237392,43.833179],[-122.23739,43.833111],[-122.237435,43.833031],[-122.237544,43.833018],[-122.237701,43.833027],[-122.237858,43.833047],[-122.237951,43.832989],[-122.238027,43.83292],[-122.238025,43.832841],[-122.238117,43.832783],[-122.238209,43.832713],[-122.238285,43.832633],[-122.238392,43.83254],[-122.238564,43.832527],[-122.238688,43.832479],[-122.238814,43.8325],[-122.238893,43.832533],[-122.239018,43.832531],[-122.239143,43.832495],[-122.239269,43.832516],[-122.239394,43.832525],[-122.239537,43.83258],[-122.239695,43.832657],[-122.23987,43.832745],[-122.239982,43.832811],[-122.240093,43.832866],[-122.240221,43.832955],[-122.240255,43.833057],[-122.24035,43.833089],[-122.240478,43.833178],[-122.240606,43.83329],[-122.240672,43.833391],[-122.240673,43.833425],[-122.240659,43.833482],[-122.240707,43.833515],[-122.240724,43.833571],[-122.240775,43.833707],[-122.24078,43.833888],[-122.240785,43.834047],[-122.240773,43.834194],[-122.240762,43.834342],[-122.24075,43.834467],[-122.240723,43.834603],[-122.240727,43.834762],[-122.240716,43.834921],[-122.240689,43.835069],[-122.240692,43.835193],[-122.240696,43.835307],[-122.240698,43.835397],[-122.240731,43.835442],[-122.240734,43.835544],[-122.240785,43.835691],[-122.240851,43.835803],[-122.240933,43.835927],[-122.240964,43.835977],[-122.240999,43.836033],[-122.241029,43.836061],[-122.241049,43.83609],[-122.241092,43.8361],[-122.241139,43.836138],[-122.24115,43.836197],[-122.241142,43.836231],[-122.241162,43.836263]]]}}]}