{"type":"FeatureCollection","features":[{"type":"Feature","properties":{"MAPTAXLOT":"2045000000077","MAPNUMBER":"20450000","TAXLOT":"77","ACCTNO":"000None","MAPACRES":24.14424008},"geometry":{"type":"Polygon","coordinates":[[[-122.365901,43.86672],[-122.366176,43.86672],[-122.366257,43.866681],[-122.36643,43.86665],[-122.366763,43.866629],[-122.367251,43.866622],[-122.367562,43.866486],[-122.367898,43.866358],[-122.368114,43.866275],[-122.368391,43.86613],[-122.36894,43.865873],[-122.369176,43.865743],[-122.369477,43.865548],[-122.369646,43.865388],[-122.369841,43.865224],[-122.369917,43.865076],[-122.370086,43.864999],[-122.370346,43.865009],[-122.370676,43.864988],[-122.371022,43.864935],[-122.371384,43.864867],[-122.371699,43.864816],[-122.372065,43.864779],[-122.37229,43.864726],[-122.372601,43.864608],[-122.372792,43.864479],[-122.372969,43.864395],[-122.373106,43.864239],[-122.373154,43.864146],[-122.37315,43.864019],[-122.37308,43.863849],[-122.373053,43.86364],[-122.373046,43.863412],[-122.37306,43.863201],[-122.373117,43.863003],[-122.373193,43.862724],[-122.373267,43.862487],[-122.373421,43.862342],[-122.373602,43.862205],[-122.373832,43.862078],[-122.374089,43.8619],[-122.374325,43.861705],[-122.374554,43.86142],[-122.37482,43.86114],[-122.375133,43.860855],[-122.375345,43.860598],[-122.375474,43.860383],[-122.375491,43.860199],[-122.37546,43.859899],[-122.375336,43.859401],[-122.37515,43.858909],[-122.375077,43.858629],[-122.374964,43.858415],[-122.374942,43.858298],[-122.375012,43.858177],[-122.375147,43.858045],[-122.375316,43.857931],[-122.375508,43.8579],[-122.375745,43.857865],[-122.375974,43.857812],[-122.376144,43.857719],[-122.376233,43.857601],[-122.376372,43.85745],[-122.3766,43.857277],[-122.376872,43.857008],[-122.377266,43.856647],[-122.377584,43.856373],[-122.377711,43.856163],[-122.377838,43.855951],[-122.377853,43.855728],[-122.37791,43.855532],[-122.377986,43.855337],[-122.378151,43.855116],[-122.378252,43.854757],[-122.378199,43.854457],[-122.378164,43.853996],[-122.378127,43.853505],[-122.378177,43.85306],[-122.378232,43.852746],[-122.378199,43.852387],[-122.378184,43.851878],[-122.378189,43.851353],[-122.378199,43.851015],[-122.378251,43.85063],[-122.378305,43.850291],[-122.37838,43.849966],[-122.378456,43.849619],[-122.378448,43.84938],[-122.378419,43.849147],[-122.378338,43.84859],[-122.378288,43.848332],[-122.378302,43.848125],[-122.378362,43.847934],[-122.378333,43.847752],[-122.378285,43.847582],[-122.378235,43.847352],[-122.378161,43.846988],[-122.378193,43.846668],[-122.378206,43.846423],[-122.378264,43.846204],[-122.378259,43.846026],[-122.378204,43.845654],[-122.378145,43.845141],[-122.378051,43.844848],[-122.378021,43.844599],[-122.37795,43.844438],[-122.377901,43.84434],[-122.377827,43.844255],[-122.377723,43.844165],[-122.377603,43.844133],[-122.377439,43.844062],[-122.377161,43.843915],[-122.376768,43.843673],[-122.376359,43.843465],[-122.37593,43.843138],[-122.375448,43.842655],[-122.375094,43.842288],[-122.37496,43.842165],[-122.374692,43.841918],[-122.374383,43.841719],[-122.374049,43.841488],[-122.373738,43.841366],[-122.37349,43.841258],[-122.373174,43.841214],[-122.372923,43.841188],[-122.372785,43.841153],[-122.372689,43.841021],[-122.37263,43.840927],[-122.372643,43.840715],[-122.372759,43.840442],[-122.372901,43.840142],[-122.372977,43.839833],[-122.373218,43.839381],[-122.37332,43.839058],[-122.373258,43.838464],[-122.373225,43.838095],[-122.373233,43.837664],[-122.373256,43.837027],[-122.37317,43.83633],[-122.373132,43.835775],[-122.373118,43.835329],[-122.373127,43.834924],[-122.373072,43.834498],[-122.37315,43.834267],[-122.373128,43.833562],[-122.373097,43.833253],[-122.373062,43.832806],[-122.373046,43.832295],[-122.373014,43.83194],[-122.373006,43.831711],[-122.373098,43.831614],[-122.373307,43.831344],[-122.373413,43.83118],[-122.373453,43.831054],[-122.373551,43.830872],[-122.373793,43.830485],[-122.374062,43.830138],[-122.37437,43.829492],[-122.374626,43.828849],[-122.374936,43.828143],[-122.375105,43.827382],[-122.37536,43.826721],[-122.375533,43.826143],[-122.375664,43.825922],[-122.37579,43.825497],[-122.37622,43.824254],[-122.376647,43.822911],[-122.377099,43.82153],[-122.377226,43.821253],[-122.37741,43.820928],[-122.377486,43.820686],[-122.37759,43.820462],[-122.377684,43.81992],[-122.377935,43.819161],[-122.378237,43.818239],[-122.378362,43.817881],[-122.378514,43.817587],[-122.378723,43.817328],[-122.379012,43.816968],[-122.379299,43.816712],[-122.379565,43.81655],[-122.379857,43.816349],[-122.380197,43.816209],[-122.380502,43.816123],[-122.380707,43.816012],[-122.38091,43.815837],[-122.381018,43.815605],[-122.381122,43.81534],[-122.38122,43.814936],[-122.381341,43.814375],[-122.381556,43.813334],[-122.381754,43.812237],[-122.381811,43.811901],[-122.381856,43.811559],[-122.381926,43.811318],[-122.381996,43.811138],[-122.382129,43.81099],[-122.382299,43.810837],[-122.382486,43.810711],[-122.382699,43.81063],[-122.382986,43.810528],[-122.383286,43.810442],[-122.383622,43.810338],[-122.384035,43.810209],[-122.384505,43.810062],[-122.38504,43.809882],[-122.385487,43.809753],[-122.385875,43.809625],[-122.386155,43.809563],[-122.386467,43.809461],[-122.386606,43.80933],[-122.386746,43.809239],[-122.387016,43.809158],[-122.387243,43.809131],[-122.387511,43.809101],[-122.387708,43.809039],[-122.388089,43.808934],[-122.38846,43.808813],[-122.388925,43.80866],[-122.389407,43.808537],[-122.390037,43.80833],[-122.390405,43.808193],[-122.390807,43.808055],[-122.391198,43.80791],[-122.391487,43.807799],[-122.391739,43.807712],[-122.39174,43.807599],[-122.391708,43.807605],[-122.39142,43.807701],[-122.391128,43.807812],[-122.39074,43.807957],[-122.390338,43.808094],[-122.389971,43.808231],[-122.38935,43.808436],[-122.388869,43.808558],[-122.388397,43.808713],[-122.388031,43.808833],[-122.387651,43.808937],[-122.387468,43.808995],[-122.387219,43.809023],[-122.386974,43.809052],[-122.386664,43.809145],[-122.386494,43.809255],[-122.38637,43.809373],[-122.386101,43.80946],[-122.385821,43.809522],[-122.385428,43.809652],[-122.38498,43.809782],[-122.384443,43.809962],[-122.383975,43.810108],[-122.383562,43.810238],[-122.383228,43.810341],[-122.382924,43.810428],[-122.382631,43.810532],[-122.382398,43.810621],[-122.382188,43.810763],[-122.382006,43.810926],[-122.381856,43.811093],[-122.381779,43.811292],[-122.381706,43.811542],[-122.38166,43.811889],[-122.381603,43.812223],[-122.381406,43.813319],[-122.381191,43.814359],[-122.381071,43.814918],[-122.380974,43.815315],[-122.380873,43.815572],[-122.380775,43.815782],[-122.380602,43.815932],[-122.380428,43.816027],[-122.380132,43.81611],[-122.379766,43.816261],[-122.379464,43.816468],[-122.37919,43.816634],[-122.378887,43.816906],[-122.378592,43.817273],[-122.378377,43.81754],[-122.378217,43.817849],[-122.37809,43.818213],[-122.377788,43.819136],[-122.377535,43.8199],[-122.377442,43.820438],[-122.37734,43.820656],[-122.377265,43.820895],[-122.377084,43.821214],[-122.376953,43.8215],[-122.376499,43.822886],[-122.376073,43.824228],[-122.375643,43.825472],[-122.375519,43.825888],[-122.375388,43.82611],[-122.375213,43.826695],[-122.374957,43.827358],[-122.374788,43.828118],[-122.374481,43.828817],[-122.374225,43.829459],[-122.373923,43.830092],[-122.373658,43.830435],[-122.373411,43.830829],[-122.373307,43.831022],[-122.373269,43.831144],[-122.373172,43.831293],[-122.372969,43.831556],[-122.372854,43.831679],[-122.372862,43.831945],[-122.372894,43.8323],[-122.37291,43.83281],[-122.372945,43.83326],[-122.372976,43.833568],[-122.372998,43.834255],[-122.372919,43.83449],[-122.372976,43.834929],[-122.372967,43.835329],[-122.372981,43.835779],[-122.373019,43.836338],[-122.373105,43.83703],[-122.373082,43.837662],[-122.373074,43.838098],[-122.373107,43.838471],[-122.373167,43.83905],[-122.373073,43.839349],[-122.37283,43.839803],[-122.372754,43.840115],[-122.372615,43.840408],[-122.372492,43.840696],[-122.372477,43.840948],[-122.372552,43.841069],[-122.372679,43.841242],[-122.372886,43.841295],[-122.373149,43.841322],[-122.373435,43.841362],[-122.373663,43.841462],[-122.373959,43.841578],[-122.37428,43.8418],[-122.374581,43.841994],[-122.374841,43.842233],[-122.374972,43.842353],[-122.375324,43.842718],[-122.375813,43.843209],[-122.37626,43.843549],[-122.376676,43.84376],[-122.377067,43.844001],[-122.377355,43.844154],[-122.377537,43.844232],[-122.377633,43.844258],[-122.377704,43.84432],[-122.377764,43.844388],[-122.377806,43.844474],[-122.377872,43.844621],[-122.377901,43.844865],[-122.377995,43.845158],[-122.378053,43.845664],[-122.378107,43.846033],[-122.378112,43.846195],[-122.378055,43.846411],[-122.378042,43.846662],[-122.378008,43.846992],[-122.378085,43.847368],[-122.378136,43.847601],[-122.378183,43.847769],[-122.378208,43.847928],[-122.378151,43.84811],[-122.378136,43.848337],[-122.378187,43.848603],[-122.378269,43.849157],[-122.378297,43.849387],[-122.378304,43.849612],[-122.37823,43.849948],[-122.378154,43.850276],[-122.3781,43.850619],[-122.378048,43.851009],[-122.378037,43.851352],[-122.378032,43.851879],[-122.378048,43.852391],[-122.37808,43.852743],[-122.378026,43.853049],[-122.377975,43.853503],[-122.378012,43.854002],[-122.378048,43.854467],[-122.378099,43.854753],[-122.378007,43.855078],[-122.377844,43.855296],[-122.377762,43.855506],[-122.377702,43.855714],[-122.377688,43.855925],[-122.377572,43.856119],[-122.377454,43.856315],[-122.377148,43.856577],[-122.376751,43.856941],[-122.376484,43.857207],[-122.376253,43.857381],[-122.376103,43.857544],[-122.376027,43.857646],[-122.375903,43.857713],[-122.375707,43.857759],[-122.375476,43.857793],[-122.375243,43.857831],[-122.375034,43.857971],[-122.374879,43.858122],[-122.374786,43.858283],[-122.374816,43.858443],[-122.37493,43.858659],[-122.375002,43.858933],[-122.375188,43.859425],[-122.375309,43.859913],[-122.375339,43.8602],[-122.375324,43.860357],[-122.375209,43.860548],[-122.375008,43.860793],[-122.374698,43.861075],[-122.374426,43.861361],[-122.374201,43.86164],[-122.373979,43.861824],[-122.373733,43.861994],[-122.373501,43.862123],[-122.373306,43.86227],[-122.373127,43.86244],[-122.373045,43.862701],[-122.372968,43.862981],[-122.372909,43.863187],[-122.372894,43.86341],[-122.372901,43.863646],[-122.37293,43.863869],[-122.372999,43.864037],[-122.373002,43.864127],[-122.372969,43.86419],[-122.372858,43.864316],[-122.372698,43.864392],[-122.372512,43.864517],[-122.372231,43.864625],[-122.372031,43.864672],[-122.371672,43.864708],[-122.371349,43.86476],[-122.370988,43.864828],[-122.370653,43.864879],[-122.370343,43.864899],[-122.370046,43.864887],[-122.369793,43.865003],[-122.369708,43.865167],[-122.369528,43.865319],[-122.369365,43.865473],[-122.369079,43.865659],[-122.368852,43.865783],[-122.368305,43.86604],[-122.368034,43.866182],[-122.367827,43.866261],[-122.367487,43.866391],[-122.367208,43.866512],[-122.366755,43.86652],[-122.366405,43.866541],[-122.366195,43.866579],[-122.365997,43.866674],[-122.365901,43.86672]]]}},{"type":"Feature","properties":{"MAPTAXLOT":"2045000000100","MAPNUMBER":"20450000","TAXLOT":"100","ACCTNO":"0928299","MAPACRES":22556.84558198},"geometry":{"type":"MultiPolygon","coordinates":[[[[-122.271284,43.866756],[-122.276287,43.86675],[-122.281289,43.866744],[-122.286292,43.866738],[-122.291295,43.866733],[-122.296297,43.866729],[-122.3013,43.866725],[-122.306302,43.866722],[-122.311305,43.866718],[-122.316305,43.866717],[-122.321306,43.866716],[-122.326306,43.866715],[-122.331306,43.866714],[-122.336307,43.866716],[-122.341308,43.866717],[-122.346309,43.866719],[-122.351309,43.866721],[-122.356311,43.86672],[-122.361313,43.86672],[-122.365901,43.86672],[-122.365997,43.866674],[-122.366195,43.866579],[-122.366405,43.866541],[-122.366755,43.86652],[-122.367208,43.866512],[-122.367487,43.866391],[-122.367827,43.866261],[-122.368034,43.866182],[-122.368305,43.86604],[-122.368852,43.865783],[-122.369079,43.865659],[-122.369365,43.865473],[-122.369528,43.865319],[-122.369708,43.865167],[-122.369793,43.865003],[-122.370046,43.864887],[-122.370343,43.864899],[-122.370653,43.864879],[-122.370988,43.864828],[-122.371349,43.86476],[-122.371672,43.864708],[-122.372031,43.864672],[-122.372231,43.864625],[-122.372512,43.864517],[-122.372698,43.864392],[-122.372858,43.864316],[-122.372969,43.86419],[-122.373002,43.864127],[-122.372999,43.864037],[-122.37293,43.863869],[-122.372901,43.863646],[-122.372894,43.86341],[-122.372909,43.863187],[-122.372968,43.862981],[-122.373045,43.862701],[-122.373127,43.86244],[-122.373306,43.86227],[-122.373501,43.862123],[-122.373733,43.861994],[-122.373979,43.861824],[-122.374201,43.86164],[-122.374426,43.861361],[-122.374698,43.861075],[-122.375008,43.860793],[-122.375209,43.860548],[-122.375324,43.860357],[-122.375339,43.8602],[-122.375309,43.859913],[-122.375188,43.859425],[-122.375002,43.858933],[-122.37493,43.858659],[-122.374816,43.858443],[-122.374786,43.858283],[-122.374879,43.858122],[-122.375034,43.857971],[-122.375243,43.857831],[-122.375476,43.857793],[-122.375707,43.857759],[-122.375903,43.857713],[-122.376027,43.857646],[-122.376103,43.857544],[-122.376253,43.857381],[-122.376484,43.857207],[-122.376751,43.856941],[-122.377148,43.856577],[-122.377454,43.856315],[-122.377572,43.856119],[-122.377688,43.855925],[-122.377702,43.855714],[-122.377762,43.855506],[-122.377844,43.855296],[-122.378007,43.855078],[-122.378099,43.854753],[-122.378048,43.854467],[-122.378012,43.854002],[-122.377975,43.853503],[-122.378026,43.853049],[-122.37808,43.852743],[-122.378048,43.852391],[-122.378032,43.851879],[-122.378037,43.851352],[-122.378048,43.851009],[-122.3781,43.850619],[-122.378154,43.850276],[-122.37823,43.849948],[-122.378304,43.849612],[-122.378297,43.849387],[-122.378269,43.849157],[-122.378187,43.848603],[-122.378136,43.848337],[-122.378151,43.84811],[-122.378208,43.847928],[-122.378183,43.847769],[-122.378136,43.847601],[-122.378085,43.847368],[-122.378008,43.846992],[-122.378042,43.846662],[-122.378055,43.846411],[-122.378112,43.846195],[-122.378107,43.846033],[-122.378053,43.845664],[-122.377995,43.845158],[-122.377901,43.844865],[-122.377872,43.844621],[-122.377806,43.844474],[-122.377764,43.844388],[-122.377704,43.84432],[-122.377633,43.844258],[-122.377537,43.844232],[-122.377355,43.844154],[-122.377067,43.844001],[-122.376676,43.84376],[-122.37626,43.843549],[-122.375813,43.843209],[-122.375324,43.842718],[-122.374972,43.842353],[-122.374841,43.842233],[-122.374581,43.841994],[-122.37428,43.8418],[-122.373959,43.841578],[-122.373663,43.841462],[-122.373435,43.841362],[-122.373149,43.841322],[-122.372886,43.841295],[-122.372679,43.841242],[-122.372552,43.841069],[-122.372477,43.840948],[-122.372492,43.840696],[-122.372615,43.840408],[-122.372754,43.840115],[-122.37283,43.839803],[-122.373073,43.839349],[-122.373167,43.83905],[-122.373107,43.838471],[-122.373074,43.838098],[-122.373082,43.837662],[-122.373105,43.83703],[-122.373019,43.836338],[-122.372981,43.835779],[-122.372967,43.835329],[-122.372976,43.834929],[-122.372919,43.83449],[-122.372998,43.834255],[-122.372976,43.833568],[-122.372945,43.83326],[-122.37291,43.83281],[-122.372894,43.8323],[-122.372862,43.831945],[-122.372854,43.831679],[-122.372969,43.831556],[-122.373172,43.831293],[-122.373269,43.831144],[-122.373307,43.831022],[-122.373411,43.830829],[-122.373658,43.830435],[-122.373923,43.830092],[-122.374225,43.829459],[-122.374481,43.828817],[-122.374788,43.828118],[-122.374957,43.827358],[-122.375213,43.826695],[-122.375388,43.82611],[-122.375519,43.825888],[-122.375643,43.825472],[-122.376073,43.824228],[-122.376499,43.822886],[-122.376953,43.8215],[-122.377084,43.821214],[-122.377265,43.820895],[-122.37734,43.820656],[-122.377442,43.820438],[-122.377535,43.8199],[-122.377788,43.819136],[-122.37809,43.818213],[-122.378217,43.817849],[-122.378377,43.81754],[-122.378592,43.817273],[-122.378887,43.816906],[-122.37919,43.816634],[-122.379464,43.816468],[-122.379766,43.816261],[-122.380132,43.81611],[-122.380428,43.816027],[-122.380602,43.815932],[-122.380775,43.815782],[-122.380873,43.815572],[-122.380974,43.815315],[-122.381071,43.814918],[-122.381191,43.814359],[-122.381406,43.813319],[-122.381603,43.812223],[-122.38166,43.811889],[-122.381706,43.811542],[-122.381779,43.811292],[-122.381856,43.811093],[-122.382006,43.810926],[-122.382188,43.810763],[-122.382398,43.810621],[-122.382631,43.810532],[-122.382924,43.810428],[-122.383228,43.810341],[-122.383562,43.810238],[-122.383975,43.810108],[-122.384443,43.809962],[-122.38498,43.809782],[-122.385428,43.809652],[-122.385821,43.809522],[-122.386101,43.80946],[-122.38637,43.809373],[-122.386494,43.809255],[-122.386664,43.809145],[-122.386974,43.809052],[-122.387219,43.809023],[-122.387468,43.808995],[-122.387651,43.808937],[-122.388031,43.808833],[-122.388397,43.808713],[-122.388869,43.808558],[-122.38935,43.808436],[-122.389971,43.808231],[-122.390338,43.808094],[-122.39074,43.807957],[-122.391128,43.807812],[-122.39142,43.807701],[-122.391708,43.807605],[-122.39174,43.807599],[-122.391802,43.799838],[-122.390483,43.799836],[-122.390455,43.798038],[-122.390455,43.798026],[-122.390427,43.79624],[-122.391831,43.796236],[-122.391912,43.781783],[-122.386863,43.781761],[-122.381813,43.781739],[-122.376764,43.781717],[-122.371714,43.781695],[-122.366685,43.78171],[-122.361656,43.781725],[-122.356626,43.78174],[-122.351597,43.781755],[-122.346578,43.781766],[-122.341559,43.781777],[-122.33654,43.781788],[-122.331521,43.781799],[-122.326507,43.78181],[-122.321493,43.781821],[-122.316479,43.781833],[-122.311465,43.781844],[-122.306456,43.781854],[-122.301448,43.781865],[-122.296439,43.781875],[-122.29143,43.781885],[-122.286422,43.781898],[-122.281414,43.78191],[-122.276405,43.781922],[-122.271397,43.781935],[-122.27139,43.785557],[-122.271384,43.78918],[-122.271377,43.792802],[-122.271371,43.796425],[-122.271366,43.800048],[-122.27136,43.80367],[-122.271355,43.807293],[-122.27135,43.810916],[-122.271344,43.814538],[-122.271338,43.818161],[-122.271332,43.821783],[-122.271326,43.825406],[-122.27132,43.829029],[-122.271315,43.832652],[-122.271309,43.836275],[-122.271303,43.839897],[-122.2713,43.843521],[-122.271297,43.847145],[-122.271293,43.850768],[-122.27129,43.854392],[-122.271288,43.858011],[-122.271286,43.86163],[-122.271284,43.865248],[-122.271284,43.866756]]],[[[-122.369917,43.865076],[-122.369841,43.865224],[-122.369646,43.865388],[-122.369477,43.865548],[-122.369176,43.865743],[-122.36894,43.865873],[-122.368391,43.86613],[-122.368114,43.866275],[-122.367898,43.866358],[-122.367562,43.866486],[-122.367251,43.866622],[-122.366763,43.866629],[-122.36643,43.86665],[-122.366257,43.866681],[-122.366176,43.86672],[-122.366315,43.86672],[-122.371317,43.866719],[-122.376321,43.866718],[-122.381326,43.866716],[-122.38633,43.866715],[-122.388742,43.866715],[-122.391894,43.866713],[-122.391892,43.865031],[-122.391887,43.86141],[-122.391866,43.854168],[-122.391794,43.83968],[-122.391701,43.825197],[-122.391715,43.810716],[-122.391739,43.807712],[-122.391487,43.807799],[-122.391198,43.80791],[-122.390807,43.808055],[-122.390405,43.808193],[-122.390037,43.80833],[-122.389407,43.808537],[-122.388925,43.80866],[-122.38846,43.808813],[-122.388089,43.808934],[-122.387708,43.809039],[-122.387511,43.809101],[-122.387243,43.809131],[-122.387016,43.809158],[-122.386746,43.809239],[-122.386606,43.80933],[-122.386467,43.809461],[-122.386155,43.809563],[-122.385875,43.809625],[-122.385487,43.809753],[-122.38504,43.809882],[-122.384505,43.810062],[-122.384035,43.810209],[-122.383622,43.810338],[-122.383286,43.810442],[-122.382986,43.810528],[-122.382699,43.81063],[-122.382486,43.810711],[-122.382299,43.810837],[-122.382129,43.81099],[-122.381996,43.811138],[-122.381926,43.811318],[-122.381856,43.811559],[-122.381811,43.811901],[-122.381754,43.812237],[-122.381556,43.813334],[-122.381341,43.814375],[-122.38122,43.814936],[-122.381122,43.81534],[-122.381018,43.815605],[-122.38091,43.815837],[-122.380707,43.816012],[-122.380502,43.816123],[-122.380197,43.816209],[-122.379857,43.816349],[-122.379565,43.81655],[-122.379299,43.816712],[-122.379012,43.816968],[-122.378723,43.817328],[-122.378514,43.817587],[-122.378362,43.817881],[-122.378237,43.818239],[-122.377935,43.819161],[-122.377684,43.81992],[-122.37759,43.820462],[-122.377486,43.820686],[-122.37741,43.820928],[-122.377226,43.821253],[-122.377099,43.82153],[-122.376647,43.822911],[-122.37622,43.824254],[-122.37579,43.825497],[-122.375664,43.825922],[-122.375533,43.826143],[-122.37536,43.826721],[-122.375105,43.827382],[-122.374936,43.828143],[-122.374626,43.828849],[-122.37437,43.829492],[-122.374062,43.830138],[-122.373793,43.830485],[-122.373551,43.830872],[-122.373453,43.831054],[-122.373413,43.83118],[-122.373307,43.831344],[-122.373098,43.831614],[-122.373006,43.831711],[-122.373014,43.83194],[-122.373046,43.832295],[-122.373062,43.832806],[-122.373097,43.833253],[-122.373128,43.833562],[-122.37315,43.834267],[-122.373072,43.834498],[-122.373127,43.834924],[-122.373118,43.835329],[-122.373132,43.835775],[-122.37317,43.83633],[-122.373256,43.837027],[-122.373233,43.837664],[-122.373225,43.838095],[-122.373258,43.838464],[-122.37332,43.839058],[-122.373218,43.839381],[-122.372977,43.839833],[-122.372901,43.840142],[-122.372759,43.840442],[-122.372643,43.840715],[-122.37263,43.840927],[-122.372689,43.841021],[-122.372785,43.841153],[-122.372923,43.841188],[-122.373174,43.841214],[-122.37349,43.841258],[-122.373738,43.841366],[-122.374049,43.841488],[-122.374383,43.841719],[-122.374692,43.841918],[-122.37496,43.842165],[-122.375094,43.842288],[-122.375448,43.842655],[-122.37593,43.843138],[-122.376359,43.843465],[-122.376768,43.843673],[-122.377161,43.843915],[-122.377439,43.844062],[-122.377603,43.844133],[-122.377723,43.844165],[-122.377827,43.844255],[-122.377901,43.84434],[-122.37795,43.844438],[-122.378021,43.844599],[-122.378051,43.844848],[-122.378145,43.845141],[-122.378204,43.845654],[-122.378259,43.846026],[-122.378264,43.846204],[-122.378206,43.846423],[-122.378193,43.846668],[-122.378161,43.846988],[-122.378235,43.847352],[-122.378285,43.847582],[-122.378333,43.847752],[-122.378362,43.847934],[-122.378302,43.848125],[-122.378288,43.848332],[-122.378338,43.84859],[-122.378419,43.849147],[-122.378448,43.84938],[-122.378456,43.849619],[-122.37838,43.849966],[-122.378305,43.850291],[-122.378251,43.85063],[-122.378199,43.851015],[-122.378189,43.851353],[-122.378184,43.851878],[-122.378199,43.852387],[-122.378232,43.852746],[-122.378177,43.85306],[-122.378127,43.853505],[-122.378164,43.853996],[-122.378199,43.854457],[-122.378252,43.854757],[-122.378151,43.855116],[-122.377986,43.855337],[-122.37791,43.855532],[-122.377853,43.855728],[-122.377838,43.855951],[-122.377711,43.856163],[-122.377584,43.856373],[-122.377266,43.856647],[-122.376872,43.857008],[-122.3766,43.857277],[-122.376372,43.85745],[-122.376233,43.857601],[-122.376144,43.857719],[-122.375974,43.857812],[-122.375745,43.857865],[-122.375508,43.8579],[-122.375316,43.857931],[-122.375147,43.858045],[-122.375012,43.858177],[-122.374942,43.858298],[-122.374964,43.858415],[-122.375077,43.858629],[-122.37515,43.858909],[-122.375336,43.859401],[-122.37546,43.859899],[-122.375491,43.860199],[-122.375474,43.860383],[-122.375345,43.860598],[-122.375133,43.860855],[-122.37482,43.86114],[-122.374554,43.86142],[-122.374325,43.861705],[-122.374089,43.8619],[-122.373832,43.862078],[-122.373602,43.862205],[-122.373421,43.862342],[-122.373267,43.862487],[-122.373193,43.862724],[-122.373117,43.863003],[-122.37306,43.863201],[-122.373046,43.863412],[-122.373053,43.86364],[-122.37308,43.863849],[-122.37315,43.864019],[-122.373154,43.864146],[-122.373106,43.864239],[-122.372969,43.864395],[-122.372792,43.864479],[-122.372601,43.864608],[-122.37229,43.864726],[-122.372065,43.864779],[-122.371699,43.864816],[-122.371384,43.864867],[-122.371022,43.864935],[-122.370676,43.864988],[-122.370346,43.865009],[-122.370086,43.864999],[-122.369917,43.865076]]]]}},{"type":"Feature","properties":{"MAPTAXLOT":"2145000000100","MAPNUMBER":"21450000","TAXLOT":"100","ACCTNO":"0966372","MAPACRES":21966.13472601},"geometry":{"type":"MultiPolygon","coordinates":[[[[-122.271271,43.735815],[-122.271266,43.73944],[-122.271274,43.743065],[-122.271282,43.74669],[-122.271289,43.750315],[-122.271297,43.75394],[-122.27131,43.757563],[-122.271322,43.761187],[-122.271335,43.76481],[-122.271347,43.768434],[-122.271362,43.772058],[-122.271376,43.775683],[-122.27139,43.779307],[-122.271397,43.781935],[-122.276405,43.781922],[-122.281414,43.78191],[-122.286422,43.781898],[-122.29143,43.781885],[-122.296439,43.781875],[-122.301448,43.781865],[-122.306456,43.781854],[-122.311465,43.781844],[-122.316479,43.781833],[-122.321493,43.781821],[-122.326507,43.78181],[-122.331521,43.781799],[-122.33654,43.781788],[-122.341559,43.781777],[-122.346578,43.781766],[-122.351597,43.781755],[-122.356626,43.78174],[-122.361656,43.781725],[-122.366685,43.78171],[-122.371714,43.781695],[-122.376764,43.781717],[-122.381813,43.781739],[-122.386863,43.781761],[-122.391912,43.781783],[-122.391767,43.774944],[-122.391752,43.774781],[-122.391081,43.767714],[-122.391068,43.755588],[-122.390911,43.738806],[-122.3913,43.732937],[-122.390866,43.732975],[-122.390403,43.733027],[-122.389953,43.733121],[-122.3895,43.733211],[-122.388943,43.733307],[-122.38839,43.733399],[-122.387812,43.733475],[-122.387161,43.733478],[-122.386406,43.733521],[-122.3855,43.733411],[-122.384702,43.733273],[-122.383914,43.733077],[-122.38293,43.732827],[-122.381918,43.732524],[-122.381043,43.732309],[-122.380215,43.732124],[-122.379545,43.732021],[-122.378457,43.731858],[-122.377823,43.731655],[-122.377093,43.731463],[-122.376323,43.731214],[-122.375697,43.731055],[-122.374978,43.730894],[-122.374227,43.730735],[-122.373362,43.730608],[-122.372498,43.730508],[-122.371711,43.730464],[-122.370708,43.730422],[-122.369696,43.730377],[-122.368809,43.730179],[-122.367723,43.729964],[-122.366647,43.729752],[-122.365715,43.729627],[-122.364828,43.729585],[-122.363968,43.729599],[-122.363234,43.729517],[-122.362434,43.729378],[-122.361627,43.729178],[-122.360828,43.728904],[-122.360238,43.728526],[-122.359768,43.728141],[-122.359372,43.727811],[-122.358965,43.727555],[-122.358597,43.727393],[-122.357853,43.727271],[-122.352721,43.726508],[-122.352213,43.726416],[-122.351716,43.726197],[-122.351265,43.725999],[-122.350772,43.725772],[-122.350303,43.725556],[-122.349798,43.725383],[-122.349127,43.725286],[-122.348388,43.725209],[-122.347664,43.725067],[-122.347117,43.724924],[-122.346486,43.724743],[-122.346019,43.724626],[-122.345511,43.724536],[-122.344927,43.724482],[-122.34433,43.72441],[-122.343832,43.724332],[-122.343406,43.724201],[-122.343102,43.724061],[-122.342722,43.723881],[-122.342418,43.723671],[-122.342124,43.723512],[-122.341817,43.723382],[-122.34144,43.723234],[-122.340971,43.723055],[-122.340451,43.722918],[-122.339842,43.722815],[-122.339057,43.722699],[-122.337724,43.722551],[-122.332094,43.721918],[-122.331464,43.721834],[-122.330926,43.721746],[-122.330366,43.721602],[-122.329822,43.721435],[-122.329291,43.72126],[-122.328841,43.72103],[-122.328232,43.720723],[-122.325179,43.719078],[-122.320488,43.716641],[-122.319875,43.716358],[-122.319297,43.716026],[-122.318871,43.71566],[-122.317925,43.714665],[-122.317688,43.714408],[-122.317444,43.714249],[-122.317189,43.714116],[-122.316873,43.713997],[-122.316513,43.713908],[-122.316047,43.713819],[-122.314922,43.713748],[-122.31037,43.713491],[-122.309846,43.713445],[-122.309345,43.713383],[-122.308826,43.713276],[-122.308418,43.713143],[-122.305873,43.712321],[-122.305256,43.712153],[-122.304796,43.71205],[-122.304327,43.711985],[-122.303883,43.711956],[-122.303316,43.711977],[-122.302696,43.712049],[-122.302025,43.71215],[-122.301233,43.712283],[-122.300552,43.712335],[-122.30005,43.712357],[-122.299605,43.712336],[-122.299122,43.712303],[-122.298636,43.712256],[-122.293677,43.711638],[-122.291876,43.711429],[-122.291128,43.711319],[-122.290622,43.711215],[-122.290099,43.711064],[-122.289696,43.710882],[-122.289248,43.710657],[-122.288859,43.710343],[-122.288564,43.710071],[-122.288273,43.709761],[-122.287272,43.708595],[-122.287005,43.708363],[-122.286633,43.708104],[-122.286292,43.707924],[-122.285838,43.707757],[-122.285425,43.707668],[-122.2849,43.707575],[-122.281888,43.707173],[-122.281509,43.707078],[-122.281169,43.706983],[-122.280888,43.706872],[-122.280586,43.706747],[-122.277883,43.705193],[-122.277497,43.704925],[-122.277225,43.704722],[-122.276964,43.704499],[-122.276718,43.704244],[-122.276513,43.703975],[-122.276352,43.703712],[-122.275519,43.702204],[-122.27534,43.701979],[-122.275127,43.701782],[-122.274969,43.701618],[-122.274753,43.7015],[-122.274469,43.701329],[-122.274204,43.701168],[-122.273154,43.700762],[-122.272516,43.70049],[-122.271971,43.70023],[-122.271529,43.700003],[-122.271396,43.699919],[-122.271386,43.70324],[-122.271375,43.706845],[-122.271365,43.710449],[-122.271345,43.714072],[-122.271325,43.717695],[-122.271305,43.721318],[-122.271286,43.724941],[-122.271281,43.728566],[-122.271276,43.732191],[-122.271271,43.735815]]],[[[-122.281011,43.706291],[-122.281257,43.706393],[-122.281488,43.706484],[-122.281768,43.706563],[-122.282081,43.706641],[-122.285058,43.707038],[-122.285623,43.707138],[-122.286119,43.707245],[-122.286689,43.707455],[-122.287119,43.707683],[-122.287559,43.707988],[-122.287886,43.708272],[-122.288906,43.709461],[-122.289175,43.709746],[-122.289438,43.70999],[-122.289752,43.710242],[-122.290112,43.710424],[-122.290441,43.710572],[-122.290866,43.710695],[-122.291307,43.710785],[-122.292011,43.710889],[-122.293801,43.711096],[-122.29875,43.711714],[-122.299206,43.711757],[-122.299665,43.711789],[-122.300052,43.711807],[-122.30049,43.711788],[-122.301107,43.711741],[-122.301863,43.711614],[-122.302559,43.711509],[-122.302987,43.711459],[-122.303358,43.711416],[-122.303295,43.711406],[-122.303103,43.711374],[-122.30291,43.711345],[-122.302532,43.711289],[-122.302234,43.711244],[-122.301938,43.711194],[-122.301642,43.711141],[-122.298611,43.710573],[-122.298311,43.710518],[-122.298011,43.710464],[-122.296514,43.710202],[-122.295924,43.710096],[-122.294386,43.709812],[-122.294132,43.709763],[-122.29388,43.70971],[-122.293631,43.709651],[-122.293383,43.709587],[-122.293138,43.709519],[-122.292896,43.709446],[-122.292657,43.709368],[-122.29242,43.709286],[-122.292187,43.709198],[-122.291957,43.709107],[-122.29173,43.709011],[-122.291507,43.70891],[-122.291289,43.708805],[-122.291073,43.708696],[-122.290863,43.708583],[-122.290656,43.708465],[-122.290454,43.708344],[-122.290256,43.708219],[-122.290064,43.70809],[-122.289876,43.707957],[-122.289693,43.70782],[-122.289515,43.70768],[-122.288865,43.707162],[-122.288713,43.707043],[-122.288556,43.706927],[-122.288395,43.706814],[-122.28823,43.706704],[-122.28806,43.706598],[-122.287887,43.706495],[-122.28771,43.706395],[-122.285755,43.705317],[-122.285326,43.705349],[-122.28253,43.703617],[-122.281666,43.70309],[-122.280825,43.702523],[-122.28014,43.701977],[-122.279211,43.701137],[-122.278343,43.700527],[-122.277462,43.699942],[-122.276543,43.699377],[-122.275516,43.698874],[-122.274992,43.698795],[-122.274433,43.698591],[-122.273442,43.697892],[-122.272286,43.697531],[-122.271405,43.697071],[-122.271398,43.699193],[-122.271645,43.699349],[-122.271996,43.699571],[-122.272398,43.699777],[-122.272916,43.700024],[-122.273523,43.700284],[-122.274629,43.70071],[-122.274954,43.700908],[-122.275222,43.701069],[-122.27552,43.701232],[-122.275735,43.701455],[-122.275968,43.701671],[-122.276201,43.701964],[-122.277048,43.703498],[-122.277191,43.70373],[-122.277361,43.703953],[-122.277563,43.704163],[-122.277784,43.704352],[-122.27803,43.704535],[-122.278381,43.704779],[-122.281011,43.706291]]],[[[-122.314984,43.713201],[-122.316177,43.713277],[-122.31673,43.713382],[-122.316886,43.713412],[-122.316861,43.713401],[-122.316782,43.713369],[-122.316703,43.713338],[-122.316623,43.713309],[-122.316464,43.713254],[-122.316303,43.713205],[-122.316139,43.71316],[-122.315972,43.713121],[-122.315803,43.713087],[-122.315632,43.713058],[-122.31546,43.713035],[-122.315286,43.713016],[-122.315112,43.713004],[-122.314937,43.712997],[-122.314761,43.712995],[-122.314672,43.712996],[-122.314581,43.712998],[-122.314491,43.713002],[-122.314399,43.713006],[-122.314307,43.713011],[-122.314214,43.713017],[-122.314121,43.713023],[-122.314027,43.713029],[-122.314027,43.713029],[-122.313874,43.713039],[-122.313644,43.713053],[-122.313414,43.713061],[-122.313184,43.713065],[-122.312953,43.713063],[-122.312722,43.713056],[-122.312492,43.713045],[-122.312263,43.713028],[-122.312034,43.713006],[-122.311807,43.712979],[-122.31158,43.712947],[-122.311355,43.712911],[-122.311132,43.712869],[-122.306818,43.712026],[-122.307479,43.712239],[-122.308727,43.712642],[-122.309086,43.712759],[-122.309512,43.712847],[-122.309955,43.712902],[-122.310445,43.712945],[-122.314984,43.713201]]],[[[-122.381976,43.729742],[-122.382146,43.729795],[-122.383358,43.729838],[-122.384496,43.730003],[-122.385683,43.729785],[-122.386299,43.72966],[-122.386959,43.7297],[-122.390751,43.729201],[-122.391132,43.729009],[-122.391558,43.729047],[-122.391873,43.724323],[-122.391956,43.717282],[-122.392151,43.710319],[-122.382249,43.710473],[-122.377304,43.710482],[-122.377269,43.706899],[-122.372294,43.706938],[-122.372224,43.703386],[-122.372226,43.703283],[-122.372302,43.699703],[-122.37726,43.699679],[-122.377292,43.696039],[-122.372381,43.696021],[-122.367484,43.696027],[-122.362489,43.696029],[-122.361199,43.69603],[-122.352421,43.69603],[-122.351206,43.696031],[-122.346218,43.696031],[-122.341231,43.696031],[-122.331258,43.69602],[-122.326268,43.69602],[-122.321279,43.696019],[-122.316289,43.696018],[-122.3113,43.696018],[-122.306313,43.69602],[-122.301327,43.696023],[-122.29634,43.696025],[-122.29634,43.696025],[-122.291354,43.696028],[-122.291354,43.696028],[-122.286367,43.696029],[-122.286367,43.696029],[-122.281381,43.69603],[-122.281381,43.696029],[-122.276394,43.69603],[-122.276394,43.69603],[-122.271408,43.696031],[-122.271407,43.696255],[-122.271407,43.69641],[-122.276917,43.699084],[-122.277143,43.699195],[-122.277367,43.69931],[-122.277586,43.699429],[-122.277801,43.699552],[-122.278012,43.699679],[-122.278219,43.699809],[-122.278422,43.699942],[-122.27862,43.70008],[-122.278813,43.70022],[-122.279002,43.700364],[-122.279185,43.700512],[-122.279364,43.700662],[-122.279538,43.700816],[-122.280562,43.701741],[-122.28073,43.701889],[-122.280903,43.702033],[-122.281082,43.702174],[-122.281266,43.702311],[-122.281455,43.702444],[-122.281649,43.702574],[-122.281848,43.7027],[-122.282051,43.702821],[-122.282259,43.702939],[-122.288015,43.706112],[-122.288202,43.706217],[-122.288385,43.706326],[-122.288564,43.706439],[-122.288739,43.706555],[-122.28891,43.706675],[-122.289076,43.706797],[-122.289237,43.706923],[-122.289886,43.707441],[-122.290063,43.707581],[-122.290245,43.707716],[-122.290432,43.707848],[-122.290625,43.707975],[-122.290822,43.708099],[-122.291024,43.708219],[-122.291231,43.708334],[-122.291442,43.708445],[-122.291658,43.708552],[-122.291877,43.708654],[-122.2921,43.708752],[-122.292327,43.708845],[-122.292558,43.708933],[-122.292792,43.709017],[-122.293029,43.709096],[-122.293269,43.70917],[-122.293512,43.709239],[-122.293758,43.709303],[-122.294005,43.709362],[-122.294256,43.709415],[-122.294508,43.709464],[-122.296047,43.709748],[-122.296632,43.709853],[-122.298129,43.710115],[-122.298433,43.710169],[-122.298737,43.710225],[-122.301769,43.710793],[-122.302056,43.710845],[-122.302344,43.710893],[-122.302633,43.710937],[-122.303011,43.710992],[-122.303211,43.711023],[-122.30341,43.711055],[-122.305661,43.711434],[-122.305926,43.71148],[-122.306191,43.71153],[-122.311263,43.71252],[-122.311483,43.712561],[-122.311705,43.712597],[-122.311928,43.712627],[-122.312152,43.712653],[-122.312378,43.712673],[-122.312604,43.712688],[-122.31283,43.712697],[-122.312836,43.712604],[-122.313033,43.712609],[-122.313229,43.71261],[-122.313425,43.712606],[-122.313621,43.712599],[-122.313817,43.712588],[-122.31397,43.712577],[-122.314065,43.712571],[-122.314161,43.712565],[-122.314258,43.712559],[-122.314356,43.712553],[-122.314455,43.712549],[-122.314537,43.712546],[-122.314543,43.712638],[-122.31466,43.712635],[-122.314757,43.712634],[-122.314936,43.712636],[-122.315115,43.712642],[-122.315294,43.712654],[-122.315471,43.71267],[-122.315648,43.712692],[-122.315824,43.712719],[-122.315997,43.71275],[-122.316169,43.712787],[-122.316339,43.712828],[-122.316507,43.712875],[-122.316672,43.712926],[-122.316834,43.712981],[-122.316934,43.712837],[-122.317042,43.712877],[-122.317132,43.712912],[-122.317221,43.712948],[-122.317308,43.712984],[-122.317393,43.713021],[-122.317477,43.713057],[-122.317559,43.713093],[-122.31764,43.71313],[-122.318885,43.713683],[-122.318767,43.713821],[-122.319349,43.71408],[-122.319445,43.714123],[-122.319542,43.714165],[-122.319637,43.714207],[-122.319733,43.714249],[-122.319829,43.71429],[-122.319925,43.71433],[-122.320021,43.714369],[-122.320118,43.714408],[-122.320215,43.714445],[-122.320312,43.71448],[-122.320501,43.714546],[-122.320692,43.714606],[-122.320887,43.714661],[-122.321084,43.714712],[-122.321283,43.714758],[-122.321485,43.714798],[-122.321591,43.714818],[-122.321698,43.714836],[-122.321805,43.714853],[-122.321913,43.714869],[-122.322022,43.714884],[-122.322132,43.714899],[-122.322242,43.714913],[-122.322353,43.714927],[-122.322464,43.714941],[-122.322576,43.714954],[-122.323269,43.715038],[-122.323452,43.715063],[-122.323634,43.715092],[-122.323814,43.715126],[-122.323992,43.715164],[-122.324168,43.715207],[-122.324342,43.715255],[-122.324513,43.715307],[-122.324566,43.715222],[-122.324735,43.715279],[-122.324902,43.71534],[-122.325066,43.715405],[-122.325226,43.715474],[-122.325383,43.715548],[-122.32569,43.715697],[-122.325618,43.715774],[-122.32659,43.716246],[-122.327234,43.716562],[-122.327876,43.71688],[-122.33275,43.719321],[-122.332836,43.719365],[-122.332923,43.719408],[-122.333009,43.719451],[-122.333095,43.719494],[-122.333182,43.719536],[-122.333268,43.719578],[-122.333355,43.719619],[-122.333441,43.719659],[-122.333528,43.719699],[-122.333616,43.719738],[-122.333704,43.719775],[-122.333792,43.719812],[-122.333881,43.719848],[-122.33397,43.719883],[-122.33406,43.719916],[-122.33415,43.719948],[-122.334321,43.720004],[-122.334495,43.720056],[-122.334672,43.720103],[-122.334851,43.720145],[-122.335031,43.720182],[-122.335214,43.720214],[-122.335398,43.720241],[-122.335583,43.720264],[-122.33577,43.720281],[-122.335957,43.720293],[-122.336144,43.720301],[-122.336332,43.720303],[-122.33652,43.7203],[-122.336708,43.720292],[-122.336895,43.720279],[-122.337081,43.720261],[-122.3377,43.720192],[-122.337852,43.720178],[-122.338005,43.72017],[-122.338159,43.720166],[-122.338313,43.720168],[-122.338466,43.720175],[-122.338619,43.720187],[-122.33877,43.720205],[-122.338921,43.720228],[-122.339069,43.720256],[-122.339216,43.72029],[-122.339259,43.720202],[-122.339404,43.720241],[-122.339547,43.720285],[-122.339687,43.720334],[-122.339824,43.720387],[-122.339957,43.720445],[-122.340412,43.720654],[-122.340342,43.720733],[-122.341228,43.721141],[-122.341307,43.721178],[-122.341386,43.721214],[-122.341464,43.72125],[-122.341542,43.721285],[-122.341621,43.72132],[-122.341699,43.721355],[-122.341777,43.721389],[-122.341856,43.721422],[-122.342076,43.72151],[-122.342299,43.721593],[-122.342525,43.721671],[-122.342755,43.721744],[-122.342987,43.721812],[-122.343222,43.721875],[-122.34346,43.721933],[-122.3437,43.721986],[-122.343942,43.722034],[-122.344185,43.722077],[-122.344431,43.722114],[-122.344678,43.722146],[-122.344926,43.722173],[-122.344944,43.72208],[-122.345162,43.722099],[-122.345381,43.722113],[-122.345601,43.722122],[-122.34582,43.722128],[-122.34604,43.722129],[-122.34626,43.722126],[-122.34685,43.722112],[-122.346853,43.722205],[-122.347106,43.722199],[-122.34719,43.722197],[-122.347275,43.722195],[-122.34736,43.722194],[-122.347446,43.722193],[-122.347533,43.722193],[-122.34762,43.722194],[-122.347709,43.722196],[-122.347797,43.722199],[-122.347884,43.722204],[-122.348007,43.722214],[-122.34813,43.722227],[-122.348139,43.722189],[-122.348286,43.72221],[-122.348431,43.722235],[-122.348575,43.722265],[-122.348717,43.7223],[-122.348857,43.722339],[-122.348994,43.722383],[-122.349128,43.722431],[-122.349259,43.722483],[-122.349387,43.72254],[-122.349358,43.722572],[-122.349485,43.722635],[-122.349607,43.722703],[-122.349726,43.722775],[-122.349839,43.72285],[-122.349948,43.72293],[-122.350051,43.723012],[-122.350149,43.723099],[-122.350241,43.723188],[-122.350328,43.72328],[-122.350408,43.723376],[-122.350616,43.723638],[-122.350616,43.723638],[-122.350653,43.723685],[-122.35069,43.723732],[-122.350727,43.723777],[-122.350764,43.723822],[-122.350802,43.723867],[-122.35084,43.72391],[-122.350879,43.723953],[-122.350918,43.723994],[-122.350958,43.724034],[-122.351,43.724074],[-122.351086,43.724147],[-122.351177,43.724216],[-122.351274,43.724282],[-122.351375,43.724344],[-122.351481,43.724401],[-122.351592,43.724454],[-122.351706,43.724503],[-122.351824,43.724547],[-122.351945,43.724586],[-122.352069,43.72462],[-122.35207,43.72462],[-122.352136,43.724635],[-122.352202,43.72465],[-122.352269,43.724663],[-122.352337,43.724674],[-122.352406,43.724685],[-122.352476,43.724695],[-122.352546,43.724705],[-122.352617,43.724713],[-122.352689,43.724721],[-122.352762,43.724728],[-122.352834,43.724735],[-122.352908,43.724742],[-122.352982,43.724748],[-122.353057,43.724754],[-122.353132,43.72476],[-122.354838,43.724895],[-122.354879,43.72465],[-122.357594,43.724865],[-122.357561,43.725072],[-122.357733,43.725086],[-122.357946,43.725106],[-122.358158,43.72513],[-122.358368,43.725159],[-122.358578,43.725193],[-122.358565,43.72523],[-122.358762,43.725267],[-122.358957,43.725309],[-122.359151,43.725354],[-122.359343,43.725404],[-122.359532,43.725458],[-122.359719,43.725517],[-122.365241,43.727299],[-122.365489,43.727376],[-122.36574,43.727447],[-122.365994,43.727513],[-122.36625,43.727575],[-122.366508,43.727632],[-122.366768,43.727684],[-122.367029,43.727731],[-122.367293,43.727773],[-122.367557,43.72781],[-122.367823,43.727842],[-122.36809,43.727868],[-122.368358,43.72789],[-122.368627,43.727907],[-122.368896,43.727918],[-122.369165,43.727925],[-122.369435,43.727926],[-122.369705,43.727922],[-122.369974,43.727913],[-122.370243,43.727899],[-122.373936,43.727668],[-122.374031,43.727662],[-122.374128,43.727656],[-122.374225,43.72765],[-122.374322,43.727645],[-122.37442,43.727639],[-122.374519,43.727635],[-122.374618,43.727631],[-122.374718,43.727629],[-122.374818,43.727627],[-122.374919,43.727626],[-122.37502,43.727627],[-122.375119,43.727629],[-122.375248,43.727635],[-122.376643,43.727669],[-122.378969,43.728409],[-122.380079,43.728814],[-122.381041,43.729419],[-122.381287,43.729506],[-122.381397,43.729546],[-122.381494,43.72958],[-122.38159,43.729613],[-122.381687,43.729646],[-122.381783,43.729679],[-122.38188,43.729711],[-122.381976,43.729742]]],[[[-122.386439,43.732969],[-122.387129,43.73293],[-122.387741,43.732926],[-122.388238,43.732861],[-122.388771,43.732773],[-122.389313,43.732679],[-122.389748,43.732593],[-122.39024,43.73249],[-122.390772,43.73243],[-122.391281,43.732395],[-122.391336,43.732394],[-122.391412,43.73124],[-122.391421,43.731104],[-122.391503,43.729874],[-122.391519,43.729634],[-122.391513,43.729634],[-122.391284,43.729639],[-122.391055,43.729647],[-122.390826,43.729659],[-122.390598,43.729675],[-122.390449,43.729688],[-122.3903,43.729702],[-122.39015,43.729718],[-122.39,43.729735],[-122.38985,43.729752],[-122.389699,43.729771],[-122.389548,43.729791],[-122.389333,43.729819],[-122.386119,43.730278],[-122.386009,43.730294],[-122.3859,43.730309],[-122.38579,43.730325],[-122.385679,43.73034],[-122.385568,43.730355],[-122.385457,43.730369],[-122.385345,43.730382],[-122.385233,43.730395],[-122.38512,43.730407],[-122.385006,43.730418],[-122.384893,43.730428],[-122.384778,43.730436],[-122.384664,43.730444],[-122.384549,43.730449],[-122.384349,43.730456],[-122.38415,43.730458],[-122.38395,43.730454],[-122.383751,43.730446],[-122.383552,43.730432],[-122.383354,43.730414],[-122.383157,43.73039],[-122.382961,43.730362],[-122.382767,43.730328],[-122.382575,43.73029],[-122.382384,43.730246],[-122.382279,43.73022],[-122.382173,43.730193],[-122.382067,43.730164],[-122.381963,43.730134],[-122.38186,43.730102],[-122.381757,43.730071],[-122.381656,43.730038],[-122.381555,43.730005],[-122.381455,43.729971],[-122.381356,43.729937],[-122.381257,43.729902],[-122.381159,43.729868],[-122.381061,43.729833],[-122.380964,43.729798],[-122.377174,43.728447],[-122.377089,43.728417],[-122.377005,43.728387],[-122.376921,43.728358],[-122.376836,43.728329],[-122.376753,43.7283],[-122.376669,43.728273],[-122.376585,43.728246],[-122.376501,43.72822],[-122.376416,43.728195],[-122.376332,43.728172],[-122.376247,43.728149],[-122.376163,43.728128],[-122.376013,43.728094],[-122.375862,43.728065],[-122.37571,43.72804],[-122.375556,43.72802],[-122.375401,43.728004],[-122.375245,43.727993],[-122.375089,43.727986],[-122.374998,43.727984],[-122.374908,43.727983],[-122.374816,43.727984],[-122.374724,43.727985],[-122.374632,43.727988],[-122.374539,43.727991],[-122.374446,43.727996],[-122.374352,43.728],[-122.374258,43.728006],[-122.374164,43.728011],[-122.374069,43.728017],[-122.373974,43.728024],[-122.370281,43.728255],[-122.370013,43.728269],[-122.369744,43.728278],[-122.369475,43.728283],[-122.369205,43.728282],[-122.368936,43.728277],[-122.368667,43.728267],[-122.368399,43.728252],[-122.368131,43.728232],[-122.367864,43.728207],[-122.367598,43.728177],[-122.367334,43.728143],[-122.367072,43.728104],[-122.366811,43.728061],[-122.366551,43.728013],[-122.366293,43.72796],[-122.366037,43.727903],[-122.365783,43.727841],[-122.365532,43.727774],[-122.365282,43.727703],[-122.365035,43.727627],[-122.364096,43.727329],[-122.364074,43.727363],[-122.359547,43.725901],[-122.359515,43.725951],[-122.359321,43.725889],[-122.359125,43.725833],[-122.358926,43.725781],[-122.358725,43.725734],[-122.358521,43.725693],[-122.358316,43.725657],[-122.358109,43.725626],[-122.3579,43.7256],[-122.357691,43.72558],[-122.35748,43.725565],[-122.357496,43.72547],[-122.353073,43.725119],[-122.352997,43.725113],[-122.352921,43.725107],[-122.352844,43.725101],[-122.352768,43.725094],[-122.35269,43.725087],[-122.352613,43.725079],[-122.352535,43.72507],[-122.352456,43.725061],[-122.352378,43.725051],[-122.352299,43.725039],[-122.35222,43.725027],[-122.352141,43.725013],[-122.352062,43.724998],[-122.351983,43.724981],[-122.351905,43.724962],[-122.351768,43.724925],[-122.351634,43.724883],[-122.351502,43.724836],[-122.351375,43.724784],[-122.351251,43.724727],[-122.351131,43.724666],[-122.351016,43.7246],[-122.350906,43.72453],[-122.3508,43.724457],[-122.3507,43.724379],[-122.350606,43.724298],[-122.350558,43.724253],[-122.350511,43.724206],[-122.350466,43.724158],[-122.350422,43.72411],[-122.35038,43.724061],[-122.350339,43.724013],[-122.350299,43.723965],[-122.35026,43.723917],[-122.350222,43.723869],[-122.350185,43.723822],[-122.349977,43.723559],[-122.349904,43.723474],[-122.349824,43.723391],[-122.34974,43.723311],[-122.349649,43.723235],[-122.349554,43.723161],[-122.349454,43.723091],[-122.34935,43.723025],[-122.349241,43.722963],[-122.349128,43.722904],[-122.349011,43.72285],[-122.34889,43.7228],[-122.348766,43.722754],[-122.34864,43.722713],[-122.34851,43.722676],[-122.348379,43.722644],[-122.348245,43.722617],[-122.34811,43.722594],[-122.347973,43.722576],[-122.347835,43.722564],[-122.347758,43.722559],[-122.347681,43.722556],[-122.347602,43.722555],[-122.347523,43.722554],[-122.347443,43.722554],[-122.347362,43.722555],[-122.347281,43.722556],[-122.347199,43.722558],[-122.347116,43.72256],[-122.347116,43.72256],[-122.346272,43.72258],[-122.346016,43.722582],[-122.345759,43.722579],[-122.345503,43.722571],[-122.345248,43.722558],[-122.344992,43.722539],[-122.344738,43.722515],[-122.344485,43.722486],[-122.344233,43.722451],[-122.343983,43.722411],[-122.343734,43.722366],[-122.343487,43.722316],[-122.343242,43.722261],[-122.343,43.7222],[-122.34276,43.722135],[-122.342523,43.722065],[-122.342288,43.721989],[-122.342057,43.721909],[-122.341829,43.721824],[-122.341604,43.721735],[-122.341523,43.7217],[-122.34144,43.721665],[-122.341359,43.721629],[-122.341278,43.721593],[-122.341198,43.721556],[-122.341118,43.72152],[-122.341039,43.721483],[-122.34096,43.721447],[-122.33962,43.720829],[-122.339501,43.720778],[-122.339379,43.720731],[-122.339254,43.720689],[-122.339126,43.720652],[-122.338996,43.720619],[-122.338863,43.720592],[-122.338729,43.720569],[-122.338594,43.720551],[-122.338457,43.720538],[-122.33832,43.72053],[-122.338182,43.720527],[-122.338044,43.720529],[-122.337907,43.720537],[-122.33777,43.720549],[-122.337151,43.720618],[-122.336958,43.720636],[-122.336765,43.72065],[-122.336571,43.720659],[-122.336377,43.720663],[-122.336183,43.720662],[-122.335989,43.720656],[-122.335795,43.720645],[-122.335602,43.72063],[-122.33541,43.720609],[-122.335218,43.720584],[-122.335029,43.720553],[-122.334841,43.720518],[-122.334654,43.720479],[-122.33447,43.720434],[-122.334288,43.720385],[-122.334108,43.720331],[-122.333931,43.720273],[-122.333834,43.720239],[-122.333737,43.720202],[-122.33364,43.720165],[-122.333544,43.720126],[-122.33345,43.720087],[-122.333357,43.720047],[-122.333264,43.720006],[-122.333173,43.719964],[-122.333082,43.719922],[-122.332992,43.719879],[-122.332903,43.719836],[-122.332814,43.719793],[-122.332726,43.719749],[-122.332639,43.719706],[-122.332551,43.719662],[-122.332465,43.719618],[-122.32759,43.717177],[-122.326951,43.71686],[-122.326309,43.716546],[-122.32503,43.715924],[-122.324877,43.715853],[-122.32472,43.715786],[-122.32456,43.715724],[-122.324397,43.715666],[-122.32423,43.715612],[-122.324061,43.715564],[-122.32389,43.71552],[-122.323716,43.715481],[-122.323541,43.715447],[-122.323363,43.715418],[-122.323184,43.715394],[-122.322491,43.71531],[-122.322379,43.715296],[-122.322266,43.715283],[-122.322153,43.715268],[-122.32204,43.715254],[-122.321926,43.715239],[-122.321813,43.715222],[-122.321699,43.715205],[-122.321585,43.715187],[-122.32147,43.715168],[-122.321356,43.715147],[-122.321169,43.71511],[-122.320984,43.715068],[-122.3208,43.715023],[-122.320618,43.714974],[-122.320438,43.71492],[-122.32026,43.714863],[-122.320085,43.714802],[-122.319983,43.714765],[-122.319879,43.714725],[-122.319777,43.714684],[-122.319675,43.714643],[-122.319575,43.714601],[-122.319476,43.714559],[-122.319377,43.714516],[-122.31928,43.714473],[-122.319182,43.71443],[-122.319086,43.714387],[-122.318227,43.714005],[-122.318344,43.714132],[-122.318551,43.714357],[-122.319473,43.715326],[-122.319826,43.71563],[-122.320314,43.71591],[-122.320912,43.716186],[-122.325624,43.718635],[-122.328673,43.720277],[-122.329275,43.72058],[-122.329669,43.720782],[-122.330125,43.720933],[-122.33064,43.72109],[-122.331137,43.721218],[-122.331616,43.721297],[-122.33222,43.721377],[-122.337839,43.722008],[-122.33919,43.722158],[-122.340004,43.722279],[-122.340667,43.722391],[-122.341278,43.722552],[-122.341797,43.72275],[-122.342188,43.722904],[-122.342541,43.723053],[-122.342907,43.723251],[-122.343195,43.72345],[-122.343512,43.7236],[-122.343759,43.723714],[-122.344062,43.723807],[-122.344472,43.723871],[-122.345037,43.723939],[-122.34565,43.723996],[-122.346233,43.724099],[-122.346749,43.724228],[-122.347384,43.724411],[-122.347891,43.724543],[-122.348541,43.72467],[-122.349255,43.724745],[-122.350037,43.724858],[-122.350669,43.725075],[-122.351178,43.725309],[-122.351664,43.725533],[-122.352108,43.725728],[-122.352507,43.725903],[-122.352889,43.725972],[-122.358013,43.726735],[-122.358884,43.726878],[-122.359412,43.72711],[-122.359908,43.727422],[-122.360336,43.727779],[-122.360773,43.728137],[-122.361249,43.728441],[-122.361912,43.728668],[-122.362645,43.728851],[-122.36338,43.728979],[-122.364017,43.72905],[-122.364844,43.729036],[-122.365809,43.729081],[-122.366815,43.729216],[-122.367922,43.729435],[-122.36902,43.729652],[-122.369833,43.729834],[-122.370753,43.729874],[-122.371762,43.729916],[-122.372586,43.729963],[-122.373497,43.730068],[-122.374409,43.730202],[-122.375195,43.730368],[-122.375933,43.730534],[-122.376603,43.730703],[-122.377377,43.730954],[-122.378105,43.731146],[-122.378689,43.731332],[-122.379701,43.731484],[-122.380405,43.731592],[-122.381276,43.731787],[-122.382184,43.73201],[-122.3832,43.732314],[-122.384161,43.732558],[-122.384913,43.732745],[-122.38565,43.732873],[-122.386439,43.732969]]]]}}]}