{"type":"FeatureCollection","features":[{"type":"Feature","properties":{"MAPTAXLOT":"2201000000700","MAPNUMBER":"22010000","TAXLOT":"700","ACCTNO":"0966539","MAPACRES":29.64029819},"geometry":{"type":"Polygon","coordinates":[[[-122.870016,43.676572],[-122.873156,43.676558],[-122.873159,43.675787],[-122.873087,43.672758],[-122.869183,43.672793],[-122.870016,43.676572]]]}},{"type":"Feature","properties":{"MAPTAXLOT":"2201000002600","MAPNUMBER":"22010000","TAXLOT":"2600","ACCTNO":"0966778","MAPACRES":4985.52371164},"geometry":{"type":"Polygon","coordinates":[[[-122.852395,43.682267],[-122.857122,43.6823],[-122.86185,43.682336],[-122.866578,43.682371],[-122.871305,43.682406],[-122.87302,43.682419],[-122.87309,43.679385],[-122.873121,43.678071],[-122.873156,43.676558],[-122.870016,43.676572],[-122.869183,43.672793],[-122.873087,43.672758],[-122.873082,43.67256],[-122.873081,43.672522],[-122.873006,43.669333],[-122.873012,43.668959],[-122.873052,43.666721],[-122.873071,43.665655],[-122.87308,43.66516],[-122.873128,43.661976],[-122.873129,43.661844],[-122.873149,43.65853],[-122.87315,43.65838],[-122.87317,43.655217],[-122.873173,43.654782],[-122.873192,43.651904],[-122.873196,43.651185],[-122.873215,43.647714],[-122.873216,43.647588],[-122.872888,43.643525],[-122.872882,43.643449],[-122.872548,43.639336],[-122.872546,43.63931],[-122.872556,43.635813],[-122.872557,43.635147],[-122.872566,43.632316],[-122.872579,43.6319],[-122.873031,43.629365],[-122.873033,43.629251],[-122.873519,43.626626],[-122.873522,43.626453],[-122.873631,43.623357],[-122.869585,43.623367],[-122.856434,43.623474],[-122.851525,43.623513],[-122.841678,43.623369],[-122.841652,43.62665],[-122.836799,43.626714],[-122.83191,43.626779],[-122.831837,43.623436],[-122.836757,43.623403],[-122.841678,43.623369],[-122.841579,43.616364],[-122.841741,43.608849],[-122.836815,43.608873],[-122.831875,43.60889],[-122.82695,43.608911],[-122.822025,43.608932],[-122.822033,43.612586],[-122.822041,43.616241],[-122.822075,43.618041],[-122.822109,43.619842],[-122.822127,43.620743],[-122.822144,43.621643],[-122.822178,43.623444],[-122.822326,43.626904],[-122.822473,43.630365],[-122.822259,43.633769],[-122.822045,43.637174],[-122.832132,43.6371],[-122.836929,43.637088],[-122.841725,43.637077],[-122.847193,43.636081],[-122.847131,43.640194],[-122.84183,43.64077],[-122.841938,43.644463],[-122.842144,43.651849],[-122.842264,43.655377],[-122.842383,43.658905],[-122.842448,43.66253],[-122.842502,43.666154],[-122.843644,43.669583],[-122.844786,43.673013],[-122.84593,43.676676],[-122.847074,43.680339],[-122.85181,43.680301],[-122.852395,43.682267]]]}},{"type":"Feature","properties":{"MAPTAXLOT":"2201000005400","MAPNUMBER":"22010000","TAXLOT":"5400","ACCTNO":"0967222","MAPACRES":747.16367467},"geometry":{"type":"Polygon","coordinates":[[[-122.869585,43.623367],[-122.873631,43.623357],[-122.873641,43.623049],[-122.873735,43.619644],[-122.873734,43.619584],[-122.871469,43.619611],[-122.871514,43.615837],[-122.856467,43.616103],[-122.856497,43.608715],[-122.8516,43.608831],[-122.846671,43.60884],[-122.841741,43.608849],[-122.841579,43.616364],[-122.841678,43.623369],[-122.851525,43.623513],[-122.856434,43.623474],[-122.869585,43.623367]]]}},{"type":"Feature","properties":{"MAPTAXLOT":"2201000005500","MAPNUMBER":"22010000","TAXLOT":"5500","ACCTNO":"0967230","MAPACRES":305.52700433},"geometry":{"type":"Polygon","coordinates":[[[-122.871469,43.619611],[-122.873734,43.619584],[-122.873746,43.616004],[-122.873748,43.615797],[-122.873724,43.612363],[-122.873734,43.612],[-122.873807,43.608775],[-122.873823,43.608204],[-122.871436,43.608274],[-122.866456,43.608421],[-122.861477,43.608568],[-122.856497,43.608715],[-122.856467,43.616103],[-122.871514,43.615837],[-122.871469,43.619611]]]}},{"type":"Feature","properties":{"MAPTAXLOT":"2202000000100","MAPNUMBER":"22020000","TAXLOT":"100","ACCTNO":"0968147","MAPACRES":943.50619868},"geometry":{"type":"Polygon","coordinates":[[[-122.90084,43.694721],[-122.901977,43.694701],[-122.902204,43.690129],[-122.897289,43.690153],[-122.892371,43.690178],[-122.892545,43.686602],[-122.892719,43.683025],[-122.892899,43.679449],[-122.893078,43.675873],[-122.888107,43.675799],[-122.883136,43.675725],[-122.878146,43.675756],[-122.873159,43.675787],[-122.873159,43.675787],[-122.873156,43.676558],[-122.873121,43.678071],[-122.87309,43.679385],[-122.87302,43.682419],[-122.873006,43.682982],[-122.872869,43.685636],[-122.872819,43.686593],[-122.872702,43.688851],[-122.872631,43.690203],[-122.872534,43.692069],[-122.872372,43.695213],[-122.872868,43.695205],[-122.877319,43.695127],[-122.877815,43.695119],[-122.882266,43.695041],[-122.882762,43.695033],[-122.886195,43.694974],[-122.887205,43.694956],[-122.8877,43.694948],[-122.892142,43.694872],[-122.89263,43.694863],[-122.89706,43.694789],[-122.897561,43.69478],[-122.90084,43.694721]]]}},{"type":"Feature","properties":{"MAPTAXLOT":"2202000000200","MAPNUMBER":"22020000","TAXLOT":"200","ACCTNO":"0968154","MAPACRES":314.40347593},"geometry":{"type":"Polygon","coordinates":[[[-122.897289,43.690153],[-122.902204,43.690129],[-122.902385,43.686479],[-122.902567,43.682829],[-122.902928,43.675549],[-122.898003,43.675711],[-122.893078,43.675873],[-122.892899,43.679449],[-122.892719,43.683025],[-122.892545,43.686602],[-122.892371,43.690178],[-122.897289,43.690153]]]}},{"type":"Feature","properties":{"MAPTAXLOT":"2202000000300","MAPNUMBER":"22020000","TAXLOT":"300","ACCTNO":"0968162","MAPACRES":418.58931183},"geometry":{"type":"Polygon","coordinates":[[[-122.907853,43.675389],[-122.902928,43.675549],[-122.902567,43.682829],[-122.902385,43.686479],[-122.902204,43.690129],[-122.901977,43.694701],[-122.902503,43.694692],[-122.906894,43.694613],[-122.907445,43.694603],[-122.911812,43.694621],[-122.912034,43.690079],[-122.912216,43.686356],[-122.912398,43.682633],[-122.912778,43.67523],[-122.907853,43.675389]]]}},{"type":"Feature","properties":{"MAPTAXLOT":"2202000000400","MAPNUMBER":"22020000","TAXLOT":"400","ACCTNO":"0968170","MAPACRES":620.95689459},"geometry":{"type":"Polygon","coordinates":[[[-122.912034,43.690079],[-122.911812,43.694621],[-122.912327,43.694609],[-122.912328,43.694609],[-122.916695,43.694506],[-122.917201,43.694494],[-122.921579,43.694391],[-122.922077,43.694379],[-122.926464,43.694264],[-122.926952,43.694252],[-122.931351,43.694155],[-122.930832,43.689657],[-122.930385,43.685778],[-122.926201,43.685911],[-122.926079,43.682059],[-122.922221,43.68222],[-122.922609,43.675121],[-122.917694,43.675176],[-122.912778,43.67523],[-122.912398,43.682633],[-122.912216,43.686356],[-122.912034,43.690079]]]}},{"type":"Feature","properties":{"MAPTAXLOT":"2202000000500","MAPNUMBER":"22020000","TAXLOT":"500","ACCTNO":"0968188","MAPACRES":154.63060201},"geometry":{"type":"Polygon","coordinates":[[[-122.926079,43.682059],[-122.926201,43.685911],[-122.930385,43.685778],[-122.929937,43.681899],[-122.930583,43.675142],[-122.926596,43.675132],[-122.922609,43.675121],[-122.922221,43.68222],[-122.926079,43.682059]]]}},{"type":"Feature","properties":{"MAPTAXLOT":"2202000000600","MAPNUMBER":"22020000","TAXLOT":"600","ACCTNO":"0968196","MAPACRES":795.49714271},"geometry":{"type":"Polygon","coordinates":[[[-122.930832,43.689657],[-122.931351,43.694155],[-122.93187,43.694128],[-122.936282,43.693904],[-122.93678,43.693878],[-122.941213,43.693653],[-122.941133,43.691545],[-122.946008,43.691368],[-122.946145,43.693402],[-122.946599,43.693379],[-122.950951,43.693308],[-122.950604,43.689233],[-122.950286,43.685502],[-122.949968,43.681772],[-122.950243,43.675066],[-122.945369,43.675041],[-122.940495,43.675015],[-122.935539,43.675079],[-122.930583,43.675142],[-122.929937,43.681899],[-122.930385,43.685778],[-122.930832,43.689657]]]}},{"type":"Feature","properties":{"MAPTAXLOT":"2202000001500","MAPNUMBER":"22020000","TAXLOT":"1500","ACCTNO":"0968311","MAPACRES":607.50831038},"geometry":{"type":"Polygon","coordinates":[[[-122.945369,43.675041],[-122.950243,43.675066],[-122.951192,43.660991],[-122.931538,43.661196],[-122.930583,43.675142],[-122.935539,43.675079],[-122.940495,43.675015],[-122.945369,43.675041]]]}},{"type":"Feature","properties":{"MAPTAXLOT":"2202000001600","MAPNUMBER":"22020000","TAXLOT":"1600","ACCTNO":"0968329","MAPACRES":569.92622783},"geometry":{"type":"Polygon","coordinates":[[[-122.926596,43.675132],[-122.930583,43.675142],[-122.931538,43.661196],[-122.926715,43.661261],[-122.921893,43.661325],[-122.917071,43.66139],[-122.912248,43.661454],[-122.912312,43.664827],[-122.912374,43.668194],[-122.912575,43.6717],[-122.912778,43.67523],[-122.917694,43.675176],[-122.922609,43.675121],[-122.926596,43.675132]]]}},{"type":"Feature","properties":{"MAPTAXLOT":"2202000001700","MAPNUMBER":"22020000","TAXLOT":"1700","ACCTNO":"0968337","MAPACRES":347.77149286},"geometry":{"type":"Polygon","coordinates":[[[-122.893011,43.672299],[-122.893078,43.675873],[-122.898003,43.675711],[-122.902928,43.675549],[-122.907853,43.675389],[-122.912778,43.67523],[-122.912575,43.6717],[-122.907747,43.671848],[-122.905298,43.671923],[-122.90285,43.671998],[-122.902772,43.668453],[-122.902696,43.664983],[-122.897793,43.665063],[-122.897863,43.668586],[-122.892949,43.668718],[-122.888004,43.668871],[-122.883057,43.669024],[-122.883098,43.672527],[-122.888057,43.672413],[-122.893011,43.672299]]]}},{"type":"Feature","properties":{"MAPTAXLOT":"2202000001701","MAPNUMBER":"22020000","TAXLOT":"1701","ACCTNO":"1433976","MAPACRES":38.31096723},"geometry":{"type":"Polygon","coordinates":[[[-122.878101,43.669177],[-122.878124,43.672642],[-122.883098,43.672527],[-122.883057,43.669024],[-122.878689,43.669158],[-122.878101,43.669177]]]}},{"type":"Feature","properties":{"MAPTAXLOT":"2202000001800","MAPNUMBER":"22020000","TAXLOT":"1800","ACCTNO":"0968345","MAPACRES":92.09116469},"geometry":{"type":"Polygon","coordinates":[[[-122.905206,43.668387],[-122.905298,43.671923],[-122.907747,43.671848],[-122.912575,43.6717],[-122.912374,43.668194],[-122.912312,43.664827],[-122.907537,43.664905],[-122.90764,43.668322],[-122.905206,43.668387]]]}},{"type":"Feature","properties":{"MAPTAXLOT":"2202000001801","MAPNUMBER":"22020000","TAXLOT":"1801","ACCTNO":"1141165","MAPACRES":56.174703},"geometry":{"type":"Polygon","coordinates":[[[-122.902772,43.668453],[-122.90285,43.671998],[-122.905298,43.671923],[-122.905206,43.668387],[-122.90764,43.668322],[-122.907537,43.664905],[-122.902696,43.664983],[-122.902772,43.668453]]]}},{"type":"Feature","properties":{"MAPTAXLOT":"2202000001900","MAPNUMBER":"22020000","TAXLOT":"1900","ACCTNO":"0968352","MAPACRES":72.45682724},"geometry":{"type":"Polygon","coordinates":[[[-122.907537,43.664905],[-122.912312,43.664827],[-122.912248,43.661454],[-122.907435,43.661505],[-122.902621,43.661556],[-122.902696,43.664983],[-122.907537,43.664905]]]}},{"type":"Feature","properties":{"MAPTAXLOT":"2202000002000","MAPNUMBER":"22020000","TAXLOT":"2000","ACCTNO":"0968360","MAPACRES":114.6045197},"geometry":{"type":"Polygon","coordinates":[[[-122.892888,43.665142],[-122.892949,43.668718],[-122.897863,43.668586],[-122.897793,43.665063],[-122.902696,43.664983],[-122.902621,43.661556],[-122.897724,43.661561],[-122.892827,43.661566],[-122.892888,43.665142]]]}},{"type":"Feature","properties":{"MAPTAXLOT":"2202000002100","MAPNUMBER":"22020000","TAXLOT":"2100","ACCTNO":"0968378","MAPACRES":143.31529774},"geometry":{"type":"Polygon","coordinates":[[[-122.873159,43.675787],[-122.873159,43.675787],[-122.878146,43.675756],[-122.883136,43.675725],[-122.888107,43.675799],[-122.893078,43.675873],[-122.893011,43.672299],[-122.888057,43.672413],[-122.883098,43.672527],[-122.878124,43.672642],[-122.876184,43.672686],[-122.873087,43.672758],[-122.873159,43.675787]]]}},{"type":"Feature","properties":{"MAPTAXLOT":"2202000002200","MAPNUMBER":"22020000","TAXLOT":"2200","ACCTNO":"0968386","MAPACRES":9.53046511},"geometry":{"type":"Polygon","coordinates":[[[-122.873081,43.672522],[-122.873082,43.67256],[-122.873087,43.672758],[-122.876184,43.672686],[-122.876301,43.672318],[-122.876554,43.672114],[-122.876686,43.671887],[-122.87661,43.671749],[-122.876645,43.671545],[-122.876084,43.671517],[-122.875824,43.671341],[-122.875358,43.671395],[-122.875025,43.671348],[-122.874535,43.671197],[-122.873907,43.671141],[-122.873686,43.671178],[-122.873469,43.671403],[-122.873546,43.671703],[-122.873598,43.671974],[-122.873456,43.672229],[-122.873259,43.672302],[-122.873081,43.672522],[-122.873081,43.672522]]]}},{"type":"Feature","properties":{"MAPTAXLOT":"2202000002201","MAPNUMBER":"22020000","TAXLOT":"2201","ACCTNO":"0968394","MAPACRES":78.46490429},"geometry":{"type":"Polygon","coordinates":[[[-122.887952,43.66527],[-122.888004,43.668871],[-122.892949,43.668718],[-122.892888,43.665142],[-122.892827,43.661566],[-122.887903,43.661669],[-122.887952,43.66527]]]}},{"type":"Feature","properties":{"MAPTAXLOT":"2202000002202","MAPNUMBER":"22020000","TAXLOT":"2202","ACCTNO":"0968402","MAPACRES":49.90090556},"geometry":{"type":"Polygon","coordinates":[[[-122.873546,43.671703],[-122.873469,43.671403],[-122.873686,43.671178],[-122.873907,43.671141],[-122.874535,43.671197],[-122.875025,43.671348],[-122.875358,43.671395],[-122.875824,43.671341],[-122.876084,43.671517],[-122.876645,43.671545],[-122.87661,43.671749],[-122.876686,43.671887],[-122.876554,43.672114],[-122.876301,43.672318],[-122.876184,43.672686],[-122.878124,43.672642],[-122.878101,43.669177],[-122.878689,43.669158],[-122.878521,43.668579],[-122.878411,43.668325],[-122.878095,43.668207],[-122.877813,43.668103],[-122.877138,43.667998],[-122.87689,43.66802],[-122.876038,43.667842],[-122.875743,43.667795],[-122.875495,43.667516],[-122.875174,43.667436],[-122.874673,43.667083],[-122.874136,43.666799],[-122.873729,43.666739],[-122.873052,43.666721],[-122.873052,43.666721],[-122.873012,43.668959],[-122.873006,43.669333],[-122.873081,43.672522],[-122.873081,43.672522],[-122.873259,43.672302],[-122.873456,43.672229],[-122.873598,43.671974],[-122.873546,43.671703]]]}},{"type":"Feature","properties":{"MAPTAXLOT":"2202000002203","MAPNUMBER":"22020000","TAXLOT":"2203","ACCTNO":"1141249","MAPACRES":157.71239833},"geometry":{"type":"Polygon","coordinates":[[[-122.878521,43.668579],[-122.878689,43.669158],[-122.883057,43.669024],[-122.888004,43.668871],[-122.887952,43.66527],[-122.887903,43.661669],[-122.882978,43.661771],[-122.878054,43.661874],[-122.878077,43.665526],[-122.878095,43.668207],[-122.878411,43.668325],[-122.878521,43.668579]]]}},{"type":"Feature","properties":{"MAPTAXLOT":"2202000002204","MAPNUMBER":"22020000","TAXLOT":"2204","ACCTNO":"1141256","MAPACRES":61.39457605},"geometry":{"type":"Polygon","coordinates":[[[-122.877813,43.668103],[-122.878095,43.668207],[-122.878077,43.665526],[-122.878054,43.661874],[-122.873128,43.661976],[-122.87308,43.66516],[-122.873071,43.665655],[-122.873052,43.666721],[-122.873052,43.666721],[-122.873729,43.666739],[-122.874136,43.666799],[-122.874673,43.667083],[-122.875174,43.667436],[-122.875495,43.667516],[-122.875743,43.667795],[-122.876038,43.667842],[-122.87689,43.66802],[-122.877138,43.667998],[-122.877813,43.668103]]]}},{"type":"Feature","properties":{"MAPTAXLOT":"2202000002300","MAPNUMBER":"22020000","TAXLOT":"2300","ACCTNO":"0968428","MAPACRES":82.03114889},"geometry":{"type":"Polygon","coordinates":[[[-122.873173,43.654782],[-122.87317,43.655217],[-122.878093,43.655092],[-122.87811,43.65175],[-122.878129,43.647657],[-122.873216,43.647588],[-122.873215,43.647714],[-122.873196,43.651185],[-122.873192,43.651904],[-122.873173,43.654782]]]}},{"type":"Feature","properties":{"MAPTAXLOT":"2202000002301","MAPNUMBER":"22020000","TAXLOT":"2301","ACCTNO":"0968436","MAPACRES":437.27933989},"geometry":{"type":"Polygon","coordinates":[[[-122.882987,43.660053],[-122.882978,43.661771],[-122.887903,43.661669],[-122.892827,43.661566],[-122.892836,43.65814],[-122.892845,43.654714],[-122.892854,43.651289],[-122.892863,43.647863],[-122.887952,43.647794],[-122.883041,43.647726],[-122.878129,43.647657],[-122.87811,43.65175],[-122.878093,43.655092],[-122.878074,43.658433],[-122.878064,43.660153],[-122.882987,43.660053]]]}},{"type":"Feature","properties":{"MAPTAXLOT":"2202000002302","MAPNUMBER":"22020000","TAXLOT":"2302","ACCTNO":"1141421","MAPACRES":92.55659116},"geometry":{"type":"Polygon","coordinates":[[[-122.873129,43.661844],[-122.873128,43.661976],[-122.878054,43.661874],[-122.882978,43.661771],[-122.882987,43.660053],[-122.878064,43.660153],[-122.878074,43.658433],[-122.878093,43.655092],[-122.87317,43.655217],[-122.87315,43.65838],[-122.873149,43.65853],[-122.873129,43.661844]]]}},{"type":"Feature","properties":{"MAPTAXLOT":"2202000002400","MAPNUMBER":"22020000","TAXLOT":"2400","ACCTNO":"0968444","MAPACRES":594.34454447},"geometry":{"type":"Polygon","coordinates":[[[-122.907435,43.661505],[-122.912248,43.661454],[-122.912239,43.657936],[-122.912229,43.654418],[-122.912219,43.650899],[-122.912209,43.647381],[-122.90745,43.647565],[-122.902691,43.647748],[-122.897777,43.647806],[-122.892863,43.647863],[-122.892854,43.651289],[-122.892845,43.654714],[-122.892836,43.65814],[-122.892827,43.661566],[-122.897724,43.661561],[-122.902621,43.661556],[-122.907435,43.661505]]]}},{"type":"Feature","properties":{"MAPTAXLOT":"2202000002500","MAPNUMBER":"22020000","TAXLOT":"2500","ACCTNO":"0968451","MAPACRES":152.81523424},"geometry":{"type":"Polygon","coordinates":[[[-122.917093,43.657876],[-122.921948,43.657815],[-122.922002,43.654305],[-122.922057,43.650795],[-122.922111,43.647285],[-122.91716,43.647333],[-122.912209,43.647381],[-122.912219,43.650899],[-122.917138,43.650847],[-122.917116,43.654361],[-122.917093,43.657876]]]}},{"type":"Feature","properties":{"MAPTAXLOT":"2202000002600","MAPNUMBER":"22020000","TAXLOT":"2600","ACCTNO":"0968469","MAPACRES":38.28500896},"geometry":{"type":"Polygon","coordinates":[[[-122.926976,43.650742],[-122.931894,43.65069],[-122.932013,43.647187],[-122.927062,43.647236],[-122.926976,43.650742]]]}},{"type":"Feature","properties":{"MAPTAXLOT":"2202000002700","MAPNUMBER":"22020000","TAXLOT":"2700","ACCTNO":"0968477","MAPACRES":37.77972249},"geometry":{"type":"Polygon","coordinates":[[[-122.926802,43.657755],[-122.931656,43.657694],[-122.931775,43.654192],[-122.926889,43.654248],[-122.926802,43.657755]]]}},{"type":"Feature","properties":{"MAPTAXLOT":"2202000002800","MAPNUMBER":"22020000","TAXLOT":"2800","ACCTNO":"0968485","MAPACRES":264.99901904},"geometry":{"type":"Polygon","coordinates":[[[-122.926715,43.661261],[-122.931538,43.661196],[-122.931656,43.657694],[-122.926802,43.657755],[-122.926889,43.654248],[-122.931775,43.654192],[-122.931894,43.65069],[-122.926976,43.650742],[-122.927062,43.647236],[-122.922111,43.647285],[-122.922057,43.650795],[-122.922002,43.654305],[-122.921948,43.657815],[-122.917093,43.657876],[-122.917071,43.66139],[-122.921893,43.661325],[-122.926715,43.661261]]]}},{"type":"Feature","properties":{"MAPTAXLOT":"2202000002801","MAPNUMBER":"22020000","TAXLOT":"2801","ACCTNO":"0968493","MAPACRES":113.7728674},"geometry":{"type":"Polygon","coordinates":[[[-122.912248,43.661454],[-122.917071,43.66139],[-122.917093,43.657876],[-122.917116,43.654361],[-122.917138,43.650847],[-122.912219,43.650899],[-122.912229,43.654418],[-122.912239,43.657936],[-122.912248,43.661454]]]}},{"type":"Feature","properties":{"MAPTAXLOT":"2202000002900","MAPNUMBER":"22020000","TAXLOT":"2900","ACCTNO":"0968501","MAPACRES":609.81989323},"geometry":{"type":"Polygon","coordinates":[[[-122.931538,43.661196],[-122.951192,43.660991],[-122.951643,43.646969],[-122.946468,43.647017],[-122.941293,43.647065],[-122.936653,43.647127],[-122.932013,43.647187],[-122.931894,43.65069],[-122.931775,43.654192],[-122.931656,43.657694],[-122.931538,43.661196]]]}},{"type":"Feature","properties":{"MAPTAXLOT":"2202000003400","MAPNUMBER":"22020000","TAXLOT":"3400","ACCTNO":"0968584","MAPACRES":270.9917109},"geometry":{"type":"Polygon","coordinates":[[[-122.946468,43.647017],[-122.951643,43.646969],[-122.951011,43.643228],[-122.950379,43.639486],[-122.950371,43.636013],[-122.950363,43.632539],[-122.945468,43.632523],[-122.945711,43.636042],[-122.94075,43.636074],[-122.935951,43.636104],[-122.936182,43.639735],[-122.940926,43.639652],[-122.94111,43.643369],[-122.946211,43.643296],[-122.946468,43.647017]]]}},{"type":"Feature","properties":{"MAPTAXLOT":"2202000003500","MAPNUMBER":"22020000","TAXLOT":"3500","ACCTNO":"0968592","MAPACRES":119.22283312},"geometry":{"type":"Polygon","coordinates":[[[-122.941293,43.647065],[-122.946468,43.647017],[-122.946211,43.643296],[-122.94111,43.643369],[-122.940926,43.639652],[-122.936182,43.639735],[-122.936418,43.643436],[-122.936653,43.647127],[-122.941293,43.647065]]]}},{"type":"Feature","properties":{"MAPTAXLOT":"2202000003600","MAPNUMBER":"22020000","TAXLOT":"3600","ACCTNO":"0968600","MAPACRES":154.88157442},"geometry":{"type":"Polygon","coordinates":[[[-122.93144,43.639818],[-122.936182,43.639735],[-122.935951,43.636104],[-122.94075,43.636074],[-122.945711,43.636042],[-122.945468,43.632523],[-122.940573,43.632507],[-122.93572,43.632478],[-122.930867,43.632449],[-122.931154,43.636133],[-122.93144,43.639818]]]}},{"type":"Feature","properties":{"MAPTAXLOT":"2202000003700","MAPNUMBER":"22020000","TAXLOT":"3700","ACCTNO":"0968618","MAPACRES":76.76288012},"geometry":{"type":"Polygon","coordinates":[[[-122.932013,43.647187],[-122.936653,43.647127],[-122.936418,43.643436],[-122.936182,43.639735],[-122.93144,43.639818],[-122.931727,43.643503],[-122.932013,43.647187]]]}},{"type":"Feature","properties":{"MAPTAXLOT":"2202000003800","MAPNUMBER":"22020000","TAXLOT":"3800","ACCTNO":"0968626","MAPACRES":549.18232202},"geometry":{"type":"Polygon","coordinates":[[[-122.927062,43.647236],[-122.932013,43.647187],[-122.931727,43.643503],[-122.93144,43.639818],[-122.931154,43.636133],[-122.930867,43.632449],[-122.926081,43.632577],[-122.921294,43.632704],[-122.921494,43.636281],[-122.916666,43.636355],[-122.914311,43.63639],[-122.914114,43.632896],[-122.91172,43.632959],[-122.911956,43.636426],[-122.912192,43.639893],[-122.9122,43.643637],[-122.912205,43.645509],[-122.917076,43.645469],[-122.91716,43.647333],[-122.922111,43.647285],[-122.927062,43.647236]]]}},{"type":"Feature","properties":{"MAPTAXLOT":"2202000003801","MAPNUMBER":"22020000","TAXLOT":"3801","ACCTNO":"1141439","MAPACRES":20.32426645},"geometry":{"type":"Polygon","coordinates":[[[-122.912209,43.647381],[-122.91716,43.647333],[-122.917076,43.645469],[-122.912205,43.645509],[-122.912209,43.647381]]]}},{"type":"Feature","properties":{"MAPTAXLOT":"2202000003802","MAPNUMBER":"22020000","TAXLOT":"3802","ACCTNO":"1141447","MAPACRES":56.31637681},"geometry":{"type":"Polygon","coordinates":[[[-122.916666,43.636355],[-122.921494,43.636281],[-122.921294,43.632704],[-122.9189,43.632768],[-122.916507,43.632832],[-122.914114,43.632896],[-122.914311,43.63639],[-122.916666,43.636355]]]}},{"type":"Feature","properties":{"MAPTAXLOT":"2202000003900","MAPNUMBER":"22020000","TAXLOT":"3900","ACCTNO":"0968634","MAPACRES":123.84606393},"geometry":{"type":"Polygon","coordinates":[[[-122.902525,43.64375],[-122.902691,43.647748],[-122.90745,43.647565],[-122.912209,43.647381],[-122.912205,43.645509],[-122.9122,43.643637],[-122.912192,43.639893],[-122.90716,43.639887],[-122.907304,43.643694],[-122.902525,43.64375]]]}},{"type":"Feature","properties":{"MAPTAXLOT":"2202000004000","MAPNUMBER":"22020000","TAXLOT":"4000","ACCTNO":"0968642","MAPACRES":112.93748031},"geometry":{"type":"Polygon","coordinates":[[[-122.90716,43.639887],[-122.912192,43.639893],[-122.911956,43.636426],[-122.91172,43.632959],[-122.906898,43.63293],[-122.902075,43.632901],[-122.90222,43.636391],[-122.907029,43.636408],[-122.90716,43.639887]]]}},{"type":"Feature","properties":{"MAPTAXLOT":"2202000004001","MAPNUMBER":"22020000","TAXLOT":"4001","ACCTNO":"0968659","MAPACRES":21.9496358},"geometry":{"type":"Polygon","coordinates":[[[-122.892863,43.647863],[-122.897777,43.647806],[-122.897707,43.645806],[-122.892713,43.645864],[-122.892863,43.647863]]]}},{"type":"Feature","properties":{"MAPTAXLOT":"2202000004002","MAPNUMBER":"22020000","TAXLOT":"4002","ACCTNO":"0968667","MAPACRES":318.31532675},"geometry":{"type":"Polygon","coordinates":[[[-122.902525,43.64375],[-122.907304,43.643694],[-122.90716,43.639887],[-122.907029,43.636408],[-122.90222,43.636391],[-122.902075,43.632901],[-122.897253,43.632872],[-122.892433,43.632842],[-122.892348,43.636354],[-122.892263,43.639866],[-122.892563,43.643865],[-122.897637,43.643806],[-122.902525,43.64375]]]}},{"type":"Feature","properties":{"MAPTAXLOT":"2202000004003","MAPNUMBER":"22020000","TAXLOT":"4003","ACCTNO":"1141512","MAPACRES":65.73663152},"geometry":{"type":"Polygon","coordinates":[[[-122.897777,43.647806],[-122.902691,43.647748],[-122.902525,43.64375],[-122.897637,43.643806],[-122.892563,43.643865],[-122.892713,43.645864],[-122.897707,43.645806],[-122.897777,43.647806]]]}},{"type":"Feature","properties":{"MAPTAXLOT":"2202000004100","MAPNUMBER":"22020000","TAXLOT":"4100","ACCTNO":"0968675","MAPACRES":132.91931577},"geometry":{"type":"Polygon","coordinates":[[[-122.873216,43.647588],[-122.878129,43.647657],[-122.877969,43.643557],[-122.877808,43.639459],[-122.87767,43.635953],[-122.872556,43.635813],[-122.872546,43.63931],[-122.872548,43.639336],[-122.872882,43.643449],[-122.872888,43.643525],[-122.873216,43.647588]]]}},{"type":"Feature","properties":{"MAPTAXLOT":"2202000004101","MAPNUMBER":"22020000","TAXLOT":"4101","ACCTNO":"0968683","MAPACRES":489.54452528},"geometry":{"type":"Polygon","coordinates":[[[-122.887952,43.647794],[-122.892863,43.647863],[-122.892713,43.645864],[-122.892563,43.643865],[-122.892263,43.639866],[-122.892348,43.636354],[-122.892433,43.632842],[-122.887466,43.632711],[-122.882499,43.632579],[-122.877533,43.632448],[-122.87767,43.635953],[-122.877808,43.639459],[-122.877969,43.643557],[-122.878129,43.647657],[-122.883041,43.647726],[-122.887952,43.647794]]]}},{"type":"Feature","properties":{"MAPTAXLOT":"2202000004102","MAPNUMBER":"22020000","TAXLOT":"4102","ACCTNO":"1141520","MAPACRES":39.0767905},"geometry":{"type":"Polygon","coordinates":[[[-122.872556,43.635813],[-122.87767,43.635953],[-122.877533,43.632448],[-122.872566,43.632316],[-122.872557,43.635147],[-122.872556,43.635813]]]}},{"type":"Feature","properties":{"MAPTAXLOT":"2202000004200","MAPNUMBER":"22020000","TAXLOT":"4200","ACCTNO":"0968691","MAPACRES":552.28245353},"geometry":{"type":"Polygon","coordinates":[[[-122.887466,43.632711],[-122.892433,43.632842],[-122.892626,43.629618],[-122.892819,43.626394],[-122.893013,43.62317],[-122.893206,43.619946],[-122.888338,43.619871],[-122.883471,43.619795],[-122.878604,43.61972],[-122.873735,43.619644],[-122.873641,43.623049],[-122.873631,43.623357],[-122.873522,43.626453],[-122.873519,43.626626],[-122.873033,43.629251],[-122.873031,43.629365],[-122.872579,43.6319],[-122.872566,43.632316],[-122.877533,43.632448],[-122.882499,43.632579],[-122.887466,43.632711]]]}},{"type":"Feature","properties":{"MAPTAXLOT":"2202000004300","MAPNUMBER":"22020000","TAXLOT":"4300","ACCTNO":"0968709","MAPACRES":71.05610311},"geometry":{"type":"Polygon","coordinates":[[[-122.902075,43.632901],[-122.906898,43.63293],[-122.907143,43.629509],[-122.904762,43.629527],[-122.905038,43.626136],[-122.905314,43.622743],[-122.902995,43.622823],[-122.902688,43.626186],[-122.902382,43.629545],[-122.902075,43.632901]]]}},{"type":"Feature","properties":{"MAPTAXLOT":"2202000004301","MAPNUMBER":"22020000","TAXLOT":"4301","ACCTNO":"0968717","MAPACRES":249.38563142},"geometry":{"type":"Polygon","coordinates":[[[-122.897253,43.632872],[-122.902075,43.632901],[-122.902382,43.629545],[-122.902688,43.626186],[-122.902995,43.622823],[-122.898001,43.622997],[-122.898235,43.619914],[-122.893206,43.619946],[-122.893013,43.62317],[-122.892819,43.626394],[-122.892626,43.629618],[-122.892433,43.632842],[-122.897253,43.632872]]]}},{"type":"Feature","properties":{"MAPTAXLOT":"2202000004302","MAPNUMBER":"22020000","TAXLOT":"4302","ACCTNO":"1141579","MAPACRES":209.47988137},"geometry":{"type":"Polygon","coordinates":[[[-122.906898,43.63293],[-122.91172,43.632959],[-122.911906,43.629473],[-122.912091,43.625987],[-122.912276,43.622501],[-122.912461,43.619014],[-122.910162,43.619231],[-122.907862,43.619448],[-122.903264,43.619882],[-122.902995,43.622823],[-122.905314,43.622743],[-122.905038,43.626136],[-122.904762,43.629527],[-122.907143,43.629509],[-122.906898,43.63293]]]}},{"type":"Feature","properties":{"MAPTAXLOT":"2202000004303","MAPNUMBER":"22020000","TAXLOT":"4303","ACCTNO":"1141587","MAPACRES":33.38669591},"geometry":{"type":"Polygon","coordinates":[[[-122.898235,43.619914],[-122.898001,43.622997],[-122.902995,43.622823],[-122.903264,43.619882],[-122.898235,43.619914]]]}},{"type":"Feature","properties":{"MAPTAXLOT":"2202000004400","MAPNUMBER":"22020000","TAXLOT":"4400","ACCTNO":"0968725","MAPACRES":538.97417145},"geometry":{"type":"Polygon","coordinates":[[[-122.919047,43.629261],[-122.9189,43.632768],[-122.921294,43.632704],[-122.926081,43.632577],[-122.930867,43.632449],[-122.930923,43.628907],[-122.930979,43.625365],[-122.931007,43.623594],[-122.931035,43.621823],[-122.931091,43.618282],[-122.926466,43.618299],[-122.92184,43.618315],[-122.917151,43.618665],[-122.912461,43.619014],[-122.912276,43.622501],[-122.912091,43.625987],[-122.911906,43.629473],[-122.916666,43.629332],[-122.919047,43.629261]]]}},{"type":"Feature","properties":{"MAPTAXLOT":"2202000004401","MAPNUMBER":"22020000","TAXLOT":"4401","ACCTNO":"1141595","MAPACRES":55.39609441},"geometry":{"type":"Polygon","coordinates":[[[-122.911906,43.629473],[-122.91172,43.632959],[-122.914114,43.632896],[-122.916507,43.632832],[-122.9189,43.632768],[-122.919047,43.629261],[-122.916666,43.629332],[-122.911906,43.629473]]]}},{"type":"Feature","properties":{"MAPTAXLOT":"2202000004500","MAPNUMBER":"22020000","TAXLOT":"4500","ACCTNO":"0968733","MAPACRES":550.80338286},"geometry":{"type":"Polygon","coordinates":[[[-122.945468,43.632523],[-122.950363,43.632539],[-122.950232,43.625424],[-122.950215,43.621869],[-122.950199,43.618314],[-122.940531,43.618291],[-122.935811,43.618287],[-122.935788,43.621835],[-122.935777,43.623608],[-122.931007,43.623594],[-122.930979,43.625365],[-122.930923,43.628907],[-122.930867,43.632449],[-122.93572,43.632478],[-122.940573,43.632507],[-122.945468,43.632523]]]}},{"type":"Feature","properties":{"MAPTAXLOT":"2202000004501","MAPNUMBER":"22020000","TAXLOT":"4501","ACCTNO":"1141603","MAPACRES":55.89782161},"geometry":{"type":"Polygon","coordinates":[[[-122.931007,43.623594],[-122.935777,43.623608],[-122.935788,43.621835],[-122.935811,43.618287],[-122.931091,43.618282],[-122.931035,43.621823],[-122.931007,43.623594]]]}},{"type":"Feature","properties":{"MAPTAXLOT":"2202000005200","MAPNUMBER":"22020000","TAXLOT":"5200","ACCTNO":"0968816","MAPACRES":544.68270129},"geometry":{"type":"Polygon","coordinates":[[[-122.940531,43.618291],[-122.950199,43.618314],[-122.95011,43.615059],[-122.950021,43.611804],[-122.949932,43.608549],[-122.949843,43.605294],[-122.947499,43.60528],[-122.945405,43.605268],[-122.942645,43.605251],[-122.940702,43.605239],[-122.93779,43.605222],[-122.935993,43.605211],[-122.932935,43.605193],[-122.931285,43.605181],[-122.931243,43.608456],[-122.931201,43.611732],[-122.931146,43.615007],[-122.931091,43.618282],[-122.935811,43.618287],[-122.940531,43.618291]]]}},{"type":"Feature","properties":{"MAPTAXLOT":"2202000005300","MAPNUMBER":"22020000","TAXLOT":"5300","ACCTNO":"0968824","MAPACRES":211.96718977},"geometry":{"type":"Polygon","coordinates":[[[-122.917096,43.613535],[-122.917114,43.615244],[-122.921822,43.615055],[-122.921812,43.613424],[-122.926488,43.613397],[-122.926495,43.611763],[-122.921803,43.611794],[-122.921784,43.608474],[-122.921765,43.605145],[-122.918175,43.605125],[-122.917006,43.60512],[-122.913256,43.605099],[-122.912248,43.605126],[-122.912259,43.608491],[-122.912269,43.611856],[-122.912317,43.613646],[-122.917096,43.613535]]]}},{"type":"Feature","properties":{"MAPTAXLOT":"2202000005301","MAPNUMBER":"22020000","TAXLOT":"5301","ACCTNO":"1141710","MAPACRES":157.34446695},"geometry":{"type":"Polygon","coordinates":[[[-122.912365,43.615435],[-122.912461,43.619014],[-122.917151,43.618665],[-122.92184,43.618315],[-122.926466,43.618299],[-122.926481,43.615031],[-122.928813,43.615019],[-122.928848,43.611747],[-122.926495,43.611763],[-122.926488,43.613397],[-122.921812,43.613424],[-122.921822,43.615055],[-122.917114,43.615244],[-122.917096,43.613535],[-122.912317,43.613646],[-122.912365,43.615435]]]}},{"type":"Feature","properties":{"MAPTAXLOT":"2202000005302","MAPNUMBER":"22020000","TAXLOT":"5302","ACCTNO":"1141728","MAPACRES":50.66525129},"geometry":{"type":"Polygon","coordinates":[[[-122.926466,43.618299],[-122.931091,43.618282],[-122.931146,43.615007],[-122.931201,43.611732],[-122.928848,43.611747],[-122.928813,43.615019],[-122.926481,43.615031],[-122.926466,43.618299]]]}},{"type":"Feature","properties":{"MAPTAXLOT":"2202000005400","MAPNUMBER":"22020000","TAXLOT":"5400","ACCTNO":"0968832","MAPACRES":138.3464568},"geometry":{"type":"Polygon","coordinates":[[[-122.928848,43.611747],[-122.931201,43.611732],[-122.931243,43.608456],[-122.931285,43.605181],[-122.928014,43.605168],[-122.926525,43.605163],[-122.923095,43.60515],[-122.921765,43.605145],[-122.921784,43.608474],[-122.921803,43.611794],[-122.926495,43.611763],[-122.928848,43.611747]]]}},{"type":"Feature","properties":{"MAPTAXLOT":"2202000005500","MAPNUMBER":"22020000","TAXLOT":"5500","ACCTNO":"0968840","MAPACRES":325.90389948},"geometry":{"type":"Polygon","coordinates":[[[-122.898235,43.619914],[-122.903264,43.619882],[-122.907862,43.619448],[-122.910162,43.619231],[-122.910067,43.615597],[-122.912365,43.615435],[-122.912317,43.613646],[-122.912269,43.611856],[-122.912259,43.608491],[-122.907587,43.608654],[-122.902873,43.608819],[-122.902996,43.61229],[-122.898128,43.612518],[-122.898181,43.616215],[-122.893296,43.616342],[-122.893206,43.619946],[-122.898235,43.619914]]]}},{"type":"Feature","properties":{"MAPTAXLOT":"2202000005501","MAPNUMBER":"22020000","TAXLOT":"5501","ACCTNO":"1141736","MAPACRES":38.92769905},"geometry":{"type":"Polygon","coordinates":[[[-122.893386,43.612739],[-122.893296,43.616342],[-122.898181,43.616215],[-122.898128,43.612518],[-122.893386,43.612739]]]}},{"type":"Feature","properties":{"MAPTAXLOT":"2202000005502","MAPNUMBER":"22020000","TAXLOT":"5502","ACCTNO":"1141744","MAPACRES":18.41187084},"geometry":{"type":"Polygon","coordinates":[[[-122.910067,43.615597],[-122.910162,43.619231],[-122.912461,43.619014],[-122.912365,43.615435],[-122.910067,43.615597]]]}},{"type":"Feature","properties":{"MAPTAXLOT":"2202000005600","MAPNUMBER":"22020000","TAXLOT":"5600","ACCTNO":"0968857","MAPACRES":223.56153504},"geometry":{"type":"Polygon","coordinates":[[[-122.893325,43.609028],[-122.893386,43.612739],[-122.898128,43.612518],[-122.902996,43.61229],[-122.902873,43.608819],[-122.907587,43.608654],[-122.912259,43.608491],[-122.912248,43.605126],[-122.908478,43.605211],[-122.907499,43.605237],[-122.903701,43.605323],[-122.902751,43.605348],[-122.898921,43.605338],[-122.898024,43.605339],[-122.894142,43.605328],[-122.893263,43.605317],[-122.893325,43.609028]]]}},{"type":"Feature","properties":{"MAPTAXLOT":"2202000005700","MAPNUMBER":"22020000","TAXLOT":"5700","ACCTNO":"0968865","MAPACRES":198.26956673},"geometry":{"type":"Polygon","coordinates":[[[-122.88837,43.616257],[-122.893296,43.616342],[-122.893386,43.612739],[-122.893325,43.609028],[-122.893263,43.605317],[-122.889207,43.605272],[-122.888471,43.605263],[-122.884316,43.605217],[-122.883681,43.605215],[-122.883626,43.608902],[-122.883573,43.612552],[-122.888403,43.612644],[-122.88837,43.616257]]]}},{"type":"Feature","properties":{"MAPTAXLOT":"2202000005701","MAPNUMBER":"22020000","TAXLOT":"5701","ACCTNO":"0968873","MAPACRES":432.49997956},"geometry":{"type":"Polygon","coordinates":[[[-122.888338,43.619871],[-122.893206,43.619946],[-122.893296,43.616342],[-122.88837,43.616257],[-122.888403,43.612644],[-122.883573,43.612552],[-122.883626,43.608902],[-122.883681,43.605215],[-122.879422,43.605202],[-122.878761,43.605199],[-122.874523,43.605186],[-122.873835,43.605184],[-122.873823,43.608204],[-122.873807,43.608775],[-122.873734,43.612],[-122.873724,43.612363],[-122.873748,43.615797],[-122.873746,43.616004],[-122.873734,43.619584],[-122.873735,43.619644],[-122.878604,43.61972],[-122.883471,43.619795],[-122.888338,43.619871]]]}}]}