{"type":"FeatureCollection","features":[{"type":"Feature","properties":{"MAPTAXLOT":"1725000001600","MAPNUMBER":"17250000","TAXLOT":"1600","ACCTNO":"0551257","MAPACRES":530.11255148},"geometry":{"type":"Polygon","coordinates":[[[-122.585546,44.113453],[-122.595216,44.113532],[-122.59549,44.110033],[-122.605462,44.109929],[-122.605772,44.10636],[-122.606388,44.099222],[-122.596311,44.099592],[-122.586228,44.099959],[-122.585889,44.10671],[-122.585718,44.110083],[-122.585546,44.113453]]]}},{"type":"Feature","properties":{"MAPTAXLOT":"1725000001800","MAPNUMBER":"17250000","TAXLOT":"1800","ACCTNO":"0551273","MAPACRES":540.03624428},"geometry":{"type":"Polygon","coordinates":[[[-122.565523,44.113196],[-122.575535,44.113325],[-122.57568,44.109862],[-122.585718,44.110083],[-122.585889,44.10671],[-122.586228,44.099959],[-122.576117,44.099472],[-122.565998,44.099074],[-122.565795,44.102576],[-122.565591,44.106081],[-122.565523,44.113196]]]}},{"type":"Feature","properties":{"MAPTAXLOT":"1725000002000","MAPNUMBER":"17250000","TAXLOT":"2000","ACCTNO":"0551299","MAPACRES":231.8350374},"geometry":{"type":"Polygon","coordinates":[[[-122.545654,44.099465],[-122.545763,44.106444],[-122.556131,44.106256],[-122.560861,44.106171],[-122.565591,44.106081],[-122.565795,44.102576],[-122.560887,44.102672],[-122.555979,44.102764],[-122.555826,44.099272],[-122.545654,44.099465]]]}},{"type":"Feature","properties":{"MAPTAXLOT":"1725000002100","MAPNUMBER":"17250000","TAXLOT":"2100","ACCTNO":"0551307","MAPACRES":76.84832491},"geometry":{"type":"Polygon","coordinates":[[[-122.555826,44.099272],[-122.555979,44.102764],[-122.560887,44.102672],[-122.565795,44.102576],[-122.565998,44.099074],[-122.555826,44.099272]]]}},{"type":"Feature","properties":{"MAPTAXLOT":"1725000002200","MAPNUMBER":"17250000","TAXLOT":"2200","ACCTNO":"0551315","MAPACRES":605.95462839},"geometry":{"type":"Polygon","coordinates":[[[-122.535905,44.113403],[-122.545734,44.113456],[-122.545763,44.106444],[-122.545654,44.099465],[-122.535853,44.099386],[-122.52597,44.099411],[-122.526075,44.113335],[-122.535905,44.113403]]]}},{"type":"Feature","properties":{"MAPTAXLOT":"1725000002300","MAPNUMBER":"17250000","TAXLOT":"2300","ACCTNO":"0551323","MAPACRES":303.94772925},"geometry":{"type":"Polygon","coordinates":[[[-122.516182,44.113346],[-122.526075,44.113335],[-122.52597,44.099411],[-122.516088,44.099302],[-122.516135,44.106324],[-122.516182,44.113346]]]}},{"type":"Feature","properties":{"MAPTAXLOT":"1725000002600","MAPNUMBER":"17250000","TAXLOT":"2600","ACCTNO":"0551356","MAPACRES":610.19403753},"geometry":{"type":"Polygon","coordinates":[[[-122.516088,44.099302],[-122.52597,44.099411],[-122.525916,44.085292],[-122.506101,44.085314],[-122.506153,44.088843],[-122.506205,44.092373],[-122.506257,44.095902],[-122.506309,44.099432],[-122.516088,44.099302]]]}},{"type":"Feature","properties":{"MAPTAXLOT":"1725000002700","MAPNUMBER":"17250000","TAXLOT":"2700","ACCTNO":"0551364","MAPACRES":614.84237114},"geometry":{"type":"Polygon","coordinates":[[[-122.535853,44.099386],[-122.545654,44.099465],[-122.545871,44.085316],[-122.525916,44.085292],[-122.52597,44.099411],[-122.535853,44.099386]]]}},{"type":"Feature","properties":{"MAPTAXLOT":"1725000002800","MAPNUMBER":"17250000","TAXLOT":"2800","ACCTNO":"0551372","MAPACRES":619.70837826},"geometry":{"type":"Polygon","coordinates":[[[-122.545871,44.085316],[-122.545654,44.099465],[-122.555826,44.099272],[-122.565998,44.099074],[-122.565584,44.092032],[-122.565712,44.084983],[-122.545871,44.085316]]]}},{"type":"Feature","properties":{"MAPTAXLOT":"1725000002900","MAPNUMBER":"17250000","TAXLOT":"2900","ACCTNO":"0551380","MAPACRES":630.57133319},"geometry":{"type":"Polygon","coordinates":[[[-122.576117,44.099472],[-122.586228,44.099959],[-122.585753,44.085679],[-122.565712,44.084983],[-122.565584,44.092032],[-122.565998,44.099074],[-122.576117,44.099472]]]}},{"type":"Feature","properties":{"MAPTAXLOT":"1725000003000","MAPNUMBER":"17250000","TAXLOT":"3000","ACCTNO":"0551398","MAPACRES":621.17194907},"geometry":{"type":"Polygon","coordinates":[[[-122.585753,44.085679],[-122.586228,44.099959],[-122.596311,44.099592],[-122.606388,44.099222],[-122.60557,44.085275],[-122.595657,44.085477],[-122.590705,44.085578],[-122.585753,44.085679]]]}},{"type":"Feature","properties":{"MAPTAXLOT":"1725000003300","MAPNUMBER":"17250000","TAXLOT":"3300","ACCTNO":"0551422","MAPACRES":501.80423942},"geometry":{"type":"Polygon","coordinates":[[[-122.590539,44.078475],[-122.590705,44.085578],[-122.595657,44.085477],[-122.60557,44.085275],[-122.60536,44.071221],[-122.595497,44.071307],[-122.585633,44.071392],[-122.585566,44.074973],[-122.590552,44.074912],[-122.590539,44.078475]]]}},{"type":"Feature","properties":{"MAPTAXLOT":"1725000003400","MAPNUMBER":"17250000","TAXLOT":"3400","ACCTNO":"0551430","MAPACRES":117.58505519},"geometry":{"type":"Polygon","coordinates":[[[-122.585499,44.078554],[-122.585753,44.085679],[-122.590705,44.085578],[-122.590539,44.078475],[-122.590552,44.074912],[-122.585566,44.074973],[-122.585499,44.078554]]]}},{"type":"Feature","properties":{"MAPTAXLOT":"1725000003500","MAPNUMBER":"17250000","TAXLOT":"3500","ACCTNO":"0551448","MAPACRES":614.60222119},"geometry":{"type":"Polygon","coordinates":[[[-122.565712,44.084983],[-122.585753,44.085679],[-122.585499,44.078554],[-122.585566,44.074973],[-122.585633,44.071392],[-122.565788,44.071108],[-122.565712,44.084983]]]}},{"type":"Feature","properties":{"MAPTAXLOT":"1725000003600","MAPNUMBER":"17250000","TAXLOT":"3600","ACCTNO":"0551455","MAPACRES":610.62626847},"geometry":{"type":"Polygon","coordinates":[[[-122.545871,44.085316],[-122.565712,44.084983],[-122.565788,44.071108],[-122.54594,44.07121],[-122.545871,44.085316]]]}},{"type":"Feature","properties":{"MAPTAXLOT":"1725000003700","MAPNUMBER":"17250000","TAXLOT":"3700","ACCTNO":"0551463","MAPACRES":617.57087861},"geometry":{"type":"Polygon","coordinates":[[[-122.525916,44.085292],[-122.545871,44.085316],[-122.54594,44.07121],[-122.526109,44.071168],[-122.525916,44.085292]]]}},{"type":"Feature","properties":{"MAPTAXLOT":"1725000003800","MAPNUMBER":"17250000","TAXLOT":"3800","ACCTNO":"0551471","MAPACRES":619.86114894},"geometry":{"type":"Polygon","coordinates":[[[-122.506101,44.085314],[-122.525916,44.085292],[-122.526109,44.071168],[-122.50615,44.071094],[-122.506138,44.074649],[-122.506138,44.074649],[-122.506126,44.078204],[-122.506126,44.078204],[-122.506113,44.081759],[-122.506113,44.081759],[-122.506101,44.085314]]]}},{"type":"Feature","properties":{"MAPTAXLOT":"1725000003900","MAPNUMBER":"17250000","TAXLOT":"3900","ACCTNO":"0551489","MAPACRES":621.37105837},"geometry":{"type":"Polygon","coordinates":[[[-122.50615,44.071094],[-122.526109,44.071168],[-122.526347,44.057046],[-122.516365,44.056983],[-122.506384,44.056918],[-122.506326,44.060462],[-122.506326,44.060462],[-122.506267,44.064006],[-122.506209,44.06755],[-122.50615,44.071094]]]}},{"type":"Feature","properties":{"MAPTAXLOT":"1725000004000","MAPNUMBER":"17250000","TAXLOT":"4000","ACCTNO":"0551497","MAPACRES":618.09263246},"geometry":{"type":"Polygon","coordinates":[[[-122.526109,44.071168],[-122.54594,44.07121],[-122.546346,44.057117],[-122.526347,44.057046],[-122.526109,44.071168]]]}},{"type":"Feature","properties":{"MAPTAXLOT":"1725000004100","MAPNUMBER":"17250000","TAXLOT":"4100","ACCTNO":"0551505","MAPACRES":610.28093892},"geometry":{"type":"Polygon","coordinates":[[[-122.54594,44.07121],[-122.565788,44.071108],[-122.566085,44.057168],[-122.546346,44.057117],[-122.54594,44.07121]]]}},{"type":"Feature","properties":{"MAPTAXLOT":"1725000004200","MAPNUMBER":"17250000","TAXLOT":"4200","ACCTNO":"0551513","MAPACRES":610.16983508},"geometry":{"type":"Polygon","coordinates":[[[-122.565788,44.071108],[-122.585633,44.071392],[-122.585808,44.057297],[-122.566085,44.057168],[-122.565788,44.071108]]]}},{"type":"Feature","properties":{"MAPTAXLOT":"1725000004300","MAPNUMBER":"17250000","TAXLOT":"4300","ACCTNO":"0551521","MAPACRES":612.26533855},"geometry":{"type":"Polygon","coordinates":[[[-122.595497,44.071307],[-122.60536,44.071221],[-122.605477,44.06418],[-122.605477,44.064179],[-122.605594,44.057137],[-122.585808,44.057297],[-122.585633,44.071392],[-122.595497,44.071307]]]}},{"type":"Feature","properties":{"MAPTAXLOT":"1725000004700","MAPNUMBER":"17250000","TAXLOT":"4700","ACCTNO":"0551562","MAPACRES":608.08746269},"geometry":{"type":"Polygon","coordinates":[[[-122.585808,44.057297],[-122.605594,44.057137],[-122.605783,44.043082],[-122.601553,44.043133],[-122.601553,44.043133],[-122.601553,44.043133],[-122.600908,44.04314],[-122.596655,44.043191],[-122.596655,44.043191],[-122.596655,44.043191],[-122.596655,44.043191],[-122.596033,44.043199],[-122.591757,44.043221],[-122.591756,44.043221],[-122.591756,44.043221],[-122.591756,44.043221],[-122.591107,44.043225],[-122.586858,44.043248],[-122.586858,44.043248],[-122.586858,44.043248],[-122.58618,44.043251],[-122.585808,44.057297]]]}},{"type":"Feature","properties":{"MAPTAXLOT":"1725000004800","MAPNUMBER":"17250000","TAXLOT":"4800","ACCTNO":"0551570","MAPACRES":603.61172946},"geometry":{"type":"Polygon","coordinates":[[[-122.566085,44.057168],[-122.585808,44.057297],[-122.58618,44.043251],[-122.581778,44.043248],[-122.581325,44.043247],[-122.576699,44.043244],[-122.576469,44.043244],[-122.571619,44.043239],[-122.571619,44.043239],[-122.571581,44.043239],[-122.566692,44.043233],[-122.566085,44.057168]]]}},{"type":"Feature","properties":{"MAPTAXLOT":"1725000004900","MAPNUMBER":"17250000","TAXLOT":"4900","ACCTNO":"0551588","MAPACRES":608.87930201},"geometry":{"type":"Polygon","coordinates":[[[-122.546346,44.057117],[-122.566085,44.057168],[-122.566692,44.043233],[-122.56654,44.043233],[-122.564333,44.043207],[-122.561805,44.043178],[-122.561544,44.043175],[-122.556917,44.043121],[-122.556549,44.043118],[-122.551945,44.043066],[-122.551554,44.043062],[-122.546972,44.043011],[-122.546346,44.057117]]]}},{"type":"Feature","properties":{"MAPTAXLOT":"1725000005000","MAPNUMBER":"17250000","TAXLOT":"5000","ACCTNO":"0551596","MAPACRES":621.8936763},"geometry":{"type":"Polygon","coordinates":[[[-122.526347,44.057046],[-122.546346,44.057117],[-122.546972,44.043011],[-122.546645,44.043009],[-122.546558,44.043008],[-122.541933,44.042974],[-122.541498,44.042971],[-122.536893,44.042938],[-122.536438,44.042938],[-122.531931,44.042933],[-122.531377,44.042933],[-122.526971,44.042929],[-122.526968,44.042929],[-122.526968,44.042931],[-122.526347,44.057046]]]}},{"type":"Feature","properties":{"MAPTAXLOT":"1725000005100","MAPNUMBER":"17250000","TAXLOT":"5100","ACCTNO":"0551604","MAPACRES":306.23747564},"geometry":{"type":"Polygon","coordinates":[[[-122.516693,44.051695],[-122.516365,44.056983],[-122.526347,44.057046],[-122.526968,44.042931],[-122.526968,44.042929],[-122.526318,44.042926],[-122.526316,44.042926],[-122.525998,44.042924],[-122.522058,44.042897],[-122.521399,44.042892],[-122.517241,44.042864],[-122.51724,44.042875],[-122.516693,44.051695]]]}},{"type":"Feature","properties":{"MAPTAXLOT":"1825000000100","MAPNUMBER":"18250000","TAXLOT":"100","ACCTNO":"0809507","MAPACRES":780.13168636},"geometry":{"type":"Polygon","coordinates":[[[-122.508995,44.042814],[-122.511563,44.04283],[-122.512341,44.042834],[-122.516481,44.042859],[-122.517146,44.042863],[-122.517241,44.042864],[-122.521399,44.042892],[-122.522058,44.042897],[-122.525998,44.042924],[-122.526316,44.042926],[-122.526318,44.042926],[-122.526409,44.039017],[-122.526487,44.035402],[-122.526565,44.031787],[-122.526883,44.024626],[-122.50727,44.024559],[-122.507269,44.024559],[-122.507385,44.031593],[-122.507373,44.031788],[-122.506707,44.042812],[-122.507535,44.042803],[-122.508995,44.042814]]]}},{"type":"Feature","properties":{"MAPTAXLOT":"1825000000200","MAPNUMBER":"18250000","TAXLOT":"200","ACCTNO":"0809515","MAPACRES":808.19370889},"geometry":{"type":"Polygon","coordinates":[[[-122.526565,44.031787],[-122.526487,44.035402],[-122.526409,44.039017],[-122.526318,44.042926],[-122.526968,44.042929],[-122.526971,44.042929],[-122.531377,44.042933],[-122.531931,44.042933],[-122.536438,44.042938],[-122.536893,44.042938],[-122.541498,44.042971],[-122.541933,44.042974],[-122.546558,44.043008],[-122.546578,44.039062],[-122.546594,44.035445],[-122.54661,44.031828],[-122.546673,44.024658],[-122.526883,44.024626],[-122.526565,44.031787]]]}},{"type":"Feature","properties":{"MAPTAXLOT":"1825000000300","MAPNUMBER":"18250000","TAXLOT":"300","ACCTNO":"0809523","MAPACRES":806.06296277},"geometry":{"type":"Polygon","coordinates":[[[-122.54661,44.031828],[-122.546594,44.035445],[-122.546578,44.039062],[-122.546558,44.043008],[-122.546645,44.043009],[-122.546972,44.043011],[-122.551554,44.043062],[-122.551945,44.043066],[-122.556549,44.043118],[-122.556917,44.043121],[-122.561544,44.043175],[-122.561805,44.043178],[-122.564333,44.043207],[-122.56654,44.043233],[-122.56654,44.043231],[-122.566527,44.039233],[-122.566517,44.035613],[-122.566506,44.031992],[-122.566464,44.024774],[-122.546673,44.024658],[-122.54661,44.031828]]]}},{"type":"Feature","properties":{"MAPTAXLOT":"1825000000400","MAPNUMBER":"18250000","TAXLOT":"400","ACCTNO":"0809531","MAPACRES":798.56775596},"geometry":{"type":"Polygon","coordinates":[[[-122.566692,44.043233],[-122.571581,44.043239],[-122.571619,44.043239],[-122.571619,44.043239],[-122.576469,44.043244],[-122.576699,44.043244],[-122.581325,44.043247],[-122.581778,44.043248],[-122.58618,44.043251],[-122.586178,44.039294],[-122.586175,44.035673],[-122.586173,44.032051],[-122.586167,44.024813],[-122.566464,44.024774],[-122.566506,44.031992],[-122.566517,44.035613],[-122.566527,44.039233],[-122.56654,44.043231],[-122.56654,44.043233],[-122.566692,44.043233]]]}},{"type":"Feature","properties":{"MAPTAXLOT":"1825000000500","MAPNUMBER":"18250000","TAXLOT":"500","ACCTNO":"0809549","MAPACRES":795.10702139},"geometry":{"type":"Polygon","coordinates":[[[-122.601553,44.043133],[-122.605783,44.043082],[-122.605778,44.039176],[-122.605774,44.035554],[-122.60577,44.031932],[-122.605763,44.024687],[-122.586167,44.024813],[-122.586173,44.032051],[-122.586175,44.035673],[-122.586178,44.039294],[-122.58618,44.043251],[-122.586858,44.043248],[-122.586858,44.043248],[-122.586858,44.043248],[-122.591107,44.043225],[-122.591756,44.043221],[-122.591756,44.043221],[-122.591756,44.043221],[-122.591757,44.043221],[-122.596033,44.043199],[-122.596655,44.043191],[-122.596655,44.043191],[-122.596655,44.043191],[-122.596655,44.043191],[-122.600908,44.04314],[-122.601553,44.043133],[-122.601553,44.043133],[-122.601553,44.043133]]]}}]}