{"type":"FeatureCollection","features":[{"type":"Feature","properties":{"MAPTAXLOT":"1825000003400","MAPNUMBER":"18250000","TAXLOT":"3400","ACCTNO":"0809846","MAPACRES":634.19467748},"geometry":{"type":"MultiPolygon","coordinates":[[[[-122.599127,43.966354],[-122.599436,43.966489],[-122.599629,43.966585],[-122.599903,43.966648],[-122.600229,43.966692],[-122.600492,43.966714],[-122.600745,43.966763],[-122.601045,43.966845],[-122.601218,43.966924],[-122.601237,43.966932],[-122.601476,43.966932],[-122.606456,43.966919],[-122.606616,43.952498],[-122.606616,43.952497],[-122.599391,43.952498],[-122.596763,43.9525],[-122.58935,43.952492],[-122.586706,43.952496],[-122.586706,43.952498],[-122.586448,43.966969],[-122.591486,43.966957],[-122.596257,43.966945],[-122.596287,43.966932],[-122.596629,43.966788],[-122.597121,43.966629],[-122.597424,43.966539],[-122.597824,43.966421],[-122.598234,43.966314],[-122.598611,43.966287],[-122.598806,43.966277],[-122.599127,43.966354]]],[[[-122.598624,43.966397],[-122.598268,43.966422],[-122.597879,43.966524],[-122.597481,43.96664],[-122.597181,43.96673],[-122.596699,43.966886],[-122.59659,43.966932],[-122.59656,43.966944],[-122.600938,43.966933],[-122.600906,43.966924],[-122.600698,43.966867],[-122.600464,43.966822],[-122.600206,43.966801],[-122.599866,43.966754],[-122.599562,43.966685],[-122.599354,43.966581],[-122.599063,43.966455],[-122.598787,43.966388],[-122.598624,43.966397]]]]}},{"type":"Feature","properties":{"MAPTAXLOT":"1825000003500","MAPNUMBER":"18250000","TAXLOT":"3500","ACCTNO":"0809853","MAPACRES":640.77731291},"geometry":{"type":"Polygon","coordinates":[[[-122.566411,43.967061],[-122.586448,43.966969],[-122.586706,43.952498],[-122.586706,43.952496],[-122.579337,43.952475],[-122.576628,43.952459],[-122.569325,43.952556],[-122.566668,43.952583],[-122.566668,43.952586],[-122.566411,43.967061]]]}},{"type":"Feature","properties":{"MAPTAXLOT":"1825000003600","MAPNUMBER":"18250000","TAXLOT":"3600","ACCTNO":"0809861","MAPACRES":648.43027807},"geometry":{"type":"Polygon","coordinates":[[[-122.546393,43.967308],[-122.566411,43.967061],[-122.566668,43.952586],[-122.566668,43.952583],[-122.559347,43.952603],[-122.556547,43.952603],[-122.549368,43.9525],[-122.546436,43.952448],[-122.546436,43.952448],[-122.546436,43.952452],[-122.546393,43.967308]]]}},{"type":"Feature","properties":{"MAPTAXLOT":"1825000003700","MAPNUMBER":"18250000","TAXLOT":"3700","ACCTNO":"0809879","MAPACRES":652.52719247},"geometry":{"type":"Polygon","coordinates":[[[-122.536318,43.96735],[-122.546393,43.967308],[-122.546436,43.952452],[-122.546436,43.952448],[-122.539314,43.952481],[-122.536657,43.952489],[-122.529256,43.952486],[-122.526627,43.952478],[-122.526627,43.952484],[-122.526439,43.959899],[-122.526326,43.967256],[-122.533704,43.967326],[-122.535696,43.967345],[-122.536318,43.96735]]]}},{"type":"Feature","properties":{"MAPTAXLOT":"1825000003800","MAPNUMBER":"18250000","TAXLOT":"3800","ACCTNO":"0809887","MAPACRES":653.83781994},"geometry":{"type":"Polygon","coordinates":[[[-122.506292,43.966708],[-122.506292,43.966708],[-122.516329,43.967313],[-122.526326,43.967256],[-122.526439,43.959899],[-122.526627,43.952484],[-122.526627,43.952478],[-122.519247,43.952311],[-122.516439,43.952251],[-122.509239,43.952162],[-122.506472,43.952127],[-122.506472,43.952135],[-122.506649,43.959114],[-122.506649,43.959117],[-122.506639,43.959314],[-122.506292,43.966701],[-122.506292,43.966708]]]}},{"type":"Feature","properties":{"MAPTAXLOT":"1925000000100","MAPNUMBER":"19250000","TAXLOT":"100","ACCTNO":"0876316","MAPACRES":590.6682655},"geometry":{"type":"Polygon","coordinates":[[[-122.526627,43.952478],[-122.529256,43.952486],[-122.529256,43.94979],[-122.529257,43.94617],[-122.529264,43.938934],[-122.509252,43.938932],[-122.509242,43.946167],[-122.50924,43.949786],[-122.509239,43.952162],[-122.516439,43.952251],[-122.519247,43.952311],[-122.526627,43.952478]]]}},{"type":"Feature","properties":{"MAPTAXLOT":"1925000000200","MAPNUMBER":"19250000","TAXLOT":"200","ACCTNO":"0876324","MAPACRES":600.26957842},"geometry":{"type":"Polygon","coordinates":[[[-122.546436,43.952448],[-122.549368,43.9525],[-122.549364,43.949777],[-122.549359,43.946157],[-122.549343,43.938918],[-122.529264,43.938934],[-122.529257,43.94617],[-122.529256,43.94979],[-122.529256,43.952486],[-122.536657,43.952489],[-122.539314,43.952481],[-122.546436,43.952448],[-122.546436,43.952448]]]}},{"type":"Feature","properties":{"MAPTAXLOT":"1925000000300","MAPNUMBER":"19250000","TAXLOT":"300","ACCTNO":"0876332","MAPACRES":603.05204416},"geometry":{"type":"Polygon","coordinates":[[[-122.566668,43.952583],[-122.569325,43.952556],[-122.569327,43.949708],[-122.569332,43.946087],[-122.569357,43.938846],[-122.549343,43.938918],[-122.549359,43.946157],[-122.549364,43.949777],[-122.549368,43.9525],[-122.556547,43.952603],[-122.559347,43.952603],[-122.566668,43.952583]]]}},{"type":"Feature","properties":{"MAPTAXLOT":"1925000000400","MAPNUMBER":"19250000","TAXLOT":"400","ACCTNO":"0876340","MAPACRES":603.25876444},"geometry":{"type":"Polygon","coordinates":[[[-122.586706,43.952496],[-122.58935,43.952492],[-122.589345,43.949642],[-122.589338,43.946019],[-122.58932,43.938767],[-122.569357,43.938846],[-122.569332,43.946087],[-122.569327,43.949708],[-122.569325,43.952556],[-122.576628,43.952459],[-122.579337,43.952475],[-122.586706,43.952496]]]}},{"type":"Feature","properties":{"MAPTAXLOT":"1925000000500","MAPNUMBER":"19250000","TAXLOT":"500","ACCTNO":"0876357","MAPACRES":606.35734431},"geometry":{"type":"Polygon","coordinates":[[[-122.606616,43.952497],[-122.609433,43.952492],[-122.609423,43.949682],[-122.609408,43.946058],[-122.60936,43.938805],[-122.58932,43.938767],[-122.589338,43.946019],[-122.589345,43.949642],[-122.58935,43.952492],[-122.596763,43.9525],[-122.599391,43.952498],[-122.606616,43.952497]]]}},{"type":"Feature","properties":{"MAPTAXLOT":"1925000000800","MAPNUMBER":"19250000","TAXLOT":"800","ACCTNO":"0876381","MAPACRES":641.12962105},"geometry":{"type":"Polygon","coordinates":[[[-122.58932,43.938767],[-122.60936,43.938805],[-122.609297,43.924352],[-122.589208,43.924232],[-122.58932,43.938767]]]}},{"type":"Feature","properties":{"MAPTAXLOT":"1925000000900","MAPNUMBER":"19250000","TAXLOT":"900","ACCTNO":"0876399","MAPACRES":638.67365826},"geometry":{"type":"Polygon","coordinates":[[[-122.569357,43.938846],[-122.58932,43.938767],[-122.589208,43.924232],[-122.569243,43.924359],[-122.569357,43.938846]]]}},{"type":"Feature","properties":{"MAPTAXLOT":"1925000001000","MAPNUMBER":"19250000","TAXLOT":"1000","ACCTNO":"0876407","MAPACRES":637.54421418},"geometry":{"type":"Polygon","coordinates":[[[-122.549343,43.938918],[-122.569357,43.938846],[-122.569243,43.924359],[-122.549296,43.924459],[-122.549343,43.938918]]]}},{"type":"Feature","properties":{"MAPTAXLOT":"1925000001100","MAPNUMBER":"19250000","TAXLOT":"1100","ACCTNO":"0876415","MAPACRES":639.11720254},"geometry":{"type":"Polygon","coordinates":[[[-122.529264,43.938934],[-122.549343,43.938918],[-122.549296,43.924459],[-122.529277,43.924474],[-122.529264,43.938934]]]}},{"type":"Feature","properties":{"MAPTAXLOT":"1925000001200","MAPNUMBER":"19250000","TAXLOT":"1200","ACCTNO":"0876423","MAPACRES":638.57228341},"geometry":{"type":"Polygon","coordinates":[[[-122.509252,43.938932],[-122.529264,43.938934],[-122.529277,43.924474],[-122.509244,43.92446],[-122.509252,43.938932]]]}},{"type":"Feature","properties":{"MAPTAXLOT":"1925000001300","MAPNUMBER":"19250000","TAXLOT":"1300","ACCTNO":"0876431","MAPACRES":640.28165147},"geometry":{"type":"Polygon","coordinates":[[[-122.509244,43.92446],[-122.529277,43.924474],[-122.529214,43.910013],[-122.50911,43.909984],[-122.509244,43.92446]]]}},{"type":"Feature","properties":{"MAPTAXLOT":"1925000001400","MAPNUMBER":"19250000","TAXLOT":"1400","ACCTNO":"0876449","MAPACRES":639.02276801},"geometry":{"type":"Polygon","coordinates":[[[-122.529277,43.924474],[-122.549296,43.924459],[-122.549288,43.910008],[-122.529214,43.910013],[-122.529277,43.924474]]]}},{"type":"Feature","properties":{"MAPTAXLOT":"1925000001500","MAPNUMBER":"19250000","TAXLOT":"1500","ACCTNO":"0876456","MAPACRES":636.25622189},"geometry":{"type":"Polygon","coordinates":[[[-122.549296,43.924459],[-122.569243,43.924359],[-122.569228,43.909875],[-122.549288,43.910008],[-122.549296,43.924459]]]}},{"type":"Feature","properties":{"MAPTAXLOT":"1925000001600","MAPNUMBER":"19250000","TAXLOT":"1600","ACCTNO":"0876464","MAPACRES":639.19749322},"geometry":{"type":"Polygon","coordinates":[[[-122.569243,43.924359],[-122.589208,43.924232],[-122.589179,43.909669],[-122.569228,43.909875],[-122.569243,43.924359]]]}},{"type":"Feature","properties":{"MAPTAXLOT":"1925000001700","MAPNUMBER":"19250000","TAXLOT":"1700","ACCTNO":"0876472","MAPACRES":639.92770193},"geometry":{"type":"Polygon","coordinates":[[[-122.589208,43.924232],[-122.609297,43.924352],[-122.609259,43.917126],[-122.609222,43.909991],[-122.607035,43.909994],[-122.607044,43.909899],[-122.604212,43.909889],[-122.599202,43.909845],[-122.589179,43.909669],[-122.589208,43.924232]]]}},{"type":"Feature","properties":{"MAPTAXLOT":"1925000002000","MAPNUMBER":"19250000","TAXLOT":"2000","ACCTNO":"0876506","MAPACRES":584.78625703},"geometry":{"type":"Polygon","coordinates":[[[-122.604212,43.909889],[-122.607044,43.909899],[-122.60702,43.902782],[-122.60702,43.90207],[-122.607005,43.894859],[-122.598598,43.894983],[-122.597001,43.894987],[-122.589111,43.895096],[-122.589113,43.89581],[-122.589143,43.902378],[-122.589179,43.909669],[-122.599202,43.909845],[-122.604212,43.909889]]]}},{"type":"Feature","properties":{"MAPTAXLOT":"1925000002100","MAPNUMBER":"19250000","TAXLOT":"2100","ACCTNO":"0876514","MAPACRES":623.964367},"geometry":{"type":"Polygon","coordinates":[[[-122.569228,43.909875],[-122.589179,43.909669],[-122.589143,43.902378],[-122.589113,43.89581],[-122.569113,43.895408],[-122.569228,43.909875]]]}},{"type":"Feature","properties":{"MAPTAXLOT":"1925000002200","MAPNUMBER":"19250000","TAXLOT":"2200","ACCTNO":"0876522","MAPACRES":635.66555982},"geometry":{"type":"Polygon","coordinates":[[[-122.549288,43.910008],[-122.569228,43.909875],[-122.569113,43.895408],[-122.549187,43.895559],[-122.549288,43.910008]]]}},{"type":"Feature","properties":{"MAPTAXLOT":"1925000002300","MAPNUMBER":"19250000","TAXLOT":"2300","ACCTNO":"0876530","MAPACRES":639.48415248},"geometry":{"type":"Polygon","coordinates":[[[-122.529214,43.910013],[-122.549288,43.910008],[-122.549187,43.895559],[-122.529145,43.895553],[-122.529214,43.910013]]]}},{"type":"Feature","properties":{"MAPTAXLOT":"1925000002400","MAPNUMBER":"19250000","TAXLOT":"2400","ACCTNO":"0876548","MAPACRES":641.21549256},"geometry":{"type":"Polygon","coordinates":[[[-122.50911,43.909984],[-122.529214,43.910013],[-122.529145,43.895553],[-122.509052,43.895514],[-122.50911,43.909984]]]}},{"type":"Feature","properties":{"MAPTAXLOT":"1925000002500","MAPNUMBER":"19250000","TAXLOT":"2500","ACCTNO":"0876555","MAPACRES":641.373136},"geometry":{"type":"Polygon","coordinates":[[[-122.509052,43.895514],[-122.529145,43.895553],[-122.529116,43.881091],[-122.509004,43.881051],[-122.509052,43.895514]]]}},{"type":"Feature","properties":{"MAPTAXLOT":"1925000002600","MAPNUMBER":"19250000","TAXLOT":"2600","ACCTNO":"0876563","MAPACRES":638.47841434},"geometry":{"type":"Polygon","coordinates":[[[-122.529145,43.895553],[-122.549187,43.895559],[-122.54914,43.881127],[-122.529116,43.881091],[-122.529145,43.895553]]]}},{"type":"Feature","properties":{"MAPTAXLOT":"1925000002700","MAPNUMBER":"19250000","TAXLOT":"2700","ACCTNO":"0876571","MAPACRES":629.11178465},"geometry":{"type":"Polygon","coordinates":[[[-122.549187,43.895559],[-122.569113,43.895408],[-122.569121,43.888153],[-122.569129,43.881262],[-122.54914,43.881127],[-122.549187,43.895559]]]}},{"type":"Feature","properties":{"MAPTAXLOT":"1925000002800","MAPNUMBER":"19250000","TAXLOT":"2800","ACCTNO":"0876589","MAPACRES":614.59801394},"geometry":{"type":"Polygon","coordinates":[[[-122.569113,43.895408],[-122.589113,43.89581],[-122.589111,43.895096],[-122.588032,43.895095],[-122.588046,43.888555],[-122.588046,43.888193],[-122.588064,43.880938],[-122.579136,43.880919],[-122.578057,43.880919],[-122.569129,43.8809],[-122.569129,43.881262],[-122.569121,43.888153],[-122.569113,43.895408]]]}},{"type":"Feature","properties":{"MAPTAXLOT":"1925000002900","MAPNUMBER":"19250000","TAXLOT":"2900","ACCTNO":"0876597","MAPACRES":223.262216},"geometry":{"type":"Polygon","coordinates":[[[-122.598598,43.894983],[-122.607005,43.894859],[-122.607222,43.891244],[-122.59763,43.891444],[-122.597742,43.887911],[-122.588046,43.888193],[-122.588046,43.888555],[-122.588032,43.895095],[-122.589111,43.895096],[-122.597001,43.894987],[-122.598598,43.894983]]]}},{"type":"Feature","properties":{"MAPTAXLOT":"1925000003000","MAPNUMBER":"19250000","TAXLOT":"3000","ACCTNO":"0876605","MAPACRES":388.72797191},"geometry":{"type":"Polygon","coordinates":[[[-122.597742,43.887911],[-122.59763,43.891444],[-122.607222,43.891244],[-122.607438,43.887628],[-122.60787,43.880411],[-122.597874,43.88067],[-122.588064,43.880938],[-122.588046,43.888193],[-122.597742,43.887911]]]}},{"type":"Feature","properties":{"MAPTAXLOT":"1925000003100","MAPNUMBER":"19250000","TAXLOT":"3100","ACCTNO":"0876613","MAPACRES":1858.43608499},"geometry":{"type":"Polygon","coordinates":[[[-122.616988,43.895309],[-122.627095,43.895764],[-122.627251,43.888575],[-122.627408,43.881382],[-122.627595,43.874191],[-122.627768,43.86698],[-122.617633,43.866812],[-122.607722,43.866469],[-122.588215,43.866753],[-122.588064,43.880938],[-122.597874,43.88067],[-122.60787,43.880411],[-122.607438,43.887628],[-122.607222,43.891244],[-122.607005,43.894859],[-122.616988,43.895309]]]}}]}