{"type":"FeatureCollection","features":[{"type":"Feature","properties":{"MAPTAXLOT":"1825000000077","MAPNUMBER":"18250000","TAXLOT":"77","ACCTNO":"000None","MAPACRES":28.62348278},"geometry":{"type":"MultiPolygon","coordinates":[[[[-122.55653,43.975446],[-122.557071,43.975443],[-122.55944,43.975421],[-122.559614,43.975404],[-122.559867,43.975381],[-122.560043,43.975384],[-122.560259,43.97534],[-122.560489,43.97529],[-122.560891,43.975218],[-122.562582,43.974812],[-122.566314,43.973939],[-122.566474,43.973901],[-122.568084,43.973524],[-122.569688,43.97316],[-122.569869,43.973138],[-122.570029,43.973123],[-122.570182,43.973133],[-122.570322,43.973143],[-122.570437,43.973158],[-122.570591,43.973205],[-122.571358,43.973458],[-122.571605,43.973501],[-122.571786,43.973512],[-122.571974,43.973509],[-122.572176,43.973484],[-122.572358,43.973425],[-122.572489,43.973368],[-122.572659,43.973273],[-122.573058,43.973061],[-122.573296,43.972976],[-122.573528,43.972916],[-122.573723,43.972882],[-122.573985,43.972864],[-122.574201,43.972854],[-122.574509,43.972874],[-122.575038,43.972916],[-122.575328,43.972944],[-122.575592,43.972952],[-122.575856,43.972954],[-122.576159,43.972942],[-122.576412,43.972904],[-122.576798,43.972865],[-122.577157,43.9728],[-122.577622,43.97272],[-122.578064,43.972628],[-122.578406,43.972584],[-122.578719,43.97256],[-122.578983,43.972568],[-122.579294,43.972575],[-122.579669,43.972607],[-122.579975,43.972627],[-122.580327,43.972653],[-122.580648,43.972723],[-122.581015,43.972781],[-122.581364,43.972871],[-122.581722,43.972957],[-122.582008,43.972998],[-122.582397,43.97303],[-122.582728,43.973063],[-122.583072,43.973102],[-122.583367,43.973117],[-122.583765,43.973103],[-122.584242,43.973095],[-122.584629,43.973062],[-122.585024,43.973035],[-122.585502,43.972974],[-122.585898,43.972908],[-122.586223,43.972837],[-122.586414,43.972788],[-122.586499,43.972766],[-122.586529,43.972759],[-122.586796,43.97266],[-122.587108,43.972511],[-122.587412,43.972367],[-122.587593,43.97225],[-122.587736,43.972148],[-122.588296,43.97169],[-122.588503,43.97152],[-122.589969,43.970447],[-122.590295,43.970226],[-122.590646,43.969912],[-122.590975,43.969623],[-122.591313,43.96936],[-122.591496,43.969225],[-122.591608,43.969142],[-122.591914,43.96893],[-122.592211,43.968724],[-122.592517,43.968512],[-122.592795,43.968327],[-122.593012,43.968196],[-122.593304,43.968038],[-122.593623,43.967919],[-122.593927,43.967825],[-122.594243,43.967755],[-122.594708,43.967656],[-122.595078,43.96755],[-122.595419,43.967433],[-122.59582,43.967269],[-122.59627,43.967066],[-122.59656,43.966944],[-122.59659,43.966932],[-122.596699,43.966886],[-122.597181,43.96673],[-122.597481,43.96664],[-122.597879,43.966524],[-122.598268,43.966422],[-122.598624,43.966397],[-122.598787,43.966388],[-122.599063,43.966455],[-122.599354,43.966581],[-122.599562,43.966685],[-122.599866,43.966754],[-122.600206,43.966801],[-122.600464,43.966822],[-122.600698,43.966867],[-122.600906,43.966924],[-122.600938,43.966933],[-122.600977,43.966943],[-122.601238,43.967063],[-122.601479,43.967216],[-122.60149,43.967223],[-122.601812,43.967438],[-122.60212,43.967611],[-122.602416,43.967737],[-122.602698,43.967849],[-122.602918,43.967942],[-122.603288,43.968071],[-122.603551,43.968195],[-122.603836,43.968308],[-122.604032,43.968377],[-122.604195,43.968422],[-122.60433,43.968441],[-122.604479,43.968453],[-122.604651,43.968399],[-122.604835,43.968328],[-122.605567,43.967965],[-122.605807,43.967863],[-122.606061,43.967724],[-122.606253,43.967579],[-122.606389,43.967441],[-122.60646,43.967337],[-122.606477,43.967313],[-122.606477,43.967312],[-122.606547,43.967209],[-122.606648,43.96693],[-122.606652,43.966919],[-122.606655,43.966914],[-122.606863,43.966436],[-122.607351,43.965271],[-122.607735,43.96455],[-122.60793,43.964257],[-122.608105,43.963987],[-122.608269,43.963831],[-122.608481,43.963695],[-122.608646,43.963601],[-122.608903,43.96353],[-122.609075,43.963378],[-122.609179,43.96332],[-122.609584,43.963325],[-122.60993,43.96338],[-122.610285,43.963488],[-122.610707,43.963622],[-122.611055,43.963759],[-122.611348,43.963835],[-122.611672,43.963869],[-122.611879,43.963884],[-122.612005,43.963918],[-122.612158,43.964047],[-122.612352,43.964217],[-122.612604,43.964442],[-122.612833,43.964599],[-122.612977,43.96467],[-122.613145,43.964697],[-122.613292,43.964694],[-122.613414,43.964662],[-122.61356,43.964609],[-122.613703,43.964515],[-122.613925,43.964417],[-122.61411,43.964342],[-122.614322,43.964248],[-122.614528,43.964165],[-122.614727,43.964055],[-122.614872,43.963972],[-122.615009,43.963868],[-122.61511,43.963778],[-122.6152,43.963667],[-122.615288,43.963539],[-122.615373,43.963374],[-122.615513,43.963137],[-122.615612,43.963024],[-122.615709,43.962926],[-122.615841,43.962849],[-122.615995,43.962805],[-122.61616,43.962772],[-122.616321,43.962769],[-122.616506,43.962795],[-122.61667,43.962836],[-122.616981,43.962931],[-122.61745,43.963122],[-122.617704,43.963221],[-122.617897,43.963302],[-122.618218,43.963414],[-122.618916,43.963635],[-122.619152,43.963711],[-122.619308,43.963801],[-122.619428,43.963942],[-122.619522,43.964124],[-122.619646,43.96433],[-122.619773,43.964546],[-122.619922,43.964695],[-122.620113,43.964827],[-122.620318,43.964942],[-122.620598,43.965089],[-122.620889,43.965197],[-122.621147,43.965265],[-122.62145,43.965338],[-122.621744,43.965386],[-122.622168,43.965443],[-122.622638,43.965506],[-122.62326,43.965566],[-122.623651,43.965604],[-122.62403,43.965611],[-122.624452,43.965556],[-122.624933,43.96545],[-122.625359,43.965391],[-122.626318,43.965225],[-122.626322,43.965112],[-122.625327,43.965284],[-122.624896,43.965344],[-122.624417,43.96545],[-122.624019,43.965501],[-122.623663,43.965495],[-122.62328,43.965457],[-122.622662,43.965397],[-122.622196,43.965335],[-122.621774,43.965278],[-122.621491,43.965233],[-122.621197,43.965161],[-122.62095,43.965096],[-122.620678,43.964995],[-122.62041,43.964854],[-122.620213,43.964744],[-122.620037,43.964623],[-122.619907,43.964492],[-122.619786,43.964286],[-122.619663,43.964083],[-122.619565,43.963893],[-122.619423,43.963728],[-122.619232,43.963617],[-122.618978,43.963534],[-122.618281,43.963314],[-122.617968,43.963205],[-122.617779,43.963125],[-122.617524,43.963026],[-122.617048,43.962833],[-122.616725,43.962733],[-122.616546,43.962689],[-122.616334,43.962659],[-122.616137,43.962662],[-122.615947,43.9627],[-122.615764,43.962753],[-122.615597,43.96285],[-122.615486,43.962963],[-122.615378,43.963086],[-122.615231,43.963333],[-122.615148,43.963495],[-122.615066,43.963615],[-122.614984,43.963715],[-122.614894,43.963796],[-122.614769,43.963891],[-122.614633,43.963969],[-122.614445,43.964073],[-122.614245,43.964153],[-122.614033,43.964247],[-122.613848,43.964322],[-122.613611,43.964427],[-122.613473,43.964518],[-122.613354,43.964561],[-122.613263,43.964585],[-122.61316,43.964587],[-122.613039,43.964567],[-122.612928,43.964513],[-122.612716,43.964367],[-122.612469,43.964148],[-122.612275,43.963976],[-122.612095,43.963826],[-122.611914,43.963776],[-122.61169,43.96376],[-122.611385,43.963728],[-122.611117,43.963658],[-122.610774,43.963523],[-122.610345,43.963387],[-122.609976,43.963276],[-122.609602,43.963215],[-122.609128,43.96321],[-122.608968,43.963299],[-122.60881,43.963438],[-122.60857,43.963505],[-122.608384,43.963611],[-122.608157,43.963756],[-122.607975,43.96393],[-122.607793,43.96421],[-122.607596,43.964506],[-122.607207,43.965235],[-122.606718,43.966404],[-122.606502,43.966899],[-122.606496,43.966914],[-122.606495,43.966919],[-122.606472,43.96698],[-122.606457,43.967023],[-122.606403,43.96717],[-122.606341,43.967264],[-122.606258,43.967384],[-122.606135,43.967509],[-122.60596,43.967642],[-122.605722,43.967771],[-122.605485,43.967872],[-122.604756,43.968234],[-122.604585,43.9683],[-122.604456,43.968341],[-122.604353,43.968332],[-122.604237,43.968316],[-122.604092,43.968277],[-122.603907,43.96821],[-122.603629,43.968101],[-122.603363,43.967975],[-122.60299,43.967846],[-122.602773,43.967753],[-122.602492,43.967642],[-122.602206,43.96752],[-122.601911,43.967354],[-122.601591,43.967141],[-122.601478,43.967069],[-122.60133,43.966974],[-122.601237,43.966932],[-122.601218,43.966924],[-122.601045,43.966845],[-122.600745,43.966763],[-122.600492,43.966714],[-122.600229,43.966692],[-122.599903,43.966648],[-122.599629,43.966585],[-122.599436,43.966489],[-122.599127,43.966354],[-122.598806,43.966277],[-122.598611,43.966287],[-122.598234,43.966314],[-122.597824,43.966421],[-122.597424,43.966539],[-122.597121,43.966629],[-122.596629,43.966788],[-122.596287,43.966932],[-122.596257,43.966945],[-122.596192,43.966972],[-122.595742,43.967174],[-122.595349,43.967335],[-122.595017,43.96745],[-122.594659,43.967552],[-122.594199,43.96765],[-122.593875,43.967722],[-122.593558,43.96782],[-122.593223,43.967945],[-122.592917,43.968109],[-122.592695,43.968245],[-122.592413,43.968432],[-122.592106,43.968645],[-122.591809,43.968851],[-122.591502,43.969064],[-122.591495,43.969069],[-122.591203,43.969284],[-122.59086,43.969551],[-122.590528,43.969843],[-122.590184,43.970151],[-122.589863,43.970368],[-122.588392,43.971445],[-122.588182,43.971618],[-122.587626,43.972073],[-122.587489,43.97217],[-122.587319,43.97228],[-122.587024,43.972419],[-122.586719,43.972565],[-122.586499,43.972646],[-122.586469,43.972657],[-122.586416,43.972671],[-122.586175,43.972732],[-122.585859,43.972802],[-122.585472,43.972866],[-122.585004,43.972926],[-122.584613,43.972952],[-122.584231,43.972985],[-122.583759,43.972993],[-122.583369,43.973007],[-122.58309,43.972993],[-122.58275,43.972954],[-122.582416,43.972921],[-122.582032,43.972889],[-122.58176,43.97285],[-122.581413,43.972767],[-122.581057,43.972676],[-122.580686,43.972617],[-122.580357,43.972544],[-122.57999,43.972518],[-122.579685,43.972498],[-122.579305,43.972465],[-122.578989,43.972458],[-122.578714,43.97245],[-122.578384,43.972476],[-122.57803,43.972521],[-122.577583,43.972614],[-122.577121,43.972693],[-122.576768,43.972757],[-122.576386,43.972796],[-122.57614,43.972833],[-122.575853,43.972844],[-122.575596,43.972842],[-122.575341,43.972834],[-122.575056,43.972807],[-122.574524,43.972765],[-122.574203,43.972744],[-122.573973,43.972755],[-122.573698,43.972773],[-122.573484,43.972811],[-122.573236,43.972875],[-122.572978,43.972967],[-122.572567,43.973185],[-122.572403,43.973277],[-122.572287,43.973328],[-122.572132,43.973378],[-122.57196,43.973399],[-122.57179,43.973402],[-122.571629,43.973393],[-122.571408,43.973354],[-122.570652,43.973104],[-122.57048,43.973053],[-122.570343,43.973034],[-122.570196,43.973023],[-122.570026,43.973013],[-122.569846,43.97303],[-122.569652,43.973053],[-122.568038,43.973419],[-122.566474,43.973786],[-122.566314,43.973823],[-122.562535,43.974708],[-122.560849,43.975113],[-122.560449,43.975185],[-122.560217,43.975234],[-122.560024,43.975274],[-122.559859,43.975271],[-122.559594,43.975296],[-122.559429,43.975311],[-122.557069,43.975334],[-122.556535,43.975337],[-122.556276,43.975322],[-122.555915,43.975315],[-122.555593,43.975308],[-122.555274,43.975301],[-122.555001,43.975274],[-122.554799,43.975246],[-122.554626,43.975212],[-122.554449,43.975158],[-122.554265,43.975105],[-122.554061,43.975014],[-122.553852,43.974921],[-122.553617,43.974816],[-122.553357,43.974687],[-122.553046,43.974498],[-122.552697,43.974322],[-122.552303,43.974127],[-122.551919,43.973958],[-122.551568,43.973804],[-122.551195,43.973598],[-122.550827,43.973422],[-122.550328,43.973205],[-122.549818,43.972936],[-122.549472,43.97278],[-122.549163,43.972618],[-122.54879,43.972431],[-122.548479,43.972268],[-122.548112,43.972085],[-122.547954,43.972015],[-122.54765,43.971902],[-122.547378,43.97181],[-122.54703,43.971685],[-122.546708,43.971606],[-122.546527,43.971563],[-122.546531,43.971679],[-122.54666,43.97171],[-122.546971,43.971787],[-122.547312,43.971909],[-122.547583,43.972001],[-122.547879,43.972111],[-122.54803,43.972177],[-122.548392,43.972357],[-122.548702,43.97252],[-122.549075,43.972708],[-122.549387,43.972871],[-122.549733,43.973027],[-122.550244,43.973296],[-122.550746,43.973514],[-122.551106,43.973687],[-122.551482,43.973895],[-122.55184,43.974052],[-122.55222,43.974219],[-122.55261,43.974412],[-122.552954,43.974585],[-122.553265,43.974774],[-122.553534,43.974908],[-122.553772,43.975014],[-122.553981,43.975107],[-122.554196,43.975203],[-122.554392,43.97526],[-122.554577,43.975316],[-122.554765,43.975353],[-122.554977,43.975382],[-122.555261,43.97541],[-122.555588,43.975418],[-122.555911,43.975425],[-122.556268,43.975432],[-122.55653,43.975446]]],[[[-122.51217,43.978027],[-122.511927,43.978083],[-122.511677,43.978183],[-122.511394,43.978338],[-122.511165,43.978445],[-122.510917,43.978573],[-122.510628,43.978725],[-122.510382,43.978833],[-122.510127,43.978964],[-122.509922,43.979113],[-122.50974,43.979238],[-122.509466,43.979418],[-122.509194,43.979625],[-122.508887,43.979857],[-122.508574,43.980101],[-122.50833,43.980266],[-122.508173,43.980378],[-122.508009,43.980483],[-122.507859,43.980577],[-122.507713,43.980674],[-122.507504,43.980774],[-122.507317,43.980882],[-122.50709,43.981008],[-122.506873,43.98112],[-122.506723,43.981187],[-122.506648,43.981225],[-122.506625,43.981232],[-122.506553,43.981255],[-122.506526,43.981261],[-122.50638,43.98129],[-122.50621,43.981325],[-122.505943,43.981386],[-122.505943,43.981386],[-122.505941,43.981441],[-122.505938,43.9815],[-122.505994,43.981489],[-122.506254,43.98143],[-122.506422,43.981395],[-122.506605,43.981359],[-122.506723,43.981321],[-122.506807,43.981278],[-122.506829,43.981269],[-122.506908,43.981233],[-122.506957,43.981211],[-122.50718,43.981096],[-122.507411,43.980968],[-122.507593,43.980863],[-122.507807,43.980761],[-122.50796,43.980659],[-122.508109,43.980566],[-122.508277,43.980458],[-122.508436,43.980345],[-122.508682,43.980178],[-122.508998,43.979932],[-122.509304,43.979701],[-122.509573,43.979497],[-122.509843,43.979318],[-122.510028,43.979191],[-122.510226,43.979048],[-122.510465,43.978925],[-122.510713,43.978817],[-122.511006,43.978662],[-122.511251,43.978535],[-122.511481,43.978427],[-122.51176,43.978275],[-122.511988,43.978185],[-122.512225,43.978129],[-122.512535,43.978027],[-122.512739,43.97798],[-122.51299,43.977951],[-122.513192,43.977935],[-122.513447,43.977924],[-122.513815,43.977924],[-122.514101,43.977912],[-122.514388,43.977914],[-122.514648,43.977902],[-122.514843,43.977828],[-122.51514,43.977691],[-122.515345,43.977569],[-122.515544,43.977457],[-122.51571,43.977377],[-122.515923,43.97727],[-122.516135,43.977162],[-122.516322,43.97706],[-122.516546,43.976925],[-122.516662,43.976843],[-122.516822,43.976722],[-122.516989,43.976582],[-122.517131,43.976461],[-122.517253,43.976335],[-122.517367,43.976229],[-122.517433,43.976154],[-122.517504,43.976106],[-122.517617,43.976033],[-122.517709,43.975976],[-122.517862,43.975905],[-122.518028,43.975838],[-122.518145,43.97579],[-122.518306,43.975715],[-122.518458,43.97564],[-122.518686,43.97552],[-122.518814,43.975462],[-122.518963,43.975401],[-122.519091,43.975349],[-122.519334,43.975282],[-122.519716,43.975171],[-122.520054,43.975075],[-122.520349,43.974985],[-122.520615,43.974896],[-122.520917,43.9748],[-122.521203,43.974704],[-122.521498,43.974594],[-122.521705,43.974505],[-122.521859,43.974429],[-122.522001,43.97435],[-122.52213,43.974223],[-122.522253,43.974084],[-122.522375,43.973944],[-122.522471,43.973811],[-122.522566,43.973678],[-122.522641,43.97355],[-122.522764,43.973418],[-122.522875,43.973321],[-122.522994,43.973219],[-122.523108,43.973144],[-122.523258,43.973071],[-122.523358,43.973008],[-122.523518,43.972958],[-122.523668,43.972931],[-122.523855,43.972916],[-122.52421,43.972916],[-122.524504,43.972911],[-122.524644,43.972915],[-122.524822,43.972924],[-122.525194,43.972944],[-122.525384,43.972941],[-122.525624,43.972986],[-122.525863,43.973039],[-122.526054,43.973097],[-122.526183,43.973152],[-122.526186,43.973026],[-122.526122,43.972999],[-122.525915,43.972935],[-122.525666,43.97288],[-122.525401,43.972831],[-122.525198,43.972834],[-122.524833,43.972815],[-122.524652,43.972805],[-122.524505,43.972801],[-122.524208,43.972806],[-122.523846,43.972806],[-122.523641,43.972823],[-122.52347,43.972854],[-122.523276,43.972914],[-122.523165,43.972984],[-122.523014,43.973058],[-122.522884,43.973143],[-122.522758,43.973251],[-122.522643,43.973353],[-122.522507,43.973497],[-122.522429,43.973631],[-122.522336,43.97376],[-122.522243,43.973889],[-122.522124,43.974025],[-122.522005,43.974161],[-122.521891,43.974272],[-122.52177,43.97434],[-122.521623,43.974412],[-122.521424,43.974498],[-122.521136,43.974605],[-122.520854,43.9747],[-122.520553,43.974796],[-122.520288,43.974884],[-122.519997,43.974973],[-122.51966,43.975069],[-122.519279,43.975179],[-122.519026,43.97525],[-122.518888,43.975306],[-122.518736,43.975367],[-122.5186,43.97543],[-122.51837,43.975551],[-122.518222,43.975624],[-122.518066,43.975696],[-122.517953,43.975743],[-122.517783,43.975811],[-122.517618,43.975888],[-122.517517,43.975951],[-122.517402,43.976025],[-122.517315,43.976083],[-122.517243,43.976166],[-122.517131,43.97627],[-122.517011,43.976394],[-122.516874,43.976511],[-122.51671,43.976648],[-122.516555,43.976766],[-122.516444,43.976843],[-122.516228,43.976974],[-122.516046,43.977073],[-122.515835,43.97718],[-122.515624,43.977287],[-122.515455,43.977368],[-122.51525,43.977483],[-122.515051,43.977602],[-122.514766,43.977733],[-122.514606,43.977794],[-122.514384,43.977804],[-122.514097,43.977803],[-122.51381,43.977814],[-122.513443,43.977814],[-122.513179,43.977825],[-122.51297,43.977842],[-122.512704,43.977873],[-122.51248,43.977924],[-122.51217,43.978027]]]]}},{"type":"Feature","properties":{"MAPTAXLOT":"1825000000100","MAPNUMBER":"18250000","TAXLOT":"100","ACCTNO":"0809507","MAPACRES":780.13168636},"geometry":{"type":"Polygon","coordinates":[[[-122.508995,44.042814],[-122.511563,44.04283],[-122.512341,44.042834],[-122.516481,44.042859],[-122.517146,44.042863],[-122.517241,44.042864],[-122.521399,44.042892],[-122.522058,44.042897],[-122.525998,44.042924],[-122.526316,44.042926],[-122.526318,44.042926],[-122.526409,44.039017],[-122.526487,44.035402],[-122.526565,44.031787],[-122.526883,44.024626],[-122.50727,44.024559],[-122.507269,44.024559],[-122.507385,44.031593],[-122.507373,44.031788],[-122.506707,44.042812],[-122.507535,44.042803],[-122.508995,44.042814]]]}},{"type":"Feature","properties":{"MAPTAXLOT":"1825000001400","MAPNUMBER":"18250000","TAXLOT":"1400","ACCTNO":"0809648","MAPACRES":620.66292964},"geometry":{"type":"Polygon","coordinates":[[[-122.507269,44.024559],[-122.50727,44.024559],[-122.526883,44.024626],[-122.526972,44.010319],[-122.507303,44.010087],[-122.507302,44.010087],[-122.50728,44.010355],[-122.507402,44.017318],[-122.507403,44.017442],[-122.507266,44.02432],[-122.507269,44.024555],[-122.507269,44.024559]]]}},{"type":"Feature","properties":{"MAPTAXLOT":"1825000001500","MAPNUMBER":"18250000","TAXLOT":"1500","ACCTNO":"0809655","MAPACRES":612.39616942},"geometry":{"type":"Polygon","coordinates":[[[-122.506838,43.995675],[-122.506909,43.996245],[-122.507701,44.002411],[-122.50776,44.002875],[-122.507761,44.00288],[-122.50784,44.003515],[-122.507309,44.009998],[-122.507303,44.010082],[-122.507302,44.010087],[-122.507303,44.010087],[-122.526972,44.010319],[-122.526681,43.996026],[-122.506837,43.99567],[-122.506838,43.995675]]]}},{"type":"Feature","properties":{"MAPTAXLOT":"1825000002600","MAPNUMBER":"18250000","TAXLOT":"2600","ACCTNO":"0809762","MAPACRES":633.14000881},"geometry":{"type":"MultiPolygon","coordinates":[[[[-122.506807,43.981278],[-122.506723,43.981321],[-122.506605,43.981359],[-122.506422,43.981395],[-122.506254,43.98143],[-122.505994,43.981489],[-122.505938,43.9815],[-122.505928,43.981753],[-122.505928,43.981759],[-122.505987,43.988454],[-122.505987,43.98846],[-122.505991,43.988974],[-122.506837,43.99567],[-122.526681,43.996026],[-122.525823,43.981777],[-122.506829,43.981269],[-122.506807,43.981278]]],[[[-122.505943,43.981386],[-122.505943,43.981386],[-122.50621,43.981325],[-122.50638,43.98129],[-122.506526,43.981261],[-122.505949,43.981245],[-122.505949,43.981245],[-122.505943,43.981386]]]]}},{"type":"Feature","properties":{"MAPTAXLOT":"1825000002700","MAPNUMBER":"18250000","TAXLOT":"2700","ACCTNO":"0809770","MAPACRES":626.21619596},"geometry":{"type":"MultiPolygon","coordinates":[[[[-122.505949,43.981239],[-122.505949,43.981245],[-122.505949,43.981245],[-122.506526,43.981261],[-122.506553,43.981255],[-122.506625,43.981232],[-122.506648,43.981225],[-122.506723,43.981187],[-122.506873,43.98112],[-122.50709,43.981008],[-122.507317,43.980882],[-122.507504,43.980774],[-122.507713,43.980674],[-122.507859,43.980577],[-122.508009,43.980483],[-122.508173,43.980378],[-122.50833,43.980266],[-122.508574,43.980101],[-122.508887,43.979857],[-122.509194,43.979625],[-122.509466,43.979418],[-122.50974,43.979238],[-122.509922,43.979113],[-122.510127,43.978964],[-122.510382,43.978833],[-122.510628,43.978725],[-122.510917,43.978573],[-122.511165,43.978445],[-122.511394,43.978338],[-122.511677,43.978183],[-122.511927,43.978083],[-122.51217,43.978027],[-122.51248,43.977924],[-122.512704,43.977873],[-122.51297,43.977842],[-122.513179,43.977825],[-122.513443,43.977814],[-122.51381,43.977814],[-122.514097,43.977803],[-122.514384,43.977804],[-122.514606,43.977794],[-122.514766,43.977733],[-122.515051,43.977602],[-122.51525,43.977483],[-122.515455,43.977368],[-122.515624,43.977287],[-122.515835,43.97718],[-122.516046,43.977073],[-122.516228,43.976974],[-122.516444,43.976843],[-122.516555,43.976766],[-122.51671,43.976648],[-122.516874,43.976511],[-122.517011,43.976394],[-122.517131,43.97627],[-122.517243,43.976166],[-122.517315,43.976083],[-122.517402,43.976025],[-122.517517,43.975951],[-122.517618,43.975888],[-122.517783,43.975811],[-122.517953,43.975743],[-122.518066,43.975696],[-122.518222,43.975624],[-122.51837,43.975551],[-122.5186,43.97543],[-122.518736,43.975367],[-122.518888,43.975306],[-122.519026,43.97525],[-122.519279,43.975179],[-122.51966,43.975069],[-122.519997,43.974973],[-122.520288,43.974884],[-122.520553,43.974796],[-122.520854,43.9747],[-122.521136,43.974605],[-122.521424,43.974498],[-122.521623,43.974412],[-122.52177,43.97434],[-122.521891,43.974272],[-122.522005,43.974161],[-122.522124,43.974025],[-122.522243,43.973889],[-122.522336,43.97376],[-122.522429,43.973631],[-122.522507,43.973497],[-122.522643,43.973353],[-122.522758,43.973251],[-122.522884,43.973143],[-122.523014,43.973058],[-122.523165,43.972984],[-122.523276,43.972914],[-122.52347,43.972854],[-122.523641,43.972823],[-122.523846,43.972806],[-122.524208,43.972806],[-122.524505,43.972801],[-122.524652,43.972805],[-122.524833,43.972815],[-122.525198,43.972834],[-122.525401,43.972831],[-122.525666,43.97288],[-122.525915,43.972935],[-122.526122,43.972999],[-122.526186,43.973026],[-122.526225,43.971439],[-122.526326,43.967256],[-122.516329,43.967313],[-122.506292,43.966708],[-122.506292,43.966708],[-122.506262,43.967298],[-122.506262,43.967305],[-122.506182,43.975],[-122.505949,43.981239]]],[[[-122.51299,43.977951],[-122.512739,43.97798],[-122.512535,43.978027],[-122.512225,43.978129],[-122.511988,43.978185],[-122.51176,43.978275],[-122.511481,43.978427],[-122.511251,43.978535],[-122.511006,43.978662],[-122.510713,43.978817],[-122.510465,43.978925],[-122.510226,43.979048],[-122.510028,43.979191],[-122.509843,43.979318],[-122.509573,43.979497],[-122.509304,43.979701],[-122.508998,43.979932],[-122.508682,43.980178],[-122.508436,43.980345],[-122.508277,43.980458],[-122.508109,43.980566],[-122.50796,43.980659],[-122.507807,43.980761],[-122.507593,43.980863],[-122.507411,43.980968],[-122.50718,43.981096],[-122.506957,43.981211],[-122.506908,43.981233],[-122.506829,43.981269],[-122.525823,43.981777],[-122.526148,43.974613],[-122.526179,43.973331],[-122.526183,43.973152],[-122.526054,43.973097],[-122.525863,43.973039],[-122.525624,43.972986],[-122.525384,43.972941],[-122.525194,43.972944],[-122.524822,43.972924],[-122.524644,43.972915],[-122.524504,43.972911],[-122.52421,43.972916],[-122.523855,43.972916],[-122.523668,43.972931],[-122.523518,43.972958],[-122.523358,43.973008],[-122.523258,43.973071],[-122.523108,43.973144],[-122.522994,43.973219],[-122.522875,43.973321],[-122.522764,43.973418],[-122.522641,43.97355],[-122.522566,43.973678],[-122.522471,43.973811],[-122.522375,43.973944],[-122.522253,43.974084],[-122.52213,43.974223],[-122.522001,43.97435],[-122.521859,43.974429],[-122.521705,43.974505],[-122.521498,43.974594],[-122.521203,43.974704],[-122.520917,43.9748],[-122.520615,43.974896],[-122.520349,43.974985],[-122.520054,43.975075],[-122.519716,43.975171],[-122.519334,43.975282],[-122.519091,43.975349],[-122.518963,43.975401],[-122.518814,43.975462],[-122.518686,43.97552],[-122.518458,43.97564],[-122.518306,43.975715],[-122.518145,43.97579],[-122.518028,43.975838],[-122.517862,43.975905],[-122.517709,43.975976],[-122.517617,43.976033],[-122.517504,43.976106],[-122.517433,43.976154],[-122.517367,43.976229],[-122.517253,43.976335],[-122.517131,43.976461],[-122.516989,43.976582],[-122.516822,43.976722],[-122.516662,43.976843],[-122.516546,43.976925],[-122.516322,43.97706],[-122.516135,43.977162],[-122.515923,43.97727],[-122.51571,43.977377],[-122.515544,43.977457],[-122.515345,43.977569],[-122.51514,43.977691],[-122.514843,43.977828],[-122.514648,43.977902],[-122.514388,43.977914],[-122.514101,43.977912],[-122.513815,43.977924],[-122.513447,43.977924],[-122.513192,43.977935],[-122.51299,43.977951]]]]}},{"type":"Feature","properties":{"MAPTAXLOT":"1825000003800","MAPNUMBER":"18250000","TAXLOT":"3800","ACCTNO":"0809887","MAPACRES":653.83781994},"geometry":{"type":"Polygon","coordinates":[[[-122.506292,43.966708],[-122.506292,43.966708],[-122.516329,43.967313],[-122.526326,43.967256],[-122.526439,43.959899],[-122.526627,43.952484],[-122.526627,43.952478],[-122.519247,43.952311],[-122.516439,43.952251],[-122.509239,43.952162],[-122.506472,43.952127],[-122.506472,43.952135],[-122.506649,43.959114],[-122.506649,43.959117],[-122.506639,43.959314],[-122.506292,43.966701],[-122.506292,43.966708]]]}},{"type":"Feature","properties":{"MAPTAXLOT":"1835000000077","MAPNUMBER":"18350000","TAXLOT":"77","ACCTNO":"000None","MAPACRES":31.98202811},"geometry":{"type":"Polygon","coordinates":[[[-122.466544,43.984702],[-122.467136,43.984845],[-122.467402,43.984911],[-122.467695,43.98495],[-122.467987,43.984945],[-122.468256,43.984911],[-122.468527,43.984848],[-122.4688,43.984722],[-122.470227,43.984061],[-122.470705,43.983839],[-122.471053,43.983717],[-122.471312,43.983624],[-122.471583,43.983567],[-122.471903,43.983555],[-122.472293,43.983589],[-122.472709,43.983697],[-122.473338,43.98388],[-122.475092,43.984349],[-122.47666,43.98478],[-122.4776,43.985041],[-122.478491,43.985275],[-122.480378,43.98579],[-122.481627,43.98615],[-122.48246,43.986392],[-122.482956,43.986543],[-122.483336,43.986642],[-122.483666,43.986719],[-122.483949,43.986784],[-122.484124,43.986816],[-122.48431,43.986855],[-122.484501,43.986881],[-122.484691,43.986892],[-122.484914,43.986888],[-122.485103,43.986856],[-122.48533,43.986817],[-122.486544,43.986433],[-122.486601,43.986411],[-122.486737,43.986359],[-122.486883,43.9863],[-122.487049,43.986218],[-122.487326,43.986051],[-122.487692,43.98581],[-122.488076,43.985576],[-122.488536,43.985312],[-122.488767,43.985186],[-122.489015,43.985081],[-122.489484,43.984929],[-122.489902,43.984811],[-122.490416,43.98465],[-122.490879,43.984511],[-122.49137,43.984385],[-122.491853,43.984274],[-122.492385,43.984168],[-122.492765,43.984099],[-122.492994,43.984059],[-122.493182,43.983984],[-122.493406,43.983902],[-122.494054,43.983526],[-122.494476,43.983256],[-122.494867,43.98303],[-122.495257,43.982853],[-122.495732,43.982682],[-122.495979,43.982624],[-122.496335,43.982577],[-122.496625,43.982552],[-122.497012,43.982552],[-122.497337,43.98256],[-122.497734,43.982575],[-122.498254,43.982559],[-122.498504,43.982554],[-122.498814,43.982542],[-122.499124,43.982516],[-122.499398,43.982483],[-122.499763,43.982407],[-122.500076,43.982352],[-122.50037,43.982239],[-122.500529,43.982171],[-122.500665,43.982082],[-122.500828,43.981986],[-122.501008,43.981911],[-122.501225,43.981845],[-122.501449,43.981759],[-122.501719,43.981702],[-122.502063,43.98169],[-122.502444,43.981683],[-122.502856,43.98169],[-122.50321,43.981691],[-122.503614,43.981705],[-122.504009,43.981698],[-122.504405,43.981698],[-122.504707,43.981679],[-122.505027,43.981645],[-122.505383,43.981597],[-122.505683,43.98155],[-122.505938,43.9815],[-122.505941,43.981441],[-122.505943,43.981386],[-122.505644,43.981444],[-122.505352,43.98149],[-122.505002,43.981537],[-122.50469,43.98157],[-122.504398,43.981588],[-122.504008,43.981588],[-122.503616,43.981595],[-122.503214,43.981581],[-122.502858,43.98158],[-122.502444,43.981573],[-122.502058,43.98158],[-122.501693,43.981593],[-122.501391,43.981657],[-122.50116,43.981746],[-122.50094,43.981812],[-122.500742,43.981896],[-122.500566,43.981999],[-122.500439,43.982082],[-122.500296,43.982143],[-122.500021,43.982248],[-122.499724,43.982301],[-122.499364,43.982376],[-122.499103,43.982407],[-122.498801,43.982433],[-122.498498,43.982445],[-122.498249,43.982449],[-122.497734,43.982465],[-122.497343,43.982451],[-122.497015,43.982442],[-122.496615,43.982442],[-122.496312,43.982469],[-122.495942,43.982517],[-122.495674,43.98258],[-122.495182,43.982757],[-122.494779,43.98294],[-122.494378,43.983172],[-122.493955,43.983442],[-122.493323,43.983809],[-122.493111,43.983887],[-122.492939,43.983956],[-122.492729,43.983993],[-122.492346,43.984062],[-122.49181,43.984168],[-122.491322,43.984281],[-122.490824,43.984408],[-122.490356,43.984549],[-122.489844,43.98471],[-122.489425,43.984828],[-122.488945,43.984983],[-122.488682,43.985094],[-122.488442,43.985225],[-122.48798,43.985491],[-122.487592,43.985727],[-122.487226,43.985969],[-122.486957,43.98613],[-122.486802,43.986206],[-122.486664,43.986263],[-122.4866,43.986287],[-122.486478,43.986334],[-122.485281,43.986712],[-122.485068,43.986749],[-122.484895,43.986779],[-122.484696,43.986782],[-122.484521,43.986772],[-122.484345,43.986748],[-122.484164,43.98671],[-122.483991,43.986679],[-122.483713,43.986615],[-122.483385,43.986538],[-122.483011,43.986441],[-122.482518,43.98629],[-122.481684,43.986048],[-122.480433,43.985688],[-122.478544,43.985173],[-122.477653,43.984938],[-122.476714,43.984677],[-122.475145,43.984247],[-122.473393,43.983778],[-122.472763,43.983594],[-122.472328,43.983481],[-122.471908,43.983445],[-122.471558,43.983458],[-122.471257,43.983522],[-122.470986,43.983618],[-122.470631,43.983743],[-122.470145,43.983968],[-122.468718,43.98463],[-122.468462,43.984748],[-122.468219,43.984805],[-122.467972,43.984835],[-122.467707,43.98484],[-122.467441,43.984805],[-122.467185,43.984741],[-122.466544,43.984586],[-122.466517,43.984579],[-122.465907,43.984437],[-122.465288,43.984295],[-122.464716,43.984159],[-122.464276,43.984068],[-122.463906,43.984026],[-122.463591,43.983983],[-122.463165,43.983914],[-122.46276,43.983865],[-122.462326,43.983797],[-122.461786,43.983736],[-122.46039,43.983525],[-122.459576,43.9834],[-122.459118,43.983365],[-122.458365,43.983337],[-122.457095,43.98333],[-122.4555,43.983351],[-122.453954,43.983419],[-122.452888,43.983499],[-122.451766,43.983623],[-122.451076,43.983725],[-122.450445,43.983819],[-122.449682,43.983956],[-122.449175,43.984028],[-122.448573,43.984142],[-122.446523,43.984492],[-122.446409,43.984511],[-122.445111,43.984692],[-122.444336,43.98481],[-122.443658,43.984918],[-122.44313,43.985004],[-122.442857,43.985065],[-122.442573,43.985149],[-122.442273,43.985281],[-122.442048,43.985389],[-122.441762,43.985501],[-122.441494,43.985573],[-122.441224,43.985625],[-122.440934,43.985664],[-122.440644,43.985683],[-122.440411,43.985686],[-122.4402,43.98567],[-122.439947,43.985627],[-122.439756,43.985583],[-122.43951,43.985526],[-122.437798,43.984927],[-122.43745,43.984789],[-122.437259,43.98471],[-122.43703,43.984594],[-122.436855,43.984545],[-122.436702,43.984511],[-122.436517,43.984491],[-122.43633,43.984526],[-122.436179,43.984588],[-122.436011,43.984659],[-122.435813,43.984728],[-122.435631,43.984756],[-122.435414,43.984747],[-122.435234,43.984729],[-122.43467,43.984669],[-122.434477,43.984672],[-122.434268,43.98469],[-122.434057,43.98473],[-122.433901,43.984779],[-122.433762,43.984854],[-122.433544,43.984969],[-122.432655,43.985463],[-122.432457,43.985592],[-122.432262,43.985704],[-122.432046,43.985821],[-122.431889,43.985862],[-122.431697,43.985898],[-122.431512,43.985915],[-122.431353,43.985924],[-122.431179,43.985927],[-122.431004,43.98591],[-122.430841,43.985887],[-122.430649,43.985825],[-122.430431,43.985734],[-122.4302,43.985622],[-122.430009,43.985523],[-122.429757,43.985363],[-122.428882,43.984808],[-122.428468,43.984584],[-122.428111,43.984414],[-122.427846,43.984321],[-122.427437,43.984161],[-122.427094,43.984048],[-122.426676,43.983923],[-122.426412,43.983844],[-122.426356,43.98383],[-122.426106,43.983771],[-122.425755,43.983714],[-122.425388,43.983651],[-122.425042,43.983602],[-122.424483,43.983494],[-122.424116,43.983431],[-122.423739,43.983361],[-122.422977,43.983229],[-122.422408,43.983128],[-122.421979,43.983046],[-122.421645,43.98295],[-122.42132,43.982847],[-122.421084,43.982773],[-122.420512,43.982588],[-122.420017,43.98243],[-122.419615,43.982311],[-122.41924,43.982226],[-122.4189,43.982181],[-122.41866,43.982185],[-122.418319,43.982205],[-122.41796,43.982254],[-122.417315,43.982363],[-122.416722,43.982505],[-122.415742,43.982743],[-122.41535,43.982825],[-122.415146,43.982841],[-122.414857,43.982812],[-122.414574,43.982782],[-122.414246,43.982773],[-122.413915,43.982808],[-122.413564,43.982906],[-122.41333,43.982972],[-122.413074,43.983023],[-122.412877,43.983032],[-122.412716,43.983022],[-122.412524,43.982986],[-122.412299,43.982923],[-122.412078,43.982841],[-122.411822,43.982685],[-122.411492,43.982451],[-122.41123,43.98223],[-122.411008,43.982018],[-122.410796,43.981709],[-122.410566,43.9815],[-122.410247,43.981353],[-122.409997,43.981278],[-122.409715,43.981204],[-122.409372,43.981188],[-122.409091,43.981199],[-122.408725,43.981206],[-122.408441,43.981224],[-122.408087,43.98121],[-122.407867,43.98118],[-122.40782,43.981174],[-122.407482,43.981138],[-122.40724,43.981108],[-122.407057,43.981056],[-122.406897,43.981036],[-122.406768,43.981038],[-122.406655,43.981077],[-122.406517,43.981181],[-122.406481,43.981209],[-122.406389,43.981318],[-122.406341,43.981421],[-122.406279,43.981545],[-122.406213,43.981665],[-122.406209,43.981672],[-122.406087,43.981812],[-122.405925,43.981941],[-122.405772,43.982043],[-122.405578,43.982142],[-122.405267,43.982299],[-122.404988,43.982433],[-122.404704,43.982539],[-122.404331,43.98262],[-122.403873,43.982704],[-122.403432,43.982802],[-122.403065,43.982885],[-122.402686,43.98302],[-122.402331,43.98318],[-122.402032,43.983329],[-122.401689,43.983457],[-122.401338,43.983553],[-122.400953,43.983686],[-122.400722,43.983778],[-122.400573,43.983899],[-122.400282,43.984147],[-122.400045,43.984355],[-122.399835,43.984602],[-122.399733,43.984803],[-122.399589,43.985096],[-122.399455,43.985358],[-122.399304,43.985568],[-122.399098,43.985765],[-122.398924,43.985884],[-122.398751,43.98594],[-122.398514,43.985938],[-122.398379,43.985899],[-122.398156,43.98579],[-122.398008,43.985695],[-122.397827,43.985615],[-122.397573,43.985566],[-122.397327,43.985578],[-122.397115,43.985643],[-122.396925,43.985757],[-122.396725,43.985894],[-122.396535,43.986038],[-122.396327,43.986216],[-122.39619,43.986339],[-122.395987,43.986398],[-122.395748,43.986429],[-122.395497,43.986453],[-122.395259,43.98645],[-122.395039,43.986507],[-122.394808,43.986607],[-122.394598,43.986743],[-122.394478,43.986876],[-122.394358,43.986947],[-122.394242,43.987006],[-122.394031,43.987009],[-122.393805,43.986929],[-122.39366,43.986817],[-122.393486,43.986662],[-122.393325,43.986499],[-122.393013,43.986315],[-122.392718,43.986279],[-122.392408,43.986308],[-122.392077,43.986381],[-122.391612,43.986514],[-122.391185,43.986652],[-122.390842,43.986724],[-122.39046,43.986855],[-122.390013,43.986971],[-122.389592,43.987065],[-122.389214,43.987159],[-122.388846,43.987215],[-122.388454,43.987274],[-122.388096,43.987407],[-122.387679,43.987548],[-122.387348,43.98773],[-122.387037,43.987868],[-122.386777,43.988026],[-122.386452,43.988191],[-122.38619,43.98832],[-122.386137,43.988353],[-122.386138,43.988495],[-122.386282,43.988408],[-122.386538,43.988281],[-122.38687,43.988113],[-122.387126,43.987957],[-122.387434,43.987821],[-122.387758,43.987642],[-122.388163,43.987506],[-122.388505,43.987379],[-122.388877,43.987323],[-122.389254,43.987264],[-122.389639,43.98717],[-122.390061,43.987075],[-122.390518,43.986956],[-122.390896,43.986826],[-122.391237,43.986755],[-122.391671,43.986615],[-122.392128,43.986485],[-122.39244,43.986416],[-122.392715,43.98639],[-122.392948,43.986419],[-122.393213,43.986575],[-122.393365,43.986728],[-122.393545,43.986888],[-122.393712,43.987019],[-122.393997,43.98712],[-122.394292,43.987115],[-122.39445,43.987035],[-122.394593,43.986949],[-122.394714,43.986815],[-122.394899,43.986695],[-122.395104,43.986607],[-122.395284,43.98656],[-122.395506,43.986563],[-122.395771,43.986537],[-122.396029,43.986504],[-122.396283,43.98643],[-122.396444,43.986286],[-122.396648,43.986111],[-122.396832,43.985971],[-122.397026,43.985839],[-122.397195,43.985738],[-122.397363,43.985686],[-122.397558,43.985677],[-122.397767,43.985717],[-122.397917,43.985783],[-122.398063,43.985877],[-122.398307,43.985996],[-122.398483,43.986048],[-122.398783,43.98605],[-122.39901,43.985976],[-122.399211,43.985839],[-122.399433,43.985627],[-122.399594,43.985402],[-122.399732,43.985133],[-122.399876,43.98484],[-122.399972,43.98465],[-122.400169,43.984419],[-122.400399,43.984217],[-122.400687,43.98397],[-122.400818,43.983865],[-122.401023,43.983783],[-122.401398,43.983654],[-122.401751,43.983557],[-122.40211,43.983424],[-122.402415,43.983272],[-122.40276,43.983115],[-122.403121,43.982988],[-122.403478,43.982906],[-122.403914,43.982809],[-122.404372,43.982725],[-122.404761,43.982641],[-122.405065,43.982528],[-122.405353,43.982389],[-122.405665,43.982231],[-122.405868,43.982129],[-122.406034,43.982018],[-122.406209,43.981878],[-122.406214,43.981872],[-122.406346,43.981722],[-122.406421,43.981584],[-122.406485,43.981457],[-122.406527,43.981364],[-122.406602,43.981276],[-122.406727,43.981181],[-122.406746,43.981167],[-122.406804,43.981147],[-122.406886,43.981146],[-122.407015,43.981162],[-122.40708,43.981181],[-122.407199,43.981215],[-122.407459,43.981246],[-122.407795,43.981282],[-122.408068,43.981319],[-122.408444,43.981334],[-122.408734,43.981315],[-122.409097,43.981309],[-122.409372,43.981298],[-122.409683,43.981312],[-122.409942,43.98138],[-122.410177,43.98145],[-122.410462,43.981583],[-122.410667,43.981768],[-122.410878,43.982076],[-122.411111,43.982299],[-122.411381,43.982526],[-122.411719,43.982766],[-122.411993,43.982933],[-122.412237,43.983023],[-122.412477,43.983091],[-122.41269,43.983131],[-122.412876,43.983143],[-122.4131,43.983131],[-122.413378,43.983076],[-122.413619,43.983009],[-122.413954,43.982915],[-122.414254,43.982883],[-122.41456,43.982892],[-122.414835,43.982921],[-122.415144,43.982952],[-122.415379,43.982933],[-122.415788,43.982848],[-122.41677,43.982609],[-122.417357,43.982468],[-122.417991,43.982361],[-122.418339,43.982314],[-122.418668,43.982295],[-122.418889,43.982291],[-122.419204,43.982333],[-122.419564,43.982415],[-122.419957,43.982531],[-122.42045,43.982689],[-122.421023,43.982873],[-122.42132,43.982967],[-122.421586,43.983051],[-122.421931,43.98315],[-122.42237,43.983234],[-122.422941,43.983335],[-122.423703,43.983467],[-122.424079,43.983537],[-122.424446,43.9836],[-122.425007,43.983709],[-122.425355,43.983758],[-122.425721,43.983821],[-122.426065,43.983877],[-122.426356,43.983946],[-122.426359,43.983947],[-122.426618,43.984024],[-122.427033,43.984149],[-122.427369,43.984259],[-122.427777,43.984418],[-122.428036,43.98451],[-122.428381,43.984674],[-122.428787,43.984894],[-122.429656,43.985445],[-122.429914,43.985609],[-122.430113,43.985712],[-122.43035,43.985827],[-122.43058,43.985923],[-122.430795,43.985992],[-122.430979,43.986018],[-122.43117,43.986037],[-122.431361,43.986034],[-122.431527,43.986024],[-122.431725,43.986006],[-122.431934,43.985966],[-122.432119,43.985918],[-122.432355,43.985791],[-122.432556,43.985676],[-122.432753,43.985548],[-122.433636,43.985056],[-122.433852,43.984942],[-122.433977,43.984874],[-122.434106,43.984834],[-122.434296,43.984798],[-122.434488,43.984782],[-122.43466,43.984779],[-122.435213,43.984838],[-122.435399,43.984856],[-122.435643,43.984867],[-122.435862,43.984832],[-122.436082,43.984756],[-122.436255,43.984683],[-122.436388,43.984629],[-122.436525,43.984603],[-122.436668,43.984618],[-122.436805,43.984649],[-122.436958,43.984691],[-122.437178,43.984803],[-122.437376,43.984884],[-122.437728,43.985025],[-122.439453,43.985628],[-122.43971,43.985687],[-122.439906,43.985733],[-122.440174,43.985779],[-122.440405,43.985796],[-122.440652,43.985792],[-122.440955,43.985773],[-122.441258,43.985732],[-122.441541,43.985678],[-122.441825,43.985601],[-122.442126,43.985483],[-122.442355,43.985374],[-122.442642,43.985247],[-122.442908,43.985169],[-122.443169,43.98511],[-122.443691,43.985025],[-122.444368,43.984917],[-122.445141,43.9848],[-122.446441,43.984618],[-122.446523,43.984604],[-122.44861,43.984248],[-122.449209,43.984135],[-122.449715,43.984064],[-122.450478,43.983926],[-122.451107,43.983832],[-122.451793,43.983731],[-122.452908,43.983608],[-122.453967,43.983528],[-122.455506,43.98346],[-122.457096,43.98344],[-122.45836,43.983446],[-122.459106,43.983475],[-122.459552,43.983508],[-122.460358,43.983632],[-122.461759,43.983844],[-122.462298,43.983904],[-122.462732,43.983973],[-122.463136,43.984022],[-122.46356,43.98409],[-122.46388,43.984134],[-122.464243,43.984176],[-122.464672,43.984264],[-122.465241,43.9844],[-122.46586,43.984542],[-122.466469,43.984683],[-122.466544,43.984702]]]}},{"type":"Feature","properties":{"MAPTAXLOT":"1835000000300","MAPNUMBER":"18350000","TAXLOT":"300","ACCTNO":"0809960","MAPACRES":768.73615025},"geometry":{"type":"Polygon","coordinates":[[[-122.44671,44.031814],[-122.446719,44.035434],[-122.446744,44.042254],[-122.451481,44.042109],[-122.451759,44.042101],[-122.456675,44.04195],[-122.456772,44.041947],[-122.461794,44.041806],[-122.461831,44.041805],[-122.464026,44.041743],[-122.466816,44.041664],[-122.466795,44.035392],[-122.466785,44.031773],[-122.466759,44.024537],[-122.446683,44.024573],[-122.44671,44.031814]]]}},{"type":"Feature","properties":{"MAPTAXLOT":"1835000000400","MAPNUMBER":"18350000","TAXLOT":"400","ACCTNO":"0809978","MAPACRES":754.31302207},"geometry":{"type":"Polygon","coordinates":[[[-122.477301,44.041608],[-122.481845,44.041601],[-122.48186,44.041601],[-122.486588,44.041594],[-122.486858,44.041626],[-122.486855,44.03539],[-122.48685,44.031772],[-122.486848,44.024539],[-122.466759,44.024537],[-122.466785,44.031773],[-122.466795,44.035392],[-122.466816,44.041664],[-122.466987,44.041661],[-122.471829,44.041637],[-122.472038,44.041635],[-122.476843,44.04161],[-122.477086,44.041608],[-122.477088,44.041608],[-122.477088,44.041608],[-122.477301,44.041608]]]}},{"type":"Feature","properties":{"MAPTAXLOT":"1835000000500","MAPNUMBER":"18350000","TAXLOT":"500","ACCTNO":"0809986","MAPACRES":804.41065505},"geometry":{"type":"Polygon","coordinates":[[[-122.48685,44.031772],[-122.486855,44.03539],[-122.486858,44.041626],[-122.491872,44.042239],[-122.491924,44.042245],[-122.496885,44.042852],[-122.497261,44.042897],[-122.501913,44.042855],[-122.502463,44.04285],[-122.506707,44.042812],[-122.507373,44.031788],[-122.507385,44.031593],[-122.507269,44.024559],[-122.507269,44.024555],[-122.496883,44.024547],[-122.486848,44.024539],[-122.48685,44.031772]]]}},{"type":"Feature","properties":{"MAPTAXLOT":"1835000000600","MAPNUMBER":"18350000","TAXLOT":"600","ACCTNO":"0809994","MAPACRES":653.2220149},"geometry":{"type":"Polygon","coordinates":[[[-122.496883,44.024547],[-122.507269,44.024555],[-122.507266,44.02432],[-122.507403,44.017442],[-122.507402,44.017318],[-122.50728,44.010355],[-122.507302,44.010087],[-122.507303,44.010082],[-122.496824,44.010085],[-122.486793,44.010087],[-122.486848,44.024539],[-122.496883,44.024547]]]}},{"type":"Feature","properties":{"MAPTAXLOT":"1835000000700","MAPNUMBER":"18350000","TAXLOT":"700","ACCTNO":"0810000","MAPACRES":639.91137013},"geometry":{"type":"Polygon","coordinates":[[[-122.466759,44.024537],[-122.486848,44.024539],[-122.486793,44.010087],[-122.466676,44.010071],[-122.466759,44.024537]]]}},{"type":"Feature","properties":{"MAPTAXLOT":"1835000000800","MAPNUMBER":"18350000","TAXLOT":"800","ACCTNO":"0810018","MAPACRES":639.84424311},"geometry":{"type":"Polygon","coordinates":[[[-122.446683,44.024573],[-122.466759,44.024537],[-122.466676,44.010071],[-122.446587,44.010095],[-122.446683,44.024573]]]}},{"type":"Feature","properties":{"MAPTAXLOT":"1835000001300","MAPNUMBER":"18350000","TAXLOT":"1300","ACCTNO":"0810067","MAPACRES":639.639046},"geometry":{"type":"Polygon","coordinates":[[[-122.446587,44.010095],[-122.466676,44.010071],[-122.466618,43.995599],[-122.446567,43.995622],[-122.446587,44.010095]]]}},{"type":"Feature","properties":{"MAPTAXLOT":"1835000001400","MAPNUMBER":"18350000","TAXLOT":"1400","ACCTNO":"0810075","MAPACRES":639.53596831},"geometry":{"type":"Polygon","coordinates":[[[-122.466676,44.010071],[-122.486793,44.010087],[-122.486664,43.995634],[-122.466618,43.995599],[-122.466676,44.010071]]]}},{"type":"Feature","properties":{"MAPTAXLOT":"1835000001500","MAPNUMBER":"18350000","TAXLOT":"1500","ACCTNO":"0810083","MAPACRES":658.3736647},"geometry":{"type":"Polygon","coordinates":[[[-122.486793,44.010087],[-122.496824,44.010085],[-122.507303,44.010082],[-122.507309,44.009998],[-122.50784,44.003515],[-122.507761,44.00288],[-122.50776,44.002875],[-122.507701,44.002411],[-122.506909,43.996245],[-122.506838,43.995675],[-122.506837,43.99567],[-122.506837,43.99567],[-122.496697,43.995652],[-122.486664,43.995634],[-122.486793,44.010087]]]}},{"type":"Feature","properties":{"MAPTAXLOT":"1835000001600","MAPNUMBER":"18350000","TAXLOT":"1600","ACCTNO":"0810091","MAPACRES":617.14928295},"geometry":{"type":"MultiPolygon","coordinates":[[[[-122.495979,43.982624],[-122.495732,43.982682],[-122.495257,43.982853],[-122.494867,43.98303],[-122.494476,43.983256],[-122.494054,43.983526],[-122.493406,43.983902],[-122.493182,43.983984],[-122.492994,43.984059],[-122.492765,43.984099],[-122.492385,43.984168],[-122.491853,43.984274],[-122.49137,43.984385],[-122.490879,43.984511],[-122.490416,43.98465],[-122.489902,43.984811],[-122.489484,43.984929],[-122.489015,43.985081],[-122.488767,43.985186],[-122.488536,43.985312],[-122.488076,43.985576],[-122.487692,43.98581],[-122.487326,43.986051],[-122.487049,43.986218],[-122.486883,43.9863],[-122.486737,43.986359],[-122.486601,43.986411],[-122.486664,43.995634],[-122.496697,43.995652],[-122.506837,43.99567],[-122.506837,43.99567],[-122.505991,43.988974],[-122.505987,43.98846],[-122.505987,43.988454],[-122.505928,43.981759],[-122.505928,43.981753],[-122.505938,43.9815],[-122.505683,43.98155],[-122.505383,43.981597],[-122.505027,43.981645],[-122.504707,43.981679],[-122.504405,43.981698],[-122.504009,43.981698],[-122.503614,43.981705],[-122.50321,43.981691],[-122.502856,43.98169],[-122.502444,43.981683],[-122.502063,43.98169],[-122.501719,43.981702],[-122.501449,43.981759],[-122.501225,43.981845],[-122.501008,43.981911],[-122.500828,43.981986],[-122.500665,43.982082],[-122.500529,43.982171],[-122.50037,43.982239],[-122.500076,43.982352],[-122.499763,43.982407],[-122.499398,43.982483],[-122.499124,43.982516],[-122.498814,43.982542],[-122.498504,43.982554],[-122.498254,43.982559],[-122.497734,43.982575],[-122.497337,43.98256],[-122.497012,43.982552],[-122.496625,43.982552],[-122.496335,43.982577],[-122.495979,43.982624]]],[[[-122.4866,43.986287],[-122.486664,43.986263],[-122.486802,43.986206],[-122.486957,43.98613],[-122.487226,43.985969],[-122.487592,43.985727],[-122.48798,43.985491],[-122.488442,43.985225],[-122.488682,43.985094],[-122.488945,43.984983],[-122.489425,43.984828],[-122.489844,43.98471],[-122.490356,43.984549],[-122.490824,43.984408],[-122.491322,43.984281],[-122.49181,43.984168],[-122.492346,43.984062],[-122.492729,43.983993],[-122.492939,43.983956],[-122.493111,43.983887],[-122.493323,43.983809],[-122.493955,43.983442],[-122.494378,43.983172],[-122.494779,43.98294],[-122.495182,43.982757],[-122.495674,43.98258],[-122.495942,43.982517],[-122.496312,43.982469],[-122.496615,43.982442],[-122.497015,43.982442],[-122.497343,43.982451],[-122.497734,43.982465],[-122.498249,43.982449],[-122.498498,43.982445],[-122.498801,43.982433],[-122.499103,43.982407],[-122.499364,43.982376],[-122.499724,43.982301],[-122.500021,43.982248],[-122.500296,43.982143],[-122.500439,43.982082],[-122.500566,43.981999],[-122.500742,43.981896],[-122.50094,43.981812],[-122.50116,43.981746],[-122.501391,43.981657],[-122.501693,43.981593],[-122.502058,43.98158],[-122.502444,43.981573],[-122.502858,43.98158],[-122.503214,43.981581],[-122.503616,43.981595],[-122.504008,43.981588],[-122.504398,43.981588],[-122.50469,43.98157],[-122.505002,43.981537],[-122.505352,43.98149],[-122.505644,43.981444],[-122.505943,43.981386],[-122.505949,43.981245],[-122.505949,43.981239],[-122.496591,43.981205],[-122.486565,43.981167],[-122.4866,43.986287]]]]}},{"type":"Feature","properties":{"MAPTAXLOT":"1835000001700","MAPNUMBER":"18350000","TAXLOT":"1700","ACCTNO":"0810109","MAPACRES":633.65304336},"geometry":{"type":"MultiPolygon","coordinates":[[[[-122.466618,43.995599],[-122.486664,43.995634],[-122.486601,43.986411],[-122.486544,43.986433],[-122.48533,43.986817],[-122.485103,43.986856],[-122.484914,43.986888],[-122.484691,43.986892],[-122.484501,43.986881],[-122.48431,43.986855],[-122.484124,43.986816],[-122.483949,43.986784],[-122.483666,43.986719],[-122.483336,43.986642],[-122.482956,43.986543],[-122.48246,43.986392],[-122.481627,43.98615],[-122.480378,43.98579],[-122.478491,43.985275],[-122.4776,43.985041],[-122.47666,43.98478],[-122.475092,43.984349],[-122.473338,43.98388],[-122.472709,43.983697],[-122.472293,43.983589],[-122.471903,43.983555],[-122.471583,43.983567],[-122.471312,43.983624],[-122.471053,43.983717],[-122.470705,43.983839],[-122.470227,43.984061],[-122.4688,43.984722],[-122.468527,43.984848],[-122.468256,43.984911],[-122.467987,43.984945],[-122.467695,43.98495],[-122.467402,43.984911],[-122.467136,43.984845],[-122.466544,43.984702],[-122.466618,43.995599]]],[[[-122.472328,43.983481],[-122.472763,43.983594],[-122.473393,43.983778],[-122.475145,43.984247],[-122.476714,43.984677],[-122.477653,43.984938],[-122.478544,43.985173],[-122.480433,43.985688],[-122.481684,43.986048],[-122.482518,43.98629],[-122.483011,43.986441],[-122.483385,43.986538],[-122.483713,43.986615],[-122.483991,43.986679],[-122.484164,43.98671],[-122.484345,43.986748],[-122.484521,43.986772],[-122.484696,43.986782],[-122.484895,43.986779],[-122.485068,43.986749],[-122.485281,43.986712],[-122.486478,43.986334],[-122.4866,43.986287],[-122.486565,43.981167],[-122.46652,43.981126],[-122.466544,43.984586],[-122.467185,43.984741],[-122.467441,43.984805],[-122.467707,43.98484],[-122.467972,43.984835],[-122.468219,43.984805],[-122.468462,43.984748],[-122.468718,43.98463],[-122.470145,43.983968],[-122.470631,43.983743],[-122.470986,43.983618],[-122.471257,43.983522],[-122.471558,43.983458],[-122.471908,43.983445],[-122.472328,43.983481]]]]}},{"type":"Feature","properties":{"MAPTAXLOT":"1835000001800","MAPNUMBER":"18350000","TAXLOT":"1800","ACCTNO":"0810117","MAPACRES":633.6931583},"geometry":{"type":"MultiPolygon","coordinates":[[[[-122.453967,43.983528],[-122.452908,43.983608],[-122.451793,43.983731],[-122.451107,43.983832],[-122.450478,43.983926],[-122.449715,43.984064],[-122.449209,43.984135],[-122.44861,43.984248],[-122.446523,43.984604],[-122.446567,43.995622],[-122.466618,43.995599],[-122.466544,43.984702],[-122.466469,43.984683],[-122.46586,43.984542],[-122.465241,43.9844],[-122.464672,43.984264],[-122.464243,43.984176],[-122.46388,43.984134],[-122.46356,43.98409],[-122.463136,43.984022],[-122.462732,43.983973],[-122.462298,43.983904],[-122.461759,43.983844],[-122.460358,43.983632],[-122.459552,43.983508],[-122.459106,43.983475],[-122.45836,43.983446],[-122.457096,43.98344],[-122.455506,43.98346],[-122.453967,43.983528]]],[[[-122.457095,43.98333],[-122.458365,43.983337],[-122.459118,43.983365],[-122.459576,43.9834],[-122.46039,43.983525],[-122.461786,43.983736],[-122.462326,43.983797],[-122.46276,43.983865],[-122.463165,43.983914],[-122.463591,43.983983],[-122.463906,43.984026],[-122.464276,43.984068],[-122.464716,43.984159],[-122.465288,43.984295],[-122.465907,43.984437],[-122.466517,43.984579],[-122.466544,43.984586],[-122.46652,43.981126],[-122.44651,43.981145],[-122.446523,43.984492],[-122.448573,43.984142],[-122.449175,43.984028],[-122.449682,43.983956],[-122.450445,43.983819],[-122.451076,43.983725],[-122.451766,43.983623],[-122.452888,43.983499],[-122.453954,43.983419],[-122.4555,43.983351],[-122.457095,43.98333]]]]}},{"type":"Feature","properties":{"MAPTAXLOT":"1835000002300","MAPNUMBER":"18350000","TAXLOT":"2300","ACCTNO":"0810166","MAPACRES":638.2325424},"geometry":{"type":"Polygon","coordinates":[[[-122.44651,43.981145],[-122.46652,43.981126],[-122.466468,43.966658],[-122.446449,43.966665],[-122.44651,43.981145]]]}},{"type":"Feature","properties":{"MAPTAXLOT":"1835000002400","MAPNUMBER":"18350000","TAXLOT":"2400","ACCTNO":"0810174","MAPACRES":638.87142729},"geometry":{"type":"Polygon","coordinates":[[[-122.46652,43.981126],[-122.486565,43.981167],[-122.486478,43.966677],[-122.466468,43.966658],[-122.46652,43.981126]]]}},{"type":"Feature","properties":{"MAPTAXLOT":"1835000002500","MAPNUMBER":"18350000","TAXLOT":"2500","ACCTNO":"0810182","MAPACRES":627.90478687},"geometry":{"type":"Polygon","coordinates":[[[-122.496591,43.981205],[-122.505949,43.981239],[-122.506182,43.975],[-122.506262,43.967305],[-122.506262,43.967298],[-122.506292,43.966708],[-122.506292,43.966701],[-122.496504,43.966689],[-122.486478,43.966677],[-122.486565,43.981167],[-122.496591,43.981205]]]}},{"type":"Feature","properties":{"MAPTAXLOT":"1835000002600","MAPNUMBER":"18350000","TAXLOT":"2600","ACCTNO":"0810190","MAPACRES":642.53607112},"geometry":{"type":"Polygon","coordinates":[[[-122.486478,43.966677],[-122.496504,43.966689],[-122.506292,43.966701],[-122.506639,43.959314],[-122.506649,43.959117],[-122.506649,43.959114],[-122.506472,43.952135],[-122.506472,43.952127],[-122.499239,43.952153],[-122.496444,43.952157],[-122.489238,43.952182],[-122.486416,43.952183],[-122.486478,43.966677]]]}},{"type":"Feature","properties":{"MAPTAXLOT":"1835000002700","MAPNUMBER":"18350000","TAXLOT":"2700","ACCTNO":"0810208","MAPACRES":639.47939042},"geometry":{"type":"Polygon","coordinates":[[[-122.466468,43.966658],[-122.486478,43.966677],[-122.486416,43.952183],[-122.479186,43.952181],[-122.476389,43.952181],[-122.469131,43.952179],[-122.466362,43.952179],[-122.466468,43.966658]]]}},{"type":"Feature","properties":{"MAPTAXLOT":"1835000002800","MAPNUMBER":"18350000","TAXLOT":"2800","ACCTNO":"0810216","MAPACRES":639.14505308},"geometry":{"type":"Polygon","coordinates":[[[-122.446449,43.966665],[-122.466468,43.966658],[-122.466362,43.952179],[-122.459105,43.952185],[-122.456333,43.952186],[-122.456278,43.952186],[-122.449082,43.952191],[-122.446307,43.952191],[-122.446449,43.966665]]]}}]}