{"type":"FeatureCollection","features":[{"type":"Feature","properties":{"MAPTAXLOT":"1607000000500","MAPNUMBER":"16070000","TAXLOT":"500","ACCTNO":"0068609","MAPACRES":764.3895687},"geometry":{"type":"Polygon","coordinates":[[[-123.5488,44.173605],[-123.554,44.173862],[-123.554047,44.169854],[-123.554063,44.168369],[-123.554087,44.166311],[-123.554103,44.164857],[-123.554126,44.162768],[-123.554141,44.161345],[-123.554164,44.159227],[-123.554179,44.157803],[-123.547033,44.157769],[-123.541977,44.157745],[-123.53692,44.157723],[-123.531863,44.157702],[-123.531971,44.161378],[-123.532079,44.165054],[-123.532077,44.16866],[-123.532076,44.172212],[-123.532073,44.173526],[-123.53359,44.173533],[-123.53708,44.173468],[-123.538595,44.17344],[-123.542088,44.173375],[-123.5436,44.173347],[-123.547096,44.17352],[-123.5488,44.173605]]]}},{"type":"Feature","properties":{"MAPTAXLOT":"1607000000600","MAPNUMBER":"16070000","TAXLOT":"600","ACCTNO":"0068617","MAPACRES":241.00297962},"geometry":{"type":"Polygon","coordinates":[[[-123.52705,44.172232],[-123.532076,44.172212],[-123.532077,44.16866],[-123.532079,44.165054],[-123.531971,44.161378],[-123.531863,44.157702],[-123.526879,44.157699],[-123.526923,44.161356],[-123.526966,44.165024],[-123.521961,44.164993],[-123.521993,44.168616],[-123.522025,44.172252],[-123.52705,44.172232]]]}},{"type":"Feature","properties":{"MAPTAXLOT":"1607000000700","MAPNUMBER":"16070000","TAXLOT":"700","ACCTNO":"0068625","MAPACRES":40.50058882},"geometry":{"type":"Polygon","coordinates":[[[-123.516938,44.172232],[-123.522025,44.172252],[-123.521993,44.168616],[-123.516937,44.168594],[-123.516938,44.172232]]]}},{"type":"Feature","properties":{"MAPTAXLOT":"1607000000800","MAPNUMBER":"16070000","TAXLOT":"800","ACCTNO":"0068641","MAPACRES":320.88392559},"geometry":{"type":"Polygon","coordinates":[[[-123.511852,44.172213],[-123.516938,44.172232],[-123.516937,44.168594],[-123.516936,44.164961],[-123.521961,44.164993],[-123.526966,44.165024],[-123.526923,44.161356],[-123.526879,44.157699],[-123.521897,44.157697],[-123.516934,44.157672],[-123.511971,44.157645],[-123.511942,44.161288],[-123.511912,44.16493],[-123.511882,44.168571],[-123.511852,44.172213]]]}},{"type":"Feature","properties":{"MAPTAXLOT":"1607000000900","MAPNUMBER":"16070000","TAXLOT":"900","ACCTNO":"0068658","MAPACRES":40.15872685},"geometry":{"type":"Polygon","coordinates":[[[-123.516937,44.168594],[-123.521993,44.168616],[-123.521961,44.164993],[-123.516936,44.164961],[-123.516937,44.168594]]]}},{"type":"Feature","properties":{"MAPTAXLOT":"1607000001100","MAPNUMBER":"16070000","TAXLOT":"1100","ACCTNO":"0068674","MAPACRES":637.98963221},"geometry":{"type":"Polygon","coordinates":[[[-123.506903,44.172307],[-123.511852,44.172213],[-123.511882,44.168571],[-123.511912,44.16493],[-123.511942,44.161288],[-123.511971,44.157645],[-123.506968,44.157652],[-123.501965,44.157658],[-123.497113,44.157636],[-123.49226,44.157613],[-123.492217,44.161308],[-123.492174,44.165014],[-123.492131,44.168723],[-123.492088,44.172431],[-123.497021,44.172416],[-123.501954,44.172401],[-123.506903,44.172307]]]}},{"type":"Feature","properties":{"MAPTAXLOT":"1607000001800","MAPNUMBER":"16070000","TAXLOT":"1800","ACCTNO":"0068757","MAPACRES":155.09816385},"geometry":{"type":"Polygon","coordinates":[[[-123.497113,44.157636],[-123.501965,44.157658],[-123.502087,44.154027],[-123.502087,44.154026],[-123.502087,44.154024],[-123.502203,44.150421],[-123.497298,44.150407],[-123.49729,44.150407],[-123.492384,44.150386],[-123.492322,44.153995],[-123.49226,44.157613],[-123.497113,44.157636]]]}},{"type":"Feature","properties":{"MAPTAXLOT":"1607000002000","MAPNUMBER":"16070000","TAXLOT":"2000","ACCTNO":"0068773","MAPACRES":37.40911967},"geometry":{"type":"Polygon","coordinates":[[[-123.502317,44.146844],[-123.507111,44.146852],[-123.507128,44.143264],[-123.502425,44.14326],[-123.502317,44.146844]]]}},{"type":"Feature","properties":{"MAPTAXLOT":"1607000002100","MAPNUMBER":"16070000","TAXLOT":"2100","ACCTNO":"0068781","MAPACRES":75.46099665},"geometry":{"type":"Polygon","coordinates":[[[-123.507093,44.150437],[-123.511959,44.150453],[-123.511895,44.146863],[-123.511831,44.143268],[-123.507128,44.143264],[-123.507111,44.146852],[-123.507093,44.150437]]]}},{"type":"Feature","properties":{"MAPTAXLOT":"1607000002200","MAPNUMBER":"16070000","TAXLOT":"2200","ACCTNO":"0068807","MAPACRES":156.58451167},"geometry":{"type":"Polygon","coordinates":[[[-123.506968,44.157652],[-123.511971,44.157645],[-123.511965,44.154052],[-123.511959,44.150458],[-123.511959,44.150453],[-123.507093,44.150437],[-123.507084,44.150437],[-123.507063,44.150437],[-123.502203,44.150421],[-123.502087,44.154024],[-123.502087,44.154026],[-123.502087,44.154027],[-123.501965,44.157658],[-123.506968,44.157652]]]}},{"type":"Feature","properties":{"MAPTAXLOT":"1607000002300","MAPNUMBER":"16070000","TAXLOT":"2300","ACCTNO":"0068815","MAPACRES":634.63777729},"geometry":{"type":"Polygon","coordinates":[[[-123.526879,44.157699],[-123.531863,44.157702],[-123.531899,44.154091],[-123.531935,44.15048],[-123.531972,44.146869],[-123.532008,44.143258],[-123.52177,44.143227],[-123.511831,44.143268],[-123.511895,44.146863],[-123.511959,44.150453],[-123.511959,44.150458],[-123.511965,44.154052],[-123.511971,44.157645],[-123.516934,44.157672],[-123.521897,44.157697],[-123.526879,44.157699]]]}},{"type":"Feature","properties":{"MAPTAXLOT":"1607000002400","MAPNUMBER":"16070000","TAXLOT":"2400","ACCTNO":"0068823","MAPACRES":522.16429736},"geometry":{"type":"Polygon","coordinates":[[[-123.547033,44.157769],[-123.554179,44.157803],[-123.554203,44.155649],[-123.554237,44.154123],[-123.554304,44.151997],[-123.55434,44.150427],[-123.54722,44.150445],[-123.542146,44.150457],[-123.542231,44.146807],[-123.542316,44.14313],[-123.537162,44.143195],[-123.532008,44.143258],[-123.531972,44.146869],[-123.531935,44.15048],[-123.531899,44.154091],[-123.531863,44.157702],[-123.53692,44.157723],[-123.541977,44.157745],[-123.547033,44.157769]]]}},{"type":"Feature","properties":{"MAPTAXLOT":"1607000002500","MAPNUMBER":"16070000","TAXLOT":"2500","ACCTNO":"0068831","MAPACRES":197.37676589},"geometry":{"type":"Polygon","coordinates":[[[-123.54722,44.150445],[-123.55434,44.150427],[-123.554405,44.148346],[-123.554444,44.146731],[-123.554506,44.144696],[-123.554547,44.143036],[-123.547409,44.143099],[-123.542316,44.14313],[-123.542231,44.146807],[-123.542146,44.150457],[-123.54722,44.150445]]]}},{"type":"Feature","properties":{"MAPTAXLOT":"1607000002600","MAPNUMBER":"16070000","TAXLOT":"2600","ACCTNO":"0068849","MAPACRES":625.34302488},"geometry":{"type":"Polygon","coordinates":[[[-123.558977,44.155675],[-123.563762,44.155697],[-123.568696,44.155515],[-123.571999,44.155392],[-123.573636,44.155333],[-123.573776,44.151755],[-123.573917,44.148149],[-123.574198,44.140966],[-123.569303,44.140984],[-123.564409,44.141001],[-123.559516,44.141019],[-123.554625,44.141036],[-123.554547,44.143036],[-123.554506,44.144696],[-123.554444,44.146731],[-123.554405,44.148346],[-123.55434,44.150427],[-123.554304,44.151997],[-123.554237,44.154123],[-123.554203,44.155649],[-123.558977,44.155675]]]}},{"type":"Feature","properties":{"MAPTAXLOT":"1607000002700","MAPNUMBER":"16070000","TAXLOT":"2700","ACCTNO":"0068856","MAPACRES":374.41751479},"geometry":{"type":"Polygon","coordinates":[[[-123.569303,44.140984],[-123.574198,44.140966],[-123.57419,44.137496],[-123.574181,44.134026],[-123.574174,44.130556],[-123.569277,44.130542],[-123.569287,44.134022],[-123.564391,44.134019],[-123.559538,44.134015],[-123.559548,44.130513],[-123.554715,44.130498],[-123.554686,44.13401],[-123.554655,44.137523],[-123.554625,44.141036],[-123.559516,44.141019],[-123.564409,44.141001],[-123.569303,44.140984]]]}},{"type":"Feature","properties":{"MAPTAXLOT":"1607000002800","MAPNUMBER":"16070000","TAXLOT":"2800","ACCTNO":"0068864","MAPACRES":223.8740504},"geometry":{"type":"Polygon","coordinates":[[[-123.554715,44.130498],[-123.559548,44.130513],[-123.559538,44.134015],[-123.564391,44.134019],[-123.569287,44.134022],[-123.569277,44.130542],[-123.574174,44.130556],[-123.574166,44.127086],[-123.569268,44.127061],[-123.564371,44.127036],[-123.564371,44.127036],[-123.559558,44.127011],[-123.554744,44.126986],[-123.554715,44.130498]]]}},{"type":"Feature","properties":{"MAPTAXLOT":"1607000002900","MAPNUMBER":"16070000","TAXLOT":"2900","ACCTNO":"0068872","MAPACRES":752.04276457},"geometry":{"type":"Polygon","coordinates":[[[-123.549059,44.127531],[-123.547366,44.127695],[-123.543373,44.128079],[-123.542287,44.12817],[-123.537124,44.128601],[-123.531963,44.12903],[-123.53198,44.132545],[-123.531996,44.136059],[-123.532002,44.139659],[-123.532008,44.143258],[-123.537162,44.143195],[-123.542316,44.14313],[-123.547409,44.143099],[-123.554547,44.143036],[-123.554625,44.141036],[-123.554655,44.137523],[-123.554686,44.13401],[-123.554715,44.130498],[-123.554744,44.126986],[-123.549059,44.127531]]]}},{"type":"Feature","properties":{"MAPTAXLOT":"1607000003000","MAPNUMBER":"16070000","TAXLOT":"3000","ACCTNO":"0068906","MAPACRES":630.80728785},"geometry":{"type":"Polygon","coordinates":[[[-123.52177,44.143227],[-123.532008,44.143258],[-123.532002,44.139659],[-123.531996,44.136059],[-123.53198,44.132545],[-123.531963,44.12903],[-123.526927,44.12902],[-123.526927,44.12902],[-123.526927,44.12902],[-123.521892,44.129009],[-123.516857,44.128997],[-123.516856,44.128997],[-123.511821,44.128986],[-123.511824,44.132557],[-123.511826,44.136127],[-123.511829,44.139698],[-123.511831,44.143268],[-123.52177,44.143227]]]}},{"type":"Feature","properties":{"MAPTAXLOT":"1607000003100","MAPNUMBER":"16070000","TAXLOT":"3100","ACCTNO":"0068914","MAPACRES":614.18213237},"geometry":{"type":"Polygon","coordinates":[[[-123.507128,44.143264],[-123.511831,44.143268],[-123.511829,44.139698],[-123.511826,44.136127],[-123.511824,44.132557],[-123.511821,44.128986],[-123.507036,44.128976],[-123.502251,44.128966],[-123.497165,44.128955],[-123.492101,44.128944],[-123.492079,44.128944],[-123.492137,44.132504],[-123.492194,44.136064],[-123.492352,44.139619],[-123.492509,44.143176],[-123.497467,44.143218],[-123.502425,44.14326],[-123.507128,44.143264]]]}},{"type":"Feature","properties":{"MAPTAXLOT":"1607000003400","MAPNUMBER":"16070000","TAXLOT":"3400","ACCTNO":"1818762","MAPACRES":193.95588252},"geometry":{"type":"Polygon","coordinates":[[[-123.502203,44.150421],[-123.507063,44.150437],[-123.507084,44.150437],[-123.507093,44.150437],[-123.507111,44.146852],[-123.502317,44.146844],[-123.502425,44.14326],[-123.497467,44.143218],[-123.492509,44.143176],[-123.492447,44.146782],[-123.492384,44.150386],[-123.49729,44.150407],[-123.497298,44.150407],[-123.502203,44.150421]]]}},{"type":"Feature","properties":{"MAPTAXLOT":"1607180000066","MAPNUMBER":"16071800","TAXLOT":"66","ACCTNO":"000None","MAPACRES":303.25885777},"geometry":{"type":"Polygon","coordinates":[[[-123.575473,44.177897],[-123.575479,44.177898],[-123.57548,44.177898],[-123.575601,44.177911],[-123.575671,44.177919],[-123.575671,44.177919],[-123.575678,44.17792],[-123.575678,44.17792],[-123.575787,44.177908],[-123.575852,44.1779],[-123.575852,44.1779],[-123.575864,44.177898],[-123.575864,44.177898],[-123.575963,44.17788],[-123.576197,44.177839],[-123.576197,44.177838],[-123.576217,44.177822],[-123.576307,44.17775],[-123.57635,44.177716],[-123.576351,44.177716],[-123.57647,44.177689],[-123.57647,44.177689],[-123.576553,44.177684],[-123.576553,44.177684],[-123.576553,44.177684],[-123.57658,44.177682],[-123.57658,44.177682],[-123.576637,44.177678],[-123.576637,44.177678],[-123.576637,44.177678],[-123.576638,44.177678],[-123.576638,44.177678],[-123.576669,44.177676],[-123.576672,44.177676],[-123.576672,44.177676],[-123.576679,44.177675],[-123.576679,44.177675],[-123.576684,44.177675],[-123.576788,44.177643],[-123.576835,44.177628],[-123.576852,44.177623],[-123.576852,44.177623],[-123.576948,44.177607],[-123.576997,44.177598],[-123.576998,44.177598],[-123.577016,44.177595],[-123.577016,44.177595],[-123.57711,44.177577],[-123.577137,44.177572],[-123.577137,44.177572],[-123.577158,44.177567],[-123.577159,44.177567],[-123.577275,44.177558],[-123.577364,44.177551],[-123.577364,44.177551],[-123.57759,44.177521],[-123.577591,44.177521],[-123.577596,44.17752],[-123.577596,44.17752],[-123.57771,44.177522],[-123.577789,44.177523],[-123.577789,44.177523],[-123.5778,44.177523],[-123.5778,44.177523],[-123.577991,44.177525],[-123.577992,44.177525],[-123.577992,44.177525],[-123.578004,44.177525],[-123.578004,44.177525],[-123.578111,44.177522],[-123.578125,44.177522],[-123.578125,44.177522],[-123.57818,44.177513],[-123.57818,44.177513],[-123.578299,44.177494],[-123.578649,44.17744],[-123.57885,44.177384],[-123.57885,44.177384],[-123.57903,44.177352],[-123.57903,44.177352],[-123.579124,44.177365],[-123.579125,44.177365],[-123.579147,44.177368],[-123.579411,44.17749],[-123.579411,44.17749],[-123.579601,44.177495],[-123.579601,44.177495],[-123.58048,44.177518],[-123.580485,44.177472],[-123.580485,44.177472],[-123.580485,44.177472],[-123.580492,44.177472],[-123.580511,44.177474],[-123.580511,44.177474],[-123.580588,44.177483],[-123.580588,44.177483],[-123.580634,44.177488],[-123.580634,44.177488],[-123.580681,44.177493],[-123.580682,44.177493],[-123.580771,44.177503],[-123.580861,44.177513],[-123.580861,44.177513],[-123.580878,44.177515],[-123.580878,44.177515],[-123.581076,44.17753],[-123.581297,44.177547],[-123.58175,44.177591],[-123.58175,44.177591],[-123.581772,44.17759],[-123.581962,44.177584],[-123.581976,44.177585],[-123.582132,44.177591],[-123.582137,44.177592],[-123.582137,44.177592],[-123.582187,44.177594],[-123.582248,44.177596],[-123.582268,44.177596],[-123.582536,44.177588],[-123.582536,44.177588],[-123.582591,44.177589],[-123.582595,44.177589],[-123.582595,44.177589],[-123.58263,44.177595],[-123.58263,44.177595],[-123.582676,44.177603],[-123.582676,44.177603],[-123.582783,44.177582],[-123.582821,44.177565],[-123.582843,44.177555],[-123.582849,44.177553],[-123.582913,44.177524],[-123.582967,44.1775],[-123.583052,44.177461],[-123.583148,44.177392],[-123.583227,44.177169],[-123.583229,44.177165],[-123.583232,44.177156],[-123.583239,44.177131],[-123.583243,44.17712],[-123.583245,44.177006],[-123.583134,44.176793],[-123.582849,44.176637],[-123.58263,44.17659],[-123.582628,44.17659],[-123.582125,44.176482],[-123.581747,44.176217],[-123.581701,44.176185],[-123.581453,44.175964],[-123.581278,44.175553],[-123.581235,44.175332],[-123.581211,44.175209],[-123.581208,44.175196],[-123.581205,44.175182],[-123.581205,44.175181],[-123.581093,44.175071],[-123.581065,44.175044],[-123.580963,44.174944],[-123.58096,44.174934],[-123.580959,44.174933],[-123.580939,44.17488],[-123.580909,44.174801],[-123.580908,44.174797],[-123.580901,44.174731],[-123.580895,44.174663],[-123.580893,44.174656],[-123.580873,44.174573],[-123.58086,44.174518],[-123.580881,44.174429],[-123.580881,44.174429],[-123.58089,44.174388],[-123.580891,44.17438],[-123.580894,44.174283],[-123.580896,44.174222],[-123.580907,44.174126],[-123.580909,44.174112],[-123.580911,44.174095],[-123.580982,44.173898],[-123.580982,44.173897],[-123.580942,44.173658],[-123.580939,44.173642],[-123.580819,44.173305],[-123.580794,44.173281],[-123.58073,44.173216],[-123.580625,44.173092],[-123.580614,44.173078],[-123.580569,44.173007],[-123.580559,44.172991],[-123.580516,44.172921],[-123.580496,44.172884],[-123.58049,44.172873],[-123.580457,44.172813],[-123.580435,44.172773],[-123.580379,44.172783],[-123.580379,44.172783],[-123.580379,44.172783],[-123.580324,44.172646],[-123.5803,44.172588],[-123.580258,44.17243],[-123.580244,44.172377],[-123.580169,44.172244],[-123.580039,44.172043],[-123.579962,44.171779],[-123.579795,44.171541],[-123.57965,44.171391],[-123.579391,44.171302],[-123.579388,44.171301],[-123.579265,44.171252],[-123.579101,44.171113],[-123.578755,44.171042],[-123.57865,44.170916],[-123.578525,44.170612],[-123.57836,44.170332],[-123.578357,44.170122],[-123.578335,44.16986],[-123.578292,44.169605],[-123.578114,44.169358],[-123.578087,44.169322],[-123.578078,44.16931],[-123.578052,44.169273],[-123.57794,44.169053],[-123.57792,44.169014],[-123.577911,44.168996],[-123.577899,44.168973],[-123.577877,44.168947],[-123.577702,44.168743],[-123.577635,44.168665],[-123.577502,44.16851],[-123.577472,44.168475],[-123.577472,44.168475],[-123.577288,44.168537],[-123.577288,44.168537],[-123.576967,44.168343],[-123.576647,44.168148],[-123.57614,44.16805],[-123.576038,44.16802],[-123.57581,44.167892],[-123.575606,44.167809],[-123.575605,44.167809],[-123.575561,44.167824],[-123.575561,44.167824],[-123.575342,44.167707],[-123.574902,44.1675],[-123.574756,44.167308],[-123.574754,44.167306],[-123.574406,44.166941],[-123.574406,44.166938],[-123.574418,44.166859],[-123.574418,44.166858],[-123.574089,44.166641],[-123.573847,44.166447],[-123.573627,44.166374],[-123.573625,44.166373],[-123.573461,44.166156],[-123.573245,44.165963],[-123.572898,44.165527],[-123.572533,44.16516],[-123.572267,44.164834],[-123.572007,44.164266],[-123.57186,44.163637],[-123.571774,44.163352],[-123.571708,44.163091],[-123.571626,44.16287],[-123.571308,44.162731],[-123.571023,44.162547],[-123.571015,44.162542],[-123.570917,44.162543],[-123.570917,44.162543],[-123.570556,44.162548],[-123.570556,44.162548],[-123.570576,44.162618],[-123.570864,44.162836],[-123.570857,44.16316],[-123.570828,44.163415],[-123.570972,44.16372],[-123.571049,44.163883],[-123.571096,44.163983],[-123.571172,44.164181],[-123.571323,44.164575],[-123.571335,44.164597],[-123.571511,44.164936],[-123.571518,44.16495],[-123.571576,44.16507],[-123.571626,44.165302],[-123.571628,44.165312],[-123.571638,44.1655],[-123.57163,44.165649],[-123.571651,44.165765],[-123.571647,44.165881],[-123.571632,44.16598],[-123.571576,44.166065],[-123.571544,44.166138],[-123.571525,44.166154],[-123.571457,44.166213],[-123.571367,44.166219],[-123.571367,44.166219],[-123.571247,44.166251],[-123.570833,44.166298],[-123.570832,44.166298],[-123.570482,44.16643],[-123.570326,44.166489],[-123.570318,44.166492],[-123.570246,44.166519],[-123.570128,44.166561],[-123.570035,44.166548],[-123.570035,44.166548],[-123.569914,44.166666],[-123.569183,44.167144],[-123.569131,44.167219],[-123.568981,44.167361],[-123.568799,44.167873],[-123.569398,44.168514],[-123.56972,44.168722],[-123.569555,44.169282],[-123.569326,44.169495],[-123.568831,44.169956],[-123.567399,44.170697],[-123.567087,44.17109],[-123.566726,44.171265],[-123.564929,44.171519],[-123.564929,44.171519],[-123.564178,44.171826],[-123.564038,44.17199],[-123.563995,44.17217],[-123.563995,44.17217],[-123.564031,44.172161],[-123.564174,44.172124],[-123.564174,44.172124],[-123.564338,44.172135],[-123.564338,44.172135],[-123.564382,44.172137],[-123.564318,44.172325],[-123.564217,44.172347],[-123.564217,44.172347],[-123.564217,44.172347],[-123.564216,44.172347],[-123.564196,44.172351],[-123.564196,44.172351],[-123.5641,44.172465],[-123.564101,44.172549],[-123.564102,44.172612],[-123.564141,44.172748],[-123.564237,44.17279],[-123.564323,44.172827],[-123.564323,44.172827],[-123.564605,44.17282],[-123.564755,44.172898],[-123.564793,44.173046],[-123.564794,44.173048],[-123.564624,44.173181],[-123.564499,44.173348],[-123.564435,44.17339],[-123.564284,44.17342],[-123.564284,44.17342],[-123.564022,44.173468],[-123.564021,44.173468],[-123.563841,44.173462],[-123.563841,44.173462],[-123.563825,44.173462],[-123.563825,44.173462],[-123.563678,44.173475],[-123.563651,44.173478],[-123.563651,44.173478],[-123.563384,44.17368],[-123.563397,44.173814],[-123.563403,44.173879],[-123.563498,44.173971],[-123.563552,44.174084],[-123.563556,44.174092],[-123.563805,44.174298],[-123.564047,44.174486],[-123.564468,44.174705],[-123.564815,44.17482],[-123.564815,44.17482],[-123.565119,44.174865],[-123.565418,44.174926],[-123.565979,44.175187],[-123.566164,44.175231],[-123.566323,44.175289],[-123.566469,44.175354],[-123.566612,44.175442],[-123.566612,44.175442],[-123.56675,44.17545],[-123.566846,44.175488],[-123.566902,44.175558],[-123.567017,44.175621],[-123.567017,44.175621],[-123.567174,44.175645],[-123.567297,44.175702],[-123.567466,44.175742],[-123.567556,44.17582],[-123.567698,44.175944],[-123.567764,44.176027],[-123.568001,44.176174],[-123.568138,44.176311],[-123.568289,44.176358],[-123.568289,44.176358],[-123.568488,44.176382],[-123.568488,44.176382],[-123.568715,44.176331],[-123.568715,44.176331],[-123.568979,44.17631],[-123.568979,44.17631],[-123.569295,44.176247],[-123.569295,44.176247],[-123.569621,44.176219],[-123.569735,44.176298],[-123.56998,44.176433],[-123.570322,44.176599],[-123.570342,44.176606],[-123.570346,44.176608],[-123.570632,44.17672],[-123.570636,44.176722],[-123.570637,44.176722],[-123.570637,44.176722],[-123.570659,44.176731],[-123.570659,44.176731],[-123.571038,44.176789],[-123.571038,44.176789],[-123.571043,44.17679],[-123.571394,44.176935],[-123.571398,44.176938],[-123.571744,44.17717],[-123.571765,44.177179],[-123.571936,44.177253],[-123.571939,44.177255],[-123.57208,44.177335],[-123.57208,44.177335],[-123.572084,44.177337],[-123.572086,44.177338],[-123.572248,44.177405],[-123.572392,44.177452],[-123.572523,44.177495],[-123.572537,44.177499],[-123.572609,44.177533],[-123.572732,44.177592],[-123.572767,44.177685],[-123.572767,44.177685],[-123.572767,44.177685],[-123.572768,44.177685],[-123.572978,44.177686],[-123.573236,44.177791],[-123.573236,44.177791],[-123.573789,44.177892],[-123.573789,44.177892],[-123.574018,44.177868],[-123.57405,44.177887],[-123.574063,44.177895],[-123.574063,44.177895],[-123.574169,44.177888],[-123.57436,44.177875],[-123.57436,44.177875],[-123.574373,44.177876],[-123.574373,44.177876],[-123.574385,44.177876],[-123.574492,44.177878],[-123.57486,44.177885],[-123.574861,44.177885],[-123.574872,44.177886],[-123.574872,44.177886],[-123.574875,44.177886],[-123.574875,44.177886],[-123.574886,44.177886],[-123.574886,44.177886],[-123.575005,44.177894],[-123.575093,44.1779],[-123.575093,44.1779],[-123.575114,44.177903],[-123.575114,44.177903],[-123.575177,44.177913],[-123.575177,44.177913],[-123.575233,44.17791],[-123.575473,44.177897],[-123.575473,44.177897]]]}},{"type":"Feature","properties":{"MAPTAXLOT":"1607200000101","MAPNUMBER":"16072000","TAXLOT":"101","ACCTNO":"1539442","MAPACRES":14.41191825},"geometry":{"type":"Polygon","coordinates":[[[-123.566266,44.166202],[-123.56902,44.166177],[-123.571525,44.166154],[-123.571544,44.166138],[-123.571576,44.166065],[-123.571632,44.16598],[-123.571647,44.165881],[-123.571651,44.165765],[-123.57163,44.165649],[-123.571638,44.1655],[-123.571628,44.165312],[-123.571626,44.165302],[-123.571576,44.16507],[-123.571491,44.165066],[-123.569335,44.164977],[-123.569172,44.164969],[-123.568972,44.164959],[-123.566243,44.164831],[-123.566266,44.166202]]]}},{"type":"Feature","properties":{"MAPTAXLOT":"1607200000102","MAPNUMBER":"16072000","TAXLOT":"102","ACCTNO":"1765757","MAPACRES":69.66329874},"geometry":{"type":"Polygon","coordinates":[[[-123.563116,44.173966],[-123.563432,44.17397],[-123.563498,44.173971],[-123.563403,44.173879],[-123.563397,44.173814],[-123.563384,44.17368],[-123.563651,44.173478],[-123.563651,44.173478],[-123.563678,44.173475],[-123.563825,44.173462],[-123.563825,44.173462],[-123.563841,44.173462],[-123.563841,44.173462],[-123.564021,44.173468],[-123.564022,44.173468],[-123.564284,44.17342],[-123.564284,44.17342],[-123.564435,44.17339],[-123.564499,44.173348],[-123.564624,44.173181],[-123.564794,44.173048],[-123.564793,44.173046],[-123.564755,44.172898],[-123.564605,44.17282],[-123.564323,44.172827],[-123.564323,44.172827],[-123.564237,44.17279],[-123.564141,44.172748],[-123.564102,44.172612],[-123.564101,44.172549],[-123.5641,44.172465],[-123.564196,44.172351],[-123.564196,44.172351],[-123.564216,44.172347],[-123.564217,44.172347],[-123.564217,44.172347],[-123.564217,44.172347],[-123.564318,44.172325],[-123.564382,44.172137],[-123.564338,44.172135],[-123.564338,44.172135],[-123.564174,44.172124],[-123.564174,44.172124],[-123.564031,44.172161],[-123.563995,44.17217],[-123.563995,44.17217],[-123.564038,44.17199],[-123.564178,44.171826],[-123.564929,44.171519],[-123.564929,44.171519],[-123.566726,44.171265],[-123.567087,44.17109],[-123.567399,44.170697],[-123.568831,44.169956],[-123.569326,44.169495],[-123.568863,44.169719],[-123.567984,44.16984],[-123.567293,44.169742],[-123.566056,44.169631],[-123.56565,44.169646],[-123.563859,44.169767],[-123.563708,44.169777],[-123.562932,44.16999],[-123.562072,44.17001],[-123.561193,44.170239],[-123.560776,44.170432],[-123.560292,44.170525],[-123.559635,44.170465],[-123.558764,44.17065],[-123.558732,44.170661],[-123.557939,44.17095],[-123.557008,44.171179],[-123.556978,44.173896],[-123.559036,44.173919],[-123.562583,44.17396],[-123.563116,44.173966]]]}},{"type":"Feature","properties":{"MAPTAXLOT":"1607200000103","MAPNUMBER":"16072000","TAXLOT":"103","ACCTNO":"1765823","MAPACRES":14.3525799},"geometry":{"type":"Polygon","coordinates":[[[-123.563857,44.1695],[-123.557028,44.169409],[-123.557024,44.169828],[-123.557008,44.171179],[-123.557939,44.17095],[-123.558732,44.170661],[-123.558764,44.17065],[-123.559635,44.170465],[-123.560292,44.170525],[-123.560776,44.170432],[-123.561193,44.170239],[-123.562072,44.17001],[-123.562932,44.16999],[-123.563708,44.169777],[-123.563859,44.169767],[-123.563857,44.1695]]]}},{"type":"Feature","properties":{"MAPTAXLOT":"1607200000104","MAPNUMBER":"16072000","TAXLOT":"104","ACCTNO":"1765872","MAPACRES":25.74194756},"geometry":{"type":"Polygon","coordinates":[[[-123.563857,44.1695],[-123.563859,44.169767],[-123.56565,44.169646],[-123.566056,44.169631],[-123.567293,44.169742],[-123.567984,44.16984],[-123.568863,44.169719],[-123.569326,44.169495],[-123.569555,44.169282],[-123.56972,44.168722],[-123.569398,44.168514],[-123.568799,44.167873],[-123.568981,44.167361],[-123.569131,44.167219],[-123.569183,44.167144],[-123.569914,44.166666],[-123.570035,44.166548],[-123.570035,44.166548],[-123.570128,44.166561],[-123.570246,44.166519],[-123.570318,44.166492],[-123.570326,44.166489],[-123.570482,44.16643],[-123.570832,44.166298],[-123.570833,44.166298],[-123.571247,44.166251],[-123.571367,44.166219],[-123.571367,44.166219],[-123.571457,44.166213],[-123.571525,44.166154],[-123.56902,44.166177],[-123.566266,44.166202],[-123.566322,44.169533],[-123.563857,44.1695]]]}},{"type":"Feature","properties":{"MAPTAXLOT":"1607200000200","MAPNUMBER":"16072000","TAXLOT":"200","ACCTNO":"0072056","MAPACRES":19.15137203},"geometry":{"type":"Polygon","coordinates":[[[-123.554087,44.166311],[-123.558987,44.166267],[-123.558987,44.166248],[-123.558964,44.162708],[-123.554087,44.166311]]]}},{"type":"Feature","properties":{"MAPTAXLOT":"1607200000201","MAPNUMBER":"16072000","TAXLOT":"201","ACCTNO":"1539459","MAPACRES":55.75832783},"geometry":{"type":"MultiPolygon","coordinates":[[[[-123.558987,44.166248],[-123.558987,44.166267],[-123.55902,44.166267],[-123.563832,44.166224],[-123.563804,44.162657],[-123.558964,44.162708],[-123.558987,44.166248]]],[[[-123.568747,44.162599],[-123.570269,44.162552],[-123.570307,44.160481],[-123.57145,44.160463],[-123.571455,44.160189],[-123.572293,44.160176],[-123.572303,44.159627],[-123.571922,44.159633],[-123.571935,44.158947],[-123.568719,44.158998],[-123.568747,44.162599]]]]}},{"type":"Feature","properties":{"MAPTAXLOT":"1607200000203","MAPNUMBER":"16072000","TAXLOT":"203","ACCTNO":"1765849","MAPACRES":85.88371027},"geometry":{"type":"Polygon","coordinates":[[[-123.563832,44.166224],[-123.55902,44.166267],[-123.558987,44.166267],[-123.554087,44.166311],[-123.554063,44.168369],[-123.554047,44.169854],[-123.554,44.173862],[-123.554365,44.173866],[-123.554378,44.173826],[-123.55409,44.173536],[-123.554639,44.172954],[-123.555236,44.172016],[-123.555396,44.171787],[-123.555798,44.171721],[-123.556829,44.171223],[-123.557008,44.171179],[-123.557024,44.169828],[-123.557028,44.169409],[-123.563857,44.1695],[-123.563832,44.166224]]]}},{"type":"Feature","properties":{"MAPTAXLOT":"1607200000204","MAPNUMBER":"16072000","TAXLOT":"204","ACCTNO":"1765880","MAPACRES":17.77390194},"geometry":{"type":"Polygon","coordinates":[[[-123.566266,44.166202],[-123.563832,44.166224],[-123.563857,44.1695],[-123.566322,44.169533],[-123.566266,44.166202]]]}},{"type":"Feature","properties":{"MAPTAXLOT":"1607200000205","MAPNUMBER":"16072000","TAXLOT":"205","ACCTNO":"1765922","MAPACRES":43.91719954},"geometry":{"type":"Polygon","coordinates":[[[-123.571576,44.16507],[-123.571518,44.16495],[-123.571511,44.164936],[-123.571335,44.164597],[-123.571323,44.164575],[-123.571172,44.164181],[-123.571096,44.163983],[-123.571049,44.163883],[-123.570972,44.16372],[-123.570828,44.163415],[-123.570857,44.16316],[-123.570864,44.162836],[-123.570576,44.162618],[-123.570556,44.162548],[-123.570269,44.162552],[-123.568747,44.162599],[-123.563804,44.162657],[-123.563832,44.166224],[-123.566266,44.166202],[-123.566243,44.164831],[-123.568972,44.164959],[-123.569172,44.164969],[-123.569335,44.164977],[-123.571491,44.165066],[-123.571576,44.16507]]]}},{"type":"Feature","properties":{"MAPTAXLOT":"1607200000400","MAPNUMBER":"16072000","TAXLOT":"400","ACCTNO":"0072072","MAPACRES":76.21717329},"geometry":{"type":"Polygon","coordinates":[[[-123.563804,44.162657],[-123.568747,44.162599],[-123.568719,44.158998],[-123.568696,44.155515],[-123.563762,44.155697],[-123.563768,44.157797],[-123.563777,44.159076],[-123.563804,44.162657]]]}},{"type":"Feature","properties":{"MAPTAXLOT":"1607200000700","MAPNUMBER":"16072000","TAXLOT":"700","ACCTNO":"0072114","MAPACRES":25.18776863},"geometry":{"type":"Polygon","coordinates":[[[-123.568696,44.155515],[-123.568719,44.158998],[-123.571935,44.158947],[-123.571936,44.158852],[-123.571962,44.157438],[-123.571999,44.155392],[-123.568696,44.155515]]]}},{"type":"Feature","properties":{"MAPTAXLOT":"1607200000800","MAPNUMBER":"16072000","TAXLOT":"800","ACCTNO":"0072148","MAPACRES":32.50492855},"geometry":{"type":"Polygon","coordinates":[[[-123.558964,44.162708],[-123.563804,44.162657],[-123.563777,44.159076],[-123.563768,44.157797],[-123.563768,44.157798],[-123.558966,44.161441],[-123.558964,44.162708]]]}},{"type":"Feature","properties":{"MAPTAXLOT":"1607200000900","MAPNUMBER":"16072000","TAXLOT":"900","ACCTNO":"0072155","MAPACRES":41.40858938},"geometry":{"type":"Polygon","coordinates":[[[-123.55897,44.159151],[-123.558966,44.161441],[-123.563768,44.157798],[-123.563768,44.157797],[-123.563762,44.155697],[-123.558977,44.155675],[-123.55897,44.159151]]]}},{"type":"Feature","properties":{"MAPTAXLOT":"1607200001000","MAPNUMBER":"16072000","TAXLOT":"1000","ACCTNO":"0072163","MAPACRES":93.52337473},"geometry":{"type":"Polygon","coordinates":[[[-123.554103,44.164857],[-123.554087,44.166311],[-123.558964,44.162708],[-123.558966,44.161441],[-123.55897,44.159151],[-123.558977,44.155675],[-123.554203,44.155649],[-123.554179,44.157803],[-123.554164,44.159227],[-123.554141,44.161345],[-123.554126,44.162768],[-123.554103,44.164857]]]}},{"type":"Feature","properties":{"MAPTAXLOT":"1707000000400","MAPNUMBER":"17070000","TAXLOT":"400","ACCTNO":"0522928","MAPACRES":620.82204829},"geometry":{"type":"Polygon","coordinates":[[[-123.516857,44.128997],[-123.521892,44.129009],[-123.526927,44.12902],[-123.526927,44.12902],[-123.526927,44.12902],[-123.531963,44.12903],[-123.532438,44.125827],[-123.532915,44.122617],[-123.533054,44.119119],[-123.533192,44.11562],[-123.527999,44.115478],[-123.522806,44.115335],[-123.517612,44.115192],[-123.512419,44.115048],[-123.512269,44.118534],[-123.512119,44.122019],[-123.51197,44.125502],[-123.511821,44.128986],[-123.516856,44.128997],[-123.516857,44.128997]]]}},{"type":"Feature","properties":{"MAPTAXLOT":"1707000000500","MAPNUMBER":"17070000","TAXLOT":"500","ACCTNO":"0522936","MAPACRES":78.11623439},"geometry":{"type":"Polygon","coordinates":[[[-123.532915,44.122617],[-123.532438,44.125827],[-123.53798,44.125255],[-123.543521,44.124682],[-123.543669,44.121312],[-123.538292,44.121964],[-123.532915,44.122617]]]}},{"type":"Feature","properties":{"MAPTAXLOT":"1707000000600","MAPNUMBER":"17070000","TAXLOT":"600","ACCTNO":"0522944","MAPACRES":80.85412427},"geometry":{"type":"Polygon","coordinates":[[[-123.53798,44.125255],[-123.532438,44.125827],[-123.531963,44.12903],[-123.537124,44.128601],[-123.542287,44.12817],[-123.543373,44.128079],[-123.543521,44.124682],[-123.53798,44.125255]]]}},{"type":"Feature","properties":{"MAPTAXLOT":"1707000000700","MAPNUMBER":"17070000","TAXLOT":"700","ACCTNO":"0522951","MAPACRES":169.34880234},"geometry":{"type":"Polygon","coordinates":[[[-123.543521,44.124682],[-123.543373,44.128079],[-123.547366,44.127695],[-123.549059,44.127531],[-123.554744,44.126986],[-123.554728,44.123865],[-123.554726,44.123523],[-123.554709,44.120337],[-123.554712,44.11997],[-123.549213,44.120638],[-123.543669,44.121312],[-123.543521,44.124682]]]}},{"type":"Feature","properties":{"MAPTAXLOT":"1707000000800","MAPNUMBER":"17070000","TAXLOT":"800","ACCTNO":"0522969","MAPACRES":84.48108582},"geometry":{"type":"Polygon","coordinates":[[[-123.543823,44.117798],[-123.543669,44.121312],[-123.549213,44.120638],[-123.554712,44.11997],[-123.554734,44.116802],[-123.554737,44.116459],[-123.549292,44.117127],[-123.543823,44.117798]]]}},{"type":"Feature","properties":{"MAPTAXLOT":"1707000000900","MAPNUMBER":"17070000","TAXLOT":"900","ACCTNO":"0522977","MAPACRES":84.04260359},"geometry":{"type":"Polygon","coordinates":[[[-123.543979,44.114238],[-123.543823,44.117798],[-123.549292,44.117127],[-123.554737,44.116459],[-123.55476,44.113267],[-123.554762,44.112949],[-123.549371,44.113594],[-123.543979,44.114238]]]}},{"type":"Feature","properties":{"MAPTAXLOT":"1707000001000","MAPNUMBER":"17070000","TAXLOT":"1000","ACCTNO":"0522985","MAPACRES":165.66855425},"geometry":{"type":"Polygon","coordinates":[[[-123.533054,44.119119],[-123.532915,44.122617],[-123.538292,44.121964],[-123.543669,44.121312],[-123.543823,44.117798],[-123.543979,44.114238],[-123.538586,44.114929],[-123.533192,44.11562],[-123.533054,44.119119]]]}},{"type":"Feature","properties":{"MAPTAXLOT":"1707000001100","MAPNUMBER":"17070000","TAXLOT":"1100","ACCTNO":"0522993","MAPACRES":586.32972317},"geometry":{"type":"Polygon","coordinates":[[[-123.554744,44.126986],[-123.559558,44.127011],[-123.564371,44.127036],[-123.564371,44.127036],[-123.569268,44.127061],[-123.574166,44.127086],[-123.574216,44.124216],[-123.574277,44.120733],[-123.574286,44.12031],[-123.574355,44.117133],[-123.574433,44.113533],[-123.569515,44.113467],[-123.564596,44.1134],[-123.559678,44.113334],[-123.55476,44.113267],[-123.554737,44.116459],[-123.554734,44.116802],[-123.554712,44.11997],[-123.554709,44.120337],[-123.554726,44.123523],[-123.554728,44.123865],[-123.554744,44.126986]]]}},{"type":"Feature","properties":{"MAPTAXLOT":"1707000001500","MAPNUMBER":"17070000","TAXLOT":"1500","ACCTNO":"0523058","MAPACRES":460.49056824},"geometry":{"type":"Polygon","coordinates":[[[-123.569515,44.113467],[-123.574433,44.113533],[-123.574426,44.10994],[-123.57442,44.106347],[-123.569515,44.106311],[-123.56461,44.106276],[-123.564617,44.102713],[-123.564623,44.09915],[-123.559732,44.099146],[-123.554841,44.099141],[-123.554823,44.102435],[-123.554821,44.102672],[-123.554803,44.10594],[-123.5548,44.106204],[-123.554783,44.109444],[-123.55478,44.109735],[-123.554762,44.112949],[-123.55476,44.113267],[-123.559678,44.113334],[-123.564596,44.1134],[-123.569515,44.113467]]]}},{"type":"Feature","properties":{"MAPTAXLOT":"1707000001600","MAPNUMBER":"17070000","TAXLOT":"1600","ACCTNO":"0523066","MAPACRES":154.12223348},"geometry":{"type":"Polygon","coordinates":[[[-123.569515,44.106311],[-123.57442,44.106347],[-123.574413,44.102753],[-123.574406,44.09916],[-123.569515,44.099155],[-123.564623,44.09915],[-123.564617,44.102713],[-123.56461,44.106276],[-123.569515,44.106311]]]}},{"type":"Feature","properties":{"MAPTAXLOT":"1707000001700","MAPNUMBER":"17070000","TAXLOT":"1700","ACCTNO":"0523074","MAPACRES":660.39110415},"geometry":{"type":"Polygon","coordinates":[[[-123.533289,44.1121],[-123.533192,44.11562],[-123.538586,44.114929],[-123.543979,44.114238],[-123.549371,44.113594],[-123.554762,44.112949],[-123.55478,44.109735],[-123.554783,44.109444],[-123.5548,44.106204],[-123.554803,44.10594],[-123.554821,44.102672],[-123.554823,44.102435],[-123.554841,44.099141],[-123.554843,44.098931],[-123.544408,44.100189],[-123.533523,44.101512],[-123.533454,44.105046],[-123.533385,44.108579],[-123.533289,44.1121]]]}},{"type":"Feature","properties":{"MAPTAXLOT":"1707000001800","MAPNUMBER":"17070000","TAXLOT":"1800","ACCTNO":"0523082","MAPACRES":320.77366423},"geometry":{"type":"Polygon","coordinates":[[[-123.527999,44.115478],[-123.533192,44.11562],[-123.533289,44.1121],[-123.533385,44.108579],[-123.533454,44.105046],[-123.533523,44.101512],[-123.528389,44.101378],[-123.523255,44.101243],[-123.523143,44.104767],[-123.52303,44.108291],[-123.522918,44.111813],[-123.522806,44.115335],[-123.527999,44.115478]]]}},{"type":"Feature","properties":{"MAPTAXLOT":"1707000001900","MAPNUMBER":"17070000","TAXLOT":"1900","ACCTNO":"0523090","MAPACRES":160.50974864},"geometry":{"type":"Polygon","coordinates":[[[-123.517612,44.115192],[-123.522806,44.115335],[-123.522918,44.111813],[-123.52303,44.108291],[-123.517867,44.108147],[-123.512709,44.108002],[-123.512564,44.111525],[-123.512419,44.115048],[-123.517612,44.115192]]]}},{"type":"Feature","properties":{"MAPTAXLOT":"1707000002300","MAPNUMBER":"17070000","TAXLOT":"2300","ACCTNO":"0523132","MAPACRES":159.46184084},"geometry":{"type":"Polygon","coordinates":[[[-123.517867,44.108147],[-123.52303,44.108291],[-123.523143,44.104767],[-123.523255,44.101243],[-123.518121,44.101108],[-123.512987,44.100973],[-123.512848,44.104487],[-123.512709,44.108002],[-123.517867,44.108147]]]}},{"type":"Feature","properties":{"MAPTAXLOT":"1707000002400","MAPNUMBER":"17070000","TAXLOT":"2400","ACCTNO":"0523140","MAPACRES":655.15451482},"geometry":{"type":"Polygon","coordinates":[[[-123.491953,44.104129],[-123.492055,44.107832],[-123.492055,44.107833],[-123.492157,44.111535],[-123.492233,44.114332],[-123.492258,44.115237],[-123.497356,44.115176],[-123.502454,44.115115],[-123.50272,44.115114],[-123.507437,44.115082],[-123.512419,44.115048],[-123.512564,44.111525],[-123.512709,44.108002],[-123.512848,44.104487],[-123.512987,44.100973],[-123.50244,44.1007],[-123.491851,44.100426],[-123.491953,44.104129]]]}},{"type":"Feature","properties":{"MAPTAXLOT":"1707000002500","MAPNUMBER":"17070000","TAXLOT":"2500","ACCTNO":"0523157","MAPACRES":172.10463263},"geometry":{"type":"Polygon","coordinates":[[[-123.491851,44.100426],[-123.50244,44.1007],[-123.502785,44.093551],[-123.49191,44.093001],[-123.491883,44.096719],[-123.491851,44.100426]]]}},{"type":"Feature","properties":{"MAPTAXLOT":"1707000002800","MAPNUMBER":"17070000","TAXLOT":"2800","ACCTNO":"0523181","MAPACRES":160.99048615},"geometry":{"type":"Polygon","coordinates":[[[-123.50244,44.1007],[-123.512987,44.100973],[-123.513062,44.094072],[-123.502785,44.093551],[-123.50244,44.1007]]]}},{"type":"Feature","properties":{"MAPTAXLOT":"1707000002900","MAPNUMBER":"17070000","TAXLOT":"2900","ACCTNO":"0523199","MAPACRES":663.5869953},"geometry":{"type":"Polygon","coordinates":[[[-123.528389,44.101378],[-123.533523,44.101512],[-123.533668,44.09404],[-123.5341,44.086804],[-123.528859,44.086734],[-123.523618,44.086665],[-123.518367,44.086577],[-123.513116,44.086489],[-123.513062,44.094072],[-123.512987,44.100973],[-123.518121,44.101108],[-123.523255,44.101243],[-123.528389,44.101378]]]}},{"type":"Feature","properties":{"MAPTAXLOT":"1707000003000","MAPNUMBER":"17070000","TAXLOT":"3000","ACCTNO":"0523207","MAPACRES":664.97105728},"geometry":{"type":"Polygon","coordinates":[[[-123.533668,44.09404],[-123.533523,44.101512],[-123.544408,44.100189],[-123.554843,44.098931],[-123.554837,44.095548],[-123.554837,44.09542],[-123.554831,44.091954],[-123.554831,44.091908],[-123.554824,44.08842],[-123.554824,44.088397],[-123.554817,44.084886],[-123.544541,44.085854],[-123.5341,44.086804],[-123.533668,44.09404]]]}},{"type":"Feature","properties":{"MAPTAXLOT":"1707020000100","MAPNUMBER":"17070200","TAXLOT":"100","ACCTNO":"1474491","MAPACRES":230.44875748},"geometry":{"type":"Polygon","coordinates":[[[-123.497165,44.128955],[-123.502251,44.128966],[-123.502349,44.122319],[-123.50237,44.120855],[-123.502401,44.118732],[-123.497306,44.118834],[-123.492056,44.118939],[-123.491855,44.122641],[-123.491967,44.125795],[-123.492079,44.128944],[-123.492101,44.128944],[-123.497165,44.128955]]]}},{"type":"Feature","properties":{"MAPTAXLOT":"1707020000201","MAPNUMBER":"17070200","TAXLOT":"201","ACCTNO":"1644960","MAPACRES":81.76154333},"geometry":{"type":"Polygon","coordinates":[[[-123.502401,44.118732],[-123.50237,44.120855],[-123.506434,44.12073],[-123.506494,44.11865],[-123.507334,44.118633],[-123.507387,44.11679],[-123.502693,44.116919],[-123.502428,44.116926],[-123.497332,44.116931],[-123.492166,44.116937],[-123.492056,44.118939],[-123.497306,44.118834],[-123.502401,44.118732]]]}},{"type":"Feature","properties":{"MAPTAXLOT":"1707020000202","MAPNUMBER":"17070200","TAXLOT":"202","ACCTNO":"1644986","MAPACRES":40.50772215},"geometry":{"type":"Polygon","coordinates":[[[-123.497332,44.116931],[-123.502428,44.116926],[-123.502693,44.116919],[-123.50272,44.115114],[-123.502454,44.115115],[-123.497356,44.115176],[-123.492258,44.115237],[-123.492187,44.116536],[-123.49218,44.116678],[-123.492166,44.116937],[-123.497332,44.116931]]]}},{"type":"Feature","properties":{"MAPTAXLOT":"1707020000300","MAPNUMBER":"17070200","TAXLOT":"300","ACCTNO":"1474517","MAPACRES":258.50886395},"geometry":{"type":"Polygon","coordinates":[[[-123.507036,44.128976],[-123.511821,44.128986],[-123.51197,44.125502],[-123.512119,44.122019],[-123.512269,44.118534],[-123.512419,44.115048],[-123.507437,44.115082],[-123.50272,44.115114],[-123.502693,44.116919],[-123.507387,44.11679],[-123.507334,44.118633],[-123.506494,44.11865],[-123.506434,44.12073],[-123.50237,44.120855],[-123.502349,44.122319],[-123.502251,44.128966],[-123.507036,44.128976]]]}}]}