{"type":"FeatureCollection","features":[{"type":"Feature","properties":{"MAPTAXLOT":"1735000000700","MAPNUMBER":"17350000","TAXLOT":"700","ACCTNO":"0552065","MAPACRES":487.40843889},"geometry":{"type":"Polygon","coordinates":[[[-122.462174,44.112975],[-122.466058,44.112975],[-122.465965,44.109425],[-122.465872,44.105874],[-122.465686,44.098773],[-122.460614,44.098713],[-122.455541,44.098653],[-122.450469,44.098592],[-122.445396,44.098531],[-122.445394,44.102084],[-122.445393,44.105637],[-122.450811,44.1057],[-122.450983,44.109277],[-122.45642,44.109331],[-122.456518,44.110511],[-122.456535,44.110509],[-122.457562,44.110412],[-122.458453,44.110517],[-122.459209,44.1106],[-122.45984,44.110908],[-122.460395,44.111274],[-122.460773,44.11152],[-122.461267,44.112047],[-122.461826,44.112532],[-122.462174,44.112975]]]}},{"type":"Feature","properties":{"MAPTAXLOT":"1735000001200","MAPNUMBER":"17350000","TAXLOT":"1200","ACCTNO":"0552123","MAPACRES":152.36732019},"geometry":{"type":"Polygon","coordinates":[[[-122.400493,44.102087],[-122.405523,44.102044],[-122.405528,44.098528],[-122.400507,44.098605],[-122.395486,44.098682],[-122.390466,44.098759],[-122.385445,44.098835],[-122.385382,44.102211],[-122.390435,44.10217],[-122.395464,44.102128],[-122.400493,44.102087]]]}},{"type":"Feature","properties":{"MAPTAXLOT":"1735000001300","MAPNUMBER":"17350000","TAXLOT":"1300","ACCTNO":"0552131","MAPACRES":194.85501102},"geometry":{"type":"Polygon","coordinates":[[[-122.400541,44.091705],[-122.40562,44.091626],[-122.405568,44.088002],[-122.400558,44.088118],[-122.400574,44.084528],[-122.395635,44.084679],[-122.390698,44.084829],[-122.390643,44.088345],[-122.390584,44.091859],[-122.395562,44.091782],[-122.400541,44.091705]]]}},{"type":"Feature","properties":{"MAPTAXLOT":"1735000001301","MAPNUMBER":"17350000","TAXLOT":"1301","ACCTNO":"1722139","MAPACRES":228.50303654},"geometry":{"type":"Polygon","coordinates":[[[-122.400507,44.098605],[-122.405528,44.098528],[-122.405574,44.095077],[-122.40562,44.091626],[-122.400541,44.091705],[-122.395562,44.091782],[-122.395524,44.095232],[-122.390525,44.095309],[-122.38551,44.095386],[-122.385448,44.098689],[-122.385445,44.098835],[-122.390466,44.098759],[-122.395486,44.098682],[-122.400507,44.098605]]]}},{"type":"Feature","properties":{"MAPTAXLOT":"1735000001400","MAPNUMBER":"17350000","TAXLOT":"1400","ACCTNO":"0552149","MAPACRES":75.83619819},"geometry":{"type":"Polygon","coordinates":[[[-122.390525,44.095309],[-122.395524,44.095232],[-122.395562,44.091782],[-122.390584,44.091859],[-122.385575,44.091936],[-122.385514,44.095172],[-122.38551,44.095386],[-122.390525,44.095309]]]}},{"type":"Feature","properties":{"MAPTAXLOT":"1735000001500","MAPNUMBER":"17350000","TAXLOT":"1500","ACCTNO":"0552156","MAPACRES":38.3437859},"geometry":{"type":"Polygon","coordinates":[[[-122.385575,44.091936],[-122.390584,44.091859],[-122.390643,44.088345],[-122.385672,44.088458],[-122.385583,44.091656],[-122.385575,44.091936]]]}},{"type":"Feature","properties":{"MAPTAXLOT":"1735000001600","MAPNUMBER":"17350000","TAXLOT":"1600","ACCTNO":"0552164","MAPACRES":38.03865192},"geometry":{"type":"Polygon","coordinates":[[[-122.385681,44.088139],[-122.385672,44.088458],[-122.390643,44.088345],[-122.390698,44.084829],[-122.385769,44.08498],[-122.385681,44.088139]]]}},{"type":"Feature","properties":{"MAPTAXLOT":"1735000001700","MAPNUMBER":"17350000","TAXLOT":"1700","ACCTNO":"0552172","MAPACRES":39.46257888},"geometry":{"type":"Polygon","coordinates":[[[-122.400574,44.084528],[-122.400558,44.088118],[-122.405568,44.088002],[-122.405512,44.084378],[-122.400574,44.084528]]]}},{"type":"Feature","properties":{"MAPTAXLOT":"1735000001800","MAPNUMBER":"17350000","TAXLOT":"1800","ACCTNO":"0552180","MAPACRES":75.15882853},"geometry":{"type":"Polygon","coordinates":[[[-122.405528,44.098528],[-122.410536,44.098551],[-122.410507,44.095067],[-122.410478,44.091597],[-122.40562,44.091626],[-122.405574,44.095077],[-122.405528,44.098528]]]}},{"type":"Feature","properties":{"MAPTAXLOT":"1735000002000","MAPNUMBER":"17350000","TAXLOT":"2000","ACCTNO":"0552206","MAPACRES":536.85442984},"geometry":{"type":"Polygon","coordinates":[[[-122.405568,44.088002],[-122.40562,44.091626],[-122.410478,44.091597],[-122.410507,44.095067],[-122.410536,44.098551],[-122.415545,44.098574],[-122.420475,44.098567],[-122.425405,44.09856],[-122.425318,44.095033],[-122.425231,44.091506],[-122.425158,44.087955],[-122.425085,44.084403],[-122.420209,44.084414],[-122.415325,44.084424],[-122.410419,44.084401],[-122.405512,44.084378],[-122.405568,44.088002]]]}},{"type":"Feature","properties":{"MAPTAXLOT":"1735000002100","MAPNUMBER":"17350000","TAXLOT":"2100","ACCTNO":"0552214","MAPACRES":606.10309791},"geometry":{"type":"Polygon","coordinates":[[[-122.440335,44.098514],[-122.445396,44.098531],[-122.444921,44.094981],[-122.444445,44.09143],[-122.444469,44.084297],[-122.434777,44.08435],[-122.425085,44.084403],[-122.425158,44.087955],[-122.425231,44.091506],[-122.425318,44.095033],[-122.425405,44.09856],[-122.43034,44.098527],[-122.435275,44.098495],[-122.440335,44.098514]]]}},{"type":"Feature","properties":{"MAPTAXLOT":"1735000002200","MAPNUMBER":"17350000","TAXLOT":"2200","ACCTNO":"0552222","MAPACRES":234.47197812},"geometry":{"type":"Polygon","coordinates":[[[-122.460614,44.098713],[-122.465686,44.098773],[-122.464942,44.095223],[-122.464198,44.091673],[-122.454321,44.091552],[-122.454931,44.095102],[-122.444921,44.094981],[-122.445396,44.098531],[-122.450469,44.098592],[-122.455541,44.098653],[-122.460614,44.098713]]]}},{"type":"Feature","properties":{"MAPTAXLOT":"1735000002201","MAPNUMBER":"17350000","TAXLOT":"2201","ACCTNO":"0552230","MAPACRES":393.99048927},"geometry":{"type":"Polygon","coordinates":[[[-122.444921,44.094981],[-122.454931,44.095102],[-122.454321,44.091552],[-122.464198,44.091673],[-122.464268,44.084251],[-122.444469,44.084297],[-122.444445,44.09143],[-122.444921,44.094981]]]}},{"type":"Feature","properties":{"MAPTAXLOT":"1735000002800","MAPNUMBER":"17350000","TAXLOT":"2800","ACCTNO":"0552297","MAPACRES":589.57986593},"geometry":{"type":"Polygon","coordinates":[[[-122.444469,44.084297],[-122.464268,44.084251],[-122.466385,44.070505],[-122.456354,44.071004],[-122.445748,44.070881],[-122.445483,44.078195],[-122.444469,44.084297]]]}},{"type":"Feature","properties":{"MAPTAXLOT":"1735000002900","MAPNUMBER":"17350000","TAXLOT":"2900","ACCTNO":"0552305","MAPACRES":136.26550587},"geometry":{"type":"Polygon","coordinates":[[[-122.425341,44.078167],[-122.434972,44.07818],[-122.435184,44.071512],[-122.425602,44.071928],[-122.425341,44.078167]]]}},{"type":"Feature","properties":{"MAPTAXLOT":"1735000002901","MAPNUMBER":"17350000","TAXLOT":"2901","ACCTNO":"1866068","MAPACRES":268.09518002},"geometry":{"type":"Polygon","coordinates":[[[-122.425341,44.078167],[-122.425213,44.081285],[-122.425085,44.084403],[-122.434777,44.08435],[-122.444469,44.084297],[-122.445483,44.078195],[-122.434972,44.07818],[-122.425341,44.078167]]]}},{"type":"Feature","properties":{"MAPTAXLOT":"1735000003000","MAPNUMBER":"17350000","TAXLOT":"3000","ACCTNO":"0552313","MAPACRES":161.87944153},"geometry":{"type":"Polygon","coordinates":[[[-122.434972,44.07818],[-122.445483,44.078195],[-122.445748,44.070881],[-122.435184,44.071512],[-122.434972,44.07818]]]}},{"type":"Feature","properties":{"MAPTAXLOT":"1735000003100","MAPNUMBER":"17350000","TAXLOT":"3100","ACCTNO":"0552321","MAPACRES":663.2477007},"geometry":{"type":"Polygon","coordinates":[[[-122.420209,44.084414],[-122.425085,44.084403],[-122.425213,44.081285],[-122.425341,44.078167],[-122.425602,44.071928],[-122.415499,44.071723],[-122.405397,44.071518],[-122.400482,44.071334],[-122.400506,44.074877],[-122.40053,44.078419],[-122.400551,44.081474],[-122.400574,44.084528],[-122.405512,44.084378],[-122.410419,44.084401],[-122.415325,44.084424],[-122.415366,44.081403],[-122.420292,44.081344],[-122.420209,44.084414]]]}},{"type":"Feature","properties":{"MAPTAXLOT":"1735000003200","MAPNUMBER":"17350000","TAXLOT":"3200","ACCTNO":"0552339","MAPACRES":32.84602669},"geometry":{"type":"Polygon","coordinates":[[[-122.415325,44.084424],[-122.420209,44.084414],[-122.420292,44.081344],[-122.415366,44.081403],[-122.415325,44.084424]]]}},{"type":"Feature","properties":{"MAPTAXLOT":"1735000003300","MAPNUMBER":"17350000","TAXLOT":"3300","ACCTNO":"0552347","MAPACRES":254.83143391},"geometry":{"type":"Polygon","coordinates":[[[-122.390682,44.081448],[-122.390698,44.084829],[-122.395635,44.084679],[-122.400574,44.084528],[-122.400551,44.081474],[-122.40053,44.078419],[-122.400506,44.074877],[-122.400482,44.071334],[-122.395567,44.07115],[-122.395584,44.074696],[-122.390663,44.074516],[-122.390673,44.078064],[-122.390682,44.081448]]]}},{"type":"Feature","properties":{"MAPTAXLOT":"1735000003400","MAPNUMBER":"17350000","TAXLOT":"3400","ACCTNO":"0552354","MAPACRES":188.89716298},"geometry":{"type":"Polygon","coordinates":[[[-122.385785,44.084622],[-122.385769,44.08498],[-122.390698,44.084829],[-122.390682,44.081448],[-122.390673,44.078064],[-122.390663,44.074516],[-122.395584,44.074696],[-122.395567,44.07115],[-122.390654,44.070967],[-122.385741,44.070783],[-122.385779,44.073904],[-122.385784,44.074336],[-122.385822,44.077476],[-122.385826,44.077889],[-122.385807,44.081049],[-122.385804,44.081435],[-122.385785,44.084622]]]}},{"type":"Feature","properties":{"MAPTAXLOT":"1735000003500","MAPNUMBER":"17350000","TAXLOT":"3500","ACCTNO":"0552362","MAPACRES":348.18422389},"geometry":{"type":"Polygon","coordinates":[[[-122.390654,44.070967],[-122.395567,44.07115],[-122.395564,44.063988],[-122.400513,44.064142],[-122.400529,44.060561],[-122.400543,44.056979],[-122.395559,44.056882],[-122.390575,44.056785],[-122.390595,44.060309],[-122.385632,44.060183],[-122.38567,44.063343],[-122.385672,44.063678],[-122.385704,44.066837],[-122.385707,44.067231],[-122.385738,44.070331],[-122.385741,44.070783],[-122.390654,44.070967]]]}},{"type":"Feature","properties":{"MAPTAXLOT":"1735000003600","MAPNUMBER":"17350000","TAXLOT":"3600","ACCTNO":"0552370","MAPACRES":38.38632321},"geometry":{"type":"Polygon","coordinates":[[[-122.385632,44.060183],[-122.390595,44.060309],[-122.390575,44.056785],[-122.385592,44.056688],[-122.38563,44.059849],[-122.385632,44.060183]]]}},{"type":"Feature","properties":{"MAPTAXLOT":"1735000003700","MAPNUMBER":"17350000","TAXLOT":"3700","ACCTNO":"0552388","MAPACRES":1352.09851533},"geometry":{"type":"Polygon","coordinates":[[[-122.395567,44.07115],[-122.400482,44.071334],[-122.405397,44.071518],[-122.415499,44.071723],[-122.425602,44.071928],[-122.425501,44.064674],[-122.4254,44.057421],[-122.420432,44.057335],[-122.420295,44.042659],[-122.416527,44.04264],[-122.415074,44.042633],[-122.4115,44.042633],[-122.41018,44.042633],[-122.406472,44.042634],[-122.405285,44.042634],[-122.405346,44.046244],[-122.405407,44.049854],[-122.405468,44.053465],[-122.405529,44.057076],[-122.400543,44.056979],[-122.400529,44.060561],[-122.400513,44.064142],[-122.395564,44.063988],[-122.395567,44.07115]]]}},{"type":"Feature","properties":{"MAPTAXLOT":"1735000003800","MAPNUMBER":"17350000","TAXLOT":"3800","ACCTNO":"0552396","MAPACRES":643.6561957},"geometry":{"type":"Polygon","coordinates":[[[-122.425501,44.064674],[-122.425602,44.071928],[-122.435184,44.071512],[-122.445748,44.070881],[-122.445177,44.063566],[-122.445148,44.056272],[-122.440153,44.056416],[-122.435158,44.056559],[-122.4254,44.057421],[-122.425501,44.064674]]]}},{"type":"Feature","properties":{"MAPTAXLOT":"1735000003900","MAPNUMBER":"17350000","TAXLOT":"3900","ACCTNO":"0552404","MAPACRES":673.81952838},"geometry":{"type":"Polygon","coordinates":[[[-122.445748,44.070881],[-122.456354,44.071004],[-122.466385,44.070505],[-122.466308,44.0634],[-122.46592,44.056151],[-122.445148,44.056272],[-122.445177,44.063566],[-122.445748,44.070881]]]}},{"type":"Feature","properties":{"MAPTAXLOT":"1735000004400","MAPNUMBER":"17350000","TAXLOT":"4400","ACCTNO":"0552453","MAPACRES":638.40214745},"geometry":{"type":"Polygon","coordinates":[[[-122.466816,44.041664],[-122.464026,44.041743],[-122.461831,44.041805],[-122.461794,44.041806],[-122.456772,44.041947],[-122.456675,44.04195],[-122.451759,44.042101],[-122.451481,44.042109],[-122.446744,44.042254],[-122.446284,44.042268],[-122.446403,44.04973],[-122.445776,44.053001],[-122.445148,44.056272],[-122.46592,44.056151],[-122.466987,44.041661],[-122.466816,44.041664]]]}},{"type":"Feature","properties":{"MAPTAXLOT":"1735000004500","MAPNUMBER":"17350000","TAXLOT":"4500","ACCTNO":"0552461","MAPACRES":276.23673285},"geometry":{"type":"Polygon","coordinates":[[[-122.441711,44.04249],[-122.441069,44.042521],[-122.441068,44.042521],[-122.440586,44.049838],[-122.440364,44.053205],[-122.435317,44.053396],[-122.425393,44.05377],[-122.4254,44.057421],[-122.435158,44.056559],[-122.440153,44.056416],[-122.445148,44.056272],[-122.445776,44.053001],[-122.446403,44.04973],[-122.446284,44.042268],[-122.441711,44.04249]]]}},{"type":"Feature","properties":{"MAPTAXLOT":"1735000004600","MAPNUMBER":"17350000","TAXLOT":"4600","ACCTNO":"0552479","MAPACRES":198.35267492},"geometry":{"type":"Polygon","coordinates":[[[-122.436678,44.042731],[-122.435853,44.042774],[-122.435852,44.042774],[-122.435491,44.049932],[-122.425387,44.050118],[-122.425393,44.05377],[-122.435317,44.053396],[-122.440364,44.053205],[-122.440586,44.049838],[-122.441068,44.042521],[-122.436678,44.042731]]]}},{"type":"Feature","properties":{"MAPTAXLOT":"1735000004700","MAPNUMBER":"17350000","TAXLOT":"4700","ACCTNO":"0552487","MAPACRES":164.05680417},"geometry":{"type":"Polygon","coordinates":[[[-122.425387,44.050118],[-122.435491,44.049932],[-122.435852,44.042774],[-122.43164,44.042738],[-122.430684,44.042729],[-122.4266,44.042695],[-122.425516,44.042685],[-122.425387,44.050118]]]}},{"type":"Feature","properties":{"MAPTAXLOT":"1735000004800","MAPNUMBER":"17350000","TAXLOT":"4800","ACCTNO":"0552495","MAPACRES":163.71135453},"geometry":{"type":"Polygon","coordinates":[[[-122.420295,44.042659],[-122.420432,44.057335],[-122.4254,44.057421],[-122.425393,44.05377],[-122.425387,44.050118],[-122.425516,44.042685],[-122.421564,44.042665],[-122.420295,44.042659]]]}},{"type":"Feature","properties":{"MAPTAXLOT":"1735000004900","MAPNUMBER":"17350000","TAXLOT":"4900","ACCTNO":"0552503","MAPACRES":195.5592692},"geometry":{"type":"Polygon","coordinates":[[[-122.400543,44.056979],[-122.405529,44.057076],[-122.405468,44.053465],[-122.405407,44.049854],[-122.405346,44.046244],[-122.400416,44.046233],[-122.395486,44.046222],[-122.395511,44.049826],[-122.395535,44.053354],[-122.400501,44.05341],[-122.400543,44.056979]]]}},{"type":"Feature","properties":{"MAPTAXLOT":"1735000005000","MAPNUMBER":"17350000","TAXLOT":"5000","ACCTNO":"0552511","MAPACRES":347.28825647},"geometry":{"type":"Polygon","coordinates":[[[-122.385606,44.056355],[-122.385592,44.056688],[-122.390575,44.056785],[-122.395559,44.056882],[-122.400543,44.056979],[-122.400501,44.05341],[-122.395535,44.053354],[-122.395511,44.049826],[-122.395486,44.046222],[-122.400416,44.046233],[-122.405346,44.046244],[-122.405285,44.042634],[-122.401429,44.042638],[-122.400629,44.042639],[-122.400373,44.042639],[-122.399365,44.04264],[-122.396387,44.042643],[-122.395688,44.042644],[-122.395461,44.042644],[-122.394616,44.04264],[-122.391339,44.042626],[-122.390495,44.042622],[-122.390515,44.046211],[-122.390536,44.049812],[-122.385652,44.049797],[-122.385636,44.052916],[-122.385631,44.053028],[-122.385622,44.053243],[-122.385617,44.054221],[-122.385606,44.056355]]]}},{"type":"Feature","properties":{"MAPTAXLOT":"1735000005100","MAPNUMBER":"17350000","TAXLOT":"5100","ACCTNO":"0552529","MAPACRES":77.83955957},"geometry":{"type":"Polygon","coordinates":[[[-122.3856,44.046039],[-122.3856,44.046039],[-122.385597,44.046199],[-122.385597,44.046199],[-122.385658,44.049478],[-122.385652,44.049797],[-122.390536,44.049812],[-122.390515,44.046211],[-122.390495,44.042622],[-122.386291,44.042604],[-122.385529,44.042601],[-122.3856,44.046039]]]}},{"type":"Feature","properties":{"MAPTAXLOT":"1735100000200","MAPNUMBER":"17351000","TAXLOT":"200","ACCTNO":"0554137","MAPACRES":157.75284818},"geometry":{"type":"Polygon","coordinates":[[[-122.440562,44.109242],[-122.445546,44.109223],[-122.445393,44.105637],[-122.445394,44.102084],[-122.440411,44.102113],[-122.440335,44.098514],[-122.435275,44.098495],[-122.435351,44.102142],[-122.435413,44.105103],[-122.435426,44.105737],[-122.440487,44.105686],[-122.440562,44.109242]]]}},{"type":"Feature","properties":{"MAPTAXLOT":"1735100000300","MAPNUMBER":"17351000","TAXLOT":"300","ACCTNO":"0554145","MAPACRES":86.30637788},"geometry":{"type":"Polygon","coordinates":[[[-122.434794,44.104954],[-122.435413,44.105103],[-122.435351,44.102142],[-122.435275,44.098495],[-122.43034,44.098527],[-122.43042,44.102169],[-122.425506,44.102197],[-122.425532,44.103101],[-122.425681,44.103159],[-122.42641,44.103371],[-122.427356,44.10361],[-122.427904,44.103825],[-122.428172,44.103871],[-122.428909,44.104421],[-122.429565,44.104644],[-122.430512,44.104699],[-122.431403,44.104554],[-122.432166,44.104663],[-122.432636,44.104926],[-122.433426,44.10482],[-122.433794,44.104556],[-122.434257,44.104314],[-122.434794,44.104954]]]}},{"type":"Feature","properties":{"MAPTAXLOT":"1735100000400","MAPNUMBER":"17351000","TAXLOT":"400","ACCTNO":"0554152","MAPACRES":39.48264345},"geometry":{"type":"Polygon","coordinates":[[[-122.440411,44.102113],[-122.445394,44.102084],[-122.445396,44.098531],[-122.440335,44.098514],[-122.440411,44.102113]]]}},{"type":"Feature","properties":{"MAPTAXLOT":"1735100000600","MAPNUMBER":"17351000","TAXLOT":"600","ACCTNO":"0554178","MAPACRES":39.41369226},"geometry":{"type":"Polygon","coordinates":[[[-122.425506,44.102197],[-122.43042,44.102169],[-122.43034,44.098527],[-122.425405,44.09856],[-122.425506,44.102197]]]}},{"type":"Feature","properties":{"MAPTAXLOT":"1735110000400","MAPNUMBER":"17351100","TAXLOT":"400","ACCTNO":"0554434","MAPACRES":53.78035215},"geometry":{"type":"Polygon","coordinates":[[[-122.420506,44.102159],[-122.420523,44.104047],[-122.420906,44.103797],[-122.421258,44.10375],[-122.422298,44.103423],[-122.423263,44.103642],[-122.423926,44.103585],[-122.424407,44.103161],[-122.425151,44.102964],[-122.425532,44.103101],[-122.425506,44.102197],[-122.425405,44.09856],[-122.420475,44.098567],[-122.420506,44.102159]]]}},{"type":"Feature","properties":{"MAPTAXLOT":"1735110000500","MAPNUMBER":"17351100","TAXLOT":"500","ACCTNO":"0554442","MAPACRES":77.87427468},"geometry":{"type":"Polygon","coordinates":[[[-122.415575,44.105698],[-122.420538,44.105766],[-122.420523,44.104047],[-122.420506,44.102159],[-122.420475,44.098567],[-122.415545,44.098574],[-122.41556,44.102122],[-122.415575,44.105698]]]}},{"type":"Feature","properties":{"MAPTAXLOT":"1735110000600","MAPNUMBER":"17351100","TAXLOT":"600","ACCTNO":"0554459","MAPACRES":78.36358801},"geometry":{"type":"Polygon","coordinates":[[[-122.410545,44.105629],[-122.415575,44.105698],[-122.41556,44.102122],[-122.415545,44.098574],[-122.410536,44.098551],[-122.410541,44.102083],[-122.410545,44.105629]]]}},{"type":"Feature","properties":{"MAPTAXLOT":"1735110000700","MAPNUMBER":"17351100","TAXLOT":"700","ACCTNO":"0554467","MAPACRES":77.83673448},"geometry":{"type":"Polygon","coordinates":[[[-122.405517,44.10556],[-122.410545,44.105629],[-122.410541,44.102083],[-122.410536,44.098551],[-122.405528,44.098528],[-122.405523,44.102044],[-122.405517,44.10556]]]}},{"type":"Feature","properties":{"MAPTAXLOT":"1745000001400","MAPNUMBER":"17450000","TAXLOT":"1400","ACCTNO":"0554756","MAPACRES":825.87438676},"geometry":{"type":"Polygon","coordinates":[[[-122.378636,44.112685],[-122.383653,44.11273],[-122.385286,44.112743],[-122.385301,44.109238],[-122.385316,44.105734],[-122.38538,44.102284],[-122.385382,44.102211],[-122.385445,44.098835],[-122.385448,44.098689],[-122.383877,44.098677],[-122.383869,44.095157],[-122.373886,44.095062],[-122.373974,44.091533],[-122.368872,44.091498],[-122.368758,44.098547],[-122.363719,44.098504],[-122.353733,44.098531],[-122.353681,44.102049],[-122.35868,44.102032],[-122.358587,44.10906],[-122.363603,44.109038],[-122.363567,44.11233],[-122.363566,44.112417],[-122.363564,44.11255],[-122.368587,44.112595],[-122.373609,44.11264],[-122.378636,44.112685]],[[-122.383821,44.102191],[-122.383765,44.105704],[-122.383709,44.109217],[-122.373656,44.109128],[-122.373703,44.105615],[-122.373751,44.102103],[-122.383821,44.102191]]]}},{"type":"Feature","properties":{"MAPTAXLOT":"1745000003700","MAPNUMBER":"17450000","TAXLOT":"3700","ACCTNO":"0554996","MAPACRES":25.46321553},"geometry":{"type":"Polygon","coordinates":[[[-122.383869,44.095157],[-122.383877,44.098677],[-122.385448,44.098689],[-122.38551,44.095386],[-122.385514,44.095172],[-122.385575,44.091936],[-122.385583,44.091656],[-122.38386,44.091638],[-122.383869,44.095157]]]}},{"type":"Feature","properties":{"MAPTAXLOT":"1745000003800","MAPNUMBER":"17450000","TAXLOT":"3800","ACCTNO":"0555001","MAPACRES":13.74188067},"geometry":{"type":"Polygon","coordinates":[[[-122.38386,44.091638],[-122.385583,44.091656],[-122.385672,44.088458],[-122.385681,44.088139],[-122.383852,44.088118],[-122.38386,44.091638]]]}},{"type":"Feature","properties":{"MAPTAXLOT":"1745000003900","MAPNUMBER":"17450000","TAXLOT":"3900","ACCTNO":"0555019","MAPACRES":14.56733871},"geometry":{"type":"Polygon","coordinates":[[[-122.383852,44.088118],[-122.385681,44.088139],[-122.385769,44.08498],[-122.385785,44.084622],[-122.383844,44.084598],[-122.383852,44.088118]]]}},{"type":"Feature","properties":{"MAPTAXLOT":"1745000004000","MAPNUMBER":"17450000","TAXLOT":"4000","ACCTNO":"0555027","MAPACRES":151.76189496},"geometry":{"type":"Polygon","coordinates":[[[-122.373974,44.091533],[-122.38386,44.091638],[-122.383852,44.088118],[-122.383844,44.084598],[-122.37415,44.084476],[-122.373974,44.091533]]]}},{"type":"Feature","properties":{"MAPTAXLOT":"1745000004001","MAPNUMBER":"17450000","TAXLOT":"4001","ACCTNO":"1722147","MAPACRES":76.98665011},"geometry":{"type":"Polygon","coordinates":[[[-122.373886,44.095062],[-122.383869,44.095157],[-122.38386,44.091638],[-122.373974,44.091533],[-122.373886,44.095062]]]}},{"type":"Feature","properties":{"MAPTAXLOT":"1745000004300","MAPNUMBER":"17450000","TAXLOT":"4300","ACCTNO":"0555050","MAPACRES":309.3630751},"geometry":{"type":"Polygon","coordinates":[[[-122.383844,44.084598],[-122.385785,44.084622],[-122.385804,44.081435],[-122.385807,44.081049],[-122.385826,44.077889],[-122.385822,44.077476],[-122.385784,44.074336],[-122.385779,44.073904],[-122.385741,44.070783],[-122.385738,44.070331],[-122.382673,44.070322],[-122.377709,44.070309],[-122.378353,44.077423],[-122.373447,44.077386],[-122.37415,44.084476],[-122.383844,44.084598]]]}},{"type":"Feature","properties":{"MAPTAXLOT":"1745000006000","MAPNUMBER":"17450000","TAXLOT":"6000","ACCTNO":"0555225","MAPACRES":333.23171394},"geometry":{"type":"Polygon","coordinates":[[[-122.377709,44.070309],[-122.382673,44.070322],[-122.385738,44.070331],[-122.385707,44.067231],[-122.385704,44.066837],[-122.385672,44.063678],[-122.38567,44.063343],[-122.385632,44.060183],[-122.38563,44.059849],[-122.385592,44.056688],[-122.385606,44.056355],[-122.385606,44.056355],[-122.381886,44.056335],[-122.37199,44.056241],[-122.372179,44.059755],[-122.372367,44.063269],[-122.377324,44.063297],[-122.377709,44.070309]]]}},{"type":"Feature","properties":{"MAPTAXLOT":"1745000006200","MAPNUMBER":"17450000","TAXLOT":"6200","ACCTNO":"0555241","MAPACRES":29.27890539},"geometry":{"type":"Polygon","coordinates":[[[-122.381886,44.056335],[-122.385606,44.056355],[-122.385606,44.056355],[-122.385617,44.054221],[-122.385622,44.053243],[-122.385631,44.053028],[-122.385636,44.052916],[-122.38165,44.052854],[-122.381886,44.056335]]]}},{"type":"Feature","properties":{"MAPTAXLOT":"1745000006300","MAPNUMBER":"17450000","TAXLOT":"6300","ACCTNO":"0555258","MAPACRES":56.8461675},"geometry":{"type":"Polygon","coordinates":[[[-122.37199,44.056241],[-122.381886,44.056335],[-122.38165,44.052854],[-122.376792,44.052779],[-122.376865,44.054533],[-122.371917,44.054473],[-122.37199,44.056241]]]}},{"type":"Feature","properties":{"MAPTAXLOT":"1745000006400","MAPNUMBER":"17450000","TAXLOT":"6400","ACCTNO":"0555266","MAPACRES":516.23401568},"geometry":{"type":"Polygon","coordinates":[[[-122.362095,44.056148],[-122.367043,44.056195],[-122.37199,44.056241],[-122.371917,44.054473],[-122.376865,44.054533],[-122.376792,44.052779],[-122.38165,44.052854],[-122.381177,44.045903],[-122.376498,44.04576],[-122.376352,44.04225],[-122.371404,44.042092],[-122.366277,44.041991],[-122.361515,44.0419],[-122.361951,44.052617],[-122.362095,44.056148]]]}},{"type":"Feature","properties":{"MAPTAXLOT":"1745000006500","MAPNUMBER":"17450000","TAXLOT":"6500","ACCTNO":"0555274","MAPACRES":133.97150674},"geometry":{"type":"Polygon","coordinates":[[[-122.376498,44.04576],[-122.381177,44.045903],[-122.38165,44.052854],[-122.385636,44.052916],[-122.385652,44.049797],[-122.385658,44.049478],[-122.385597,44.046199],[-122.385597,44.046199],[-122.3856,44.046039],[-122.3856,44.046039],[-122.385529,44.042601],[-122.38094,44.042425],[-122.376352,44.04225],[-122.376498,44.04576]]]}},{"type":"Feature","properties":{"MAPTAXLOT":"1835000000100","MAPNUMBER":"18350000","TAXLOT":"100","ACCTNO":"0809945","MAPACRES":6723.43295408},"geometry":{"type":"MultiPolygon","coordinates":[[[[-122.386239,44.024683],[-122.386263,44.03193],[-122.386269,44.035552],[-122.386291,44.042604],[-122.390495,44.042622],[-122.391339,44.042626],[-122.394616,44.04264],[-122.395461,44.042644],[-122.395688,44.042644],[-122.396387,44.042643],[-122.399365,44.04264],[-122.400373,44.042639],[-122.400629,44.042639],[-122.401429,44.042638],[-122.405285,44.042634],[-122.406472,44.042634],[-122.41018,44.042633],[-122.4115,44.042633],[-122.415074,44.042633],[-122.416527,44.04264],[-122.420295,44.042659],[-122.421564,44.042665],[-122.425516,44.042685],[-122.4266,44.042695],[-122.4266,44.042694],[-122.426575,44.035459],[-122.426567,44.031839],[-122.426543,44.0246],[-122.421509,44.024599],[-122.40641,44.024597],[-122.406341,44.010128],[-122.421437,44.010124],[-122.426469,44.010122],[-122.426384,43.995642],[-122.421354,43.995645],[-122.406261,43.995656],[-122.406214,43.981872],[-122.406209,43.981878],[-122.406034,43.982018],[-122.405868,43.982129],[-122.405665,43.982231],[-122.405353,43.982389],[-122.405065,43.982528],[-122.404761,43.982641],[-122.404372,43.982725],[-122.403914,43.982809],[-122.403478,43.982906],[-122.403121,43.982988],[-122.40276,43.983115],[-122.402415,43.983272],[-122.40211,43.983424],[-122.401751,43.983557],[-122.401398,43.983654],[-122.401023,43.983783],[-122.400818,43.983865],[-122.400687,43.98397],[-122.400399,43.984217],[-122.400169,43.984419],[-122.399972,43.98465],[-122.399876,43.98484],[-122.399732,43.985133],[-122.399594,43.985402],[-122.399433,43.985627],[-122.399211,43.985839],[-122.39901,43.985976],[-122.398783,43.98605],[-122.398483,43.986048],[-122.398307,43.985996],[-122.398063,43.985877],[-122.397917,43.985783],[-122.397767,43.985717],[-122.397558,43.985677],[-122.397363,43.985686],[-122.397195,43.985738],[-122.397026,43.985839],[-122.396832,43.985971],[-122.396648,43.986111],[-122.396444,43.986286],[-122.396283,43.98643],[-122.396029,43.986504],[-122.395771,43.986537],[-122.395506,43.986563],[-122.395284,43.98656],[-122.395104,43.986607],[-122.394899,43.986695],[-122.394714,43.986815],[-122.394593,43.986949],[-122.39445,43.987035],[-122.394292,43.987115],[-122.393997,43.98712],[-122.393712,43.987019],[-122.393545,43.986888],[-122.393365,43.986728],[-122.393213,43.986575],[-122.392948,43.986419],[-122.392715,43.98639],[-122.39244,43.986416],[-122.392128,43.986485],[-122.391671,43.986615],[-122.391237,43.986755],[-122.390896,43.986826],[-122.390518,43.986956],[-122.390061,43.987075],[-122.389639,43.98717],[-122.389254,43.987264],[-122.388877,43.987323],[-122.388505,43.987379],[-122.388163,43.987506],[-122.387758,43.987642],[-122.387434,43.987821],[-122.387126,43.987957],[-122.38687,43.988113],[-122.386538,43.988281],[-122.386282,43.988408],[-122.386138,43.988495],[-122.386179,43.995699],[-122.386185,44.010186],[-122.386239,44.024683]]],[[[-122.386137,43.988353],[-122.38619,43.98832],[-122.386452,43.988191],[-122.386777,43.988026],[-122.387037,43.987868],[-122.387348,43.98773],[-122.387679,43.987548],[-122.388096,43.987407],[-122.388454,43.987274],[-122.388846,43.987215],[-122.389214,43.987159],[-122.389592,43.987065],[-122.390013,43.986971],[-122.39046,43.986855],[-122.390842,43.986724],[-122.391185,43.986652],[-122.391612,43.986514],[-122.392077,43.986381],[-122.392408,43.986308],[-122.392718,43.986279],[-122.393013,43.986315],[-122.393325,43.986499],[-122.393486,43.986662],[-122.39366,43.986817],[-122.393805,43.986929],[-122.394031,43.987009],[-122.394242,43.987006],[-122.394358,43.986947],[-122.394478,43.986876],[-122.394598,43.986743],[-122.394808,43.986607],[-122.395039,43.986507],[-122.395259,43.98645],[-122.395497,43.986453],[-122.395748,43.986429],[-122.395987,43.986398],[-122.39619,43.986339],[-122.396327,43.986216],[-122.396535,43.986038],[-122.396725,43.985894],[-122.396925,43.985757],[-122.397115,43.985643],[-122.397327,43.985578],[-122.397573,43.985566],[-122.397827,43.985615],[-122.398008,43.985695],[-122.398156,43.98579],[-122.398379,43.985899],[-122.398514,43.985938],[-122.398751,43.98594],[-122.398924,43.985884],[-122.399098,43.985765],[-122.399304,43.985568],[-122.399455,43.985358],[-122.399589,43.985096],[-122.399733,43.984803],[-122.399835,43.984602],[-122.400045,43.984355],[-122.400282,43.984147],[-122.400573,43.983899],[-122.400722,43.983778],[-122.400953,43.983686],[-122.401338,43.983553],[-122.401689,43.983457],[-122.402032,43.983329],[-122.402331,43.98318],[-122.402686,43.98302],[-122.403065,43.982885],[-122.403432,43.982802],[-122.403873,43.982704],[-122.404331,43.98262],[-122.404704,43.982539],[-122.404988,43.982433],[-122.405267,43.982299],[-122.405578,43.982142],[-122.405772,43.982043],[-122.405925,43.981941],[-122.406087,43.981812],[-122.406209,43.981672],[-122.406213,43.981665],[-122.406212,43.981181],[-122.406517,43.981181],[-122.406655,43.981077],[-122.406768,43.981038],[-122.406897,43.981036],[-122.407057,43.981056],[-122.40724,43.981108],[-122.407482,43.981138],[-122.40782,43.981174],[-122.407867,43.98118],[-122.421315,43.98117],[-122.426349,43.981165],[-122.426295,43.966686],[-122.426243,43.952201],[-122.419007,43.952212],[-122.416212,43.952213],[-122.408964,43.952224],[-122.406181,43.952227],[-122.398922,43.952249],[-122.396152,43.952252],[-122.38888,43.952275],[-122.386119,43.952282],[-122.3861,43.966748],[-122.386096,43.981219],[-122.386137,43.988353]]],[[[-122.406804,43.981147],[-122.406746,43.981167],[-122.406727,43.981181],[-122.40708,43.981181],[-122.407015,43.981162],[-122.406886,43.981146],[-122.406804,43.981147]]]]}},{"type":"Feature","properties":{"MAPTAXLOT":"1835000000200","MAPNUMBER":"18350000","TAXLOT":"200","ACCTNO":"0809952","MAPACRES":799.19422755},"geometry":{"type":"Polygon","coordinates":[[[-122.426567,44.031839],[-122.426575,44.035459],[-122.4266,44.042694],[-122.4266,44.042695],[-122.430684,44.042729],[-122.43164,44.042738],[-122.435852,44.042774],[-122.435853,44.042774],[-122.436678,44.042731],[-122.441068,44.042521],[-122.441069,44.042521],[-122.441711,44.04249],[-122.446284,44.042268],[-122.446744,44.042254],[-122.446719,44.035434],[-122.44671,44.031814],[-122.446683,44.024573],[-122.426543,44.0246],[-122.426567,44.031839]]]}},{"type":"Feature","properties":{"MAPTAXLOT":"1835000000300","MAPNUMBER":"18350000","TAXLOT":"300","ACCTNO":"0809960","MAPACRES":768.73615025},"geometry":{"type":"Polygon","coordinates":[[[-122.44671,44.031814],[-122.446719,44.035434],[-122.446744,44.042254],[-122.451481,44.042109],[-122.451759,44.042101],[-122.456675,44.04195],[-122.456772,44.041947],[-122.461794,44.041806],[-122.461831,44.041805],[-122.464026,44.041743],[-122.466816,44.041664],[-122.466795,44.035392],[-122.466785,44.031773],[-122.466759,44.024537],[-122.446683,44.024573],[-122.44671,44.031814]]]}},{"type":"Feature","properties":{"MAPTAXLOT":"1845000000100","MAPNUMBER":"18450000","TAXLOT":"100","ACCTNO":"0810232","MAPACRES":23760.36954722},"geometry":{"type":"Polygon","coordinates":[[[-122.361515,44.0419],[-122.366277,44.041991],[-122.371404,44.042092],[-122.376352,44.04225],[-122.38094,44.042425],[-122.385529,44.042601],[-122.386291,44.042604],[-122.386269,44.035552],[-122.386263,44.03193],[-122.386239,44.024683],[-122.386185,44.010186],[-122.386179,43.995699],[-122.386138,43.988495],[-122.386137,43.988353],[-122.386096,43.981219],[-122.3861,43.966748],[-122.386119,43.952282],[-122.381608,43.952273],[-122.376088,43.952259],[-122.371576,43.95225],[-122.366054,43.952242],[-122.361541,43.952238],[-122.356019,43.952231],[-122.351567,43.952227],[-122.345985,43.952226],[-122.341534,43.952224],[-122.335952,43.952222],[-122.331515,43.952221],[-122.32592,43.95222],[-122.321483,43.95222],[-122.315887,43.95222],[-122.311426,43.95222],[-122.305855,43.952223],[-122.301393,43.952229],[-122.295822,43.952238],[-122.291406,43.952244],[-122.285788,43.952243],[-122.281371,43.952251],[-122.275754,43.952264],[-122.271398,43.952271],[-122.26572,43.952272],[-122.265719,43.955872],[-122.265719,43.959472],[-122.265719,43.963072],[-122.265718,43.966672],[-122.265718,43.966786],[-122.265714,43.970272],[-122.265709,43.973871],[-122.265704,43.977471],[-122.2657,43.981071],[-122.265699,43.981267],[-122.265689,43.98467],[-122.265679,43.988269],[-122.265669,43.991868],[-122.265658,43.995468],[-122.265657,43.995749],[-122.265642,43.999066],[-122.265625,44.002665],[-122.265609,44.006263],[-122.265592,44.009862],[-122.265589,44.01023],[-122.265559,44.013459],[-122.265525,44.017057],[-122.265491,44.020654],[-122.265458,44.024252],[-122.265453,44.024711],[-122.26542,44.027849],[-122.265382,44.031447],[-122.265344,44.035044],[-122.265307,44.038642],[-122.265285,44.04134],[-122.27338,44.041483],[-122.275363,44.041489],[-122.283546,44.041506],[-122.285441,44.041506],[-122.293649,44.041513],[-122.295575,44.041512],[-122.29856,44.041513],[-122.303472,44.041515],[-122.305706,44.041511],[-122.308416,44.041511],[-122.31336,44.041511],[-122.315839,44.041525],[-122.323103,44.041579],[-122.325969,44.04161],[-122.332858,44.041702],[-122.336083,44.041715],[-122.342421,44.041753],[-122.346195,44.041747],[-122.352039,44.041752],[-122.356242,44.041815],[-122.35889,44.041857],[-122.361515,44.0419]]]}}]}