{"type":"FeatureCollection","features":[{"type":"Feature","properties":{"MAPTAXLOT":"1535000000700","MAPNUMBER":"15350000","TAXLOT":"700","ACCTNO":"0027258","MAPACRES":176.47441758},"geometry":{"type":"Polygon","coordinates":[[[-122.453647,44.218612],[-122.455437,44.218838],[-122.455423,44.216929],[-122.455426,44.213317],[-122.455429,44.209705],[-122.452108,44.209701],[-122.450344,44.2097],[-122.447263,44.209697],[-122.446239,44.209699],[-122.445259,44.209701],[-122.445307,44.216905],[-122.445301,44.21744],[-122.445307,44.217438],[-122.447935,44.216342],[-122.448871,44.217015],[-122.453647,44.218612]]]}},{"type":"Feature","properties":{"MAPTAXLOT":"1535000000800","MAPNUMBER":"15350000","TAXLOT":"800","ACCTNO":"0027266","MAPACRES":41.43550559},"geometry":{"type":"Polygon","coordinates":[[[-122.435182,44.220643],[-122.435183,44.221148],[-122.435652,44.221059],[-122.437907,44.219098],[-122.445301,44.21744],[-122.445307,44.216905],[-122.440239,44.21694],[-122.435171,44.216975],[-122.435182,44.220643]]]}},{"type":"Feature","properties":{"MAPTAXLOT":"1535000000900","MAPNUMBER":"15350000","TAXLOT":"900","ACCTNO":"0027274","MAPACRES":299.50150554},"geometry":{"type":"Polygon","coordinates":[[[-122.433055,44.220668],[-122.433757,44.221418],[-122.435183,44.221148],[-122.435182,44.220643],[-122.435171,44.216975],[-122.440239,44.21694],[-122.445307,44.216905],[-122.445259,44.209701],[-122.442241,44.209713],[-122.440213,44.209722],[-122.437218,44.209733],[-122.437218,44.209733],[-122.435167,44.209741],[-122.435058,44.21],[-122.434994,44.210285],[-122.434685,44.21072],[-122.434355,44.211076],[-122.433939,44.211515],[-122.43379,44.211743],[-122.43355,44.212119],[-122.433303,44.212259],[-122.433079,44.212535],[-122.432867,44.212731],[-122.432774,44.212882],[-122.432519,44.21337],[-122.4322,44.21366],[-122.432038,44.213775],[-122.431761,44.213831],[-122.430846,44.214061],[-122.430657,44.214132],[-122.430187,44.214087],[-122.429593,44.213904],[-122.429262,44.214042],[-122.428788,44.214325],[-122.428581,44.21436],[-122.428391,44.214603],[-122.42789,44.215039],[-122.42728,44.215077],[-122.426976,44.214853],[-122.426675,44.214862],[-122.426579,44.214552],[-122.426324,44.214192],[-122.426161,44.214043],[-122.426001,44.213961],[-122.425758,44.213903],[-122.425355,44.213742],[-122.425077,44.213543],[-122.425078,44.217044],[-122.425081,44.217854],[-122.428781,44.219275],[-122.430512,44.220519],[-122.43148,44.220351],[-122.433055,44.220668]]]}},{"type":"Feature","properties":{"MAPTAXLOT":"1535000001000","MAPNUMBER":"15350000","TAXLOT":"1000","ACCTNO":"0027282","MAPACRES":166.67519895},"geometry":{"type":"Polygon","coordinates":[[[-122.425077,44.213543],[-122.425355,44.213742],[-122.425758,44.213903],[-122.426001,44.213961],[-122.426161,44.214043],[-122.426324,44.214192],[-122.426579,44.214552],[-122.426675,44.214862],[-122.426976,44.214853],[-122.42728,44.215077],[-122.42789,44.215039],[-122.428391,44.214603],[-122.428581,44.21436],[-122.428788,44.214325],[-122.429262,44.214042],[-122.429593,44.213904],[-122.430187,44.214087],[-122.430657,44.214132],[-122.430846,44.214061],[-122.431761,44.213831],[-122.432038,44.213775],[-122.4322,44.21366],[-122.432519,44.21337],[-122.432774,44.212882],[-122.432867,44.212731],[-122.433079,44.212535],[-122.433303,44.212259],[-122.43355,44.212119],[-122.43379,44.211743],[-122.433939,44.211515],[-122.434355,44.211076],[-122.434685,44.21072],[-122.434994,44.210285],[-122.435058,44.21],[-122.435167,44.209741],[-122.437218,44.209733],[-122.437228,44.205964],[-122.432217,44.205993],[-122.427207,44.206021],[-122.427175,44.209751],[-122.425077,44.209755],[-122.425077,44.213398],[-122.425077,44.213543]]]}},{"type":"Feature","properties":{"MAPTAXLOT":"1535000001100","MAPNUMBER":"15350000","TAXLOT":"1100","ACCTNO":"0027290","MAPACRES":160.88915572},"geometry":{"type":"Polygon","coordinates":[[[-122.414991,44.209766],[-122.414979,44.213377],[-122.420028,44.213388],[-122.420022,44.217017],[-122.420024,44.220643],[-122.425094,44.220659],[-122.425081,44.217854],[-122.425078,44.217044],[-122.425077,44.213543],[-122.425077,44.213398],[-122.425077,44.209755],[-122.422123,44.209758],[-122.420034,44.20976],[-122.417071,44.209764],[-122.415649,44.209765],[-122.414991,44.209765],[-122.414991,44.209766]]]}},{"type":"Feature","properties":{"MAPTAXLOT":"1535000001200","MAPNUMBER":"15350000","TAXLOT":"1200","ACCTNO":"0027308","MAPACRES":40.34421837},"geometry":{"type":"Polygon","coordinates":[[[-122.414955,44.220626],[-122.420024,44.220643],[-122.420022,44.217017],[-122.414967,44.216989],[-122.414955,44.220626]]]}},{"type":"Feature","properties":{"MAPTAXLOT":"1535000001300","MAPNUMBER":"15350000","TAXLOT":"1300","ACCTNO":"0027316","MAPACRES":40.14538032},"geometry":{"type":"Polygon","coordinates":[[[-122.414967,44.216989],[-122.420022,44.217017],[-122.420028,44.213388],[-122.414979,44.213377],[-122.414967,44.216989]]]}},{"type":"Feature","properties":{"MAPTAXLOT":"1535000001400","MAPNUMBER":"15350000","TAXLOT":"1400","ACCTNO":"0027324","MAPACRES":81.1650148},"geometry":{"type":"Polygon","coordinates":[[[-122.409857,44.220607],[-122.414955,44.220626],[-122.414967,44.216989],[-122.414979,44.213377],[-122.409894,44.213342],[-122.409865,44.216968],[-122.409857,44.220607]]]}},{"type":"Feature","properties":{"MAPTAXLOT":"1535000001500","MAPNUMBER":"15350000","TAXLOT":"1500","ACCTNO":"0027332","MAPACRES":162.0727906},"geometry":{"type":"Polygon","coordinates":[[[-122.404764,44.216945],[-122.404759,44.220587],[-122.409857,44.220607],[-122.409865,44.216968],[-122.409894,44.213342],[-122.414979,44.213377],[-122.414991,44.209766],[-122.414991,44.209765],[-122.41202,44.209738],[-122.409923,44.209719],[-122.407765,44.209699],[-122.406969,44.209692],[-122.404855,44.209672],[-122.404855,44.209672],[-122.40481,44.213309],[-122.404764,44.216945]]]}},{"type":"Feature","properties":{"MAPTAXLOT":"1535000001600","MAPNUMBER":"15350000","TAXLOT":"1600","ACCTNO":"0027340","MAPACRES":165.11641267},"geometry":{"type":"Polygon","coordinates":[[[-122.384555,44.217071],[-122.404764,44.216945],[-122.40481,44.213309],[-122.384562,44.213269],[-122.384555,44.217071]]]}},{"type":"Feature","properties":{"MAPTAXLOT":"1535000001700","MAPNUMBER":"15350000","TAXLOT":"1700","ACCTNO":"0027357","MAPACRES":165.34558647},"geometry":{"type":"Polygon","coordinates":[[[-122.384566,44.211025],[-122.384562,44.213269],[-122.40481,44.213309],[-122.404855,44.209672],[-122.404845,44.209672],[-122.401912,44.209643],[-122.399788,44.209622],[-122.396845,44.209593],[-122.39472,44.209572],[-122.391777,44.209543],[-122.389642,44.209522],[-122.38671,44.209492],[-122.384569,44.209466],[-122.384569,44.209471],[-122.384566,44.211025]]]}},{"type":"Feature","properties":{"MAPTAXLOT":"1545310000100","MAPNUMBER":"15453100","TAXLOT":"100","ACCTNO":"0027373","MAPACRES":21.73757855},"geometry":{"type":"MultiPolygon","coordinates":[[[[-122.374486,44.210591],[-122.38035,44.209464],[-122.374083,44.209425],[-122.373959,44.209425],[-122.36834,44.209385],[-122.374486,44.210591]]],[[[-122.384566,44.211025],[-122.384566,44.211025],[-122.384569,44.209471],[-122.384569,44.209466],[-122.383849,44.209477],[-122.383546,44.210155],[-122.38354,44.210168],[-122.382422,44.20948],[-122.382413,44.209475],[-122.380613,44.209466],[-122.382077,44.210113],[-122.3824,44.210067],[-122.384566,44.211025]]],[[[-122.366242,44.209879],[-122.367402,44.209355],[-122.365806,44.209346],[-122.365801,44.209345],[-122.366242,44.209879]]]]}},{"type":"Feature","properties":{"MAPTAXLOT":"1635000000100","MAPNUMBER":"16350000","TAXLOT":"100","ACCTNO":"0082493","MAPACRES":254.41767079},"geometry":{"type":"Polygon","coordinates":[[[-122.384569,44.209466],[-122.38671,44.209492],[-122.389642,44.209522],[-122.391777,44.209543],[-122.39472,44.209572],[-122.396845,44.209593],[-122.396845,44.209591],[-122.396991,44.205792],[-122.397125,44.202328],[-122.391953,44.202175],[-122.386783,44.202023],[-122.386821,44.198193],[-122.383151,44.198003],[-122.383147,44.198295],[-122.383143,44.201623],[-122.383142,44.201915],[-122.383137,44.205243],[-122.383137,44.205537],[-122.383137,44.205606],[-122.383133,44.20826],[-122.384119,44.208871],[-122.383852,44.209469],[-122.383849,44.209477],[-122.384569,44.209466]]]}},{"type":"Feature","properties":{"MAPTAXLOT":"1635000000200","MAPNUMBER":"16350000","TAXLOT":"200","ACCTNO":"0082501","MAPACRES":324.11081399},"geometry":{"type":"Polygon","coordinates":[[[-122.386783,44.202023],[-122.391953,44.202175],[-122.397125,44.202328],[-122.396991,44.205792],[-122.396845,44.209591],[-122.396845,44.209593],[-122.399788,44.209622],[-122.401912,44.209643],[-122.404845,44.209672],[-122.404855,44.209672],[-122.404855,44.209672],[-122.406969,44.209692],[-122.407033,44.208291],[-122.407137,44.205978],[-122.40742,44.202631],[-122.407703,44.199284],[-122.397263,44.198733],[-122.392042,44.198464],[-122.386821,44.198193],[-122.386783,44.202023]]]}},{"type":"Feature","properties":{"MAPTAXLOT":"1635000000500","MAPNUMBER":"16350000","TAXLOT":"500","ACCTNO":"0082535","MAPACRES":269.74827087},"geometry":{"type":"Polygon","coordinates":[[[-122.427207,44.206016],[-122.427207,44.206021],[-122.432217,44.205993],[-122.437228,44.205964],[-122.442238,44.205934],[-122.442236,44.202422],[-122.447238,44.202391],[-122.447223,44.198878],[-122.442234,44.198909],[-122.437245,44.198939],[-122.432256,44.19897],[-122.427267,44.199001],[-122.427237,44.202511],[-122.427207,44.206016]]]}},{"type":"Feature","properties":{"MAPTAXLOT":"1635000000600","MAPNUMBER":"16350000","TAXLOT":"600","ACCTNO":"0082543","MAPACRES":121.84880999},"geometry":{"type":"Polygon","coordinates":[[[-122.437218,44.209733],[-122.437218,44.209733],[-122.440213,44.209722],[-122.442241,44.209713],[-122.445259,44.209701],[-122.446239,44.209699],[-122.447263,44.209697],[-122.447252,44.205905],[-122.447238,44.202391],[-122.442236,44.202422],[-122.442238,44.205934],[-122.437228,44.205964],[-122.437218,44.209733]]]}},{"type":"Feature","properties":{"MAPTAXLOT":"1635000000700","MAPNUMBER":"16350000","TAXLOT":"700","ACCTNO":"0082550","MAPACRES":458.82803266},"geometry":{"type":"Polygon","coordinates":[[[-122.465831,44.209708],[-122.466646,44.209707],[-122.46652,44.205925],[-122.466517,44.202394],[-122.466514,44.198862],[-122.461691,44.198867],[-122.456868,44.19887],[-122.452046,44.198874],[-122.447223,44.198878],[-122.447238,44.202391],[-122.447252,44.205905],[-122.447263,44.209697],[-122.450344,44.2097],[-122.452108,44.209701],[-122.455429,44.209705],[-122.456954,44.209705],[-122.46063,44.209706],[-122.4618,44.209706],[-122.465831,44.209708]]]}},{"type":"Feature","properties":{"MAPTAXLOT":"1635000001500","MAPNUMBER":"16350000","TAXLOT":"1500","ACCTNO":"0082634","MAPACRES":977.10013624},"geometry":{"type":"Polygon","coordinates":[[[-122.447223,44.198878],[-122.452046,44.198874],[-122.456868,44.19887],[-122.456693,44.195301],[-122.461562,44.195255],[-122.461433,44.191643],[-122.466204,44.191556],[-122.466197,44.187995],[-122.466189,44.184433],[-122.466192,44.180871],[-122.466194,44.177309],[-122.466197,44.173748],[-122.466199,44.171485],[-122.466097,44.171499],[-122.465971,44.171553],[-122.465833,44.171642],[-122.465795,44.17166],[-122.46572,44.171687],[-122.46562,44.171704],[-122.465357,44.17173],[-122.464668,44.171754],[-122.464443,44.171771],[-122.464355,44.171788],[-122.464217,44.171824],[-122.464067,44.171895],[-122.463739,44.172128],[-122.463588,44.172208],[-122.463362,44.172315],[-122.463111,44.172413],[-122.462986,44.172448],[-122.462811,44.172474],[-122.462585,44.1725],[-122.462122,44.172516],[-122.461997,44.172543],[-122.461872,44.172533],[-122.461734,44.172523],[-122.461409,44.172477],[-122.461235,44.172458],[-122.461047,44.172457],[-122.460872,44.172483],[-122.460784,44.17251],[-122.460708,44.172545],[-122.459916,44.172983],[-122.459364,44.173223],[-122.458849,44.173374],[-122.458198,44.173524],[-122.457319,44.173799],[-122.457144,44.173843],[-122.457006,44.173869],[-122.456655,44.173922],[-122.456055,44.173937],[-122.455742,44.173971],[-122.454316,44.173947],[-122.453953,44.173954],[-122.453728,44.173971],[-122.453402,44.174005],[-122.452964,44.174066],[-122.451798,44.174259],[-122.451348,44.174302],[-122.45116,44.174328],[-122.451034,44.174363],[-122.450834,44.174434],[-122.450645,44.174532],[-122.450557,44.174604],[-122.450418,44.174774],[-122.450367,44.174828],[-122.450254,44.17489],[-122.450179,44.174917],[-122.450041,44.174907],[-122.449991,44.174898],[-122.449916,44.174871],[-122.449718,44.174726],[-122.449556,44.174563],[-122.449445,44.174463],[-122.449308,44.174382],[-122.449146,44.174309],[-122.449021,44.174272],[-122.448834,44.174253],[-122.448521,44.174252],[-122.448421,44.174269],[-122.448132,44.174349],[-122.447881,44.174438],[-122.447141,44.174868],[-122.446907,44.175062],[-122.446664,44.175278],[-122.446456,44.175451],[-122.446287,44.175628],[-122.446284,44.175849],[-122.446261,44.177564],[-122.446232,44.181149],[-122.446203,44.184734],[-122.446662,44.188318],[-122.44712,44.191902],[-122.447172,44.19539],[-122.447223,44.198878]]]}},{"type":"Feature","properties":{"MAPTAXLOT":"1635000001700","MAPNUMBER":"16350000","TAXLOT":"1700","ACCTNO":"0082659","MAPACRES":414.67111354},"geometry":{"type":"Polygon","coordinates":[[[-122.422418,44.19904],[-122.427267,44.199001],[-122.427073,44.191875],[-122.426722,44.188287],[-122.421726,44.188328],[-122.416729,44.188369],[-122.413061,44.188399],[-122.412884,44.188482],[-122.412737,44.188572],[-122.411821,44.189],[-122.41206,44.192015],[-122.408513,44.192048],[-122.408438,44.192502],[-122.408586,44.19335],[-122.408852,44.194506],[-122.407292,44.194259],[-122.407407,44.195672],[-122.407475,44.196498],[-122.407568,44.196479],[-122.407861,44.196684],[-122.408166,44.197084],[-122.408615,44.197273],[-122.409024,44.197865],[-122.409273,44.198106],[-122.409656,44.198887],[-122.408376,44.198666],[-122.407657,44.198726],[-122.407703,44.199284],[-122.412636,44.199181],[-122.416916,44.199091],[-122.417569,44.199078],[-122.420446,44.199055],[-122.422418,44.19904]]]}},{"type":"Feature","properties":{"MAPTAXLOT":"1635000001701","MAPNUMBER":"16350000","TAXLOT":"1701","ACCTNO":"1674876","MAPACRES":0.85298177},"geometry":{"type":"Polygon","coordinates":[[[-122.411774,44.188409],[-122.411821,44.189],[-122.412737,44.188572],[-122.412884,44.188482],[-122.413061,44.188399],[-122.411774,44.188409]]]}},{"type":"Feature","properties":{"MAPTAXLOT":"1635000001800","MAPNUMBER":"16350000","TAXLOT":"1800","ACCTNO":"0082667","MAPACRES":151.23236112},"geometry":{"type":"Polygon","coordinates":[[[-122.392042,44.198464],[-122.397263,44.198733],[-122.397096,44.195134],[-122.39693,44.191529],[-122.391836,44.191262],[-122.391939,44.194865],[-122.386782,44.194595],[-122.383134,44.194404],[-122.383135,44.194686],[-122.383151,44.198003],[-122.386821,44.198193],[-122.392042,44.198464]]]}},{"type":"Feature","properties":{"MAPTAXLOT":"1635000001801","MAPNUMBER":"16350000","TAXLOT":"1801","ACCTNO":"1529286","MAPACRES":175.67965876},"geometry":{"type":"Polygon","coordinates":[[[-122.397263,44.198733],[-122.407703,44.199284],[-122.407657,44.198726],[-122.408376,44.198666],[-122.409656,44.198887],[-122.409273,44.198106],[-122.409024,44.197865],[-122.408615,44.197273],[-122.408166,44.197084],[-122.407861,44.196684],[-122.407568,44.196479],[-122.407475,44.196498],[-122.407407,44.195672],[-122.407292,44.194259],[-122.408852,44.194506],[-122.408586,44.19335],[-122.408438,44.192502],[-122.408513,44.192048],[-122.407112,44.192061],[-122.402022,44.191795],[-122.39693,44.191529],[-122.397096,44.195134],[-122.397263,44.198733]]]}},{"type":"Feature","properties":{"MAPTAXLOT":"1635000001900","MAPNUMBER":"16350000","TAXLOT":"1900","ACCTNO":"0082675","MAPACRES":5272.30801131},"geometry":{"type":"Polygon","coordinates":[[[-122.383134,44.194404],[-122.386782,44.194595],[-122.391939,44.194865],[-122.391836,44.191262],[-122.39693,44.191529],[-122.402022,44.191795],[-122.407112,44.192061],[-122.406924,44.189746],[-122.407475,44.189791],[-122.407691,44.189786],[-122.408766,44.1896],[-122.409492,44.189875],[-122.410454,44.189684],[-122.411332,44.189228],[-122.411794,44.189012],[-122.411821,44.189],[-122.411774,44.188409],[-122.413061,44.188399],[-122.413232,44.188318],[-122.413638,44.188265],[-122.414229,44.188149],[-122.414644,44.188013],[-122.415252,44.187432],[-122.415674,44.186956],[-122.416355,44.186297],[-122.416559,44.186178],[-122.416449,44.184768],[-122.417969,44.184758],[-122.418226,44.184529],[-122.418871,44.184256],[-122.419156,44.184057],[-122.419659,44.183915],[-122.42009,44.183756],[-122.420131,44.183538],[-122.420281,44.183301],[-122.420977,44.182855],[-122.421231,44.182713],[-122.421446,44.182598],[-122.421471,44.181139],[-122.424035,44.181124],[-122.424051,44.181103],[-122.424197,44.180907],[-122.424518,44.180536],[-122.424694,44.180411],[-122.425333,44.180171],[-122.425872,44.180035],[-122.426144,44.179857],[-122.426274,44.179789],[-122.426442,44.179666],[-122.427308,44.179031],[-122.427558,44.178882],[-122.428043,44.178738],[-122.428675,44.178663],[-122.428876,44.178499],[-122.429492,44.178073],[-122.429963,44.17784],[-122.431423,44.177532],[-122.436356,44.177543],[-122.441328,44.177554],[-122.445111,44.177562],[-122.445434,44.177104],[-122.446284,44.175849],[-122.446287,44.175628],[-122.446309,44.173982],[-122.446358,44.1704],[-122.4662,44.170186],[-122.466004,44.163067],[-122.446079,44.163227],[-122.4458,44.156053],[-122.43578,44.155952],[-122.435834,44.152432],[-122.430867,44.152424],[-122.430926,44.148835],[-122.425867,44.148832],[-122.425977,44.145269],[-122.420947,44.145232],[-122.418432,44.145213],[-122.415917,44.145193],[-122.410923,44.145155],[-122.410941,44.141562],[-122.411018,44.13778],[-122.406067,44.137674],[-122.40598,44.141506],[-122.405902,44.145117],[-122.405824,44.148728],[-122.405822,44.152335],[-122.400872,44.152317],[-122.400892,44.148721],[-122.395894,44.148714],[-122.395892,44.150118],[-122.395889,44.152299],[-122.385761,44.152261],[-122.385799,44.155824],[-122.385173,44.159161],[-122.38454,44.162561],[-122.38454,44.162561],[-122.383906,44.165961],[-122.383272,44.169361],[-122.383226,44.172915],[-122.383226,44.172916],[-122.383226,44.172983],[-122.383226,44.172983],[-122.383182,44.176472],[-122.383182,44.176472],[-122.383182,44.176607],[-122.383182,44.176607],[-122.38314,44.18003],[-122.38314,44.180031],[-122.38314,44.180233],[-122.383099,44.183591],[-122.3831,44.183862],[-122.383108,44.187198],[-122.383109,44.18747],[-122.383118,44.190805],[-122.383119,44.191078],[-122.383134,44.194404]],[[-122.407792,44.139566],[-122.407487,44.139571],[-122.407481,44.139351],[-122.407785,44.139346],[-122.407792,44.139566]]]}},{"type":"Feature","properties":{"MAPTAXLOT":"1635000001902","MAPNUMBER":"16350000","TAXLOT":"1902","ACCTNO":"0082733","MAPACRES":76.20735534},"geometry":{"type":"Polygon","coordinates":[[[-122.421726,44.188328],[-122.426722,44.188287],[-122.426371,44.184699],[-122.42141,44.184733],[-122.417969,44.184758],[-122.417856,44.184872],[-122.417512,44.185192],[-122.417269,44.185403],[-122.416917,44.18598],[-122.416673,44.186112],[-122.41656,44.186177],[-122.416559,44.186178],[-122.416729,44.188369],[-122.421726,44.188328]]]}},{"type":"Feature","properties":{"MAPTAXLOT":"1635000001903","MAPNUMBER":"16350000","TAXLOT":"1903","ACCTNO":"0082758","MAPACRES":35.25459337},"geometry":{"type":"Polygon","coordinates":[[[-122.42141,44.184733],[-122.426371,44.184699],[-122.426435,44.18111],[-122.424035,44.181124],[-122.423778,44.18147],[-122.423344,44.181575],[-122.422086,44.181955],[-122.421967,44.182142],[-122.421665,44.18248],[-122.421446,44.182598],[-122.42141,44.184733]]]}},{"type":"Feature","properties":{"MAPTAXLOT":"1635000001914","MAPNUMBER":"16350000","TAXLOT":"1914","ACCTNO":"1674884","MAPACRES":3.87430727},"geometry":{"type":"Polygon","coordinates":[[[-122.421471,44.181139],[-122.421446,44.182598],[-122.421665,44.18248],[-122.421967,44.182142],[-122.422086,44.181955],[-122.423344,44.181575],[-122.423778,44.18147],[-122.424035,44.181124],[-122.421471,44.181139]]]}},{"type":"Feature","properties":{"MAPTAXLOT":"1635000001915","MAPNUMBER":"16350000","TAXLOT":"1915","ACCTNO":"1674892","MAPACRES":2.42432555},"geometry":{"type":"Polygon","coordinates":[[[-122.416449,44.184768],[-122.416559,44.186178],[-122.41656,44.186177],[-122.416673,44.186112],[-122.416917,44.18598],[-122.417269,44.185403],[-122.417512,44.185192],[-122.417856,44.184872],[-122.417969,44.184758],[-122.416449,44.184768]]]}},{"type":"Feature","properties":{"MAPTAXLOT":"1635000001916","MAPNUMBER":"16350000","TAXLOT":"1916","ACCTNO":"1722352","MAPACRES":26.23470269},"geometry":{"type":"Polygon","coordinates":[[[-122.408513,44.192048],[-122.41206,44.192015],[-122.411821,44.189],[-122.411794,44.189012],[-122.411332,44.189228],[-122.410454,44.189684],[-122.409492,44.189875],[-122.408766,44.1896],[-122.407691,44.189786],[-122.407475,44.189791],[-122.406924,44.189746],[-122.407112,44.192061],[-122.408513,44.192048]]]}},{"type":"Feature","properties":{"MAPTAXLOT":"1635000001917","MAPNUMBER":"16350000","TAXLOT":"1917","ACCTNO":"1722360","MAPACRES":6.5876129},"geometry":{"type":"Polygon","coordinates":[[[-122.413061,44.188399],[-122.416729,44.188369],[-122.416559,44.186178],[-122.416355,44.186297],[-122.415674,44.186956],[-122.415252,44.187432],[-122.414644,44.188013],[-122.414229,44.188149],[-122.413638,44.188265],[-122.413232,44.188318],[-122.413061,44.188399]]]}},{"type":"Feature","properties":{"MAPTAXLOT":"1635000001918","MAPNUMBER":"16350000","TAXLOT":"1918","ACCTNO":"1722378","MAPACRES":7.70733034},"geometry":{"type":"Polygon","coordinates":[[[-122.417969,44.184758],[-122.42141,44.184733],[-122.421446,44.182598],[-122.421231,44.182713],[-122.420977,44.182855],[-122.420281,44.183301],[-122.420131,44.183538],[-122.42009,44.183756],[-122.419659,44.183915],[-122.419156,44.184057],[-122.418871,44.184256],[-122.418226,44.184529],[-122.417969,44.184758]]]}},{"type":"Feature","properties":{"MAPTAXLOT":"1635000001919","MAPNUMBER":"16350000","TAXLOT":"1919","ACCTNO":"1722386","MAPACRES":4.49240274},"geometry":{"type":"Polygon","coordinates":[[[-122.424035,44.181124],[-122.426435,44.18111],[-122.426442,44.179666],[-122.426274,44.179789],[-122.426144,44.179857],[-122.425872,44.180035],[-122.425333,44.180171],[-122.424694,44.180411],[-122.424518,44.180536],[-122.424197,44.180907],[-122.424051,44.181103],[-122.424035,44.181124]]]}},{"type":"Feature","properties":{"MAPTAXLOT":"1635000001920","MAPNUMBER":"16350000","TAXLOT":"1920","ACCTNO":"1722394","MAPACRES":29.38444411},"geometry":{"type":"Polygon","coordinates":[[[-122.426435,44.18111],[-122.431376,44.18112],[-122.431423,44.177532],[-122.429963,44.17784],[-122.429492,44.178073],[-122.428876,44.178499],[-122.428675,44.178663],[-122.428043,44.178738],[-122.427558,44.178882],[-122.427308,44.179031],[-122.426442,44.179666],[-122.426435,44.18111]]]}},{"type":"Feature","properties":{"MAPTAXLOT":"1635000001921","MAPNUMBER":"16350000","TAXLOT":"1921","ACCTNO":"1722402","MAPACRES":2.14700266},"geometry":{"type":"Polygon","coordinates":[[[-122.445111,44.177562],[-122.446261,44.177564],[-122.446284,44.175849],[-122.445434,44.177104],[-122.445111,44.177562]]]}},{"type":"Feature","properties":{"MAPTAXLOT":"1635000001922","MAPNUMBER":"16350000","TAXLOT":"1922","ACCTNO":"1839115","MAPACRES":140.99367172},"geometry":{"type":"Polygon","coordinates":[[[-122.4662,44.170186],[-122.446358,44.1704],[-122.446309,44.173982],[-122.446287,44.175628],[-122.446456,44.175451],[-122.446664,44.175278],[-122.446907,44.175062],[-122.447141,44.174868],[-122.447881,44.174438],[-122.448132,44.174349],[-122.448421,44.174269],[-122.448521,44.174252],[-122.448834,44.174253],[-122.449021,44.174272],[-122.449146,44.174309],[-122.449308,44.174382],[-122.449445,44.174463],[-122.449556,44.174563],[-122.449718,44.174726],[-122.449916,44.174871],[-122.449991,44.174898],[-122.450041,44.174907],[-122.450179,44.174917],[-122.450254,44.17489],[-122.450367,44.174828],[-122.450418,44.174774],[-122.450557,44.174604],[-122.450645,44.174532],[-122.450834,44.174434],[-122.451034,44.174363],[-122.45116,44.174328],[-122.451348,44.174302],[-122.451798,44.174259],[-122.452964,44.174066],[-122.453402,44.174005],[-122.453728,44.173971],[-122.453953,44.173954],[-122.454316,44.173947],[-122.455742,44.173971],[-122.456055,44.173937],[-122.456655,44.173922],[-122.457006,44.173869],[-122.457144,44.173843],[-122.457319,44.173799],[-122.458198,44.173524],[-122.458849,44.173374],[-122.459364,44.173223],[-122.459916,44.172983],[-122.460708,44.172545],[-122.460784,44.17251],[-122.460872,44.172483],[-122.461047,44.172457],[-122.461235,44.172458],[-122.461409,44.172477],[-122.461734,44.172523],[-122.461872,44.172533],[-122.461997,44.172543],[-122.462122,44.172516],[-122.462585,44.1725],[-122.462811,44.172474],[-122.462986,44.172448],[-122.463111,44.172413],[-122.463362,44.172315],[-122.463588,44.172208],[-122.463739,44.172128],[-122.464067,44.171895],[-122.464217,44.171824],[-122.464355,44.171788],[-122.464443,44.171771],[-122.464668,44.171754],[-122.465357,44.17173],[-122.46562,44.171704],[-122.46572,44.171687],[-122.465795,44.17166],[-122.465833,44.171642],[-122.465971,44.171553],[-122.466097,44.171499],[-122.466199,44.171485],[-122.4662,44.170186]]]}},{"type":"Feature","properties":{"MAPTAXLOT":"1635020000100","MAPNUMBER":"16350200","TAXLOT":"100","ACCTNO":"1657863","MAPACRES":80.34644418},"geometry":{"type":"Polygon","coordinates":[[[-122.406969,44.209692],[-122.407765,44.209699],[-122.409923,44.209719],[-122.41202,44.209738],[-122.414991,44.209765],[-122.415649,44.209765],[-122.415647,44.209764],[-122.415327,44.20949],[-122.414391,44.209003],[-122.414351,44.208837],[-122.414471,44.208581],[-122.414998,44.208429],[-122.415169,44.208222],[-122.415242,44.207887],[-122.415621,44.207281],[-122.415941,44.206918],[-122.416261,44.206385],[-122.415982,44.206044],[-122.415873,44.205627],[-122.415721,44.205443],[-122.415766,44.205267],[-122.415969,44.205065],[-122.416409,44.204777],[-122.416958,44.2046],[-122.41722,44.204398],[-122.41721,44.204185],[-122.416944,44.203815],[-122.417234,44.203537],[-122.417215,44.203317],[-122.417063,44.203068],[-122.416753,44.202829],[-122.416541,44.202776],[-122.415577,44.202856],[-122.415322,44.202983],[-122.415044,44.203232],[-122.414878,44.203495],[-122.414649,44.203588],[-122.413895,44.203447],[-122.413626,44.203517],[-122.413276,44.203932],[-122.412972,44.204112],[-122.412425,44.204198],[-122.412337,44.204311],[-122.412299,44.20436],[-122.412326,44.204493],[-122.412355,44.204634],[-122.412711,44.20496],[-122.412692,44.205177],[-122.412388,44.205377],[-122.412273,44.205407],[-122.411345,44.205636],[-122.410817,44.205297],[-122.410324,44.205218],[-122.410187,44.205291],[-122.410239,44.205543],[-122.410242,44.206048],[-122.4103,44.206392],[-122.41022,44.206527],[-122.40986,44.206804],[-122.409706,44.207095],[-122.40939,44.207402],[-122.409175,44.207765],[-122.408959,44.208393],[-122.408919,44.208657],[-122.407463,44.208657],[-122.407033,44.208291],[-122.406969,44.209692]]]}},{"type":"Feature","properties":{"MAPTAXLOT":"1635020000200","MAPNUMBER":"16350200","TAXLOT":"200","ACCTNO":"0082519","MAPACRES":20.30867139},"geometry":{"type":"MultiPolygon","coordinates":[[[[-122.416753,44.202829],[-122.417063,44.203068],[-122.417215,44.203317],[-122.417234,44.203537],[-122.416944,44.203815],[-122.41721,44.204185],[-122.41722,44.204398],[-122.416958,44.2046],[-122.416409,44.204777],[-122.415969,44.205065],[-122.415766,44.205267],[-122.415721,44.205443],[-122.415873,44.205627],[-122.415982,44.206044],[-122.416261,44.206385],[-122.415941,44.206918],[-122.415621,44.207281],[-122.415242,44.207887],[-122.415169,44.208222],[-122.414998,44.208429],[-122.414471,44.208581],[-122.414351,44.208837],[-122.414391,44.209003],[-122.415327,44.20949],[-122.415647,44.209764],[-122.415649,44.209765],[-122.417071,44.209764],[-122.417071,44.209762],[-122.417333,44.204149],[-122.417127,44.204015],[-122.417357,44.203327],[-122.416763,44.202729],[-122.415443,44.202829],[-122.415058,44.203118],[-122.414888,44.203316],[-122.414482,44.203553],[-122.413801,44.203412],[-122.413497,44.203501],[-122.413334,44.2038],[-122.413096,44.204007],[-122.412774,44.203997],[-122.412404,44.203977],[-122.412357,44.203962],[-122.412337,44.204311],[-122.412425,44.204198],[-122.412972,44.204112],[-122.413276,44.203932],[-122.413626,44.203517],[-122.413895,44.203447],[-122.414649,44.203588],[-122.414878,44.203495],[-122.415044,44.203232],[-122.415322,44.202983],[-122.415577,44.202856],[-122.416541,44.202776],[-122.416753,44.202829]]],[[[-122.412273,44.205407],[-122.412388,44.205377],[-122.412692,44.205177],[-122.412711,44.20496],[-122.412355,44.204634],[-122.412326,44.204493],[-122.412273,44.205407]]]]}},{"type":"Feature","properties":{"MAPTAXLOT":"1635020000300","MAPNUMBER":"16350200","TAXLOT":"300","ACCTNO":"0082527","MAPACRES":284.00949924},"geometry":{"type":"MultiPolygon","coordinates":[[[[-122.417071,44.209762],[-122.417071,44.209764],[-122.420034,44.20976],[-122.422123,44.209758],[-122.425077,44.209755],[-122.427175,44.209751],[-122.427207,44.206021],[-122.427207,44.206016],[-122.427237,44.202511],[-122.427267,44.199001],[-122.422418,44.19904],[-122.420446,44.199055],[-122.420541,44.199211],[-122.42047,44.199419],[-122.420286,44.199622],[-122.420205,44.199811],[-122.420064,44.199918],[-122.419988,44.200215],[-122.419868,44.201039],[-122.419763,44.201175],[-122.419626,44.201371],[-122.419758,44.201587],[-122.419874,44.201958],[-122.419944,44.202075],[-122.420043,44.202455],[-122.420177,44.203127],[-122.419722,44.203828],[-122.419608,44.203898],[-122.419477,44.204275],[-122.419139,44.204299],[-122.418991,44.2043],[-122.418487,44.204317],[-122.41816,44.204324],[-122.417984,44.204296],[-122.41778,44.204208],[-122.417373,44.204178],[-122.417333,44.204149],[-122.417071,44.209762]]],[[[-122.407137,44.205978],[-122.407033,44.208291],[-122.407463,44.208657],[-122.408919,44.208657],[-122.408959,44.208393],[-122.409175,44.207765],[-122.40939,44.207402],[-122.409706,44.207095],[-122.40986,44.206804],[-122.41022,44.206527],[-122.4103,44.206392],[-122.410242,44.206048],[-122.410239,44.205543],[-122.410187,44.205291],[-122.410324,44.205218],[-122.410817,44.205297],[-122.411345,44.205636],[-122.412273,44.205407],[-122.412326,44.204493],[-122.412299,44.20436],[-122.412337,44.204311],[-122.412357,44.203962],[-122.411908,44.203856],[-122.411695,44.203759],[-122.409464,44.203064],[-122.409222,44.202861],[-122.408941,44.202461],[-122.408831,44.202196],[-122.408814,44.202027],[-122.408832,44.20189],[-122.410581,44.201487],[-122.410905,44.201338],[-122.411147,44.201318],[-122.411319,44.201332],[-122.413059,44.200272],[-122.413289,44.200179],[-122.413862,44.200394],[-122.416471,44.199927],[-122.416522,44.199757],[-122.416661,44.199671],[-122.41687,44.19934],[-122.416916,44.199091],[-122.412636,44.199181],[-122.407703,44.199284],[-122.40742,44.202631],[-122.407137,44.205978]]]]}},{"type":"Feature","properties":{"MAPTAXLOT":"1635020000400","MAPNUMBER":"16350200","TAXLOT":"400","ACCTNO":"1528973","MAPACRES":80.52601258},"geometry":{"type":"Polygon","coordinates":[[[-122.41816,44.204324],[-122.418487,44.204317],[-122.418991,44.2043],[-122.419139,44.204299],[-122.419477,44.204275],[-122.419608,44.203898],[-122.419722,44.203828],[-122.420177,44.203127],[-122.420043,44.202455],[-122.419944,44.202075],[-122.419874,44.201958],[-122.419758,44.201587],[-122.419626,44.201371],[-122.419763,44.201175],[-122.419868,44.201039],[-122.419988,44.200215],[-122.420064,44.199918],[-122.420205,44.199811],[-122.420286,44.199622],[-122.42047,44.199419],[-122.420541,44.199211],[-122.420446,44.199055],[-122.417569,44.199078],[-122.416916,44.199091],[-122.41687,44.19934],[-122.416661,44.199671],[-122.416522,44.199757],[-122.416471,44.199927],[-122.413862,44.200394],[-122.413289,44.200179],[-122.413059,44.200272],[-122.411319,44.201332],[-122.411147,44.201318],[-122.410905,44.201338],[-122.410581,44.201487],[-122.408832,44.20189],[-122.408814,44.202027],[-122.408831,44.202196],[-122.408941,44.202461],[-122.409222,44.202861],[-122.409464,44.203064],[-122.411695,44.203759],[-122.411908,44.203856],[-122.412357,44.203962],[-122.412404,44.203977],[-122.412774,44.203997],[-122.413096,44.204007],[-122.413334,44.2038],[-122.413497,44.203501],[-122.413801,44.203412],[-122.414482,44.203553],[-122.414888,44.203316],[-122.415058,44.203118],[-122.415443,44.202829],[-122.416763,44.202729],[-122.417357,44.203327],[-122.417127,44.204015],[-122.417333,44.204149],[-122.417373,44.204178],[-122.41778,44.204208],[-122.417984,44.204296],[-122.41816,44.204324]]]}},{"type":"Feature","properties":{"MAPTAXLOT":"1635100000100","MAPNUMBER":"16351000","TAXLOT":"100","ACCTNO":"1495553","MAPACRES":777.07059996},"geometry":{"type":"Polygon","coordinates":[[[-122.442234,44.198909],[-122.447223,44.198878],[-122.447172,44.19539],[-122.44712,44.191902],[-122.446662,44.188318],[-122.446203,44.184734],[-122.446232,44.181149],[-122.446261,44.177564],[-122.445111,44.177562],[-122.441328,44.177554],[-122.436356,44.177543],[-122.431423,44.177532],[-122.431376,44.18112],[-122.426435,44.18111],[-122.426371,44.184699],[-122.426722,44.188287],[-122.427073,44.191875],[-122.427267,44.199001],[-122.432256,44.19897],[-122.437245,44.198939],[-122.442234,44.198909]],[[-122.433307,44.19132],[-122.432862,44.191344],[-122.432392,44.191261],[-122.431599,44.190662],[-122.430757,44.190825],[-122.430316,44.190534],[-122.429521,44.189565],[-122.429172,44.189308],[-122.428955,44.189179],[-122.427613,44.189579],[-122.42732,44.189455],[-122.427279,44.189081],[-122.426889,44.188825],[-122.427363,44.18827],[-122.428283,44.187497],[-122.429116,44.18673],[-122.430808,44.185736],[-122.431769,44.184989],[-122.435234,44.182968],[-122.436591,44.182563],[-122.436916,44.182767],[-122.437029,44.182823],[-122.437293,44.182965],[-122.437627,44.183112],[-122.437842,44.183259],[-122.439069,44.183746],[-122.439362,44.18404],[-122.439649,44.184322],[-122.440307,44.185111],[-122.440935,44.185259],[-122.441329,44.185352],[-122.441674,44.185521],[-122.441862,44.185871],[-122.441725,44.185928],[-122.441299,44.186024],[-122.439947,44.186435],[-122.440193,44.187003],[-122.440175,44.187231],[-122.440637,44.187371],[-122.440911,44.187785],[-122.441179,44.18806],[-122.440377,44.188381],[-122.439161,44.187884],[-122.439073,44.187836],[-122.438641,44.187808],[-122.4379,44.187799],[-122.437309,44.187579],[-122.436888,44.187166],[-122.435599,44.186803],[-122.435274,44.186777],[-122.434768,44.186667],[-122.433754,44.18696],[-122.433723,44.187402],[-122.433503,44.188495],[-122.433364,44.188984],[-122.433489,44.189301],[-122.433085,44.189628],[-122.432767,44.189686],[-122.432395,44.189623],[-122.432412,44.190006],[-122.432616,44.190237],[-122.432729,44.190389],[-122.432867,44.190522],[-122.433114,44.19062],[-122.43321,44.190761],[-122.433438,44.191057],[-122.433307,44.19132]]]}},{"type":"Feature","properties":{"MAPTAXLOT":"1635100000200","MAPNUMBER":"16351000","TAXLOT":"200","ACCTNO":"1495561","MAPACRES":119.44768201},"geometry":{"type":"Polygon","coordinates":[[[-122.432392,44.191261],[-122.432862,44.191344],[-122.433307,44.19132],[-122.433438,44.191057],[-122.43321,44.190761],[-122.433114,44.19062],[-122.432867,44.190522],[-122.432729,44.190389],[-122.432616,44.190237],[-122.432412,44.190006],[-122.432395,44.189623],[-122.432767,44.189686],[-122.433085,44.189628],[-122.433489,44.189301],[-122.433364,44.188984],[-122.433503,44.188495],[-122.433723,44.187402],[-122.433754,44.18696],[-122.434768,44.186667],[-122.435274,44.186777],[-122.435599,44.186803],[-122.436888,44.187166],[-122.437309,44.187579],[-122.4379,44.187799],[-122.438641,44.187808],[-122.439073,44.187836],[-122.439161,44.187884],[-122.440377,44.188381],[-122.441179,44.18806],[-122.440911,44.187785],[-122.440637,44.187371],[-122.440175,44.187231],[-122.440193,44.187003],[-122.439947,44.186435],[-122.441299,44.186024],[-122.441725,44.185928],[-122.441862,44.185871],[-122.441674,44.185521],[-122.441329,44.185352],[-122.440935,44.185259],[-122.440307,44.185111],[-122.439649,44.184322],[-122.439362,44.18404],[-122.439069,44.183746],[-122.437842,44.183259],[-122.437627,44.183112],[-122.437293,44.182965],[-122.437029,44.182823],[-122.436916,44.182767],[-122.436591,44.182563],[-122.435234,44.182968],[-122.431769,44.184989],[-122.430808,44.185736],[-122.429116,44.18673],[-122.428283,44.187497],[-122.427363,44.18827],[-122.426889,44.188825],[-122.427279,44.189081],[-122.42732,44.189455],[-122.427613,44.189579],[-122.428955,44.189179],[-122.429172,44.189308],[-122.429521,44.189565],[-122.430316,44.190534],[-122.430757,44.190825],[-122.431599,44.190662],[-122.432392,44.191261]]]}},{"type":"Feature","properties":{"MAPTAXLOT":"1645000001300","MAPNUMBER":"16450000","TAXLOT":"1300","ACCTNO":"0084135","MAPACRES":1812.42046301},"geometry":{"type":"Polygon","coordinates":[[[-122.373959,44.209425],[-122.374083,44.209425],[-122.38035,44.209464],[-122.380613,44.209466],[-122.382413,44.209475],[-122.381048,44.208622],[-122.378921,44.207928],[-122.379437,44.206678],[-122.382177,44.207668],[-122.383128,44.208257],[-122.383133,44.20826],[-122.383137,44.205606],[-122.383137,44.205537],[-122.383137,44.205243],[-122.383142,44.201915],[-122.383143,44.201623],[-122.383147,44.198295],[-122.383151,44.198003],[-122.383135,44.194686],[-122.383134,44.194404],[-122.383119,44.191078],[-122.383118,44.190805],[-122.383109,44.18747],[-122.383108,44.187198],[-122.3831,44.183862],[-122.37879,44.183871],[-122.37448,44.18388],[-122.369521,44.183893],[-122.364562,44.183905],[-122.359627,44.183898],[-122.359636,44.187458],[-122.364538,44.187493],[-122.3695,44.187479],[-122.374462,44.187464],[-122.374444,44.19108],[-122.374427,44.19468],[-122.378782,44.194683],[-122.378778,44.198288],[-122.374408,44.19828],[-122.369436,44.198271],[-122.369457,44.194676],[-122.364489,44.194671],[-122.359657,44.194456],[-122.354824,44.19435],[-122.354781,44.190916],[-122.349778,44.190868],[-122.344775,44.19082],[-122.344777,44.189818],[-122.334282,44.189829],[-122.333979,44.1934],[-122.333677,44.19697],[-122.32872,44.196977],[-122.323762,44.196983],[-122.32381,44.200592],[-122.318881,44.200597],[-122.318974,44.204167],[-122.31911,44.209296],[-122.31911,44.209297],[-122.32398,44.209297],[-122.324307,44.209298],[-122.334147,44.209366],[-122.334211,44.209367],[-122.336464,44.209382],[-122.336463,44.209382],[-122.336387,44.209345],[-122.335912,44.209112],[-122.337649,44.208058],[-122.340025,44.209173],[-122.340622,44.208634],[-122.3409,44.20876],[-122.342092,44.207399],[-122.342429,44.207553],[-122.343661,44.206956],[-122.344285,44.20736],[-122.344392,44.207274],[-122.344734,44.203488],[-122.34527,44.197452],[-122.354867,44.197784],[-122.359665,44.19795],[-122.364464,44.198117],[-122.364464,44.198261],[-122.364308,44.204577],[-122.364135,44.208228],[-122.364517,44.207843],[-122.365801,44.209345],[-122.365806,44.209346],[-122.367402,44.209355],[-122.367458,44.209329],[-122.367638,44.209248],[-122.367643,44.209249],[-122.36834,44.209385],[-122.373959,44.209425]],[[-122.376607,44.207175],[-122.375539,44.207803],[-122.376216,44.208377],[-122.374589,44.209333],[-122.371147,44.206473],[-122.366667,44.20394],[-122.368372,44.202935],[-122.371672,44.204833],[-122.372478,44.20436],[-122.370307,44.203655],[-122.371483,44.202421],[-122.374666,44.204182],[-122.374019,44.204859],[-122.37379,44.204785],[-122.376607,44.207175]]]}},{"type":"Feature","properties":{"MAPTAXLOT":"1645000005300","MAPNUMBER":"16450000","TAXLOT":"5300","ACCTNO":"0084556","MAPACRES":529.2787487},"geometry":{"type":"Polygon","coordinates":[[[-122.37879,44.183871],[-122.3831,44.183862],[-122.383099,44.183591],[-122.38314,44.180233],[-122.38314,44.180031],[-122.38314,44.18003],[-122.383182,44.176607],[-122.383182,44.176607],[-122.383182,44.176472],[-122.383182,44.176472],[-122.383226,44.172983],[-122.383226,44.172983],[-122.383226,44.172916],[-122.383226,44.172915],[-122.383272,44.169361],[-122.378896,44.169792],[-122.374523,44.170224],[-122.372721,44.170412],[-122.369579,44.170396],[-122.369565,44.173408],[-122.364546,44.173563],[-122.364552,44.176756],[-122.364557,44.18033],[-122.364562,44.183905],[-122.369521,44.183893],[-122.37448,44.18388],[-122.37879,44.183871]]]}},{"type":"Feature","properties":{"MAPTAXLOT":"1645000005600","MAPNUMBER":"16450000","TAXLOT":"5600","ACCTNO":"0084580","MAPACRES":605.15250926},"geometry":{"type":"Polygon","coordinates":[[[-122.369579,44.170396],[-122.372721,44.170412],[-122.374523,44.170224],[-122.378896,44.169792],[-122.383272,44.169361],[-122.383906,44.165961],[-122.38454,44.162561],[-122.38454,44.162561],[-122.385173,44.159161],[-122.385799,44.155824],[-122.379898,44.155916],[-122.374054,44.156007],[-122.369183,44.156018],[-122.364313,44.156028],[-122.364028,44.159615],[-122.363736,44.163201],[-122.363447,44.166787],[-122.368268,44.166593],[-122.367938,44.170387],[-122.369579,44.170396]]]}},{"type":"Feature","properties":{"MAPTAXLOT":"1645060000100","MAPNUMBER":"16450600","TAXLOT":"100","ACCTNO":"1223385","MAPACRES":15.48017498},"geometry":{"type":"Polygon","coordinates":[[[-122.382413,44.209475],[-122.382422,44.20948],[-122.38354,44.210168],[-122.383546,44.210155],[-122.383849,44.209477],[-122.383852,44.209469],[-122.384119,44.208871],[-122.383133,44.20826],[-122.383128,44.208257],[-122.382177,44.207668],[-122.379437,44.206678],[-122.378921,44.207928],[-122.381048,44.208622],[-122.382413,44.209475]]]}}]}