{"type":"FeatureCollection","features":[{"type":"Feature","properties":{"MAPTAXLOT":"2215000000077","MAPNUMBER":"22150000","TAXLOT":"77","ACCTNO":"000None","MAPACRES":75.56908558},"geometry":{"type":"Polygon","coordinates":[[[-122.730648,43.675141],[-122.730875,43.67514],[-122.731084,43.675142],[-122.731296,43.675144],[-122.731461,43.675149],[-122.731592,43.67515],[-122.731741,43.67516],[-122.731874,43.675174],[-122.732007,43.675191],[-122.732109,43.675204],[-122.732134,43.675208],[-122.73227,43.675232],[-122.732397,43.67526],[-122.732609,43.675307],[-122.732819,43.675353],[-122.733045,43.675401],[-122.733252,43.675444],[-122.733443,43.675486],[-122.733654,43.67553],[-122.733837,43.675575],[-122.734004,43.675607],[-122.734189,43.675649],[-122.734395,43.675685],[-122.734597,43.67573],[-122.734809,43.675775],[-122.735012,43.675814],[-122.735195,43.675854],[-122.735392,43.675895],[-122.735599,43.675934],[-122.735724,43.675957],[-122.735832,43.675978],[-122.73595,43.675995],[-122.736113,43.676022],[-122.736269,43.676046],[-122.736485,43.676069],[-122.736708,43.676095],[-122.736927,43.676115],[-122.737143,43.676138],[-122.737354,43.676158],[-122.737583,43.676182],[-122.737793,43.676203],[-122.738013,43.676228],[-122.738214,43.676249],[-122.738447,43.676271],[-122.738659,43.676294],[-122.738862,43.676315],[-122.739073,43.676337],[-122.739274,43.676358],[-122.739484,43.676375],[-122.739698,43.676396],[-122.73994,43.676418],[-122.74015,43.676438],[-122.740349,43.676456],[-122.74055,43.67648],[-122.740759,43.676495],[-122.740979,43.676516],[-122.74118,43.676533],[-122.741386,43.676555],[-122.7416,43.676574],[-122.741812,43.676594],[-122.742016,43.676612],[-122.742225,43.676635],[-122.742411,43.676654],[-122.742621,43.676674],[-122.742808,43.676694],[-122.744292,43.676858],[-122.744291,43.676691],[-122.742841,43.676531],[-122.742652,43.676511],[-122.742442,43.676491],[-122.742258,43.676472],[-122.742047,43.676449],[-122.741841,43.67643],[-122.741628,43.676411],[-122.741416,43.676391],[-122.741209,43.67637],[-122.741008,43.676352],[-122.740784,43.676331],[-122.74058,43.676316],[-122.740382,43.676293],[-122.740179,43.676275],[-122.739968,43.676255],[-122.739728,43.676233],[-122.739513,43.676211],[-122.739302,43.676194],[-122.739105,43.676174],[-122.738894,43.676152],[-122.738691,43.676131],[-122.738478,43.676108],[-122.738245,43.676086],[-122.738047,43.676065],[-122.737826,43.67604],[-122.737614,43.676019],[-122.737385,43.675995],[-122.737174,43.675975],[-122.736958,43.675952],[-122.73674,43.675932],[-122.736519,43.675907],[-122.736309,43.675883],[-122.736161,43.675861],[-122.735998,43.675834],[-122.735883,43.675817],[-122.735782,43.675798],[-122.735656,43.675774],[-122.735452,43.675736],[-122.735259,43.675696],[-122.735073,43.675655],[-122.734869,43.675616],[-122.734662,43.675573],[-122.734455,43.675526],[-122.73425,43.67549],[-122.734066,43.675448],[-122.733902,43.675417],[-122.733722,43.675373],[-122.733507,43.675328],[-122.733316,43.675286],[-122.733108,43.675243],[-122.732884,43.675195],[-122.732675,43.67515],[-122.732463,43.675103],[-122.732331,43.675074],[-122.732182,43.675047],[-122.73215,43.675042],[-122.732047,43.675029],[-122.73191,43.675011],[-122.731766,43.674997],[-122.731604,43.674986],[-122.731467,43.674984],[-122.731302,43.67498],[-122.731087,43.674978],[-122.730876,43.674975],[-122.730646,43.674977],[-122.730427,43.674978],[-122.730241,43.674983],[-122.730036,43.674986],[-122.729821,43.67499],[-122.72963,43.674992],[-122.729452,43.674996],[-122.729255,43.674993],[-122.729069,43.674992],[-122.728782,43.674992],[-122.728564,43.674988],[-122.728408,43.674985],[-122.728255,43.674971],[-122.728097,43.674962],[-122.727945,43.674938],[-122.727791,43.674917],[-122.727651,43.674879],[-122.72749,43.674824],[-122.727365,43.67475],[-122.727263,43.674678],[-122.727155,43.674582],[-122.727046,43.674472],[-122.726944,43.674369],[-122.726841,43.674262],[-122.726735,43.674158],[-122.726625,43.674062],[-122.726509,43.673959],[-122.726385,43.673857],[-122.726264,43.673757],[-122.726136,43.673655],[-122.726021,43.673554],[-122.725884,43.673442],[-122.725762,43.673359],[-122.725582,43.673284],[-122.725401,43.673245],[-122.725229,43.673213],[-122.725055,43.673201],[-122.724861,43.673202],[-122.724699,43.673209],[-122.724509,43.673217],[-122.724326,43.673225],[-122.724148,43.673236],[-122.723957,43.67325],[-122.723764,43.67327],[-122.72359,43.67328],[-122.723423,43.673277],[-122.723245,43.673268],[-122.723073,43.67325],[-122.722868,43.67323],[-122.722678,43.673216],[-122.722485,43.673203],[-122.722292,43.673196],[-122.722093,43.673191],[-122.721922,43.673194],[-122.721728,43.673202],[-122.721534,43.673219],[-122.721353,43.673242],[-122.721188,43.673276],[-122.721013,43.673315],[-122.720837,43.673354],[-122.720661,43.673386],[-122.720482,43.673415],[-122.720299,43.673437],[-122.720108,43.673458],[-122.719921,43.673479],[-122.719744,43.673496],[-122.719562,43.673506],[-122.71937,43.673512],[-122.719202,43.673512],[-122.719033,43.673505],[-122.718854,43.673496],[-122.718658,43.673483],[-122.718472,43.673471],[-122.718276,43.673458],[-122.718049,43.673447],[-122.717834,43.673437],[-122.71767,43.673427],[-122.717471,43.673409],[-122.717316,43.673388],[-122.717159,43.673346],[-122.717079,43.673315],[-122.716993,43.673277],[-122.716892,43.673216],[-122.716798,43.673156],[-122.716706,43.673078],[-122.716633,43.673002],[-122.716542,43.672906],[-122.716449,43.672802],[-122.716355,43.672704],[-122.716269,43.672627],[-122.716185,43.672563],[-122.716075,43.672485],[-122.715984,43.672431],[-122.715891,43.672382],[-122.715864,43.672368],[-122.715735,43.672316],[-122.715611,43.672269],[-122.715458,43.672223],[-122.71528,43.672162],[-122.71513,43.672112],[-122.714979,43.672053],[-122.714861,43.672011],[-122.714728,43.67197],[-122.714584,43.671941],[-122.714436,43.671922],[-122.714241,43.671908],[-122.714072,43.671901],[-122.713892,43.671889],[-122.713716,43.671873],[-122.713573,43.671859],[-122.713414,43.671838],[-122.713212,43.671808],[-122.713086,43.671789],[-122.712925,43.671767],[-122.712781,43.671762],[-122.712633,43.671766],[-122.71248,43.671779],[-122.712304,43.671783],[-122.71217,43.671785],[-122.711995,43.671783],[-122.711835,43.671781],[-122.711647,43.671787],[-122.711494,43.671797],[-122.711313,43.671809],[-122.711162,43.671822],[-122.71099,43.671855],[-122.710847,43.671901],[-122.710714,43.671964],[-122.710565,43.672043],[-122.710422,43.672131],[-122.710315,43.67219],[-122.710174,43.672275],[-122.710026,43.672353],[-122.709879,43.672437],[-122.709784,43.672485],[-122.709666,43.672528],[-122.709561,43.67256],[-122.709417,43.672581],[-122.709405,43.672581],[-122.709329,43.672579],[-122.709309,43.672579],[-122.709261,43.672568],[-122.709195,43.672554],[-122.709132,43.672532],[-122.709065,43.672503],[-122.709033,43.672487],[-122.708972,43.672452],[-122.708932,43.672424],[-122.708892,43.672393],[-122.708826,43.672338],[-122.70879,43.672294],[-122.708743,43.672228],[-122.708713,43.67218],[-122.708703,43.672144],[-122.70869,43.672089],[-122.708679,43.672048],[-122.708639,43.671911],[-122.708629,43.67178],[-122.708624,43.671637],[-122.70863,43.671493],[-122.708621,43.671346],[-122.708617,43.671191],[-122.708596,43.67104],[-122.708579,43.670908],[-122.708538,43.670807],[-122.708478,43.670693],[-122.708373,43.670587],[-122.70825,43.670499],[-122.708071,43.670406],[-122.707908,43.67032],[-122.707739,43.670239],[-122.707585,43.670155],[-122.707412,43.670069],[-122.707268,43.669976],[-122.707146,43.669902],[-122.707029,43.669817],[-122.706893,43.669737],[-122.706761,43.669659],[-122.706637,43.669594],[-122.706527,43.669531],[-122.706512,43.669522],[-122.706381,43.669459],[-122.706234,43.669394],[-122.706066,43.669337],[-122.705923,43.669293],[-122.70578,43.669263],[-122.70562,43.669233],[-122.70546,43.669213],[-122.705295,43.669191],[-122.705117,43.669173],[-122.704977,43.669145],[-122.704868,43.669125],[-122.704735,43.669086],[-122.704633,43.669046],[-122.704565,43.668999],[-122.704511,43.668939],[-122.704477,43.668864],[-122.704434,43.668769],[-122.704406,43.668657],[-122.704366,43.668542],[-122.704335,43.668429],[-122.704296,43.668313],[-122.704258,43.668191],[-122.704213,43.668077],[-122.704166,43.667951],[-122.704112,43.667833],[-122.704072,43.667713],[-122.70403,43.667598],[-122.704019,43.667473],[-122.703994,43.667248],[-122.703985,43.667127],[-122.703966,43.667004],[-122.70395,43.666895],[-122.703922,43.66679],[-122.703885,43.666686],[-122.70382,43.666581],[-122.703747,43.666474],[-122.703654,43.666379],[-122.703564,43.666286],[-122.703466,43.666204],[-122.703369,43.666128],[-122.703256,43.666057],[-122.703139,43.665983],[-122.703,43.665924],[-122.702839,43.665873],[-122.70271,43.665843],[-122.702548,43.665795],[-122.702411,43.665746],[-122.702276,43.665686],[-122.702214,43.665657],[-122.702147,43.665625],[-122.702016,43.665556],[-122.70185,43.665487],[-122.70168,43.665419],[-122.701502,43.665368],[-122.701301,43.665321],[-122.701169,43.6653],[-122.70099,43.665272],[-122.700799,43.665248],[-122.700643,43.665231],[-122.700452,43.665222],[-122.700269,43.665211],[-122.700096,43.665205],[-122.699785,43.665182],[-122.699662,43.66516],[-122.699526,43.665121],[-122.699416,43.665076],[-122.699301,43.66502],[-122.699207,43.664949],[-122.699119,43.664871],[-122.699046,43.664774],[-122.698963,43.664655],[-122.698873,43.664544],[-122.698766,43.664426],[-122.698651,43.66431],[-122.698523,43.664206],[-122.698401,43.664104],[-122.698269,43.664005],[-122.698135,43.663887],[-122.697996,43.66378],[-122.697866,43.663662],[-122.697754,43.663572],[-122.697645,43.663487],[-122.697518,43.663411],[-122.697372,43.66333],[-122.697214,43.663269],[-122.696836,43.66315],[-122.696666,43.663095],[-122.696478,43.663039],[-122.696285,43.662991],[-122.696099,43.662957],[-122.695925,43.662926],[-122.695737,43.662905],[-122.695541,43.662891],[-122.695323,43.662896],[-122.695129,43.662912],[-122.694936,43.662945],[-122.694749,43.662968],[-122.694589,43.662989],[-122.694438,43.663012],[-122.694309,43.663024],[-122.694194,43.663022],[-122.694052,43.663001],[-122.693947,43.662964],[-122.69384,43.662909],[-122.693686,43.662811],[-122.69353,43.66272],[-122.693364,43.66263],[-122.693205,43.662539],[-122.693058,43.662453],[-122.692722,43.662249],[-122.692527,43.662133],[-122.692389,43.662056],[-122.69225,43.66199],[-122.692121,43.661926],[-122.691967,43.661858],[-122.691827,43.661785],[-122.691683,43.661711],[-122.691548,43.661628],[-122.691416,43.661563],[-122.691273,43.661494],[-122.691122,43.66144],[-122.690981,43.661388],[-122.690814,43.661342],[-122.69065,43.661299],[-122.690466,43.661264],[-122.690283,43.661234],[-122.690083,43.661212],[-122.68987,43.661179],[-122.689723,43.661156],[-122.689593,43.66113],[-122.689444,43.661095],[-122.68931,43.661059],[-122.68917,43.661035],[-122.689001,43.661018],[-122.688838,43.661011],[-122.688677,43.661004],[-122.688493,43.661009],[-122.688317,43.661012],[-122.68814,43.661017],[-122.68797,43.661014],[-122.687792,43.661007],[-122.687621,43.660996],[-122.687433,43.660984],[-122.687247,43.660975],[-122.687068,43.660975],[-122.686955,43.660975],[-122.686895,43.660975],[-122.686731,43.660981],[-122.686598,43.660975],[-122.686441,43.660968],[-122.686306,43.660952],[-122.686132,43.660928],[-122.685984,43.660906],[-122.685787,43.660894],[-122.685593,43.660888],[-122.685405,43.660892],[-122.685224,43.660886],[-122.685056,43.660891],[-122.684909,43.660887],[-122.684786,43.660884],[-122.684685,43.660867],[-122.684571,43.660829],[-122.684476,43.660777],[-122.684403,43.660708],[-122.684337,43.660625],[-122.684269,43.660514],[-122.684213,43.660394],[-122.684145,43.660267],[-122.684085,43.660147],[-122.684035,43.660042],[-122.683976,43.659945],[-122.683905,43.659859],[-122.683869,43.65982],[-122.683829,43.659776],[-122.683747,43.659701],[-122.68365,43.659614],[-122.683533,43.659513],[-122.683421,43.659417],[-122.683305,43.659323],[-122.683189,43.659226],[-122.683069,43.659133],[-122.682951,43.659044],[-122.682851,43.658965],[-122.682761,43.658881],[-122.682662,43.658775],[-122.682575,43.658661],[-122.682492,43.658552],[-122.682409,43.658434],[-122.682325,43.658321],[-122.682243,43.658209],[-122.682146,43.658082],[-122.682059,43.657962],[-122.681978,43.657851],[-122.681892,43.657727],[-122.681808,43.657618],[-122.681738,43.657503],[-122.68167,43.657385],[-122.681617,43.657268],[-122.681554,43.657145],[-122.681498,43.657022],[-122.681426,43.656901],[-122.681357,43.656776],[-122.681283,43.656658],[-122.681203,43.656541],[-122.681104,43.656432],[-122.681007,43.656329],[-122.680887,43.656222],[-122.680785,43.656122],[-122.680655,43.65602],[-122.680537,43.65593],[-122.68042,43.655847],[-122.68031,43.655764],[-122.680174,43.655653],[-122.680081,43.655574],[-122.679991,43.655491],[-122.679928,43.655417],[-122.679882,43.655347],[-122.679851,43.655278],[-122.67983,43.655205],[-122.679822,43.655118],[-122.679828,43.655042],[-122.679846,43.65497],[-122.679878,43.654902],[-122.679923,43.654836],[-122.680007,43.654723],[-122.680104,43.654583],[-122.680189,43.654455],[-122.680254,43.654352],[-122.680333,43.654215],[-122.680387,43.654099],[-122.680438,43.653999],[-122.680475,43.653889],[-122.680496,43.653765],[-122.680521,43.653635],[-122.680547,43.653508],[-122.680564,43.653409],[-122.680587,43.653303],[-122.680634,43.653191],[-122.680674,43.653073],[-122.680717,43.65296],[-122.680747,43.652874],[-122.680776,43.652771],[-122.680783,43.652663],[-122.680782,43.652653],[-122.680771,43.652564],[-122.680736,43.652465],[-122.680689,43.652372],[-122.68061,43.652257],[-122.68054,43.652155],[-122.680468,43.652055],[-122.680404,43.651944],[-122.680344,43.651829],[-122.680248,43.651651],[-122.680187,43.65154],[-122.680119,43.651425],[-122.680058,43.651309],[-122.67999,43.65119],[-122.679923,43.651088],[-122.679845,43.650991],[-122.679757,43.650899],[-122.679657,43.650804],[-122.67955,43.650712],[-122.679437,43.650626],[-122.679309,43.650538],[-122.679179,43.65045],[-122.679053,43.650369],[-122.678922,43.650284],[-122.678796,43.6502],[-122.678664,43.650113],[-122.678534,43.650031],[-122.678412,43.64995],[-122.678282,43.649869],[-122.678151,43.649782],[-122.678026,43.649704],[-122.67789,43.649621],[-122.677749,43.649533],[-122.677616,43.649452],[-122.67749,43.649371],[-122.677366,43.649291],[-122.677238,43.64921],[-122.677112,43.649128],[-122.67699,43.649052],[-122.676868,43.648975],[-122.676749,43.648895],[-122.676626,43.648812],[-122.676502,43.648732],[-122.676375,43.648654],[-122.676244,43.648576],[-122.676115,43.648501],[-122.675985,43.648425],[-122.675846,43.648345],[-122.675703,43.648268],[-122.675573,43.648196],[-122.67543,43.648116],[-122.675294,43.648042],[-122.675194,43.647989],[-122.675067,43.647929],[-122.674937,43.647868],[-122.674793,43.647808],[-122.674649,43.647752],[-122.674498,43.647699],[-122.67435,43.647652],[-122.674197,43.647601],[-122.67406,43.647553],[-122.673928,43.647501],[-122.673807,43.647446],[-122.673671,43.647382],[-122.67357,43.647322],[-122.673435,43.64724],[-122.673302,43.647159],[-122.673168,43.647083],[-122.673033,43.647007],[-122.67289,43.646933],[-122.67275,43.646862],[-122.672613,43.646794],[-122.672452,43.646714],[-122.672306,43.646653],[-122.67215,43.646595],[-122.671976,43.646542],[-122.671823,43.646508],[-122.671638,43.64647],[-122.671463,43.646437],[-122.671263,43.646411],[-122.67105,43.64639],[-122.670848,43.646386],[-122.670654,43.64638],[-122.670464,43.646373],[-122.670299,43.646362],[-122.670161,43.646348],[-122.670008,43.646325],[-122.669834,43.646292],[-122.669643,43.646238],[-122.669482,43.646179],[-122.669314,43.646105],[-122.669132,43.646012],[-122.668935,43.645904],[-122.66877,43.645816],[-122.668616,43.645725],[-122.668458,43.645634],[-122.668339,43.645556],[-122.668181,43.645468],[-122.668009,43.645389],[-122.667827,43.645323],[-122.667608,43.645266],[-122.667452,43.645228],[-122.667282,43.645187],[-122.667088,43.645141],[-122.666933,43.645102],[-122.666904,43.645095],[-122.666711,43.645046],[-122.666542,43.645007],[-122.666381,43.644969],[-122.666218,43.644928],[-122.666063,43.644895],[-122.665898,43.644859],[-122.665703,43.644826],[-122.66551,43.644804],[-122.665314,43.644789],[-122.665128,43.644778],[-122.66494,43.644774],[-122.664722,43.644769],[-122.664471,43.644772],[-122.664308,43.644767],[-122.664136,43.644756],[-122.663956,43.644737],[-122.663754,43.644704],[-122.663577,43.644664],[-122.663387,43.644611],[-122.663195,43.644566],[-122.662994,43.644513],[-122.66283,43.644455],[-122.662687,43.644399],[-122.662555,43.644336],[-122.662412,43.644271],[-122.662243,43.644181],[-122.662088,43.644099],[-122.661941,43.644012],[-122.661793,43.643933],[-122.661626,43.643845],[-122.661477,43.643774],[-122.66135,43.643704],[-122.661205,43.643627],[-122.661068,43.643542],[-122.660916,43.643444],[-122.660779,43.643349],[-122.660642,43.643257],[-122.660479,43.643159],[-122.660331,43.643079],[-122.660137,43.642998],[-122.659971,43.642929],[-122.659841,43.642863],[-122.659689,43.642776],[-122.659578,43.642694],[-122.659496,43.642619],[-122.659433,43.642552],[-122.659373,43.642457],[-122.659322,43.642384],[-122.659258,43.642263],[-122.659201,43.64218],[-122.659093,43.642059],[-122.658955,43.641969],[-122.658906,43.641952],[-122.658903,43.641772],[-122.65887,43.641642],[-122.658862,43.64142],[-122.6587,43.641199],[-122.65849,43.641002],[-122.658089,43.640746],[-122.657996,43.640681],[-122.657956,43.640648],[-122.657954,43.640592],[-122.657973,43.640418],[-122.657997,43.640265],[-122.658004,43.640073],[-122.657846,43.639499],[-122.657856,43.639418],[-122.657903,43.639285],[-122.658025,43.638992],[-122.658232,43.638682],[-122.658545,43.638141],[-122.658563,43.638109],[-122.658954,43.637357],[-122.659078,43.636993],[-122.659163,43.63679],[-122.659368,43.636494],[-122.659506,43.636312],[-122.659574,43.636037],[-122.659604,43.635959],[-122.659672,43.635907],[-122.659712,43.635896],[-122.659912,43.635893],[-122.660192,43.635842],[-122.660407,43.635724],[-122.660586,43.635587],[-122.660686,43.635432],[-122.660795,43.635251],[-122.660837,43.63509],[-122.660797,43.63482],[-122.66072,43.634645],[-122.660694,43.634582],[-122.66066,43.634398],[-122.660632,43.634282],[-122.660738,43.634099],[-122.660867,43.633826],[-122.661057,43.63347],[-122.661096,43.633219],[-122.660997,43.633034],[-122.660833,43.632685],[-122.660708,43.632496],[-122.660674,43.63228],[-122.660603,43.631863],[-122.66049,43.631637],[-122.660311,43.631441],[-122.658915,43.629993],[-122.658812,43.62986],[-122.658744,43.629614],[-122.65869,43.629228],[-122.658734,43.628885],[-122.658776,43.628562],[-122.658852,43.628356],[-122.658841,43.628048],[-122.65884,43.627854],[-122.658464,43.627486],[-122.657659,43.626985],[-122.657446,43.626753],[-122.656978,43.625479],[-122.656606,43.625299],[-122.656119,43.624946],[-122.655995,43.624946],[-122.655533,43.624692],[-122.655311,43.624691],[-122.65508,43.624524],[-122.654944,43.624524],[-122.654747,43.624454],[-122.653644,43.62381],[-122.653645,43.623664],[-122.653645,43.623564],[-122.653407,43.623391],[-122.653175,43.622297],[-122.652418,43.621837],[-122.652183,43.621837],[-122.651451,43.62146],[-122.651451,43.621297],[-122.65099,43.620962],[-122.650989,43.620803],[-122.650587,43.620414],[-122.65045,43.620413],[-122.649767,43.620079],[-122.648283,43.619834],[-122.647736,43.619355],[-122.647253,43.618742],[-122.647007,43.618706],[-122.646615,43.61865],[-122.64642,43.618649],[-122.646318,43.618574],[-122.645638,43.618408],[-122.645394,43.61814],[-122.645252,43.618145],[-122.644523,43.617765],[-122.644525,43.617432],[-122.643541,43.616806],[-122.642022,43.616551],[-122.640547,43.616055],[-122.639674,43.615503],[-122.639675,43.6149],[-122.639798,43.614813],[-122.639552,43.613821],[-122.639314,43.613649],[-122.639213,43.613428],[-122.639213,43.613248],[-122.638867,43.612909],[-122.638867,43.612735],[-122.638636,43.612568],[-122.638638,43.612395],[-122.638175,43.612141],[-122.638174,43.61189],[-122.63756,43.611534],[-122.636503,43.610765],[-122.63542,43.610588],[-122.635106,43.610587],[-122.635044,43.610543],[-122.634925,43.610285],[-122.634481,43.610041],[-122.634481,43.609881],[-122.634251,43.609713],[-122.63425,43.609277],[-122.634254,43.609209],[-122.634072,43.609209],[-122.634023,43.609243],[-122.634024,43.609782],[-122.634255,43.609949],[-122.634255,43.610122],[-122.634732,43.610385],[-122.634846,43.610633],[-122.635013,43.610751],[-122.635394,43.610752],[-122.636389,43.610915],[-122.637409,43.611657],[-122.637948,43.61197],[-122.637949,43.612223],[-122.638411,43.612477],[-122.638409,43.612636],[-122.63864,43.612804],[-122.63864,43.612964],[-122.638987,43.613302],[-122.638987,43.613455],[-122.639116,43.613739],[-122.639342,43.613902],[-122.639554,43.614756],[-122.639449,43.614831],[-122.639448,43.615578],[-122.640422,43.616194],[-122.641948,43.616707],[-122.643434,43.616957],[-122.644298,43.617507],[-122.644296,43.617849],[-122.645184,43.618312],[-122.645276,43.618309],[-122.645492,43.618546],[-122.646195,43.618718],[-122.646325,43.618814],[-122.646592,43.618815],[-122.647006,43.618874],[-122.647108,43.618889],[-122.64755,43.619449],[-122.648157,43.619982],[-122.649675,43.620233],[-122.65038,43.620578],[-122.650473,43.620578],[-122.650763,43.620858],[-122.650763,43.621031],[-122.651225,43.621365],[-122.651225,43.621545],[-122.65211,43.622001],[-122.652335,43.622002],[-122.652964,43.622384],[-122.653195,43.62347],[-122.653418,43.623632],[-122.653418,43.623664],[-122.653418,43.623889],[-122.654625,43.624594],[-122.654892,43.624688],[-122.654986,43.624688],[-122.655217,43.624856],[-122.655456,43.624857],[-122.655919,43.62511],[-122.656025,43.62511],[-122.656461,43.625427],[-122.656781,43.625582],[-122.657237,43.626822],[-122.657488,43.627096],[-122.658297,43.627599],[-122.658614,43.627909],[-122.658614,43.628048],[-122.658624,43.628337],[-122.658552,43.628533],[-122.658508,43.62887],[-122.658463,43.629228],[-122.65852,43.629638],[-122.658596,43.629918],[-122.658723,43.630081],[-122.660124,43.631534],[-122.660286,43.631712],[-122.660381,43.631901],[-122.660449,43.6323],[-122.660487,43.632542],[-122.660622,43.632747],[-122.660784,43.63309],[-122.660864,43.633241],[-122.660835,43.633431],[-122.660654,43.63377],[-122.660526,43.634041],[-122.660397,43.634262],[-122.660436,43.634424],[-122.660472,43.634617],[-122.660504,43.634694],[-122.660574,43.634855],[-122.660608,43.635083],[-122.660577,43.635202],[-122.66048,43.635364],[-122.660397,43.635493],[-122.660256,43.635601],[-122.660093,43.63569],[-122.659881,43.635728],[-122.65967,43.635732],[-122.659545,43.635765],[-122.6594,43.635876],[-122.659353,43.636],[-122.659289,43.636256],[-122.659167,43.636418],[-122.658952,43.636729],[-122.658859,43.636949],[-122.658737,43.637308],[-122.658353,43.638048],[-122.658299,43.63814],[-122.658025,43.638614],[-122.657813,43.638932],[-122.657684,43.639241],[-122.657632,43.63939],[-122.657618,43.639509],[-122.657777,43.640087],[-122.65777,43.640254],[-122.657748,43.640402],[-122.657727,43.640588],[-122.657731,43.640711],[-122.657832,43.640795],[-122.657936,43.640867],[-122.658324,43.641115],[-122.658509,43.641289],[-122.658637,43.641463],[-122.658644,43.641659],[-122.658677,43.641788],[-122.65868,43.641976],[-122.658638,43.642013],[-122.658516,43.642019],[-122.658408,43.64197],[-122.658301,43.64185],[-122.657909,43.641418],[-122.656993,43.640756],[-122.656439,43.640225],[-122.656258,43.640082],[-122.656044,43.639917],[-122.655563,43.639669],[-122.654988,43.639544],[-122.654423,43.639515],[-122.653139,43.639366],[-122.652178,43.639409],[-122.651618,43.639481],[-122.651057,43.639609],[-122.650865,43.639678],[-122.650379,43.639949],[-122.650033,43.64],[-122.64762,43.640786],[-122.647108,43.640879],[-122.646939,43.640883],[-122.646764,43.640886],[-122.646435,43.640827],[-122.645975,43.640637],[-122.64541,43.640295],[-122.645245,43.640215],[-122.645043,43.640161],[-122.644449,43.640141],[-122.644077,43.640158],[-122.643133,43.640283],[-122.642248,43.640479],[-122.641697,43.640578],[-122.640848,43.640834],[-122.64051,43.640857],[-122.640371,43.640835],[-122.640061,43.640709],[-122.639642,43.640454],[-122.638366,43.639447],[-122.638021,43.639291],[-122.637649,43.639193],[-122.636332,43.639117],[-122.635274,43.638881],[-122.634564,43.638777],[-122.634175,43.638776],[-122.633062,43.638852],[-122.632734,43.638785],[-122.632236,43.638603],[-122.632035,43.638571],[-122.631627,43.638579],[-122.631087,43.638657],[-122.630743,43.63864],[-122.630221,43.638526],[-122.630058,43.638461],[-122.629671,43.638392],[-122.629458,43.638391],[-122.628931,43.638581],[-122.628469,43.638799],[-122.627961,43.63889],[-122.627454,43.638846],[-122.62719,43.638759],[-122.627098,43.638728],[-122.627099,43.63891],[-122.627241,43.638957],[-122.627392,43.639007],[-122.627975,43.639057],[-122.62856,43.638953],[-122.629043,43.638724],[-122.62951,43.638556],[-122.629643,43.638557],[-122.629975,43.638616],[-122.630133,43.638679],[-122.630702,43.638802],[-122.631101,43.638823],[-122.631653,43.638743],[-122.632014,43.638736],[-122.632159,43.638759],[-122.632651,43.63894],[-122.633041,43.639019],[-122.634185,43.638941],[-122.634541,43.638942],[-122.635218,43.639041],[-122.636289,43.63928],[-122.6376,43.639356],[-122.637921,43.63944],[-122.63822,43.639575],[-122.639485,43.640574],[-122.639931,43.640845],[-122.640289,43.640991],[-122.640496,43.641023],[-122.640903,43.640995],[-122.641768,43.640734],[-122.642309,43.640638],[-122.643187,43.640443],[-122.644104,43.640322],[-122.644451,43.640306],[-122.644998,43.640325],[-122.645142,43.640363],[-122.645274,43.640427],[-122.645846,43.640773],[-122.64635,43.640982],[-122.64674,43.641051],[-122.64694,43.641047],[-122.64714,43.641043],[-122.647695,43.640942],[-122.650102,43.640157],[-122.650476,43.640103],[-122.650985,43.639818],[-122.651141,43.639762],[-122.651672,43.639641],[-122.652204,43.639573],[-122.653128,43.639531],[-122.654397,43.639678],[-122.654947,43.639707],[-122.655462,43.639819],[-122.655895,43.640042],[-122.656092,43.640194],[-122.656265,43.640331],[-122.656822,43.640865],[-122.657733,43.641523],[-122.658111,43.64194],[-122.658245,43.642091],[-122.658458,43.642187],[-122.658752,43.642173],[-122.658826,43.642106],[-122.658828,43.642107],[-122.658919,43.642167],[-122.659003,43.642261],[-122.65905,43.64233],[-122.659115,43.642451],[-122.659168,43.642529],[-122.659236,43.642634],[-122.659314,43.642717],[-122.659408,43.642803],[-122.659537,43.642898],[-122.659706,43.642996],[-122.659849,43.643068],[-122.660024,43.643141],[-122.660206,43.643217],[-122.660339,43.643289],[-122.660493,43.643381],[-122.660623,43.643469],[-122.660762,43.643565],[-122.660919,43.643666],[-122.661064,43.643757],[-122.661215,43.643836],[-122.661347,43.643908],[-122.661497,43.64398],[-122.661659,43.644065],[-122.661803,43.644143],[-122.66195,43.644229],[-122.66211,43.644314],[-122.662284,43.644407],[-122.662433,43.644475],[-122.66257,43.64454],[-122.662726,43.644601],[-122.662906,43.644665],[-122.663121,43.644722],[-122.663311,43.644766],[-122.663502,43.64482],[-122.663695,43.644864],[-122.663915,43.644899],[-122.66411,43.64492],[-122.664294,43.644931],[-122.664468,43.644936],[-122.66472,43.644934],[-122.664933,43.644939],[-122.665116,43.644943],[-122.665293,43.644952],[-122.66548,43.644967],[-122.665659,43.644987],[-122.66584,43.645019],[-122.665999,43.645052],[-122.666148,43.645085],[-122.666309,43.645125],[-122.666472,43.645163],[-122.666639,43.645202],[-122.66683,43.645251],[-122.666933,43.645277],[-122.667016,43.645297],[-122.667211,43.645343],[-122.66738,43.645384],[-122.667534,43.645422],[-122.667738,43.645475],[-122.667897,43.645533],[-122.668051,43.645603],[-122.668194,43.645683],[-122.668311,43.64576],[-122.668474,43.645854],[-122.668632,43.645946],[-122.668799,43.646036],[-122.668999,43.646146],[-122.66919,43.646243],[-122.669371,43.646323],[-122.669551,43.646389],[-122.669764,43.646449],[-122.669956,43.646485],[-122.670122,43.64651],[-122.670272,43.646526],[-122.670448,43.646537],[-122.670644,43.646544],[-122.67084,43.64655],[-122.671032,43.646555],[-122.671228,43.646573],[-122.671415,43.646598],[-122.671579,43.646629],[-122.671759,43.646666],[-122.671899,43.646697],[-122.672054,43.646744],[-122.672197,43.646798],[-122.672331,43.646854],[-122.672486,43.64693],[-122.672621,43.646997],[-122.672759,43.647067],[-122.672897,43.647139],[-122.673029,43.647213],[-122.67316,43.647287],[-122.67329,43.647366],[-122.673425,43.647449],[-122.673537,43.647515],[-122.673685,43.647585],[-122.673814,43.647644],[-122.673958,43.647699],[-122.6741,43.64775],[-122.674257,43.647802],[-122.674403,43.647849],[-122.674547,43.647899],[-122.674683,43.647952],[-122.674819,43.648008],[-122.674943,43.648067],[-122.675065,43.648125],[-122.675159,43.648174],[-122.675293,43.648247],[-122.675435,43.648327],[-122.675567,43.6484],[-122.675709,43.648476],[-122.675844,43.648553],[-122.675973,43.648629],[-122.676102,43.648704],[-122.67623,43.648781],[-122.676354,43.648856],[-122.676474,43.648934],[-122.676595,43.649016],[-122.676716,43.649097],[-122.676842,43.649177],[-122.676963,43.649252],[-122.677088,43.649333],[-122.677216,43.649415],[-122.67734,43.649494],[-122.677468,43.649577],[-122.677602,43.649658],[-122.677743,43.649746],[-122.677878,43.649829],[-122.678001,43.649905],[-122.678132,43.649992],[-122.678262,43.650073],[-122.678383,43.650154],[-122.678513,43.650236],[-122.678644,43.650322],[-122.67877,43.650406],[-122.678902,43.650492],[-122.679027,43.650572],[-122.679153,43.650658],[-122.679277,43.650743],[-122.679381,43.650822],[-122.679481,43.650907],[-122.679573,43.650996],[-122.679654,43.651079],[-122.679722,43.651165],[-122.679783,43.651257],[-122.679848,43.65137],[-122.679909,43.651487],[-122.679978,43.651603],[-122.680037,43.651712],[-122.680132,43.651888],[-122.680194,43.652005],[-122.680263,43.652125],[-122.680338,43.65223],[-122.680407,43.65233],[-122.68048,43.652437],[-122.680519,43.652514],[-122.680547,43.652592],[-122.680554,43.652652],[-122.680556,43.652667],[-122.680551,43.65275],[-122.680526,43.652837],[-122.680498,43.652918],[-122.680455,43.653031],[-122.680416,43.653147],[-122.680366,43.653266],[-122.68034,43.653386],[-122.680322,43.653486],[-122.680297,43.653612],[-122.680271,43.653743],[-122.680252,43.653859],[-122.680221,43.653951],[-122.680173,43.654044],[-122.680121,43.654157],[-122.680047,43.654285],[-122.679984,43.654385],[-122.6799,43.654511],[-122.679806,43.654646],[-122.679721,43.65476],[-122.679668,43.654839],[-122.679627,43.654928],[-122.679602,43.655023],[-122.679595,43.655119],[-122.679605,43.655227],[-122.679632,43.65532],[-122.679671,43.655408],[-122.679729,43.655496],[-122.679804,43.655586],[-122.679906,43.655679],[-122.680003,43.655762],[-122.680144,43.655876],[-122.680259,43.655962],[-122.680375,43.656045],[-122.68049,43.656133],[-122.68061,43.656227],[-122.680707,43.656323],[-122.680825,43.656428],[-122.680916,43.656524],[-122.681006,43.656623],[-122.681078,43.656729],[-122.681149,43.656841],[-122.681217,43.656964],[-122.681286,43.657081],[-122.68134,43.6572],[-122.681403,43.657322],[-122.681457,43.657443],[-122.68153,43.657568],[-122.681605,43.657692],[-122.681692,43.657804],[-122.681777,43.657927],[-122.681859,43.658039],[-122.681947,43.65816],[-122.682044,43.658287],[-122.682125,43.658399],[-122.682208,43.658511],[-122.682292,43.658629],[-122.682376,43.65874],[-122.682468,43.658861],[-122.682577,43.658978],[-122.682678,43.659071],[-122.682785,43.659156],[-122.682904,43.659246],[-122.683021,43.659337],[-122.683135,43.659431],[-122.683249,43.659525],[-122.683359,43.65962],[-122.683476,43.65972],[-122.68357,43.659804],[-122.683645,43.659872],[-122.68368,43.659911],[-122.683714,43.659947],[-122.683774,43.660021],[-122.683824,43.660102],[-122.683871,43.660202],[-122.683933,43.660325],[-122.684,43.66045],[-122.684058,43.660574],[-122.684135,43.6607],[-122.684215,43.6608],[-122.684314,43.660895],[-122.684455,43.660972],[-122.684612,43.661023],[-122.684755,43.661048],[-122.684901,43.661052],[-122.685056,43.661055],[-122.685224,43.661051],[-122.685403,43.661057],[-122.685592,43.661053],[-122.685773,43.661058],[-122.685951,43.661069],[-122.686088,43.66109],[-122.686267,43.661114],[-122.686417,43.661132],[-122.686585,43.661139],[-122.686729,43.661146],[-122.686901,43.66114],[-122.686956,43.66114],[-122.687068,43.66114],[-122.68724,43.661139],[-122.687415,43.661148],[-122.687601,43.66116],[-122.687776,43.661171],[-122.687961,43.661179],[-122.688142,43.661181],[-122.688324,43.661176],[-122.6885,43.661173],[-122.688674,43.661169],[-122.688824,43.661176],[-122.688979,43.661182],[-122.689129,43.661197],[-122.689244,43.661217],[-122.68937,43.661251],[-122.689528,43.661288],[-122.689669,43.661316],[-122.689823,43.66134],[-122.690043,43.661374],[-122.690241,43.661396],[-122.690412,43.661424],[-122.690582,43.661456],[-122.690735,43.661496],[-122.690889,43.661539],[-122.69102,43.661587],[-122.691159,43.661637],[-122.69129,43.6617],[-122.691411,43.66176],[-122.691544,43.661841],[-122.691696,43.661919],[-122.691842,43.661995],[-122.691998,43.662064],[-122.692123,43.662127],[-122.692258,43.66219],[-122.692386,43.662262],[-122.692577,43.662376],[-122.692914,43.66258],[-122.693064,43.662668],[-122.693226,43.66276],[-122.693391,43.66285],[-122.69354,43.662937],[-122.693699,43.663038],[-122.693831,43.663107],[-122.693979,43.663158],[-122.694168,43.663187],[-122.694321,43.663189],[-122.694475,43.663174],[-122.694632,43.663151],[-122.694788,43.663131],[-122.694981,43.663106],[-122.695168,43.663075],[-122.695339,43.66306],[-122.695533,43.663056],[-122.695709,43.663069],[-122.695881,43.663088],[-122.696045,43.663117],[-122.696221,43.663149],[-122.696398,43.663194],[-122.696577,43.663246],[-122.696744,43.663301],[-122.697115,43.663418],[-122.697249,43.663469],[-122.697377,43.66354],[-122.697489,43.663607],[-122.697587,43.663683],[-122.697693,43.663768],[-122.697824,43.663888],[-122.697965,43.663997],[-122.6981,43.664115],[-122.698233,43.664215],[-122.698353,43.664315],[-122.698474,43.664413],[-122.698579,43.664519],[-122.69868,43.664631],[-122.698764,43.664734],[-122.698845,43.664851],[-122.698931,43.664964],[-122.699037,43.665058],[-122.699154,43.665147],[-122.699297,43.665217],[-122.699429,43.665271],[-122.699594,43.665317],[-122.699746,43.665345],[-122.700079,43.665369],[-122.700254,43.665375],[-122.700435,43.665386],[-122.700619,43.665395],[-122.700762,43.66541],[-122.700947,43.665434],[-122.701122,43.66546],[-122.701241,43.66548],[-122.701425,43.665523],[-122.701583,43.665568],[-122.701739,43.665631],[-122.701795,43.665654],[-122.701892,43.665695],[-122.702019,43.665761],[-122.702155,43.665826],[-122.702301,43.66589],[-122.702455,43.665945],[-122.702633,43.665998],[-122.702759,43.666027],[-122.702897,43.666071],[-122.703007,43.666117],[-122.703107,43.666181],[-122.703211,43.666246],[-122.703297,43.666314],[-122.703385,43.666388],[-122.703469,43.666474],[-122.703552,43.666558],[-122.703615,43.666651],[-122.70367,43.66674],[-122.703701,43.666826],[-122.703725,43.666919],[-122.70374,43.667022],[-122.703759,43.66714],[-122.703767,43.667258],[-122.703793,43.667485],[-122.703806,43.667624],[-122.703852,43.667753],[-122.703893,43.667878],[-122.703949,43.667999],[-122.703995,43.668121],[-122.704038,43.668232],[-122.704076,43.668351],[-122.704114,43.668465],[-122.704144,43.668578],[-122.704184,43.668692],[-122.704214,43.66881],[-122.704261,43.668916],[-122.704305,43.669011],[-122.704389,43.669105],[-122.704499,43.669181],[-122.704638,43.669235],[-122.704796,43.669282],[-122.70492,43.669305],[-122.705072,43.669334],[-122.705259,43.669353],[-122.70542,43.669375],[-122.705572,43.669394],[-122.70572,43.669422],[-122.705848,43.669448],[-122.705973,43.669487],[-122.706126,43.669539],[-122.70626,43.669598],[-122.706379,43.669655],[-122.7065,43.669725],[-122.70653,43.669741],[-122.706623,43.66979],[-122.70675,43.669865],[-122.706877,43.66994],[-122.706993,43.670023],[-122.707119,43.6701],[-122.707272,43.670199],[-122.707453,43.670289],[-122.707608,43.670373],[-122.707778,43.670456],[-122.707939,43.67054],[-122.708103,43.670626],[-122.708201,43.670695],[-122.708277,43.670771],[-122.708323,43.670859],[-122.708356,43.67094],[-122.70837,43.671056],[-122.708391,43.671201],[-122.708394,43.671351],[-122.708403,43.671494],[-122.708397,43.671637],[-122.708402,43.671787],[-122.708414,43.671933],[-122.708456,43.672081],[-122.708467,43.672119],[-122.70848,43.672175],[-122.708496,43.672231],[-122.708539,43.672299],[-122.708592,43.672374],[-122.708642,43.672435],[-122.708724,43.672504],[-122.708771,43.67254],[-122.708823,43.672576],[-122.708897,43.672619],[-122.708943,43.672642],[-122.709025,43.672677],[-122.709112,43.672708],[-122.709195,43.672726],[-122.709272,43.672743],[-122.709324,43.672744],[-122.709399,43.672745],[-122.709436,43.672746],[-122.709627,43.672718],[-122.709761,43.672678],[-122.709901,43.672626],[-122.710014,43.67257],[-122.710163,43.672484],[-122.710312,43.672405],[-122.710456,43.672319],[-122.710564,43.67226],[-122.710706,43.672173],[-122.710843,43.6721],[-122.710955,43.672046],[-122.711066,43.672011],[-122.711205,43.671984],[-122.711337,43.671973],[-122.711514,43.671961],[-122.711663,43.671952],[-122.711838,43.671945],[-122.711991,43.671948],[-122.712172,43.67195],[-122.71231,43.671947],[-122.712497,43.671943],[-122.71265,43.67193],[-122.71278,43.671927],[-122.712898,43.671931],[-122.713041,43.67195],[-122.713166,43.671969],[-122.713371,43.671999],[-122.713538,43.672022],[-122.713687,43.672036],[-122.713868,43.672053],[-122.714056,43.672065],[-122.714223,43.672072],[-122.714405,43.672085],[-122.714533,43.672102],[-122.714653,43.672126],[-122.714767,43.672161],[-122.714876,43.6722],[-122.715028,43.672259],[-122.715184,43.672312],[-122.715366,43.672373],[-122.715515,43.672419],[-122.715628,43.672461],[-122.715742,43.672507],[-122.715757,43.672515],[-122.715845,43.672561],[-122.715924,43.672608],[-122.716024,43.672679],[-122.716099,43.672736],[-122.716173,43.672802],[-122.71626,43.672894],[-122.716353,43.672998],[-122.716447,43.673097],[-122.716527,43.673179],[-122.716637,43.673272],[-122.716745,43.673341],[-122.71686,43.673411],[-122.716966,43.673458],[-122.717067,43.673497],[-122.717257,43.673547],[-122.717436,43.673571],[-122.717647,43.673591],[-122.717817,43.673601],[-122.718034,43.673611],[-122.718257,43.673622],[-122.718452,43.673635],[-122.718637,43.673647],[-122.718836,43.67366],[-122.719019,43.673669],[-122.719195,43.673677],[-122.719375,43.673677],[-122.719576,43.67367],[-122.719768,43.67366],[-122.719953,43.673642],[-122.720142,43.673621],[-122.720335,43.6736],[-122.720525,43.673577],[-122.720714,43.673547],[-122.720898,43.673512],[-122.721079,43.673472],[-122.721253,43.673433],[-122.721403,43.673402],[-122.721568,43.673382],[-122.721748,43.673366],[-122.721931,43.673359],[-122.722092,43.673356],[-122.722283,43.673361],[-122.722469,43.673367],[-122.722655,43.673379],[-122.722841,43.673394],[-122.723042,43.673413],[-122.723222,43.673432],[-122.723412,43.673441],[-122.723596,43.673445],[-122.723789,43.673433],[-122.723984,43.673414],[-122.724169,43.6734],[-122.724342,43.673389],[-122.724522,43.673381],[-122.724713,43.673373],[-122.724868,43.673366],[-122.725045,43.673366],[-122.725189,43.673376],[-122.725341,43.673404],[-122.725492,43.673436],[-122.725626,43.673493],[-122.725721,43.673557],[-122.725849,43.673661],[-122.725965,43.673762],[-122.726094,43.673867],[-122.726215,43.673966],[-122.726336,43.674065],[-122.72645,43.674166],[-122.726556,43.674259],[-122.726657,43.674359],[-122.726759,43.674464],[-122.726862,43.674568],[-122.726975,43.674682],[-122.727095,43.67479],[-122.727214,43.674873],[-122.727368,43.674964],[-122.727563,43.675031],[-122.727731,43.675076],[-122.7279,43.675099],[-122.728064,43.675125],[-122.728232,43.675135],[-122.72839,43.67515],[-122.728559,43.675153],[-122.72878,43.675156],[-122.729068,43.675156],[-122.729252,43.675157],[-122.729453,43.67516],[-122.729634,43.675157],[-122.729825,43.675155],[-122.730041,43.67515],[-122.730247,43.675147],[-122.730432,43.675142],[-122.730648,43.675141]]]}},{"type":"Feature","properties":{"MAPTAXLOT":"2215000000400","MAPNUMBER":"22150000","TAXLOT":"400","ACCTNO":"0971646","MAPACRES":6579.67097864},"geometry":{"type":"MultiPolygon","coordinates":[[[[-122.730646,43.674977],[-122.730876,43.674975],[-122.731087,43.674978],[-122.731302,43.67498],[-122.731467,43.674984],[-122.731604,43.674986],[-122.731766,43.674997],[-122.73191,43.675011],[-122.732047,43.675029],[-122.73215,43.675042],[-122.732182,43.675047],[-122.732331,43.675074],[-122.732463,43.675103],[-122.732675,43.67515],[-122.732884,43.675195],[-122.733108,43.675243],[-122.733316,43.675286],[-122.733507,43.675328],[-122.733722,43.675373],[-122.733902,43.675417],[-122.734066,43.675448],[-122.73425,43.67549],[-122.734455,43.675526],[-122.734662,43.675573],[-122.734869,43.675616],[-122.735073,43.675655],[-122.735259,43.675696],[-122.735452,43.675736],[-122.735656,43.675774],[-122.735782,43.675798],[-122.735883,43.675817],[-122.735998,43.675834],[-122.736161,43.675861],[-122.736309,43.675883],[-122.736519,43.675907],[-122.73674,43.675932],[-122.736958,43.675952],[-122.737174,43.675975],[-122.737385,43.675995],[-122.737614,43.676019],[-122.737826,43.67604],[-122.738047,43.676065],[-122.738245,43.676086],[-122.738478,43.676108],[-122.738691,43.676131],[-122.738894,43.676152],[-122.739105,43.676174],[-122.739302,43.676194],[-122.739513,43.676211],[-122.739728,43.676233],[-122.739968,43.676255],[-122.740179,43.676275],[-122.740382,43.676293],[-122.74058,43.676316],[-122.740784,43.676331],[-122.741008,43.676352],[-122.741209,43.67637],[-122.741416,43.676391],[-122.741628,43.676411],[-122.741841,43.67643],[-122.742047,43.676449],[-122.742258,43.676472],[-122.742442,43.676491],[-122.742652,43.676511],[-122.742841,43.676531],[-122.744291,43.676691],[-122.74429,43.676411],[-122.744267,43.672857],[-122.744245,43.669303],[-122.744222,43.665749],[-122.744144,43.662282],[-122.744066,43.658815],[-122.744076,43.655313],[-122.744086,43.651812],[-122.744032,43.648223],[-122.744027,43.647774],[-122.743985,43.644623],[-122.743982,43.641022],[-122.74398,43.637422],[-122.743984,43.634852],[-122.743985,43.63385],[-122.743989,43.631155],[-122.74399,43.630279],[-122.744012,43.62744],[-122.744017,43.626784],[-122.744038,43.62396],[-122.74404,43.623725],[-122.741509,43.623718],[-122.736528,43.623711],[-122.726624,43.623723],[-122.726567,43.623723],[-122.726595,43.630974],[-122.726602,43.634599],[-122.726605,43.63731],[-122.726589,43.638217],[-122.726589,43.638222],[-122.721704,43.638212],[-122.716725,43.638202],[-122.706825,43.638181],[-122.70677,43.638181],[-122.706773,43.645425],[-122.706772,43.649047],[-122.70677,43.651424],[-122.70677,43.651432],[-122.706426,43.651429],[-122.706362,43.651428],[-122.706369,43.652656],[-122.706369,43.652664],[-122.701836,43.652667],[-122.696856,43.652669],[-122.686967,43.652666],[-122.686901,43.652666],[-122.686952,43.659896],[-122.686955,43.660975],[-122.687068,43.660975],[-122.687247,43.660975],[-122.687433,43.660984],[-122.687621,43.660996],[-122.687792,43.661007],[-122.68797,43.661014],[-122.68814,43.661017],[-122.688317,43.661012],[-122.688493,43.661009],[-122.688677,43.661004],[-122.688838,43.661011],[-122.689001,43.661018],[-122.68917,43.661035],[-122.68931,43.661059],[-122.689444,43.661095],[-122.689593,43.66113],[-122.689723,43.661156],[-122.68987,43.661179],[-122.690083,43.661212],[-122.690283,43.661234],[-122.690466,43.661264],[-122.69065,43.661299],[-122.690814,43.661342],[-122.690981,43.661388],[-122.691122,43.66144],[-122.691273,43.661494],[-122.691416,43.661563],[-122.691548,43.661628],[-122.691683,43.661711],[-122.691827,43.661785],[-122.691967,43.661858],[-122.692121,43.661926],[-122.69225,43.66199],[-122.692389,43.662056],[-122.692527,43.662133],[-122.692722,43.662249],[-122.693058,43.662453],[-122.693205,43.662539],[-122.693364,43.66263],[-122.69353,43.66272],[-122.693686,43.662811],[-122.69384,43.662909],[-122.693947,43.662964],[-122.694052,43.663001],[-122.694194,43.663022],[-122.694309,43.663024],[-122.694438,43.663012],[-122.694589,43.662989],[-122.694749,43.662968],[-122.694936,43.662945],[-122.695129,43.662912],[-122.695323,43.662896],[-122.695541,43.662891],[-122.695737,43.662905],[-122.695925,43.662926],[-122.696099,43.662957],[-122.696285,43.662991],[-122.696478,43.663039],[-122.696666,43.663095],[-122.696836,43.66315],[-122.697214,43.663269],[-122.697372,43.66333],[-122.697518,43.663411],[-122.697645,43.663487],[-122.697754,43.663572],[-122.697866,43.663662],[-122.697996,43.66378],[-122.698135,43.663887],[-122.698269,43.664005],[-122.698401,43.664104],[-122.698523,43.664206],[-122.698651,43.66431],[-122.698766,43.664426],[-122.698873,43.664544],[-122.698963,43.664655],[-122.699046,43.664774],[-122.699119,43.664871],[-122.699207,43.664949],[-122.699301,43.66502],[-122.699416,43.665076],[-122.699526,43.665121],[-122.699662,43.66516],[-122.699785,43.665182],[-122.700096,43.665205],[-122.700269,43.665211],[-122.700452,43.665222],[-122.700643,43.665231],[-122.700799,43.665248],[-122.70099,43.665272],[-122.701169,43.6653],[-122.701301,43.665321],[-122.701502,43.665368],[-122.70168,43.665419],[-122.70185,43.665487],[-122.702016,43.665556],[-122.702147,43.665625],[-122.702214,43.665657],[-122.706484,43.665684],[-122.706527,43.669531],[-122.706637,43.669594],[-122.706761,43.669659],[-122.706893,43.669737],[-122.707029,43.669817],[-122.707146,43.669902],[-122.707268,43.669976],[-122.707412,43.670069],[-122.707585,43.670155],[-122.707739,43.670239],[-122.707908,43.67032],[-122.708071,43.670406],[-122.70825,43.670499],[-122.708373,43.670587],[-122.708478,43.670693],[-122.708538,43.670807],[-122.708579,43.670908],[-122.708596,43.67104],[-122.708617,43.671191],[-122.708621,43.671346],[-122.70863,43.671493],[-122.708624,43.671637],[-122.708629,43.67178],[-122.708639,43.671911],[-122.708679,43.672048],[-122.70869,43.672089],[-122.708703,43.672144],[-122.708713,43.67218],[-122.708743,43.672228],[-122.70879,43.672294],[-122.708826,43.672338],[-122.708892,43.672393],[-122.708932,43.672424],[-122.708972,43.672452],[-122.709033,43.672487],[-122.709065,43.672503],[-122.709132,43.672532],[-122.709195,43.672554],[-122.709261,43.672568],[-122.709309,43.672579],[-122.709329,43.672579],[-122.709405,43.672581],[-122.709417,43.672581],[-122.709561,43.67256],[-122.709666,43.672528],[-122.709784,43.672485],[-122.709879,43.672437],[-122.710026,43.672353],[-122.710174,43.672275],[-122.710315,43.67219],[-122.710422,43.672131],[-122.710565,43.672043],[-122.710714,43.671964],[-122.710847,43.671901],[-122.71099,43.671855],[-122.711162,43.671822],[-122.711313,43.671809],[-122.711494,43.671797],[-122.711647,43.671787],[-122.711835,43.671781],[-122.711995,43.671783],[-122.71217,43.671785],[-122.712304,43.671783],[-122.71248,43.671779],[-122.712633,43.671766],[-122.712781,43.671762],[-122.712925,43.671767],[-122.713086,43.671789],[-122.713212,43.671808],[-122.713414,43.671838],[-122.713573,43.671859],[-122.713716,43.671873],[-122.713892,43.671889],[-122.714072,43.671901],[-122.714241,43.671908],[-122.714436,43.671922],[-122.714584,43.671941],[-122.714728,43.67197],[-122.714861,43.672011],[-122.714979,43.672053],[-122.71513,43.672112],[-122.71528,43.672162],[-122.715458,43.672223],[-122.715611,43.672269],[-122.715735,43.672316],[-122.715864,43.672368],[-122.715891,43.672382],[-122.715984,43.672431],[-122.716075,43.672485],[-122.716185,43.672563],[-122.716269,43.672627],[-122.716355,43.672704],[-122.716449,43.672802],[-122.716542,43.672906],[-122.716633,43.673002],[-122.716706,43.673078],[-122.716798,43.673156],[-122.716892,43.673216],[-122.716993,43.673277],[-122.717079,43.673315],[-122.717159,43.673346],[-122.717316,43.673388],[-122.717471,43.673409],[-122.71767,43.673427],[-122.717834,43.673437],[-122.718049,43.673447],[-122.718276,43.673458],[-122.718472,43.673471],[-122.718658,43.673483],[-122.718854,43.673496],[-122.719033,43.673505],[-122.719202,43.673512],[-122.71937,43.673512],[-122.719562,43.673506],[-122.719744,43.673496],[-122.719921,43.673479],[-122.720108,43.673458],[-122.720299,43.673437],[-122.720482,43.673415],[-122.720661,43.673386],[-122.720837,43.673354],[-122.721013,43.673315],[-122.721188,43.673276],[-122.721353,43.673242],[-122.721534,43.673219],[-122.721728,43.673202],[-122.721922,43.673194],[-122.722093,43.673191],[-122.722292,43.673196],[-122.722485,43.673203],[-122.722678,43.673216],[-122.722868,43.67323],[-122.723073,43.67325],[-122.723245,43.673268],[-122.723423,43.673277],[-122.72359,43.67328],[-122.723764,43.67327],[-122.723957,43.67325],[-122.724148,43.673236],[-122.724326,43.673225],[-122.724509,43.673217],[-122.724699,43.673209],[-122.724861,43.673202],[-122.725055,43.673201],[-122.725229,43.673213],[-122.725401,43.673245],[-122.725582,43.673284],[-122.725762,43.673359],[-122.725884,43.673442],[-122.726021,43.673554],[-122.726136,43.673655],[-122.726264,43.673757],[-122.726385,43.673857],[-122.726509,43.673959],[-122.726625,43.674062],[-122.726735,43.674158],[-122.726841,43.674262],[-122.726944,43.674369],[-122.727046,43.674472],[-122.727155,43.674582],[-122.727263,43.674678],[-122.727365,43.67475],[-122.72749,43.674824],[-122.727651,43.674879],[-122.727791,43.674917],[-122.727945,43.674938],[-122.728097,43.674962],[-122.728255,43.674971],[-122.728408,43.674985],[-122.728564,43.674988],[-122.728782,43.674992],[-122.729069,43.674992],[-122.729255,43.674993],[-122.729452,43.674996],[-122.72963,43.674992],[-122.729821,43.67499],[-122.730036,43.674986],[-122.730241,43.674983],[-122.730427,43.674978],[-122.730646,43.674977]]],[[[-122.68677,43.681563],[-122.68677,43.681576],[-122.686821,43.687433],[-122.686816,43.688809],[-122.686826,43.692426],[-122.686824,43.694851],[-122.686824,43.694863],[-122.696657,43.694775],[-122.7065,43.694612],[-122.706584,43.694611],[-122.726436,43.694436],[-122.736418,43.694357],[-122.741409,43.694323],[-122.744394,43.694363],[-122.744446,43.690733],[-122.744427,43.68716],[-122.744426,43.687129],[-122.744369,43.683563],[-122.744312,43.679965],[-122.744292,43.676858],[-122.742808,43.676694],[-122.742621,43.676674],[-122.742411,43.676654],[-122.742225,43.676635],[-122.742016,43.676612],[-122.741812,43.676594],[-122.7416,43.676574],[-122.741386,43.676555],[-122.74118,43.676533],[-122.740979,43.676516],[-122.740759,43.676495],[-122.74055,43.67648],[-122.740349,43.676456],[-122.74015,43.676438],[-122.73994,43.676418],[-122.739698,43.676396],[-122.739484,43.676375],[-122.739274,43.676358],[-122.739073,43.676337],[-122.738862,43.676315],[-122.738659,43.676294],[-122.738447,43.676271],[-122.738214,43.676249],[-122.738013,43.676228],[-122.737793,43.676203],[-122.737583,43.676182],[-122.737354,43.676158],[-122.737143,43.676138],[-122.736927,43.676115],[-122.736708,43.676095],[-122.736485,43.676069],[-122.736269,43.676046],[-122.736113,43.676022],[-122.73595,43.675995],[-122.735832,43.675978],[-122.735724,43.675957],[-122.735599,43.675934],[-122.735392,43.675895],[-122.735195,43.675854],[-122.735012,43.675814],[-122.734809,43.675775],[-122.734597,43.67573],[-122.734395,43.675685],[-122.734189,43.675649],[-122.734004,43.675607],[-122.733837,43.675575],[-122.733654,43.67553],[-122.733443,43.675486],[-122.733252,43.675444],[-122.733045,43.675401],[-122.732819,43.675353],[-122.732609,43.675307],[-122.732397,43.67526],[-122.73227,43.675232],[-122.732134,43.675208],[-122.732109,43.675204],[-122.732007,43.675191],[-122.731874,43.675174],[-122.731741,43.67516],[-122.731592,43.67515],[-122.731461,43.675149],[-122.731296,43.675144],[-122.731084,43.675142],[-122.730875,43.67514],[-122.730648,43.675141],[-122.730432,43.675142],[-122.730247,43.675147],[-122.730041,43.67515],[-122.729825,43.675155],[-122.729634,43.675157],[-122.729453,43.67516],[-122.729252,43.675157],[-122.729068,43.675156],[-122.72878,43.675156],[-122.728559,43.675153],[-122.72839,43.67515],[-122.728232,43.675135],[-122.728064,43.675125],[-122.7279,43.675099],[-122.727731,43.675076],[-122.727563,43.675031],[-122.727368,43.674964],[-122.727214,43.674873],[-122.727095,43.67479],[-122.726975,43.674682],[-122.726862,43.674568],[-122.726759,43.674464],[-122.726657,43.674359],[-122.726556,43.674259],[-122.72645,43.674166],[-122.726336,43.674065],[-122.726215,43.673966],[-122.726094,43.673867],[-122.725965,43.673762],[-122.725849,43.673661],[-122.725721,43.673557],[-122.725626,43.673493],[-122.725492,43.673436],[-122.725341,43.673404],[-122.725189,43.673376],[-122.725045,43.673366],[-122.724868,43.673366],[-122.724713,43.673373],[-122.724522,43.673381],[-122.724342,43.673389],[-122.724169,43.6734],[-122.723984,43.673414],[-122.723789,43.673433],[-122.723596,43.673445],[-122.723412,43.673441],[-122.723222,43.673432],[-122.723042,43.673413],[-122.722841,43.673394],[-122.722655,43.673379],[-122.722469,43.673367],[-122.722283,43.673361],[-122.722092,43.673356],[-122.721931,43.673359],[-122.721748,43.673366],[-122.721568,43.673382],[-122.721403,43.673402],[-122.721253,43.673433],[-122.721079,43.673472],[-122.720898,43.673512],[-122.720714,43.673547],[-122.720525,43.673577],[-122.720335,43.6736],[-122.720142,43.673621],[-122.719953,43.673642],[-122.719768,43.67366],[-122.719576,43.67367],[-122.719375,43.673677],[-122.719195,43.673677],[-122.719019,43.673669],[-122.718836,43.67366],[-122.718637,43.673647],[-122.718452,43.673635],[-122.718257,43.673622],[-122.718034,43.673611],[-122.717817,43.673601],[-122.717647,43.673591],[-122.717436,43.673571],[-122.717257,43.673547],[-122.717067,43.673497],[-122.716966,43.673458],[-122.71686,43.673411],[-122.716745,43.673341],[-122.716637,43.673272],[-122.716527,43.673179],[-122.716447,43.673097],[-122.716353,43.672998],[-122.71626,43.672894],[-122.716173,43.672802],[-122.716099,43.672736],[-122.716024,43.672679],[-122.715924,43.672608],[-122.715845,43.672561],[-122.715757,43.672515],[-122.715742,43.672507],[-122.715628,43.672461],[-122.715515,43.672419],[-122.715366,43.672373],[-122.715184,43.672312],[-122.715028,43.672259],[-122.714876,43.6722],[-122.714767,43.672161],[-122.714653,43.672126],[-122.714533,43.672102],[-122.714405,43.672085],[-122.714223,43.672072],[-122.714056,43.672065],[-122.713868,43.672053],[-122.713687,43.672036],[-122.713538,43.672022],[-122.713371,43.671999],[-122.713166,43.671969],[-122.713041,43.67195],[-122.712898,43.671931],[-122.71278,43.671927],[-122.71265,43.67193],[-122.712497,43.671943],[-122.71231,43.671947],[-122.712172,43.67195],[-122.711991,43.671948],[-122.711838,43.671945],[-122.711663,43.671952],[-122.711514,43.671961],[-122.711337,43.671973],[-122.711205,43.671984],[-122.711066,43.672011],[-122.710955,43.672046],[-122.710843,43.6721],[-122.710706,43.672173],[-122.710564,43.67226],[-122.710456,43.672319],[-122.710312,43.672405],[-122.710163,43.672484],[-122.710014,43.67257],[-122.709901,43.672626],[-122.709761,43.672678],[-122.709627,43.672718],[-122.709436,43.672746],[-122.709399,43.672745],[-122.709324,43.672744],[-122.709272,43.672743],[-122.709195,43.672726],[-122.709112,43.672708],[-122.709025,43.672677],[-122.708943,43.672642],[-122.708897,43.672619],[-122.708823,43.672576],[-122.708771,43.67254],[-122.708724,43.672504],[-122.708642,43.672435],[-122.708592,43.672374],[-122.708539,43.672299],[-122.708496,43.672231],[-122.70848,43.672175],[-122.708467,43.672119],[-122.708456,43.672081],[-122.708414,43.671933],[-122.708402,43.671787],[-122.708397,43.671637],[-122.708403,43.671494],[-122.708394,43.671351],[-122.708391,43.671201],[-122.70837,43.671056],[-122.708356,43.67094],[-122.708323,43.670859],[-122.708277,43.670771],[-122.708201,43.670695],[-122.708103,43.670626],[-122.707939,43.67054],[-122.707778,43.670456],[-122.707608,43.670373],[-122.707453,43.670289],[-122.707272,43.670199],[-122.707119,43.6701],[-122.706993,43.670023],[-122.706877,43.66994],[-122.70675,43.669865],[-122.706623,43.66979],[-122.70653,43.669741],[-122.706567,43.672987],[-122.706567,43.672997],[-122.696598,43.672903],[-122.696517,43.672902],[-122.696795,43.680113],[-122.696795,43.680124],[-122.68686,43.680199],[-122.686774,43.6802],[-122.68677,43.681563]]],[[[-122.686962,43.663512],[-122.686964,43.665687],[-122.686964,43.665699],[-122.696484,43.66562],[-122.701795,43.665654],[-122.701739,43.665631],[-122.701583,43.665568],[-122.701425,43.665523],[-122.701241,43.66548],[-122.701122,43.66546],[-122.700947,43.665434],[-122.700762,43.66541],[-122.700619,43.665395],[-122.700435,43.665386],[-122.700254,43.665375],[-122.700079,43.665369],[-122.699746,43.665345],[-122.699594,43.665317],[-122.699429,43.665271],[-122.699297,43.665217],[-122.699154,43.665147],[-122.699037,43.665058],[-122.698931,43.664964],[-122.698845,43.664851],[-122.698764,43.664734],[-122.69868,43.664631],[-122.698579,43.664519],[-122.698474,43.664413],[-122.698353,43.664315],[-122.698233,43.664215],[-122.6981,43.664115],[-122.697965,43.663997],[-122.697824,43.663888],[-122.697693,43.663768],[-122.697587,43.663683],[-122.697489,43.663607],[-122.697377,43.66354],[-122.697249,43.663469],[-122.697115,43.663418],[-122.696744,43.663301],[-122.696577,43.663246],[-122.696398,43.663194],[-122.696221,43.663149],[-122.696045,43.663117],[-122.695881,43.663088],[-122.695709,43.663069],[-122.695533,43.663056],[-122.695339,43.66306],[-122.695168,43.663075],[-122.694981,43.663106],[-122.694788,43.663131],[-122.694632,43.663151],[-122.694475,43.663174],[-122.694321,43.663189],[-122.694168,43.663187],[-122.693979,43.663158],[-122.693831,43.663107],[-122.693699,43.663038],[-122.69354,43.662937],[-122.693391,43.66285],[-122.693226,43.66276],[-122.693064,43.662668],[-122.692914,43.66258],[-122.692577,43.662376],[-122.692386,43.662262],[-122.692258,43.66219],[-122.692123,43.662127],[-122.691998,43.662064],[-122.691842,43.661995],[-122.691696,43.661919],[-122.691544,43.661841],[-122.691411,43.66176],[-122.69129,43.6617],[-122.691159,43.661637],[-122.69102,43.661587],[-122.690889,43.661539],[-122.690735,43.661496],[-122.690582,43.661456],[-122.690412,43.661424],[-122.690241,43.661396],[-122.690043,43.661374],[-122.689823,43.66134],[-122.689669,43.661316],[-122.689528,43.661288],[-122.68937,43.661251],[-122.689244,43.661217],[-122.689129,43.661197],[-122.688979,43.661182],[-122.688824,43.661176],[-122.688674,43.661169],[-122.6885,43.661173],[-122.688324,43.661176],[-122.688142,43.661181],[-122.687961,43.661179],[-122.687776,43.661171],[-122.687601,43.66116],[-122.687415,43.661148],[-122.68724,43.661139],[-122.687068,43.66114],[-122.686956,43.66114],[-122.686962,43.663512]]]]}},{"type":"Feature","properties":{"MAPTAXLOT":"2215000000500","MAPNUMBER":"22150000","TAXLOT":"500","ACCTNO":"0971679","MAPACRES":480.13207547},"geometry":{"type":"MultiPolygon","coordinates":[[[[-122.686529,43.674353],[-122.686774,43.6802],[-122.68686,43.680199],[-122.696795,43.680124],[-122.696795,43.680113],[-122.696517,43.672902],[-122.696598,43.672903],[-122.706567,43.672997],[-122.706567,43.672987],[-122.70653,43.669741],[-122.7065,43.669725],[-122.706379,43.669655],[-122.70626,43.669598],[-122.706126,43.669539],[-122.705973,43.669487],[-122.705848,43.669448],[-122.70572,43.669422],[-122.705572,43.669394],[-122.70542,43.669375],[-122.705259,43.669353],[-122.705072,43.669334],[-122.70492,43.669305],[-122.704796,43.669282],[-122.704638,43.669235],[-122.704499,43.669181],[-122.704389,43.669105],[-122.704305,43.669011],[-122.704261,43.668916],[-122.704214,43.66881],[-122.704184,43.668692],[-122.704144,43.668578],[-122.704114,43.668465],[-122.704076,43.668351],[-122.704038,43.668232],[-122.703995,43.668121],[-122.703949,43.667999],[-122.703893,43.667878],[-122.703852,43.667753],[-122.703806,43.667624],[-122.703793,43.667485],[-122.703767,43.667258],[-122.703759,43.66714],[-122.70374,43.667022],[-122.703725,43.666919],[-122.703701,43.666826],[-122.70367,43.66674],[-122.703615,43.666651],[-122.703552,43.666558],[-122.703469,43.666474],[-122.703385,43.666388],[-122.703297,43.666314],[-122.703211,43.666246],[-122.703107,43.666181],[-122.703007,43.666117],[-122.702897,43.666071],[-122.702759,43.666027],[-122.702633,43.665998],[-122.702455,43.665945],[-122.702301,43.66589],[-122.702155,43.665826],[-122.702019,43.665761],[-122.701892,43.665695],[-122.701795,43.665654],[-122.696484,43.66562],[-122.686964,43.665699],[-122.686674,43.665702],[-122.686598,43.665703],[-122.686568,43.667116],[-122.686568,43.66713],[-122.686474,43.672806],[-122.686529,43.674353]]],[[[-122.702276,43.665686],[-122.702411,43.665746],[-122.702548,43.665795],[-122.70271,43.665843],[-122.702839,43.665873],[-122.703,43.665924],[-122.703139,43.665983],[-122.703256,43.666057],[-122.703369,43.666128],[-122.703466,43.666204],[-122.703564,43.666286],[-122.703654,43.666379],[-122.703747,43.666474],[-122.70382,43.666581],[-122.703885,43.666686],[-122.703922,43.66679],[-122.70395,43.666895],[-122.703966,43.667004],[-122.703985,43.667127],[-122.703994,43.667248],[-122.704019,43.667473],[-122.70403,43.667598],[-122.704072,43.667713],[-122.704112,43.667833],[-122.704166,43.667951],[-122.704213,43.668077],[-122.704258,43.668191],[-122.704296,43.668313],[-122.704335,43.668429],[-122.704366,43.668542],[-122.704406,43.668657],[-122.704434,43.668769],[-122.704477,43.668864],[-122.704511,43.668939],[-122.704565,43.668999],[-122.704633,43.669046],[-122.704735,43.669086],[-122.704868,43.669125],[-122.704977,43.669145],[-122.705117,43.669173],[-122.705295,43.669191],[-122.70546,43.669213],[-122.70562,43.669233],[-122.70578,43.669263],[-122.705923,43.669293],[-122.706066,43.669337],[-122.706234,43.669394],[-122.706381,43.669459],[-122.706512,43.669522],[-122.706527,43.669531],[-122.706484,43.665684],[-122.702214,43.665657],[-122.702276,43.665686]]]]}},{"type":"Feature","properties":{"MAPTAXLOT":"2215000000600","MAPNUMBER":"22150000","TAXLOT":"600","ACCTNO":"0971687","MAPACRES":625.50470716},"geometry":{"type":"Polygon","coordinates":[[[-122.682117,43.681577],[-122.68677,43.681576],[-122.68677,43.681563],[-122.686774,43.6802],[-122.686529,43.674353],[-122.686474,43.672806],[-122.686568,43.66713],[-122.681932,43.667118],[-122.67695,43.667105],[-122.667069,43.667089],[-122.666988,43.667089],[-122.667149,43.68156],[-122.667149,43.681575],[-122.667239,43.681575],[-122.677128,43.681578],[-122.682117,43.681577]]]}},{"type":"Feature","properties":{"MAPTAXLOT":"2215000000700","MAPNUMBER":"22150000","TAXLOT":"700","ACCTNO":"0971695","MAPACRES":639.32589848},"geometry":{"type":"Polygon","coordinates":[[[-122.647192,43.681569],[-122.64729,43.681569],[-122.667149,43.681575],[-122.667149,43.68156],[-122.666988,43.667089],[-122.647168,43.667079],[-122.647079,43.667079],[-122.647191,43.681549],[-122.647192,43.681569]]]}},{"type":"Feature","properties":{"MAPTAXLOT":"2215000001000","MAPNUMBER":"22150000","TAXLOT":"1000","ACCTNO":"0971729","MAPACRES":639.05602152},"geometry":{"type":"Polygon","coordinates":[[[-122.647079,43.667079],[-122.647168,43.667079],[-122.666988,43.667089],[-122.666988,43.66707],[-122.666955,43.652621],[-122.647057,43.652597],[-122.646986,43.652597],[-122.647079,43.66705],[-122.647079,43.667079]]]}},{"type":"Feature","properties":{"MAPTAXLOT":"2215000001100","MAPNUMBER":"22150000","TAXLOT":"1100","ACCTNO":"0971737","MAPACRES":632.77025278},"geometry":{"type":"MultiPolygon","coordinates":[[[[-122.666988,43.66707],[-122.666988,43.667089],[-122.667069,43.667089],[-122.67695,43.667105],[-122.681932,43.667118],[-122.686568,43.66713],[-122.686568,43.667116],[-122.686598,43.665703],[-122.686674,43.665702],[-122.686964,43.665699],[-122.686964,43.665687],[-122.686962,43.663512],[-122.686956,43.66114],[-122.686901,43.66114],[-122.686729,43.661146],[-122.686585,43.661139],[-122.686417,43.661132],[-122.686267,43.661114],[-122.686088,43.66109],[-122.685951,43.661069],[-122.685773,43.661058],[-122.685592,43.661053],[-122.685403,43.661057],[-122.685224,43.661051],[-122.685056,43.661055],[-122.684901,43.661052],[-122.684755,43.661048],[-122.684612,43.661023],[-122.684455,43.660972],[-122.684314,43.660895],[-122.684215,43.6608],[-122.684135,43.6607],[-122.684058,43.660574],[-122.684,43.66045],[-122.683933,43.660325],[-122.683871,43.660202],[-122.683824,43.660102],[-122.683774,43.660021],[-122.683714,43.659947],[-122.68368,43.659911],[-122.683645,43.659872],[-122.68357,43.659804],[-122.683476,43.65972],[-122.683359,43.65962],[-122.683249,43.659525],[-122.683135,43.659431],[-122.683021,43.659337],[-122.682904,43.659246],[-122.682785,43.659156],[-122.682678,43.659071],[-122.682577,43.658978],[-122.682468,43.658861],[-122.682376,43.65874],[-122.682292,43.658629],[-122.682208,43.658511],[-122.682125,43.658399],[-122.682044,43.658287],[-122.681947,43.65816],[-122.681859,43.658039],[-122.681777,43.657927],[-122.681692,43.657804],[-122.681605,43.657692],[-122.68153,43.657568],[-122.681457,43.657443],[-122.681403,43.657322],[-122.68134,43.6572],[-122.681286,43.657081],[-122.681217,43.656964],[-122.681149,43.656841],[-122.681078,43.656729],[-122.681006,43.656623],[-122.680916,43.656524],[-122.680825,43.656428],[-122.680707,43.656323],[-122.68061,43.656227],[-122.68049,43.656133],[-122.680375,43.656045],[-122.680259,43.655962],[-122.680144,43.655876],[-122.680003,43.655762],[-122.679906,43.655679],[-122.679804,43.655586],[-122.679729,43.655496],[-122.679671,43.655408],[-122.679632,43.65532],[-122.679605,43.655227],[-122.679595,43.655119],[-122.679602,43.655023],[-122.679627,43.654928],[-122.679668,43.654839],[-122.679721,43.65476],[-122.679806,43.654646],[-122.6799,43.654511],[-122.679984,43.654385],[-122.680047,43.654285],[-122.680121,43.654157],[-122.680173,43.654044],[-122.680221,43.653951],[-122.680252,43.653859],[-122.680271,43.653743],[-122.680297,43.653612],[-122.680322,43.653486],[-122.68034,43.653386],[-122.680366,43.653266],[-122.680416,43.653147],[-122.680455,43.653031],[-122.680498,43.652918],[-122.680526,43.652837],[-122.680551,43.65275],[-122.680556,43.652667],[-122.680554,43.652652],[-122.667023,43.652621],[-122.666955,43.652621],[-122.666988,43.66707]]],[[[-122.686731,43.660981],[-122.686895,43.660975],[-122.686955,43.660975],[-122.686952,43.659896],[-122.686901,43.652666],[-122.680782,43.652653],[-122.680783,43.652663],[-122.680776,43.652771],[-122.680747,43.652874],[-122.680717,43.65296],[-122.680674,43.653073],[-122.680634,43.653191],[-122.680587,43.653303],[-122.680564,43.653409],[-122.680547,43.653508],[-122.680521,43.653635],[-122.680496,43.653765],[-122.680475,43.653889],[-122.680438,43.653999],[-122.680387,43.654099],[-122.680333,43.654215],[-122.680254,43.654352],[-122.680189,43.654455],[-122.680104,43.654583],[-122.680007,43.654723],[-122.679923,43.654836],[-122.679878,43.654902],[-122.679846,43.65497],[-122.679828,43.655042],[-122.679822,43.655118],[-122.67983,43.655205],[-122.679851,43.655278],[-122.679882,43.655347],[-122.679928,43.655417],[-122.679991,43.655491],[-122.680081,43.655574],[-122.680174,43.655653],[-122.68031,43.655764],[-122.68042,43.655847],[-122.680537,43.65593],[-122.680655,43.65602],[-122.680785,43.656122],[-122.680887,43.656222],[-122.681007,43.656329],[-122.681104,43.656432],[-122.681203,43.656541],[-122.681283,43.656658],[-122.681357,43.656776],[-122.681426,43.656901],[-122.681498,43.657022],[-122.681554,43.657145],[-122.681617,43.657268],[-122.68167,43.657385],[-122.681738,43.657503],[-122.681808,43.657618],[-122.681892,43.657727],[-122.681978,43.657851],[-122.682059,43.657962],[-122.682146,43.658082],[-122.682243,43.658209],[-122.682325,43.658321],[-122.682409,43.658434],[-122.682492,43.658552],[-122.682575,43.658661],[-122.682662,43.658775],[-122.682761,43.658881],[-122.682851,43.658965],[-122.682951,43.659044],[-122.683069,43.659133],[-122.683189,43.659226],[-122.683305,43.659323],[-122.683421,43.659417],[-122.683533,43.659513],[-122.68365,43.659614],[-122.683747,43.659701],[-122.683829,43.659776],[-122.683869,43.65982],[-122.683905,43.659859],[-122.683976,43.659945],[-122.684035,43.660042],[-122.684085,43.660147],[-122.684145,43.660267],[-122.684213,43.660394],[-122.684269,43.660514],[-122.684337,43.660625],[-122.684403,43.660708],[-122.684476,43.660777],[-122.684571,43.660829],[-122.684685,43.660867],[-122.684786,43.660884],[-122.684909,43.660887],[-122.685056,43.660891],[-122.685224,43.660886],[-122.685405,43.660892],[-122.685593,43.660888],[-122.685787,43.660894],[-122.685984,43.660906],[-122.686132,43.660928],[-122.686306,43.660952],[-122.686441,43.660968],[-122.686598,43.660975],[-122.686731,43.660981]]]]}},{"type":"Feature","properties":{"MAPTAXLOT":"2215000001200","MAPNUMBER":"22150000","TAXLOT":"1200","ACCTNO":"0971745","MAPACRES":635.92527159},"geometry":{"type":"Polygon","coordinates":[[[-122.701836,43.652667],[-122.706369,43.652664],[-122.706369,43.652656],[-122.706362,43.651428],[-122.706426,43.651429],[-122.70677,43.651432],[-122.70677,43.651424],[-122.706772,43.649047],[-122.706773,43.645425],[-122.70677,43.638181],[-122.686945,43.638209],[-122.686892,43.63821],[-122.686901,43.652653],[-122.686901,43.652666],[-122.686967,43.652666],[-122.696856,43.652669],[-122.701836,43.652667]]]}},{"type":"Feature","properties":{"MAPTAXLOT":"2215000001300","MAPNUMBER":"22150000","TAXLOT":"1300","ACCTNO":"0971752","MAPACRES":632.96009773},"geometry":{"type":"MultiPolygon","coordinates":[[[[-122.666933,43.645102],[-122.667088,43.645141],[-122.667282,43.645187],[-122.667452,43.645228],[-122.667608,43.645266],[-122.667827,43.645323],[-122.668009,43.645389],[-122.668181,43.645468],[-122.668339,43.645556],[-122.668458,43.645634],[-122.668616,43.645725],[-122.66877,43.645816],[-122.668935,43.645904],[-122.669132,43.646012],[-122.669314,43.646105],[-122.669482,43.646179],[-122.669643,43.646238],[-122.669834,43.646292],[-122.670008,43.646325],[-122.670161,43.646348],[-122.670299,43.646362],[-122.670464,43.646373],[-122.670654,43.64638],[-122.670848,43.646386],[-122.67105,43.64639],[-122.671263,43.646411],[-122.671463,43.646437],[-122.671638,43.64647],[-122.671823,43.646508],[-122.671976,43.646542],[-122.67215,43.646595],[-122.672306,43.646653],[-122.672452,43.646714],[-122.672613,43.646794],[-122.67275,43.646862],[-122.67289,43.646933],[-122.673033,43.647007],[-122.673168,43.647083],[-122.673302,43.647159],[-122.673435,43.64724],[-122.67357,43.647322],[-122.673671,43.647382],[-122.673807,43.647446],[-122.673928,43.647501],[-122.67406,43.647553],[-122.674197,43.647601],[-122.67435,43.647652],[-122.674498,43.647699],[-122.674649,43.647752],[-122.674793,43.647808],[-122.674937,43.647868],[-122.675067,43.647929],[-122.675194,43.647989],[-122.675294,43.648042],[-122.67543,43.648116],[-122.675573,43.648196],[-122.675703,43.648268],[-122.675846,43.648345],[-122.675985,43.648425],[-122.676115,43.648501],[-122.676244,43.648576],[-122.676375,43.648654],[-122.676502,43.648732],[-122.676626,43.648812],[-122.676749,43.648895],[-122.676868,43.648975],[-122.67699,43.649052],[-122.677112,43.649128],[-122.677238,43.64921],[-122.677366,43.649291],[-122.67749,43.649371],[-122.677616,43.649452],[-122.677749,43.649533],[-122.67789,43.649621],[-122.678026,43.649704],[-122.678151,43.649782],[-122.678282,43.649869],[-122.678412,43.64995],[-122.678534,43.650031],[-122.678664,43.650113],[-122.678796,43.6502],[-122.678922,43.650284],[-122.679053,43.650369],[-122.679179,43.65045],[-122.679309,43.650538],[-122.679437,43.650626],[-122.67955,43.650712],[-122.679657,43.650804],[-122.679757,43.650899],[-122.679845,43.650991],[-122.679923,43.651088],[-122.67999,43.65119],[-122.680058,43.651309],[-122.680119,43.651425],[-122.680187,43.65154],[-122.680248,43.651651],[-122.680344,43.651829],[-122.680404,43.651944],[-122.680468,43.652055],[-122.68054,43.652155],[-122.68061,43.652257],[-122.680689,43.652372],[-122.680736,43.652465],[-122.680771,43.652564],[-122.680782,43.652653],[-122.686901,43.652666],[-122.686901,43.652653],[-122.686892,43.63821],[-122.666964,43.638152],[-122.666912,43.638151],[-122.666933,43.645102]]],[[[-122.666955,43.6526],[-122.666955,43.652621],[-122.667023,43.652621],[-122.680554,43.652652],[-122.680547,43.652592],[-122.680519,43.652514],[-122.68048,43.652437],[-122.680407,43.65233],[-122.680338,43.65223],[-122.680263,43.652125],[-122.680194,43.652005],[-122.680132,43.651888],[-122.680037,43.651712],[-122.679978,43.651603],[-122.679909,43.651487],[-122.679848,43.65137],[-122.679783,43.651257],[-122.679722,43.651165],[-122.679654,43.651079],[-122.679573,43.650996],[-122.679481,43.650907],[-122.679381,43.650822],[-122.679277,43.650743],[-122.679153,43.650658],[-122.679027,43.650572],[-122.678902,43.650492],[-122.67877,43.650406],[-122.678644,43.650322],[-122.678513,43.650236],[-122.678383,43.650154],[-122.678262,43.650073],[-122.678132,43.649992],[-122.678001,43.649905],[-122.677878,43.649829],[-122.677743,43.649746],[-122.677602,43.649658],[-122.677468,43.649577],[-122.67734,43.649494],[-122.677216,43.649415],[-122.677088,43.649333],[-122.676963,43.649252],[-122.676842,43.649177],[-122.676716,43.649097],[-122.676595,43.649016],[-122.676474,43.648934],[-122.676354,43.648856],[-122.67623,43.648781],[-122.676102,43.648704],[-122.675973,43.648629],[-122.675844,43.648553],[-122.675709,43.648476],[-122.675567,43.6484],[-122.675435,43.648327],[-122.675293,43.648247],[-122.675159,43.648174],[-122.675065,43.648125],[-122.674943,43.648067],[-122.674819,43.648008],[-122.674683,43.647952],[-122.674547,43.647899],[-122.674403,43.647849],[-122.674257,43.647802],[-122.6741,43.64775],[-122.673958,43.647699],[-122.673814,43.647644],[-122.673685,43.647585],[-122.673537,43.647515],[-122.673425,43.647449],[-122.67329,43.647366],[-122.67316,43.647287],[-122.673029,43.647213],[-122.672897,43.647139],[-122.672759,43.647067],[-122.672621,43.646997],[-122.672486,43.64693],[-122.672331,43.646854],[-122.672197,43.646798],[-122.672054,43.646744],[-122.671899,43.646697],[-122.671759,43.646666],[-122.671579,43.646629],[-122.671415,43.646598],[-122.671228,43.646573],[-122.671032,43.646555],[-122.67084,43.64655],[-122.670644,43.646544],[-122.670448,43.646537],[-122.670272,43.646526],[-122.670122,43.64651],[-122.669956,43.646485],[-122.669764,43.646449],[-122.669551,43.646389],[-122.669371,43.646323],[-122.66919,43.646243],[-122.668999,43.646146],[-122.668799,43.646036],[-122.668632,43.645946],[-122.668474,43.645854],[-122.668311,43.64576],[-122.668194,43.645683],[-122.668051,43.645603],[-122.667897,43.645533],[-122.667738,43.645475],[-122.667534,43.645422],[-122.66738,43.645384],[-122.667211,43.645343],[-122.667016,43.645297],[-122.666933,43.645277],[-122.666955,43.6526]]]]}},{"type":"Feature","properties":{"MAPTAXLOT":"2215000001400","MAPNUMBER":"22150000","TAXLOT":"1400","ACCTNO":"0971786","MAPACRES":629.57846248},"geometry":{"type":"MultiPolygon","coordinates":[[[[-122.646986,43.652561],[-122.646986,43.652597],[-122.647057,43.652597],[-122.666955,43.652621],[-122.666955,43.6526],[-122.666933,43.645277],[-122.66683,43.645251],[-122.666639,43.645202],[-122.666472,43.645163],[-122.666309,43.645125],[-122.666148,43.645085],[-122.665999,43.645052],[-122.66584,43.645019],[-122.665659,43.644987],[-122.66548,43.644967],[-122.665293,43.644952],[-122.665116,43.644943],[-122.664933,43.644939],[-122.66472,43.644934],[-122.664468,43.644936],[-122.664294,43.644931],[-122.66411,43.64492],[-122.663915,43.644899],[-122.663695,43.644864],[-122.663502,43.64482],[-122.663311,43.644766],[-122.663121,43.644722],[-122.662906,43.644665],[-122.662726,43.644601],[-122.66257,43.64454],[-122.662433,43.644475],[-122.662284,43.644407],[-122.66211,43.644314],[-122.66195,43.644229],[-122.661803,43.644143],[-122.661659,43.644065],[-122.661497,43.64398],[-122.661347,43.643908],[-122.661215,43.643836],[-122.661064,43.643757],[-122.660919,43.643666],[-122.660762,43.643565],[-122.660623,43.643469],[-122.660493,43.643381],[-122.660339,43.643289],[-122.660206,43.643217],[-122.660024,43.643141],[-122.659849,43.643068],[-122.659706,43.642996],[-122.659537,43.642898],[-122.659408,43.642803],[-122.659314,43.642717],[-122.659236,43.642634],[-122.659168,43.642529],[-122.659115,43.642451],[-122.65905,43.64233],[-122.659003,43.642261],[-122.658919,43.642167],[-122.658828,43.642107],[-122.658826,43.642106],[-122.658752,43.642173],[-122.658458,43.642187],[-122.658245,43.642091],[-122.658111,43.64194],[-122.657733,43.641523],[-122.656822,43.640865],[-122.656265,43.640331],[-122.656092,43.640194],[-122.655895,43.640042],[-122.655462,43.639819],[-122.654947,43.639707],[-122.654397,43.639678],[-122.653128,43.639531],[-122.652204,43.639573],[-122.651672,43.639641],[-122.651141,43.639762],[-122.650985,43.639818],[-122.650476,43.640103],[-122.650102,43.640157],[-122.647695,43.640942],[-122.64714,43.641043],[-122.64694,43.641047],[-122.646986,43.652561]]],[[[-122.658232,43.638682],[-122.658025,43.638992],[-122.657903,43.639285],[-122.657856,43.639418],[-122.657846,43.639499],[-122.658004,43.640073],[-122.657997,43.640265],[-122.657973,43.640418],[-122.657954,43.640592],[-122.657956,43.640648],[-122.657996,43.640681],[-122.658089,43.640746],[-122.65849,43.641002],[-122.6587,43.641199],[-122.658862,43.64142],[-122.65887,43.641642],[-122.658903,43.641772],[-122.658906,43.641952],[-122.658955,43.641969],[-122.659093,43.642059],[-122.659201,43.64218],[-122.659258,43.642263],[-122.659322,43.642384],[-122.659373,43.642457],[-122.659433,43.642552],[-122.659496,43.642619],[-122.659578,43.642694],[-122.659689,43.642776],[-122.659841,43.642863],[-122.659971,43.642929],[-122.660137,43.642998],[-122.660331,43.643079],[-122.660479,43.643159],[-122.660642,43.643257],[-122.660779,43.643349],[-122.660916,43.643444],[-122.661068,43.643542],[-122.661205,43.643627],[-122.66135,43.643704],[-122.661477,43.643774],[-122.661626,43.643845],[-122.661793,43.643933],[-122.661941,43.644012],[-122.662088,43.644099],[-122.662243,43.644181],[-122.662412,43.644271],[-122.662555,43.644336],[-122.662687,43.644399],[-122.66283,43.644455],[-122.662994,43.644513],[-122.663195,43.644566],[-122.663387,43.644611],[-122.663577,43.644664],[-122.663754,43.644704],[-122.663956,43.644737],[-122.664136,43.644756],[-122.664308,43.644767],[-122.664471,43.644772],[-122.664722,43.644769],[-122.66494,43.644774],[-122.665128,43.644778],[-122.665314,43.644789],[-122.66551,43.644804],[-122.665703,43.644826],[-122.665898,43.644859],[-122.666063,43.644895],[-122.666218,43.644928],[-122.666381,43.644969],[-122.666542,43.645007],[-122.666711,43.645046],[-122.666904,43.645095],[-122.666933,43.645102],[-122.666912,43.638151],[-122.658545,43.638141],[-122.658232,43.638682]]],[[[-122.654423,43.639515],[-122.654988,43.639544],[-122.655563,43.639669],[-122.656044,43.639917],[-122.656258,43.640082],[-122.656439,43.640225],[-122.656993,43.640756],[-122.657909,43.641418],[-122.658301,43.64185],[-122.658408,43.64197],[-122.658516,43.642019],[-122.658638,43.642013],[-122.65868,43.641976],[-122.658677,43.641788],[-122.658644,43.641659],[-122.658637,43.641463],[-122.658509,43.641289],[-122.658324,43.641115],[-122.657936,43.640867],[-122.657832,43.640795],[-122.657731,43.640711],[-122.657727,43.640588],[-122.657748,43.640402],[-122.65777,43.640254],[-122.657777,43.640087],[-122.657618,43.639509],[-122.657632,43.63939],[-122.657684,43.639241],[-122.657813,43.638932],[-122.658025,43.638614],[-122.658299,43.63814],[-122.646983,43.638125],[-122.646928,43.638125],[-122.646939,43.640883],[-122.647108,43.640879],[-122.64762,43.640786],[-122.650033,43.64],[-122.650379,43.639949],[-122.650865,43.639678],[-122.651057,43.639609],[-122.651618,43.639481],[-122.652178,43.639409],[-122.653139,43.639366],[-122.654423,43.639515]]]]}},{"type":"Feature","properties":{"MAPTAXLOT":"2215000001700","MAPNUMBER":"22150000","TAXLOT":"1700","ACCTNO":"0971810","MAPACRES":631.05991974},"geometry":{"type":"MultiPolygon","coordinates":[[[[-122.646928,43.638083],[-122.646928,43.638125],[-122.646983,43.638125],[-122.658299,43.63814],[-122.658353,43.638048],[-122.658737,43.637308],[-122.658859,43.636949],[-122.658952,43.636729],[-122.659167,43.636418],[-122.659289,43.636256],[-122.659353,43.636],[-122.6594,43.635876],[-122.659545,43.635765],[-122.65967,43.635732],[-122.659881,43.635728],[-122.660093,43.63569],[-122.660256,43.635601],[-122.660397,43.635493],[-122.66048,43.635364],[-122.660577,43.635202],[-122.660608,43.635083],[-122.660574,43.634855],[-122.660504,43.634694],[-122.660472,43.634617],[-122.660436,43.634424],[-122.660397,43.634262],[-122.660526,43.634041],[-122.660654,43.63377],[-122.660835,43.633431],[-122.660864,43.633241],[-122.660784,43.63309],[-122.660622,43.632747],[-122.660487,43.632542],[-122.660449,43.6323],[-122.660381,43.631901],[-122.660286,43.631712],[-122.660124,43.631534],[-122.658723,43.630081],[-122.658596,43.629918],[-122.65852,43.629638],[-122.658463,43.629228],[-122.658508,43.62887],[-122.658552,43.628533],[-122.658624,43.628337],[-122.658614,43.628048],[-122.658614,43.627909],[-122.658297,43.627599],[-122.657488,43.627096],[-122.657237,43.626822],[-122.656781,43.625582],[-122.656461,43.625427],[-122.656025,43.62511],[-122.655919,43.62511],[-122.655456,43.624857],[-122.655217,43.624856],[-122.654986,43.624688],[-122.654892,43.624688],[-122.654625,43.624594],[-122.653418,43.623889],[-122.653418,43.623664],[-122.647012,43.623654],[-122.64699,43.623654],[-122.646928,43.638083]]],[[[-122.653644,43.62381],[-122.654747,43.624454],[-122.654944,43.624524],[-122.65508,43.624524],[-122.655311,43.624691],[-122.655533,43.624692],[-122.655995,43.624946],[-122.656119,43.624946],[-122.656606,43.625299],[-122.656978,43.625479],[-122.657446,43.626753],[-122.657659,43.626985],[-122.658464,43.627486],[-122.65884,43.627854],[-122.658841,43.628048],[-122.658852,43.628356],[-122.658776,43.628562],[-122.658734,43.628885],[-122.65869,43.629228],[-122.658744,43.629614],[-122.658812,43.62986],[-122.658915,43.629993],[-122.660311,43.631441],[-122.66049,43.631637],[-122.660603,43.631863],[-122.660674,43.63228],[-122.660708,43.632496],[-122.660833,43.632685],[-122.660997,43.633034],[-122.661096,43.633219],[-122.661057,43.63347],[-122.660867,43.633826],[-122.660738,43.634099],[-122.660632,43.634282],[-122.66066,43.634398],[-122.660694,43.634582],[-122.66072,43.634645],[-122.660797,43.63482],[-122.660837,43.63509],[-122.660795,43.635251],[-122.660686,43.635432],[-122.660586,43.635587],[-122.660407,43.635724],[-122.660192,43.635842],[-122.659912,43.635893],[-122.659712,43.635896],[-122.659672,43.635907],[-122.659604,43.635959],[-122.659574,43.636037],[-122.659506,43.636312],[-122.659368,43.636494],[-122.659163,43.63679],[-122.659078,43.636993],[-122.658954,43.637357],[-122.658563,43.638109],[-122.658545,43.638141],[-122.666912,43.638151],[-122.666912,43.638128],[-122.666926,43.623683],[-122.653645,43.623664],[-122.653644,43.62381]]]]}},{"type":"Feature","properties":{"MAPTAXLOT":"2215000001800","MAPNUMBER":"22150000","TAXLOT":"1800","ACCTNO":"0971828","MAPACRES":640.16536419},"geometry":{"type":"Polygon","coordinates":[[[-122.666912,43.638151],[-122.666964,43.638152],[-122.686892,43.63821],[-122.686892,43.638195],[-122.686878,43.623732],[-122.666951,43.623683],[-122.666926,43.623683],[-122.666912,43.638128],[-122.666912,43.638151]]]}},{"type":"Feature","properties":{"MAPTAXLOT":"2215000001900","MAPNUMBER":"22150000","TAXLOT":"1900","ACCTNO":"0971836","MAPACRES":637.57643569},"geometry":{"type":"Polygon","coordinates":[[[-122.686892,43.63821],[-122.686945,43.638209],[-122.70677,43.638181],[-122.706769,43.638174],[-122.706753,43.623698],[-122.686908,43.623732],[-122.686878,43.623732],[-122.686892,43.638195],[-122.686892,43.63821]]]}},{"type":"Feature","properties":{"MAPTAXLOT":"2215000002000","MAPNUMBER":"22150000","TAXLOT":"2000","ACCTNO":"0971844","MAPACRES":636.55136421},"geometry":{"type":"Polygon","coordinates":[[[-122.721704,43.638212],[-122.726589,43.638222],[-122.726589,43.638217],[-122.726605,43.63731],[-122.726602,43.634599],[-122.726595,43.630974],[-122.726567,43.623723],[-122.706794,43.623698],[-122.706753,43.623698],[-122.706769,43.638174],[-122.70677,43.638181],[-122.706825,43.638181],[-122.716725,43.638202],[-122.721704,43.638212]]]}},{"type":"Feature","properties":{"MAPTAXLOT":"2215000002100","MAPNUMBER":"22150000","TAXLOT":"2100","ACCTNO":"0971851","MAPACRES":564.43650692},"geometry":{"type":"Polygon","coordinates":[[[-122.72653,43.609251],[-122.726567,43.62372],[-122.726567,43.623723],[-122.726624,43.623723],[-122.736528,43.623711],[-122.741509,43.623718],[-122.74404,43.623725],[-122.74404,43.623717],[-122.744043,43.62329],[-122.744121,43.620276],[-122.744126,43.620132],[-122.744137,43.619854],[-122.744245,43.617065],[-122.744266,43.61654],[-122.744267,43.616418],[-122.744267,43.616417],[-122.744177,43.612871],[-122.744176,43.612807],[-122.744133,43.609385],[-122.744131,43.609267],[-122.74413,43.609267],[-122.736448,43.609256],[-122.735079,43.609255],[-122.733543,43.609254],[-122.732263,43.609253],[-122.72653,43.609247],[-122.72653,43.609251]]]}},{"type":"Feature","properties":{"MAPTAXLOT":"2215000002200","MAPNUMBER":"22150000","TAXLOT":"2200","ACCTNO":"0971869","MAPACRES":635.59802162},"geometry":{"type":"Polygon","coordinates":[[[-122.706753,43.623698],[-122.706794,43.623698],[-122.726567,43.623723],[-122.726567,43.62372],[-122.72653,43.609251],[-122.72653,43.609247],[-122.722388,43.609249],[-122.722341,43.609249],[-122.716607,43.60924],[-122.712403,43.609236],[-122.706698,43.609227],[-122.706698,43.609232],[-122.706753,43.623696],[-122.706753,43.623698]]]}},{"type":"Feature","properties":{"MAPTAXLOT":"2215000002300","MAPNUMBER":"22150000","TAXLOT":"2300","ACCTNO":"0971877","MAPACRES":637.52457447},"geometry":{"type":"Polygon","coordinates":[[[-122.686878,43.623732],[-122.686908,43.623732],[-122.706753,43.623698],[-122.706753,43.623696],[-122.706698,43.609232],[-122.706698,43.609227],[-122.702557,43.609232],[-122.702499,43.609232],[-122.702469,43.609232],[-122.699432,43.609235],[-122.696764,43.609237],[-122.692482,43.609239],[-122.686832,43.609243],[-122.686848,43.614262],[-122.686878,43.623717],[-122.686878,43.623732]]]}},{"type":"Feature","properties":{"MAPTAXLOT":"2215000002400","MAPNUMBER":"22150000","TAXLOT":"2400","ACCTNO":"0971885","MAPACRES":639.12571657},"geometry":{"type":"Polygon","coordinates":[[[-122.666926,43.623683],[-122.666951,43.623683],[-122.686878,43.623732],[-122.686878,43.623717],[-122.686848,43.614262],[-122.686832,43.609243],[-122.686816,43.609243],[-122.682489,43.609242],[-122.676885,43.609229],[-122.67249,43.609222],[-122.666939,43.60921],[-122.666934,43.61534],[-122.666926,43.62366],[-122.666926,43.623683]]]}},{"type":"Feature","properties":{"MAPTAXLOT":"2215000002500","MAPNUMBER":"22150000","TAXLOT":"2500","ACCTNO":"0971893","MAPACRES":634.74397145},"geometry":{"type":"MultiPolygon","coordinates":[[[[-122.647015,43.616254],[-122.647007,43.618706],[-122.647253,43.618742],[-122.647736,43.619355],[-122.648283,43.619834],[-122.649767,43.620079],[-122.65045,43.620413],[-122.650587,43.620414],[-122.650989,43.620803],[-122.65099,43.620962],[-122.651451,43.621297],[-122.651451,43.62146],[-122.652183,43.621837],[-122.652418,43.621837],[-122.653175,43.622297],[-122.653407,43.623391],[-122.653645,43.623564],[-122.653645,43.623664],[-122.666926,43.623683],[-122.666926,43.62366],[-122.666934,43.61534],[-122.666939,43.60921],[-122.666921,43.60921],[-122.66249,43.609212],[-122.65699,43.609203],[-122.652563,43.609197],[-122.647039,43.609188],[-122.647015,43.616254]]],[[[-122.64699,43.623611],[-122.64699,43.623654],[-122.647012,43.623654],[-122.653418,43.623664],[-122.653418,43.623632],[-122.653195,43.62347],[-122.652964,43.622384],[-122.652335,43.622002],[-122.65211,43.622001],[-122.651225,43.621545],[-122.651225,43.621365],[-122.650763,43.621031],[-122.650763,43.620858],[-122.650473,43.620578],[-122.65038,43.620578],[-122.649675,43.620233],[-122.648157,43.619982],[-122.64755,43.619449],[-122.647108,43.618889],[-122.647006,43.618874],[-122.64699,43.623611]]]]}}]}