{"type":"FeatureCollection","features":[{"type":"Feature","properties":{"MAPTAXLOT":"1603080000077","MAPNUMBER":"16030800","TAXLOT":"77","ACCTNO":"000None","MAPACRES":11.16419095},"geometry":{"type":"Polygon","coordinates":[[[-123.071542,44.200402],[-123.071771,44.200402],[-123.07168,44.197012],[-123.071671,44.196737],[-123.071617,44.195003],[-123.071566,44.193264],[-123.071759,44.193261],[-123.071587,44.192914],[-123.073159,44.192944],[-123.07316,44.192944],[-123.074083,44.192962],[-123.075213,44.192977],[-123.077075,44.193002],[-123.078981,44.193027],[-123.079475,44.193033],[-123.0859,44.193111],[-123.086861,44.193121],[-123.08686,44.193012],[-123.079475,44.192921],[-123.071784,44.192821],[-123.071731,44.192768],[-123.071684,44.192711],[-123.071644,44.192652],[-123.071609,44.192591],[-123.071582,44.192528],[-123.071561,44.192464],[-123.071547,44.192399],[-123.07154,44.192334],[-123.07154,44.192268],[-123.071526,44.191689],[-123.071537,44.186341],[-123.071563,44.18577],[-123.071332,44.185769],[-123.071306,44.186342],[-123.071308,44.186775],[-123.071309,44.186943],[-123.071296,44.191689],[-123.071387,44.195004],[-123.071453,44.197067],[-123.071472,44.19765],[-123.071507,44.198697],[-123.07151,44.198809],[-123.071542,44.200402]]]}},{"type":"Feature","properties":{"MAPTAXLOT":"1603080000100","MAPNUMBER":"16030800","TAXLOT":"100","ACCTNO":"0037950","MAPACRES":16.85290993},"geometry":{"type":"Polygon","coordinates":[[[-123.073424,44.200399],[-123.074149,44.200397],[-123.074099,44.195258],[-123.073214,44.195129],[-123.073179,44.193711],[-123.073209,44.193711],[-123.073209,44.193684],[-123.073178,44.193684],[-123.07316,44.192944],[-123.073159,44.192944],[-123.071587,44.192914],[-123.071759,44.193261],[-123.071779,44.193303],[-123.072108,44.194441],[-123.07318,44.19671],[-123.073284,44.196929],[-123.073285,44.19701],[-123.073321,44.200399],[-123.073424,44.200399]]]}},{"type":"Feature","properties":{"MAPTAXLOT":"1603080000101","MAPNUMBER":"16030800","TAXLOT":"101","ACCTNO":"0037968","MAPACRES":11.73561015},"geometry":{"type":"Polygon","coordinates":[[[-123.071771,44.200402],[-123.071803,44.200401],[-123.073321,44.200399],[-123.073285,44.19701],[-123.07168,44.197012],[-123.071771,44.200402]]]}},{"type":"Feature","properties":{"MAPTAXLOT":"1603080000102","MAPNUMBER":"16030800","TAXLOT":"102","ACCTNO":"0037976","MAPACRES":0.99264959},"geometry":{"type":"Polygon","coordinates":[[[-123.071671,44.196737],[-123.07168,44.197012],[-123.073285,44.19701],[-123.073284,44.196929],[-123.07318,44.19671],[-123.071671,44.196737]]]}},{"type":"Feature","properties":{"MAPTAXLOT":"1603080000103","MAPNUMBER":"16030800","TAXLOT":"103","ACCTNO":"0037984","MAPACRES":44.5618996},"geometry":{"type":"Polygon","coordinates":[[[-123.075398,44.200395],[-123.079144,44.200388],[-123.079145,44.200308],[-123.079058,44.19692],[-123.077151,44.196898],[-123.077148,44.196754],[-123.077075,44.193002],[-123.075213,44.192977],[-123.075398,44.200395]]]}},{"type":"Feature","properties":{"MAPTAXLOT":"1603080000105","MAPNUMBER":"16030800","TAXLOT":"105","ACCTNO":"0038008","MAPACRES":16.27250581},"geometry":{"type":"Polygon","coordinates":[[[-123.077148,44.196754],[-123.077151,44.196898],[-123.079058,44.19692],[-123.079054,44.196776],[-123.079034,44.196011],[-123.079002,44.194283],[-123.078981,44.193027],[-123.077075,44.193002],[-123.077148,44.196754]]]}},{"type":"Feature","properties":{"MAPTAXLOT":"1603080000106","MAPNUMBER":"16030800","TAXLOT":"106","ACCTNO":"0999159","MAPACRES":4.44134831},"geometry":{"type":"Polygon","coordinates":[[[-123.073214,44.195129],[-123.074099,44.195258],[-123.074083,44.192962],[-123.07316,44.192944],[-123.073178,44.193684],[-123.073209,44.193684],[-123.073209,44.193711],[-123.073179,44.193711],[-123.073214,44.195129]]]}},{"type":"Feature","properties":{"MAPTAXLOT":"1603080000107","MAPNUMBER":"16030800","TAXLOT":"107","ACCTNO":"1057932","MAPACRES":19.42404223},"geometry":{"type":"Polygon","coordinates":[[[-123.074253,44.200397],[-123.075398,44.200395],[-123.075213,44.192977],[-123.074083,44.192962],[-123.074099,44.195258],[-123.074149,44.200397],[-123.074253,44.200397]]]}},{"type":"Feature","properties":{"MAPTAXLOT":"1603080000108","MAPNUMBER":"16030800","TAXLOT":"108","ACCTNO":"1849197","MAPACRES":5.98760005},"geometry":{"type":"Polygon","coordinates":[[[-123.071671,44.196737],[-123.07318,44.19671],[-123.072108,44.194441],[-123.071779,44.193303],[-123.071759,44.193261],[-123.071566,44.193264],[-123.071617,44.195003],[-123.071671,44.196737]]]}},{"type":"Feature","properties":{"MAPTAXLOT":"1603080000200","MAPNUMBER":"16030800","TAXLOT":"200","ACCTNO":"0038016","MAPACRES":120.91350991},"geometry":{"type":"Polygon","coordinates":[[[-123.079145,44.200308],[-123.086893,44.200373],[-123.086891,44.200089],[-123.086868,44.195255],[-123.085888,44.194542],[-123.0859,44.193111],[-123.079475,44.193033],[-123.078981,44.193027],[-123.079002,44.194283],[-123.079034,44.196011],[-123.079054,44.196776],[-123.079058,44.19692],[-123.079145,44.200308]]]}},{"type":"Feature","properties":{"MAPTAXLOT":"1603080000400","MAPNUMBER":"16030800","TAXLOT":"400","ACCTNO":"0038024","MAPACRES":116.68579131},"geometry":{"type":"Polygon","coordinates":[[[-123.079475,44.192921],[-123.08686,44.193012],[-123.08686,44.185763],[-123.079988,44.185773],[-123.079477,44.185773],[-123.079475,44.192921]]]}},{"type":"Feature","properties":{"MAPTAXLOT":"1603080000500","MAPNUMBER":"16030800","TAXLOT":"500","ACCTNO":"0038032","MAPACRES":123.67586408},"geometry":{"type":"Polygon","coordinates":[[[-123.071563,44.18577],[-123.071537,44.186341],[-123.071526,44.191689],[-123.07154,44.192268],[-123.07154,44.192334],[-123.071547,44.192399],[-123.071561,44.192464],[-123.071582,44.192528],[-123.071609,44.192591],[-123.071644,44.192652],[-123.071684,44.192711],[-123.071731,44.192768],[-123.071784,44.192821],[-123.079475,44.192921],[-123.079477,44.185773],[-123.076052,44.185773],[-123.073813,44.185772],[-123.071563,44.18577]]]}},{"type":"Feature","properties":{"MAPTAXLOT":"1603090000077","MAPNUMBER":"16030900","TAXLOT":"77","ACCTNO":"000None","MAPACRES":45.85741539},"geometry":{"type":"Polygon","coordinates":[[[-123.059978,44.200376],[-123.061196,44.20042],[-123.061223,44.198953],[-123.061323,44.198953],[-123.062422,44.198861],[-123.062663,44.198862],[-123.063235,44.198793],[-123.063705,44.198794],[-123.06692,44.1988],[-123.067149,44.198801],[-123.07151,44.198809],[-123.071507,44.198697],[-123.063547,44.198682],[-123.063235,44.198681],[-123.062664,44.19861],[-123.062554,44.198603],[-123.061711,44.198551],[-123.06133,44.198536],[-123.061219,44.198536],[-123.061202,44.196621],[-123.061199,44.196241],[-123.061162,44.191638],[-123.061695,44.19164],[-123.061123,44.18682],[-123.059971,44.186806],[-123.060059,44.196207],[-123.06008,44.198558],[-123.059799,44.198557],[-123.058851,44.198586],[-123.058469,44.198641],[-123.057891,44.198665],[-123.053564,44.19866],[-123.053464,44.19866],[-123.053352,44.198658],[-123.051899,44.198376],[-123.051004,44.198163],[-123.050794,44.198113],[-123.05039,44.197902],[-123.050012,44.197804],[-123.049714,44.197778],[-123.048861,44.197705],[-123.048541,44.197791],[-123.049978,44.197914],[-123.050319,44.198003],[-123.050474,44.198084],[-123.050725,44.198214],[-123.051854,44.198483],[-123.05334,44.198772],[-123.053347,44.199318],[-123.053319,44.200186],[-123.053444,44.200186],[-123.053466,44.198772],[-123.053564,44.198773],[-123.057891,44.198778],[-123.058272,44.199171],[-123.059607,44.199172],[-123.060008,44.199453],[-123.059978,44.200376]]]}},{"type":"Feature","properties":{"MAPTAXLOT":"1603090000100","MAPNUMBER":"16030900","TAXLOT":"100","ACCTNO":"0038040","MAPACRES":0.80947376},"geometry":{"type":"Polygon","coordinates":[[[-123.066977,44.20041],[-123.067205,44.20041],[-123.067204,44.200363],[-123.067149,44.198801],[-123.06692,44.1988],[-123.066977,44.20041]]]}},{"type":"Feature","properties":{"MAPTAXLOT":"1603090000101","MAPNUMBER":"16030900","TAXLOT":"101","ACCTNO":"0038057","MAPACRES":15.0577841},"geometry":{"type":"Polygon","coordinates":[[[-123.067204,44.200363],[-123.071542,44.200402],[-123.07151,44.198809],[-123.067149,44.198801],[-123.067204,44.200363]]]}},{"type":"Feature","properties":{"MAPTAXLOT":"1603090000102","MAPNUMBER":"16030900","TAXLOT":"102","ACCTNO":"1025137","MAPACRES":19.52731121},"geometry":{"type":"Polygon","coordinates":[[[-123.053538,44.200186],[-123.059978,44.200376],[-123.060008,44.199453],[-123.059607,44.199172],[-123.058272,44.199171],[-123.057891,44.198778],[-123.053564,44.198773],[-123.053538,44.200186]]]}},{"type":"Feature","properties":{"MAPTAXLOT":"1603090000103","MAPNUMBER":"16030900","TAXLOT":"103","ACCTNO":"1093242","MAPACRES":9.14337679},"geometry":{"type":"Polygon","coordinates":[[[-123.061196,44.20042],[-123.064037,44.200415],[-123.063977,44.200156],[-123.064015,44.200151],[-123.063903,44.199666],[-123.063705,44.198794],[-123.063235,44.198793],[-123.062663,44.198862],[-123.062422,44.198861],[-123.061323,44.198953],[-123.061223,44.198953],[-123.061196,44.20042]]]}},{"type":"Feature","properties":{"MAPTAXLOT":"1603090000104","MAPNUMBER":"16030900","TAXLOT":"104","ACCTNO":"1254190","MAPACRES":10.868215},"geometry":{"type":"Polygon","coordinates":[[[-123.064037,44.200415],[-123.066977,44.20041],[-123.06692,44.1988],[-123.063705,44.198794],[-123.063903,44.199666],[-123.064015,44.200151],[-123.063977,44.200156],[-123.064037,44.200415]]]}},{"type":"Feature","properties":{"MAPTAXLOT":"1603090000200","MAPNUMBER":"16030900","TAXLOT":"200","ACCTNO":"0038065","MAPACRES":30.10556237},"geometry":{"type":"Polygon","coordinates":[[[-123.063547,44.198682],[-123.071507,44.198697],[-123.071472,44.19765],[-123.069994,44.197649],[-123.069975,44.197065],[-123.064698,44.19706],[-123.064698,44.196249],[-123.062942,44.196245],[-123.063547,44.198682]]]}},{"type":"Feature","properties":{"MAPTAXLOT":"1603090000201","MAPNUMBER":"16030900","TAXLOT":"201","ACCTNO":"0038073","MAPACRES":1.89151848},"geometry":{"type":"Polygon","coordinates":[[[-123.069994,44.197649],[-123.071472,44.19765],[-123.071453,44.197067],[-123.069975,44.197065],[-123.069994,44.197649]]]}},{"type":"Feature","properties":{"MAPTAXLOT":"1603090000300","MAPNUMBER":"16030900","TAXLOT":"300","ACCTNO":"0038081","MAPACRES":48.26018325},"geometry":{"type":"Polygon","coordinates":[[[-123.053564,44.19866],[-123.057891,44.198665],[-123.058469,44.198641],[-123.058851,44.198586],[-123.059799,44.198557],[-123.06008,44.198558],[-123.060059,44.196207],[-123.060054,44.196207],[-123.060021,44.196206],[-123.05756,44.196213],[-123.057349,44.195434],[-123.055553,44.19592],[-123.049233,44.197606],[-123.049714,44.197778],[-123.050012,44.197804],[-123.05039,44.197902],[-123.050794,44.198113],[-123.051004,44.198163],[-123.053352,44.198658],[-123.053464,44.19866],[-123.053564,44.19866]]]}},{"type":"Feature","properties":{"MAPTAXLOT":"1603090000301","MAPNUMBER":"16030900","TAXLOT":"301","ACCTNO":"0038099","MAPACRES":5.69935297},"geometry":{"type":"Polygon","coordinates":[[[-123.061711,44.198551],[-123.062554,44.198603],[-123.062537,44.196616],[-123.061202,44.196621],[-123.061219,44.198536],[-123.06133,44.198536],[-123.061711,44.198551]]]}},{"type":"Feature","properties":{"MAPTAXLOT":"1603090000302","MAPNUMBER":"16030900","TAXLOT":"302","ACCTNO":"0038107","MAPACRES":0.29776065},"geometry":{"type":"Polygon","coordinates":[[[-123.053444,44.200186],[-123.053538,44.200186],[-123.053564,44.198773],[-123.053466,44.198772],[-123.053444,44.200186]]]}},{"type":"Feature","properties":{"MAPTAXLOT":"1603090000304","MAPNUMBER":"16030900","TAXLOT":"304","ACCTNO":"0038123","MAPACRES":4.78450637},"geometry":{"type":"Polygon","coordinates":[[[-123.063235,44.198681],[-123.063547,44.198682],[-123.062942,44.196245],[-123.061204,44.196241],[-123.061199,44.196241],[-123.061202,44.196621],[-123.062537,44.196616],[-123.062554,44.198603],[-123.062664,44.19861],[-123.063235,44.198681]]]}},{"type":"Feature","properties":{"MAPTAXLOT":"1603090000305","MAPNUMBER":"16030900","TAXLOT":"305","ACCTNO":"0038131","MAPACRES":4.73538372},"geometry":{"type":"Polygon","coordinates":[[[-123.050942,44.200183],[-123.053319,44.200186],[-123.053347,44.199318],[-123.050705,44.199332],[-123.050942,44.200183]]]}},{"type":"Feature","properties":{"MAPTAXLOT":"1603090000306","MAPNUMBER":"16030900","TAXLOT":"306","ACCTNO":"0038149","MAPACRES":20.37414751},"geometry":{"type":"MultiPolygon","coordinates":[[[[-123.046393,44.200189],[-123.050942,44.200183],[-123.050705,44.199332],[-123.050485,44.198683],[-123.050474,44.198084],[-123.050319,44.198003],[-123.049978,44.197914],[-123.048541,44.197791],[-123.045318,44.198651],[-123.045855,44.198859],[-123.04735,44.199439],[-123.046736,44.199974],[-123.046432,44.199832],[-123.046393,44.200189]]],[[[-123.048861,44.197705],[-123.049714,44.197778],[-123.049233,44.197606],[-123.048861,44.197705]]]]}},{"type":"Feature","properties":{"MAPTAXLOT":"1603090000307","MAPNUMBER":"16030900","TAXLOT":"307","ACCTNO":"1243805","MAPACRES":5.23361455},"geometry":{"type":"MultiPolygon","coordinates":[[[[-123.050485,44.198683],[-123.050705,44.199332],[-123.053347,44.199318],[-123.05334,44.198772],[-123.051854,44.198483],[-123.050725,44.198214],[-123.050474,44.198084],[-123.050485,44.198683]]],[[[-123.051899,44.198376],[-123.053352,44.198658],[-123.051004,44.198163],[-123.051899,44.198376]]]]}},{"type":"Feature","properties":{"MAPTAXLOT":"1603090000400","MAPNUMBER":"16030900","TAXLOT":"400","ACCTNO":"0038156","MAPACRES":76.22787179},"geometry":{"type":"Polygon","coordinates":[[[-123.032065,44.200133],[-123.041798,44.200147],[-123.041842,44.19958],[-123.043096,44.199245],[-123.043214,44.199214],[-123.045318,44.198651],[-123.048541,44.197791],[-123.048861,44.197705],[-123.049233,44.197606],[-123.055553,44.19592],[-123.055278,44.194403],[-123.043832,44.197259],[-123.035833,44.199239],[-123.032065,44.200133]]]}},{"type":"Feature","properties":{"MAPTAXLOT":"1603090000500","MAPNUMBER":"16030900","TAXLOT":"500","ACCTNO":"0038164","MAPACRES":107.61937638},"geometry":{"type":"Polygon","coordinates":[[[-123.060021,44.196206],[-123.060054,44.196207],[-123.060059,44.196207],[-123.059971,44.186806],[-123.059961,44.185727],[-123.05996,44.185565],[-123.059958,44.185566],[-123.059805,44.185593],[-123.059065,44.185724],[-123.053532,44.1867],[-123.054031,44.188907],[-123.055492,44.188636],[-123.056215,44.191911],[-123.054876,44.192177],[-123.054943,44.192545],[-123.055278,44.194403],[-123.055553,44.19592],[-123.057349,44.195434],[-123.05756,44.196213],[-123.060021,44.196206]]]}},{"type":"Feature","properties":{"MAPTAXLOT":"1603090000501","MAPNUMBER":"16030900","TAXLOT":"501","ACCTNO":"1190170","MAPACRES":85.06950288},"geometry":{"type":"Polygon","coordinates":[[[-123.069975,44.197065],[-123.071453,44.197067],[-123.071387,44.195004],[-123.067345,44.194982],[-123.067242,44.191664],[-123.061695,44.19164],[-123.061162,44.191638],[-123.061199,44.196241],[-123.061204,44.196241],[-123.062942,44.196245],[-123.064698,44.196249],[-123.064698,44.19706],[-123.069975,44.197065]]]}},{"type":"Feature","properties":{"MAPTAXLOT":"1603090000502","MAPNUMBER":"16030900","TAXLOT":"502","ACCTNO":"1220654","MAPACRES":29.47052639},"geometry":{"type":"Polygon","coordinates":[[[-123.067345,44.194982],[-123.071387,44.195004],[-123.071296,44.191689],[-123.067242,44.191664],[-123.067345,44.194982]]]}},{"type":"Feature","properties":{"MAPTAXLOT":"1603090000600","MAPNUMBER":"16030900","TAXLOT":"600","ACCTNO":"0038172","MAPACRES":103.75065284},"geometry":{"type":"Polygon","coordinates":[[[-123.067242,44.191664],[-123.071296,44.191689],[-123.071309,44.186943],[-123.067709,44.186903],[-123.061123,44.18682],[-123.061695,44.19164],[-123.067242,44.191664]]]}},{"type":"Feature","properties":{"MAPTAXLOT":"1603090000700","MAPNUMBER":"16030900","TAXLOT":"700","ACCTNO":"0038180","MAPACRES":332.56410438},"geometry":{"type":"Polygon","coordinates":[[[-123.026953,44.185406],[-123.026751,44.194097],[-123.02857,44.194108],[-123.032577,44.192416],[-123.040578,44.189022],[-123.043566,44.195486],[-123.046098,44.194665],[-123.046245,44.19479],[-123.050513,44.193752],[-123.050375,44.193405],[-123.054943,44.192545],[-123.054876,44.192177],[-123.056215,44.191911],[-123.055492,44.188636],[-123.054031,44.188907],[-123.054014,44.188987],[-123.045536,44.190634],[-123.045893,44.188156],[-123.032417,44.185461],[-123.026953,44.185406]]]}},{"type":"Feature","properties":{"MAPTAXLOT":"1603090000800","MAPNUMBER":"16030900","TAXLOT":"800","ACCTNO":"0038206","MAPACRES":14.86017054},"geometry":{"type":"Polygon","coordinates":[[[-123.050369,44.185686],[-123.050446,44.187241],[-123.053532,44.1867],[-123.059065,44.185724],[-123.050369,44.185686]]]}},{"type":"Feature","properties":{"MAPTAXLOT":"1603100000100","MAPNUMBER":"16031000","TAXLOT":"100","ACCTNO":"0038214","MAPACRES":4.83222015},"geometry":{"type":"Polygon","coordinates":[[[-123.043214,44.199214],[-123.045375,44.200219],[-123.046432,44.199832],[-123.045005,44.199175],[-123.045855,44.198859],[-123.045318,44.198651],[-123.043214,44.199214]]]}},{"type":"Feature","properties":{"MAPTAXLOT":"1603100000200","MAPNUMBER":"16031000","TAXLOT":"200","ACCTNO":"0038222","MAPACRES":2.61231578},"geometry":{"type":"Polygon","coordinates":[[[-123.046432,44.199832],[-123.046736,44.199974],[-123.04735,44.199439],[-123.045855,44.198859],[-123.045005,44.199175],[-123.046432,44.199832]]]}},{"type":"Feature","properties":{"MAPTAXLOT":"1603100000300","MAPNUMBER":"16031000","TAXLOT":"300","ACCTNO":"0038230","MAPACRES":0.34338029},"geometry":{"type":"Polygon","coordinates":[[[-123.044512,44.200164],[-123.044681,44.200165],[-123.043214,44.199214],[-123.043096,44.199245],[-123.044512,44.200164]]]}},{"type":"Feature","properties":{"MAPTAXLOT":"1603100000301","MAPNUMBER":"16031000","TAXLOT":"301","ACCTNO":"0038248","MAPACRES":2.01263099},"geometry":{"type":"Polygon","coordinates":[[[-123.045225,44.200521],[-123.046372,44.200512],[-123.046393,44.200189],[-123.046432,44.199832],[-123.045375,44.200219],[-123.043214,44.199214],[-123.044681,44.200165],[-123.045225,44.200521]]]}},{"type":"Feature","properties":{"MAPTAXLOT":"1603100000302","MAPNUMBER":"16031000","TAXLOT":"302","ACCTNO":"1350196","MAPACRES":3.47369113},"geometry":{"type":"Polygon","coordinates":[[[-123.041798,44.200147],[-123.044512,44.200164],[-123.043096,44.199245],[-123.041842,44.19958],[-123.041798,44.200147]]]}},{"type":"Feature","properties":{"MAPTAXLOT":"1603100000400","MAPNUMBER":"16031000","TAXLOT":"400","ACCTNO":"1455920","MAPACRES":204.57780463},"geometry":{"type":"Polygon","coordinates":[[[-123.032577,44.192416],[-123.035833,44.199239],[-123.043832,44.197259],[-123.055278,44.194403],[-123.054943,44.192545],[-123.050375,44.193405],[-123.050513,44.193752],[-123.046245,44.19479],[-123.046098,44.194665],[-123.043566,44.195486],[-123.040578,44.189022],[-123.032577,44.192416]]]}},{"type":"Feature","properties":{"MAPTAXLOT":"1603110000100","MAPNUMBER":"16031100","TAXLOT":"100","ACCTNO":"0038255","MAPACRES":171.87422035},"geometry":{"type":"Polygon","coordinates":[[[-123.006342,44.201905],[-123.016245,44.201884],[-123.016344,44.200216],[-123.016393,44.200072],[-123.016332,44.196956],[-123.006585,44.197061],[-123.003864,44.197091],[-122.996627,44.197156],[-122.996594,44.20022],[-123.006541,44.200094],[-123.006342,44.201905]]]}},{"type":"Feature","properties":{"MAPTAXLOT":"1603110000101","MAPNUMBER":"16031100","TAXLOT":"101","ACCTNO":"1455912","MAPACRES":238.80751048},"geometry":{"type":"Polygon","coordinates":[[[-123.016393,44.200072],[-123.016344,44.200216],[-123.032065,44.200133],[-123.035833,44.199239],[-123.032577,44.192416],[-123.02857,44.194108],[-123.026751,44.194097],[-123.01906,44.194049],[-123.017607,44.196951],[-123.016332,44.196956],[-123.016393,44.200072]]]}},{"type":"Feature","properties":{"MAPTAXLOT":"1603110000200","MAPNUMBER":"16031100","TAXLOT":"200","ACCTNO":"0038271","MAPACRES":104.76352766},"geometry":{"type":"Polygon","coordinates":[[[-123.023684,44.187041],[-123.020563,44.189015],[-123.020505,44.189205],[-123.01906,44.194049],[-123.026751,44.194097],[-123.026953,44.185406],[-123.026653,44.185406],[-123.023684,44.187041]]]}},{"type":"Feature","properties":{"MAPTAXLOT":"1603110000300","MAPNUMBER":"16031100","TAXLOT":"300","ACCTNO":"0038297","MAPACRES":261.91099684},"geometry":{"type":"Polygon","coordinates":[[[-123.016332,44.196956],[-123.017607,44.196951],[-123.01906,44.194049],[-123.020505,44.189205],[-123.006699,44.189278],[-123.003856,44.189293],[-123.003864,44.197091],[-123.006585,44.197061],[-123.016332,44.196956]]]}},{"type":"Feature","properties":{"MAPTAXLOT":"1603140000100","MAPNUMBER":"16031400","TAXLOT":"100","ACCTNO":"1314655","MAPACRES":539.13949461},"geometry":{"type":"Polygon","coordinates":[[[-123.006754,44.185573],[-123.003867,44.185645],[-123.003856,44.189293],[-123.006699,44.189278],[-123.020505,44.189205],[-123.020563,44.189015],[-123.023684,44.187041],[-123.022664,44.185435],[-123.019087,44.179804],[-123.026607,44.179815],[-123.02866,44.179808],[-123.028644,44.174617],[-123.028649,44.173264],[-123.016464,44.173112],[-123.016474,44.178221],[-123.011647,44.178292],[-123.006688,44.178375],[-123.006754,44.185573]]]}},{"type":"Feature","properties":{"MAPTAXLOT":"1603140000200","MAPNUMBER":"16031400","TAXLOT":"200","ACCTNO":"1314663","MAPACRES":77.1375835},"geometry":{"type":"Polygon","coordinates":[[[-123.022664,44.185435],[-123.023684,44.187041],[-123.026653,44.185406],[-123.026513,44.1854],[-123.026595,44.1805],[-123.026607,44.179815],[-123.019087,44.179804],[-123.022664,44.185435]]]}},{"type":"Feature","properties":{"MAPTAXLOT":"1603140000300","MAPNUMBER":"16031400","TAXLOT":"300","ACCTNO":"0038370","MAPACRES":57.3945537},"geometry":{"type":"Polygon","coordinates":[[[-123.016464,44.173112],[-123.028649,44.173264],[-123.02866,44.171035],[-123.026739,44.171025],[-123.016465,44.171068],[-123.016464,44.173112]]]}},{"type":"Feature","properties":{"MAPTAXLOT":"1603140000400","MAPNUMBER":"16031400","TAXLOT":"400","ACCTNO":"0038388","MAPACRES":75.28431392},"geometry":{"type":"Polygon","coordinates":[[[-123.011647,44.178292],[-123.016474,44.178221],[-123.016464,44.173112],[-123.016465,44.171068],[-123.011731,44.171095],[-123.011647,44.178292]]]}},{"type":"Feature","properties":{"MAPTAXLOT":"1603140000500","MAPNUMBER":"16031400","TAXLOT":"500","ACCTNO":"0038396","MAPACRES":78.41904343},"geometry":{"type":"Polygon","coordinates":[[[-123.006688,44.178375],[-123.011647,44.178292],[-123.011731,44.171095],[-123.006798,44.171127],[-123.006744,44.174755],[-123.006688,44.178375]]]}},{"type":"Feature","properties":{"MAPTAXLOT":"1603150000100","MAPNUMBER":"16031500","TAXLOT":"100","ACCTNO":"0038412","MAPACRES":121.11509512},"geometry":{"type":"Polygon","coordinates":[[[-123.026513,44.1854],[-123.026653,44.185406],[-123.026953,44.185406],[-123.032417,44.185461],[-123.032431,44.184638],[-123.039059,44.184673],[-123.036815,44.178296],[-123.036508,44.178295],[-123.036388,44.180492],[-123.026595,44.1805],[-123.026513,44.1854]]]}},{"type":"Feature","properties":{"MAPTAXLOT":"1603150000200","MAPNUMBER":"16031500","TAXLOT":"200","ACCTNO":"1051414","MAPACRES":4.99752721},"geometry":{"type":"Polygon","coordinates":[[[-123.043701,44.172384],[-123.043918,44.17423],[-123.045156,44.174092],[-123.044897,44.172251],[-123.043701,44.172384]]]}},{"type":"Feature","properties":{"MAPTAXLOT":"1603150000300","MAPNUMBER":"16031500","TAXLOT":"300","ACCTNO":"0039196","MAPACRES":101.08083238},"geometry":{"type":"Polygon","coordinates":[[[-123.026595,44.1805],[-123.036388,44.180492],[-123.036508,44.178295],[-123.036815,44.178296],[-123.03651,44.177461],[-123.03546,44.174624],[-123.031497,44.174631],[-123.028644,44.174617],[-123.02866,44.179808],[-123.026607,44.179815],[-123.026595,44.1805]]]}},{"type":"Feature","properties":{"MAPTAXLOT":"1603160000077","MAPNUMBER":"16031600","TAXLOT":"77","ACCTNO":"000None","MAPACRES":16.39413699},"geometry":{"type":"Polygon","coordinates":[[[-123.059971,44.186806],[-123.061123,44.18682],[-123.061105,44.185731],[-123.06101,44.180157],[-123.059877,44.180377],[-123.05996,44.185565],[-123.059961,44.185727],[-123.059971,44.186806]]]}},{"type":"Feature","properties":{"MAPTAXLOT":"1603160000100","MAPNUMBER":"16031600","TAXLOT":"100","ACCTNO":"0038438","MAPACRES":1.75547847},"geometry":{"type":"Polygon","coordinates":[[[-123.059725,44.180406],[-123.059805,44.185593],[-123.059958,44.185566],[-123.05996,44.185565],[-123.059877,44.180377],[-123.059725,44.180406]]]}},{"type":"Feature","properties":{"MAPTAXLOT":"1603160000101","MAPNUMBER":"16031600","TAXLOT":"101","ACCTNO":"1314671","MAPACRES":257.70907307},"geometry":{"type":"Polygon","coordinates":[[[-123.045893,44.188156],[-123.045536,44.190634],[-123.054014,44.188987],[-123.054031,44.188907],[-123.053532,44.1867],[-123.050446,44.187241],[-123.050369,44.185686],[-123.059065,44.185724],[-123.059805,44.185593],[-123.059725,44.180406],[-123.058664,44.180613],[-123.050329,44.182222],[-123.046294,44.183076],[-123.039059,44.184673],[-123.032431,44.184638],[-123.032417,44.185461],[-123.045893,44.188156]]]}},{"type":"Feature","properties":{"MAPTAXLOT":"1603160000200","MAPNUMBER":"16031600","TAXLOT":"200","ACCTNO":"1314689","MAPACRES":80.95520295},"geometry":{"type":"Polygon","coordinates":[[[-123.061123,44.18682],[-123.067709,44.186903],[-123.067435,44.186467],[-123.067432,44.186462],[-123.067429,44.186457],[-123.067426,44.186451],[-123.067423,44.186446],[-123.06742,44.186441],[-123.067417,44.186436],[-123.067415,44.18643],[-123.067412,44.186425],[-123.06741,44.186419],[-123.067408,44.186414],[-123.067405,44.186409],[-123.067403,44.186403],[-123.067401,44.186398],[-123.0674,44.186392],[-123.067398,44.186387],[-123.067396,44.186381],[-123.067395,44.186376],[-123.067394,44.18637],[-123.067392,44.186364],[-123.067391,44.186359],[-123.06739,44.186353],[-123.067389,44.186348],[-123.067388,44.186342],[-123.067388,44.186336],[-123.067387,44.186331],[-123.067387,44.186325],[-123.067386,44.18632],[-123.067386,44.186314],[-123.067386,44.186308],[-123.067386,44.186303],[-123.067386,44.186297],[-123.067386,44.186291],[-123.067387,44.186286],[-123.067387,44.18628],[-123.067388,44.186275],[-123.067388,44.186269],[-123.067389,44.186263],[-123.06739,44.186258],[-123.067391,44.186252],[-123.067392,44.186247],[-123.067393,44.186241],[-123.067395,44.186236],[-123.067396,44.18623],[-123.067398,44.186225],[-123.067399,44.186219],[-123.067485,44.185948],[-123.067367,44.185754],[-123.067206,44.185493],[-123.067118,44.185348],[-123.066818,44.184721],[-123.066394,44.184305],[-123.066389,44.184299],[-123.066383,44.184293],[-123.066377,44.184288],[-123.066372,44.184282],[-123.066366,44.184276],[-123.066361,44.184269],[-123.066356,44.184263],[-123.066351,44.184257],[-123.066346,44.184251],[-123.066341,44.184245],[-123.066336,44.184238],[-123.066332,44.184232],[-123.066327,44.184226],[-123.066323,44.184219],[-123.066318,44.184213],[-123.066314,44.184206],[-123.06631,44.1842],[-123.066306,44.184193],[-123.066302,44.184187],[-123.066299,44.18418],[-123.066295,44.184173],[-123.066292,44.184167],[-123.066289,44.18416],[-123.066285,44.184153],[-123.066282,44.184146],[-123.066279,44.18414],[-123.066277,44.184133],[-123.066274,44.184126],[-123.066271,44.184119],[-123.066269,44.184112],[-123.066267,44.184105],[-123.066264,44.184098],[-123.066262,44.184091],[-123.06626,44.184084],[-123.066259,44.184077],[-123.066257,44.18407],[-123.066255,44.184063],[-123.066254,44.184056],[-123.066253,44.184049],[-123.066252,44.184042],[-123.066251,44.184035],[-123.06625,44.184028],[-123.066249,44.184021],[-123.066248,44.184014],[-123.066248,44.184007],[-123.066217,44.183493],[-123.066216,44.183484],[-123.066216,44.183475],[-123.066214,44.183465],[-123.066213,44.183456],[-123.066211,44.183447],[-123.06621,44.183438],[-123.066208,44.183428],[-123.066205,44.183419],[-123.066203,44.18341],[-123.0662,44.183401],[-123.066197,44.183392],[-123.066194,44.183383],[-123.066191,44.183374],[-123.066187,44.183364],[-123.066183,44.183356],[-123.066179,44.183347],[-123.066175,44.183338],[-123.066171,44.183329],[-123.066166,44.18332],[-123.066161,44.183311],[-123.066156,44.183303],[-123.066151,44.183294],[-123.066145,44.183286],[-123.066139,44.183277],[-123.066134,44.183269],[-123.066127,44.18326],[-123.066121,44.183252],[-123.066115,44.183244],[-123.066108,44.183236],[-123.066101,44.183228],[-123.066094,44.18322],[-123.066087,44.183212],[-123.066079,44.183204],[-123.066071,44.183197],[-123.066064,44.183189],[-123.066056,44.183182],[-123.066047,44.183174],[-123.066039,44.183167],[-123.06603,44.18316],[-123.066022,44.183153],[-123.066013,44.183146],[-123.066004,44.183139],[-123.065994,44.183132],[-123.065985,44.183125],[-123.065975,44.183119],[-123.065641,44.182894],[-123.065637,44.182891],[-123.065633,44.182889],[-123.065628,44.182886],[-123.065624,44.182883],[-123.06562,44.18288],[-123.065616,44.182877],[-123.065612,44.182874],[-123.065608,44.182871],[-123.065604,44.182868],[-123.0656,44.182865],[-123.065596,44.182862],[-123.065592,44.182859],[-123.065588,44.182856],[-123.065584,44.182853],[-123.06558,44.18285],[-123.065576,44.182847],[-123.065572,44.182844],[-123.065568,44.182841],[-123.065564,44.182837],[-123.065561,44.182834],[-123.065557,44.182831],[-123.065553,44.182828],[-123.065549,44.182825],[-123.065546,44.182822],[-123.065542,44.182818],[-123.065538,44.182815],[-123.065535,44.182812],[-123.065531,44.182809],[-123.065528,44.182805],[-123.065524,44.182802],[-123.06552,44.182799],[-123.065517,44.182796],[-123.065513,44.182792],[-123.06551,44.182789],[-123.065507,44.182786],[-123.065503,44.182782],[-123.0655,44.182779],[-123.065496,44.182775],[-123.065493,44.182772],[-123.06549,44.182769],[-123.065487,44.182765],[-123.065483,44.182762],[-123.06548,44.182758],[-123.065477,44.182755],[-123.065474,44.182751],[-123.065123,44.182367],[-123.065416,44.182292],[-123.071484,44.182313],[-123.071491,44.18215],[-123.068809,44.182141],[-123.068843,44.181327],[-123.064045,44.181282],[-123.062976,44.179778],[-123.06101,44.180157],[-123.061105,44.185731],[-123.061123,44.18682]]]}},{"type":"Feature","properties":{"MAPTAXLOT":"1603160000201","MAPNUMBER":"16031600","TAXLOT":"201","ACCTNO":"1027141","MAPACRES":4.80627444},"geometry":{"type":"Polygon","coordinates":[[[-123.068809,44.182141],[-123.071491,44.18215],[-123.071527,44.181333],[-123.068843,44.181327],[-123.068809,44.182141]]]}},{"type":"Feature","properties":{"MAPTAXLOT":"1603160000202","MAPNUMBER":"16031600","TAXLOT":"202","ACCTNO":"1302510","MAPACRES":12.52014042},"geometry":{"type":"Polygon","coordinates":[[[-123.069484,44.186763],[-123.071308,44.186775],[-123.071306,44.186342],[-123.071332,44.185769],[-123.071332,44.185769],[-123.071379,44.184729],[-123.066818,44.184721],[-123.067118,44.185348],[-123.067206,44.185493],[-123.06948,44.185506],[-123.069481,44.185762],[-123.069484,44.186763]]]}},{"type":"Feature","properties":{"MAPTAXLOT":"1603160000203","MAPNUMBER":"16031600","TAXLOT":"203","ACCTNO":"1303542","MAPACRES":6.97489829},"geometry":{"type":"Polygon","coordinates":[[[-123.067709,44.186903],[-123.071309,44.186943],[-123.071308,44.186775],[-123.069484,44.186763],[-123.069481,44.185762],[-123.06948,44.185506],[-123.067206,44.185493],[-123.067367,44.185754],[-123.067485,44.185948],[-123.067399,44.186219],[-123.067398,44.186225],[-123.067396,44.18623],[-123.067395,44.186236],[-123.067393,44.186241],[-123.067392,44.186247],[-123.067391,44.186252],[-123.06739,44.186258],[-123.067389,44.186263],[-123.067388,44.186269],[-123.067388,44.186275],[-123.067387,44.18628],[-123.067387,44.186286],[-123.067386,44.186291],[-123.067386,44.186297],[-123.067386,44.186303],[-123.067386,44.186308],[-123.067386,44.186314],[-123.067386,44.18632],[-123.067387,44.186325],[-123.067387,44.186331],[-123.067388,44.186336],[-123.067388,44.186342],[-123.067389,44.186348],[-123.06739,44.186353],[-123.067391,44.186359],[-123.067392,44.186364],[-123.067394,44.18637],[-123.067395,44.186376],[-123.067396,44.186381],[-123.067398,44.186387],[-123.0674,44.186392],[-123.067401,44.186398],[-123.067403,44.186403],[-123.067405,44.186409],[-123.067408,44.186414],[-123.06741,44.186419],[-123.067412,44.186425],[-123.067415,44.18643],[-123.067417,44.186436],[-123.06742,44.186441],[-123.067423,44.186446],[-123.067426,44.186451],[-123.067429,44.186457],[-123.067432,44.186462],[-123.067435,44.186467],[-123.067709,44.186903]]]}},{"type":"Feature","properties":{"MAPTAXLOT":"1603160000204","MAPNUMBER":"16031600","TAXLOT":"204","ACCTNO":"1489044","MAPACRES":28.69711821},"geometry":{"type":"Polygon","coordinates":[[[-123.066818,44.184721],[-123.071379,44.184729],[-123.071484,44.182313],[-123.065416,44.182292],[-123.065123,44.182367],[-123.065474,44.182751],[-123.065477,44.182755],[-123.06548,44.182758],[-123.065483,44.182762],[-123.065487,44.182765],[-123.06549,44.182769],[-123.065493,44.182772],[-123.065496,44.182775],[-123.0655,44.182779],[-123.065503,44.182782],[-123.065507,44.182786],[-123.06551,44.182789],[-123.065513,44.182792],[-123.065517,44.182796],[-123.06552,44.182799],[-123.065524,44.182802],[-123.065528,44.182805],[-123.065531,44.182809],[-123.065535,44.182812],[-123.065538,44.182815],[-123.065542,44.182818],[-123.065546,44.182822],[-123.065549,44.182825],[-123.065553,44.182828],[-123.065557,44.182831],[-123.065561,44.182834],[-123.065564,44.182837],[-123.065568,44.182841],[-123.065572,44.182844],[-123.065576,44.182847],[-123.06558,44.18285],[-123.065584,44.182853],[-123.065588,44.182856],[-123.065592,44.182859],[-123.065596,44.182862],[-123.0656,44.182865],[-123.065604,44.182868],[-123.065608,44.182871],[-123.065612,44.182874],[-123.065616,44.182877],[-123.06562,44.18288],[-123.065624,44.182883],[-123.065628,44.182886],[-123.065633,44.182889],[-123.065637,44.182891],[-123.065641,44.182894],[-123.065975,44.183119],[-123.065985,44.183125],[-123.065994,44.183132],[-123.066004,44.183139],[-123.066013,44.183146],[-123.066022,44.183153],[-123.06603,44.18316],[-123.066039,44.183167],[-123.066047,44.183174],[-123.066056,44.183182],[-123.066064,44.183189],[-123.066071,44.183197],[-123.066079,44.183204],[-123.066087,44.183212],[-123.066094,44.18322],[-123.066101,44.183228],[-123.066108,44.183236],[-123.066115,44.183244],[-123.066121,44.183252],[-123.066127,44.18326],[-123.066134,44.183269],[-123.066139,44.183277],[-123.066145,44.183286],[-123.066151,44.183294],[-123.066156,44.183303],[-123.066161,44.183311],[-123.066166,44.18332],[-123.066171,44.183329],[-123.066175,44.183338],[-123.066179,44.183347],[-123.066183,44.183356],[-123.066187,44.183364],[-123.066191,44.183374],[-123.066194,44.183383],[-123.066197,44.183392],[-123.0662,44.183401],[-123.066203,44.18341],[-123.066205,44.183419],[-123.066208,44.183428],[-123.06621,44.183438],[-123.066211,44.183447],[-123.066213,44.183456],[-123.066214,44.183465],[-123.066216,44.183475],[-123.066216,44.183484],[-123.066217,44.183493],[-123.066248,44.184007],[-123.066248,44.184014],[-123.066249,44.184021],[-123.06625,44.184028],[-123.066251,44.184035],[-123.066252,44.184042],[-123.066253,44.184049],[-123.066254,44.184056],[-123.066255,44.184063],[-123.066257,44.18407],[-123.066259,44.184077],[-123.06626,44.184084],[-123.066262,44.184091],[-123.066264,44.184098],[-123.066267,44.184105],[-123.066269,44.184112],[-123.066271,44.184119],[-123.066274,44.184126],[-123.066277,44.184133],[-123.066279,44.18414],[-123.066282,44.184146],[-123.066285,44.184153],[-123.066289,44.18416],[-123.066292,44.184167],[-123.066295,44.184173],[-123.066299,44.18418],[-123.066302,44.184187],[-123.066306,44.184193],[-123.06631,44.1842],[-123.066314,44.184206],[-123.066318,44.184213],[-123.066323,44.184219],[-123.066327,44.184226],[-123.066332,44.184232],[-123.066336,44.184238],[-123.066341,44.184245],[-123.066346,44.184251],[-123.066351,44.184257],[-123.066356,44.184263],[-123.066361,44.184269],[-123.066366,44.184276],[-123.066372,44.184282],[-123.066377,44.184288],[-123.066383,44.184293],[-123.066389,44.184299],[-123.066394,44.184305],[-123.066818,44.184721]]]}},{"type":"Feature","properties":{"MAPTAXLOT":"1603160000300","MAPNUMBER":"16031600","TAXLOT":"300","ACCTNO":"0039204","MAPACRES":399.48632242},"geometry":{"type":"Polygon","coordinates":[[[-123.036815,44.178296],[-123.039059,44.184673],[-123.046294,44.183076],[-123.050329,44.182222],[-123.058664,44.180613],[-123.059725,44.180406],[-123.059877,44.180377],[-123.059959,44.174112],[-123.059963,44.173431],[-123.059956,44.173096],[-123.059955,44.173092],[-123.059941,44.172712],[-123.05992,44.172332],[-123.059893,44.171952],[-123.059859,44.171572],[-123.059819,44.171193],[-123.059772,44.170814],[-123.059719,44.170435],[-123.05966,44.170057],[-123.059594,44.169679],[-123.059521,44.169302],[-123.059442,44.168926],[-123.059357,44.168551],[-123.059266,44.168185],[-123.058896,44.168188],[-123.058455,44.16828],[-123.056468,44.168682],[-123.058214,44.172856],[-123.03651,44.177461],[-123.036815,44.178296]]]}},{"type":"Feature","properties":{"MAPTAXLOT":"1603170000077","MAPNUMBER":"16031700","TAXLOT":"77","ACCTNO":"000None","MAPACRES":6.2662763},"geometry":{"type":"Polygon","coordinates":[[[-123.071332,44.185769],[-123.071563,44.18577],[-123.071609,44.18473],[-123.071716,44.182303],[-123.071759,44.181335],[-123.071781,44.179414],[-123.071784,44.179249],[-123.071788,44.179085],[-123.071873,44.175361],[-123.071887,44.174813],[-123.071935,44.172989],[-123.071706,44.172987],[-123.071527,44.181333],[-123.071491,44.18215],[-123.071484,44.182313],[-123.071379,44.184729],[-123.071332,44.185769],[-123.071332,44.185769]]]}},{"type":"Feature","properties":{"MAPTAXLOT":"1603170000101","MAPNUMBER":"16031700","TAXLOT":"101","ACCTNO":"0038487","MAPACRES":5.04066881},"geometry":{"type":"Polygon","coordinates":[[[-123.071563,44.18577],[-123.073813,44.185772],[-123.073792,44.18474],[-123.071609,44.18473],[-123.071563,44.18577]]]}},{"type":"Feature","properties":{"MAPTAXLOT":"1603170000102","MAPNUMBER":"16031700","TAXLOT":"102","ACCTNO":"1054293","MAPACRES":5.09578152},"geometry":{"type":"Polygon","coordinates":[[[-123.073813,44.185772],[-123.076052,44.185773],[-123.076031,44.184731],[-123.073792,44.18474],[-123.073813,44.185772]]]}},{"type":"Feature","properties":{"MAPTAXLOT":"1603170000103","MAPNUMBER":"16031700","TAXLOT":"103","ACCTNO":"1079084","MAPACRES":100.64618526},"geometry":{"type":"MultiPolygon","coordinates":[[[[-123.079916,44.182222],[-123.079988,44.185773],[-123.08686,44.185763],[-123.086701,44.180952],[-123.086701,44.18094],[-123.086701,44.180927],[-123.0867,44.180914],[-123.0867,44.180902],[-123.0867,44.180889],[-123.086699,44.180876],[-123.086699,44.180864],[-123.086698,44.180851],[-123.086698,44.180838],[-123.086697,44.180826],[-123.086697,44.180813],[-123.086696,44.1808],[-123.086696,44.180788],[-123.086695,44.180775],[-123.086694,44.180762],[-123.086694,44.180749],[-123.086693,44.180737],[-123.086692,44.180724],[-123.086691,44.180711],[-123.086691,44.180699],[-123.08669,44.180686],[-123.086689,44.180673],[-123.086688,44.180661],[-123.086687,44.180648],[-123.086686,44.180635],[-123.086685,44.180623],[-123.086684,44.18061],[-123.086683,44.180597],[-123.086682,44.180585],[-123.086681,44.180572],[-123.08668,44.180559],[-123.086679,44.180547],[-123.086678,44.180534],[-123.086677,44.180521],[-123.086676,44.180509],[-123.086675,44.180496],[-123.086673,44.180484],[-123.086672,44.180471],[-123.086671,44.180458],[-123.08667,44.180446],[-123.086668,44.180433],[-123.086667,44.18042],[-123.086666,44.180408],[-123.086664,44.180395],[-123.086663,44.180382],[-123.08666,44.180361],[-123.086656,44.180339],[-123.086653,44.180317],[-123.086649,44.180296],[-123.086645,44.180274],[-123.086641,44.180252],[-123.086637,44.180231],[-123.086632,44.180209],[-123.086628,44.180188],[-123.086623,44.180166],[-123.086618,44.180145],[-123.086613,44.180123],[-123.086608,44.180102],[-123.086603,44.18008],[-123.086597,44.180059],[-123.086591,44.180037],[-123.086585,44.180016],[-123.086579,44.179994],[-123.086573,44.179973],[-123.086567,44.179952],[-123.08656,44.17993],[-123.086553,44.179909],[-123.086546,44.179888],[-123.086539,44.179867],[-123.086532,44.179845],[-123.086525,44.179824],[-123.086517,44.179803],[-123.086509,44.179782],[-123.086501,44.179761],[-123.086493,44.17974],[-123.086485,44.179719],[-123.086477,44.179698],[-123.086468,44.179677],[-123.086459,44.179656],[-123.086451,44.179635],[-123.086442,44.179614],[-123.086432,44.179593],[-123.086423,44.179573],[-123.086413,44.179552],[-123.086404,44.179531],[-123.086394,44.17951],[-123.086384,44.17949],[-123.086374,44.179469],[-123.086363,44.179449],[-123.086353,44.179428],[-123.086346,44.179416],[-123.08634,44.179405],[-123.086333,44.179393],[-123.086326,44.179381],[-123.08632,44.179369],[-123.086313,44.179357],[-123.086307,44.179346],[-123.0863,44.179334],[-123.086293,44.179322],[-123.086286,44.17931],[-123.08628,44.179298],[-123.086273,44.179287],[-123.086266,44.179275],[-123.086259,44.179263],[-123.086252,44.179251],[-123.086245,44.17924],[-123.086238,44.179228],[-123.086232,44.179216],[-123.086225,44.179205],[-123.086218,44.179193],[-123.086211,44.179181],[-123.086204,44.17917],[-123.086197,44.179158],[-123.086189,44.179146],[-123.086187,44.179142],[-123.079854,44.17919],[-123.079916,44.182222]]],[[[-123.086435,44.179141],[-123.086443,44.179153],[-123.08645,44.179165],[-123.086457,44.179177],[-123.086464,44.179189],[-123.086471,44.179201],[-123.086478,44.179213],[-123.086485,44.179225],[-123.086491,44.179237],[-123.086498,44.179249],[-123.086505,44.179261],[-123.086512,44.179273],[-123.086519,44.179285],[-123.086526,44.179297],[-123.086533,44.179309],[-123.086539,44.179321],[-123.086546,44.179333],[-123.086553,44.179345],[-123.086559,44.179357],[-123.086566,44.179369],[-123.086577,44.179391],[-123.086588,44.179412],[-123.086599,44.179434],[-123.086609,44.179456],[-123.08662,44.179477],[-123.08663,44.179499],[-123.08664,44.179521],[-123.08665,44.179543],[-123.086659,44.179565],[-123.086669,44.179586],[-123.086678,44.179608],[-123.086687,44.17963],[-123.086696,44.179652],[-123.086705,44.179674],[-123.086714,44.179696],[-123.086722,44.179719],[-123.086731,44.179741],[-123.086739,44.179763],[-123.086747,44.179785],[-123.086755,44.179807],[-123.086762,44.17983],[-123.08677,44.179852],[-123.086777,44.179874],[-123.086784,44.179897],[-123.086791,44.179919],[-123.086798,44.179941],[-123.086804,44.179964],[-123.08681,44.179986],[-123.086817,44.180009],[-123.086823,44.180031],[-123.086829,44.180054],[-123.086834,44.180076],[-123.08684,44.180099],[-123.086845,44.180121],[-123.08685,44.180144],[-123.086855,44.180167],[-123.08686,44.180189],[-123.086864,44.180212],[-123.086869,44.180235],[-123.086873,44.180257],[-123.086877,44.18028],[-123.086881,44.180303],[-123.086885,44.180325],[-123.086888,44.180348],[-123.086891,44.180371],[-123.086893,44.180384],[-123.086894,44.180397],[-123.086896,44.18041],[-123.086897,44.180422],[-123.086898,44.180435],[-123.0869,44.180448],[-123.086901,44.180461],[-123.086902,44.180474],[-123.086904,44.180487],[-123.086905,44.1805],[-123.086906,44.180513],[-123.086907,44.180526],[-123.086908,44.180539],[-123.086909,44.180551],[-123.08691,44.180564],[-123.086912,44.180577],[-123.086913,44.18059],[-123.086914,44.180603],[-123.086915,44.180616],[-123.086915,44.180629],[-123.086916,44.180642],[-123.086917,44.180655],[-123.086918,44.180668],[-123.086919,44.180681],[-123.08692,44.180694],[-123.086921,44.180706],[-123.086921,44.180719],[-123.086922,44.180732],[-123.086923,44.180745],[-123.086924,44.180758],[-123.086924,44.180771],[-123.086925,44.180784],[-123.086925,44.180797],[-123.086926,44.18081],[-123.086927,44.180823],[-123.086927,44.180836],[-123.086928,44.180849],[-123.086928,44.180861],[-123.086929,44.180874],[-123.086929,44.180887],[-123.086929,44.1809],[-123.08693,44.180913],[-123.08693,44.180926],[-123.08693,44.180939],[-123.086931,44.180952],[-123.087043,44.184402],[-123.087117,44.180814],[-123.087155,44.179137],[-123.086435,44.179141],[-123.086435,44.179141]]]]}},{"type":"Feature","properties":{"MAPTAXLOT":"1603170000104","MAPNUMBER":"16031700","TAXLOT":"104","ACCTNO":"1431970","MAPACRES":0.14002431},"geometry":{"type":"Polygon","coordinates":[[[-123.071784,44.179249],[-123.071781,44.179414],[-123.072556,44.179244],[-123.071784,44.179249]]]}},{"type":"Feature","properties":{"MAPTAXLOT":"1603170000106","MAPNUMBER":"16031700","TAXLOT":"106","ACCTNO":"1918513","MAPACRES":54.13955536},"geometry":{"type":"Polygon","coordinates":[[[-123.071716,44.182303],[-123.079916,44.182222],[-123.079854,44.17919],[-123.072556,44.179244],[-123.071781,44.179414],[-123.071759,44.181335],[-123.071716,44.182303]]]}},{"type":"Feature","properties":{"MAPTAXLOT":"1603170000107","MAPNUMBER":"16031700","TAXLOT":"107","ACCTNO":"1918514","MAPACRES":53.91346948},"geometry":{"type":"Polygon","coordinates":[[[-123.079477,44.185773],[-123.079988,44.185773],[-123.079916,44.182222],[-123.071716,44.182303],[-123.071609,44.18473],[-123.073792,44.18474],[-123.076031,44.184731],[-123.076052,44.185773],[-123.079477,44.185773]]]}},{"type":"Feature","properties":{"MAPTAXLOT":"1603170000200","MAPNUMBER":"16031700","TAXLOT":"200","ACCTNO":"0038503","MAPACRES":107.44107653},"geometry":{"type":"Polygon","coordinates":[[[-123.071788,44.179085],[-123.080015,44.179025],[-123.080086,44.173042],[-123.080087,44.173019],[-123.077516,44.173017],[-123.071935,44.172989],[-123.071887,44.174813],[-123.072998,44.174815],[-123.072985,44.175363],[-123.071873,44.175361],[-123.071788,44.179085]]]}},{"type":"Feature","properties":{"MAPTAXLOT":"1603170000201","MAPNUMBER":"16031700","TAXLOT":"201","ACCTNO":"0038511","MAPACRES":59.3291055},"geometry":{"type":"Polygon","coordinates":[[[-123.079854,44.17919],[-123.086187,44.179142],[-123.086182,44.179135],[-123.086175,44.179123],[-123.086168,44.179111],[-123.086161,44.1791],[-123.086154,44.179088],[-123.086146,44.179076],[-123.086139,44.179065],[-123.086132,44.179053],[-123.086125,44.179041],[-123.086117,44.17903],[-123.08611,44.179018],[-123.086103,44.179007],[-123.086095,44.178995],[-123.086088,44.178984],[-123.08608,44.178972],[-123.086073,44.17896],[-123.086066,44.178949],[-123.086058,44.178937],[-123.08605,44.178926],[-123.086043,44.178914],[-123.086035,44.178903],[-123.085143,44.177524],[-123.085142,44.177524],[-123.082254,44.173021],[-123.080087,44.173019],[-123.080086,44.173042],[-123.080015,44.179025],[-123.071788,44.179085],[-123.071784,44.179249],[-123.072556,44.179244],[-123.079854,44.17919]]]}},{"type":"Feature","properties":{"MAPTAXLOT":"1603170000204","MAPNUMBER":"16031700","TAXLOT":"204","ACCTNO":"1056694","MAPACRES":1.33870899},"geometry":{"type":"Polygon","coordinates":[[[-123.071873,44.175361],[-123.072985,44.175363],[-123.072998,44.174815],[-123.071887,44.174813],[-123.071873,44.175361]]]}},{"type":"Feature","properties":{"MAPTAXLOT":"1603170000300","MAPNUMBER":"16031700","TAXLOT":"300","ACCTNO":"0038545","MAPACRES":154.82182172},"geometry":{"type":"Polygon","coordinates":[[[-123.068843,44.181327],[-123.071527,44.181333],[-123.071706,44.172987],[-123.066359,44.172958],[-123.063182,44.173004],[-123.062976,44.179778],[-123.064045,44.181282],[-123.068843,44.181327]]]}},{"type":"Feature","properties":{"MAPTAXLOT":"1603190000200","MAPNUMBER":"16031900","TAXLOT":"200","ACCTNO":"0038636","MAPACRES":251.15416577},"geometry":{"type":"Polygon","coordinates":[[[-123.099815,44.16882],[-123.098832,44.163766],[-123.09883,44.163754],[-123.087428,44.163825],[-123.087417,44.16558],[-123.080578,44.165588],[-123.078318,44.16559],[-123.078307,44.166378],[-123.078301,44.166765],[-123.078277,44.168384],[-123.079325,44.168386],[-123.079575,44.168386],[-123.087427,44.168398],[-123.087422,44.168941],[-123.087401,44.171166],[-123.100253,44.171047],[-123.099817,44.16883],[-123.099815,44.16882]]]}},{"type":"Feature","properties":{"MAPTAXLOT":"1603200000077","MAPNUMBER":"16032000","TAXLOT":"77","ACCTNO":"000None","MAPACRES":8.88538739},"geometry":{"type":"Polygon","coordinates":[[[-123.071782,44.157026],[-123.071782,44.15714],[-123.071782,44.157483],[-123.071782,44.158015],[-123.071783,44.160231],[-123.071785,44.162812],[-123.071786,44.163388],[-123.071787,44.164997],[-123.071791,44.167482],[-123.07179,44.167592],[-123.071706,44.172987],[-123.071935,44.172989],[-123.07202,44.167502],[-123.072016,44.163624],[-123.072014,44.160086],[-123.072014,44.159675],[-123.072014,44.15893],[-123.072014,44.156814],[-123.072014,44.156416],[-123.072014,44.15539],[-123.072014,44.155386],[-123.071787,44.155387],[-123.071785,44.156053],[-123.071783,44.156449],[-123.071782,44.156889],[-123.071782,44.157026]]]}},{"type":"Feature","properties":{"MAPTAXLOT":"1603200000100","MAPNUMBER":"16032000","TAXLOT":"100","ACCTNO":"0038701","MAPACRES":112.39188046},"geometry":{"type":"MultiPolygon","coordinates":[[[[-123.07202,44.167502],[-123.071935,44.172989],[-123.077516,44.173017],[-123.077479,44.165591],[-123.077479,44.165464],[-123.076312,44.163619],[-123.072016,44.163624],[-123.07202,44.167502]]],[[[-123.077477,44.165065],[-123.077472,44.163617],[-123.076562,44.163618],[-123.077477,44.165065]]]]}},{"type":"Feature","properties":{"MAPTAXLOT":"1603200004401","MAPNUMBER":"16032000","TAXLOT":"4401","ACCTNO":"1764503","MAPACRES":105.44816459},"geometry":{"type":"Polygon","coordinates":[[[-123.087422,44.168941],[-123.087427,44.168398],[-123.079575,44.168386],[-123.079325,44.168386],[-123.078277,44.168384],[-123.078301,44.166765],[-123.078307,44.166378],[-123.078318,44.16559],[-123.077809,44.165591],[-123.077559,44.165591],[-123.077479,44.165591],[-123.077516,44.173017],[-123.080087,44.173019],[-123.082254,44.173021],[-123.082506,44.173021],[-123.087274,44.173027],[-123.087401,44.171166],[-123.087422,44.168941]]]}},{"type":"Feature","properties":{"MAPTAXLOT":"1603210000077","MAPNUMBER":"16032100","TAXLOT":"77","ACCTNO":"000None","MAPACRES":67.4741986},"geometry":{"type":"Polygon","coordinates":[[[-123.059963,44.173431],[-123.059959,44.174112],[-123.059877,44.180377],[-123.06101,44.180157],[-123.061109,44.174113],[-123.061115,44.173423],[-123.061106,44.173035],[-123.06109,44.172648],[-123.061068,44.172261],[-123.061039,44.171874],[-123.061004,44.171487],[-123.060962,44.171101],[-123.060913,44.170715],[-123.060858,44.17033],[-123.060797,44.169945],[-123.060729,44.16956],[-123.060654,44.169177],[-123.060574,44.168794],[-123.060486,44.168411],[-123.060316,44.167734],[-123.0603,44.16767],[-123.060367,44.16767],[-123.063037,44.167573],[-123.07179,44.167592],[-123.071791,44.167482],[-123.063799,44.167465],[-123.063038,44.167463],[-123.06037,44.167342],[-123.060215,44.167341],[-123.059048,44.162794],[-123.058394,44.160246],[-123.057812,44.157975],[-123.056646,44.15798],[-123.057219,44.160211],[-123.057218,44.162286],[-123.057218,44.162789],[-123.057882,44.162791],[-123.05905,44.167335],[-123.05808,44.16733],[-123.057231,44.167376],[-123.056168,44.167433],[-123.051669,44.167444],[-123.051554,44.167444],[-123.046965,44.167453],[-123.044551,44.167459],[-123.044316,44.16746],[-123.044352,44.16757],[-123.04967,44.167557],[-123.051452,44.167554],[-123.056195,44.167547],[-123.058076,44.167661],[-123.058267,44.16766],[-123.058455,44.16828],[-123.058896,44.168188],[-123.059266,44.168185],[-123.059357,44.168551],[-123.059442,44.168926],[-123.059521,44.169302],[-123.059594,44.169679],[-123.05966,44.170057],[-123.059719,44.170435],[-123.059772,44.170814],[-123.059819,44.171193],[-123.059859,44.171572],[-123.059893,44.171952],[-123.05992,44.172332],[-123.059941,44.172712],[-123.059955,44.173092],[-123.059956,44.173096],[-123.059963,44.173431]]]}},{"type":"Feature","properties":{"MAPTAXLOT":"1603210000200","MAPNUMBER":"16032100","TAXLOT":"200","ACCTNO":"0039188","MAPACRES":433.60918869},"geometry":{"type":"Polygon","coordinates":[[[-123.028644,44.174617],[-123.031497,44.174631],[-123.03546,44.174624],[-123.03651,44.177461],[-123.058214,44.172856],[-123.056468,44.168682],[-123.058455,44.16828],[-123.058267,44.16766],[-123.058076,44.167661],[-123.056195,44.167547],[-123.051452,44.167554],[-123.05144,44.168833],[-123.049657,44.168836],[-123.04967,44.167557],[-123.044352,44.16757],[-123.044316,44.16746],[-123.034584,44.167436],[-123.034569,44.16965],[-123.028665,44.169704],[-123.02866,44.171035],[-123.028649,44.173264],[-123.028644,44.174617]],[[-123.042835,44.167587],[-123.042835,44.168903],[-123.041105,44.168896],[-123.0411,44.16758],[-123.042835,44.167587]],[[-123.040614,44.170724],[-123.040661,44.171861],[-123.040658,44.171861],[-123.038658,44.171902],[-123.038614,44.170765],[-123.040614,44.170724]],[[-123.045156,44.174092],[-123.043918,44.17423],[-123.043701,44.172384],[-123.044897,44.172251],[-123.045156,44.174092]]]}},{"type":"Feature","properties":{"MAPTAXLOT":"1603210000301","MAPNUMBER":"16032100","TAXLOT":"301","ACCTNO":"1584471","MAPACRES":160.29876134},"geometry":{"type":"Polygon","coordinates":[[[-123.07179,44.167592],[-123.063037,44.167573],[-123.060367,44.16767],[-123.0603,44.16767],[-123.060316,44.167734],[-123.060486,44.168411],[-123.060574,44.168794],[-123.060654,44.169177],[-123.060729,44.16956],[-123.060797,44.169945],[-123.060858,44.17033],[-123.060913,44.170715],[-123.060962,44.171101],[-123.061004,44.171487],[-123.061039,44.171874],[-123.061068,44.172261],[-123.06109,44.172648],[-123.061106,44.173035],[-123.061115,44.173423],[-123.061109,44.174113],[-123.06101,44.180157],[-123.062976,44.179778],[-123.063182,44.173004],[-123.066359,44.172958],[-123.071706,44.172987],[-123.07179,44.167592]]]}},{"type":"Feature","properties":{"MAPTAXLOT":"1603220000400","MAPNUMBER":"16032200","TAXLOT":"400","ACCTNO":"1138542","MAPACRES":5.00426772},"geometry":{"type":"Polygon","coordinates":[[[-123.038658,44.171902],[-123.040658,44.171861],[-123.040661,44.171861],[-123.040614,44.170724],[-123.038614,44.170765],[-123.038658,44.171902]]]}},{"type":"Feature","properties":{"MAPTAXLOT":"1603230000101","MAPNUMBER":"16032300","TAXLOT":"101","ACCTNO":"0039337","MAPACRES":427.38382664},"geometry":{"type":"Polygon","coordinates":[[[-123.026739,44.171025],[-123.02866,44.171035],[-123.028665,44.169704],[-123.02869,44.163467],[-123.026855,44.163677],[-123.026854,44.163743],[-123.016459,44.163825],[-123.006914,44.163915],[-123.006699,44.163918],[-123.001876,44.163987],[-123.00185,44.167603],[-123.001826,44.171217],[-123.006798,44.171127],[-123.011731,44.171095],[-123.016465,44.171068],[-123.026739,44.171025]]]}}]}