{"type":"FeatureCollection","features":[{"type":"Feature","properties":{"MAPTAXLOT":"1765000000100","MAPNUMBER":"17650000","TAXLOT":"100","ACCTNO":"1857380","MAPACRES":22585.03071489},"geometry":{"type":"Polygon","coordinates":[[[-122.020061,44.045749],[-122.020061,44.04937],[-122.020061,44.05299],[-122.020061,44.05661],[-122.020061,44.06023],[-122.020061,44.06385],[-122.020061,44.067471],[-122.020061,44.071091],[-122.020061,44.074711],[-122.020061,44.078331],[-122.020061,44.081952],[-122.020061,44.085572],[-122.020061,44.089192],[-122.020061,44.092812],[-122.020061,44.096433],[-122.020061,44.100053],[-122.020061,44.103673],[-122.020061,44.107293],[-122.020061,44.110913],[-122.020061,44.114534],[-122.020246,44.12691],[-122.030341,44.126923],[-122.040166,44.126857],[-122.0404,44.126855],[-122.060271,44.126914],[-122.060547,44.126915],[-122.080376,44.127011],[-122.080685,44.127013],[-122.100475,44.127053],[-122.100824,44.127054],[-122.12058,44.127096],[-122.120948,44.127097],[-122.131005,44.127118],[-122.136032,44.127123],[-122.141103,44.127128],[-122.141103,44.127128],[-122.141103,44.127038],[-122.141083,44.114533],[-122.141083,44.110913],[-122.141083,44.107293],[-122.141083,44.103673],[-122.141083,44.100052],[-122.141083,44.096432],[-122.141083,44.092812],[-122.141083,44.089192],[-122.141083,44.085572],[-122.141083,44.081951],[-122.141083,44.078331],[-122.141083,44.074711],[-122.141083,44.071091],[-122.141083,44.06747],[-122.141083,44.06385],[-122.141083,44.06023],[-122.141083,44.05661],[-122.141083,44.05299],[-122.141083,44.049369],[-122.141083,44.045749],[-122.141083,44.042129],[-122.135494,44.042129],[-122.130475,44.042129],[-122.125457,44.042129],[-122.120438,44.042129],[-122.115419,44.042129],[-122.1104,44.042129],[-122.105381,44.042129],[-122.100362,44.042129],[-122.095343,44.042129],[-122.090325,44.042129],[-122.085306,44.042129],[-122.080287,44.042129],[-122.075268,44.042129],[-122.070249,44.042129],[-122.06523,44.042129],[-122.060211,44.042129],[-122.055193,44.042129],[-122.050174,44.042129],[-122.045155,44.042129],[-122.040136,44.042129],[-122.035117,44.042129],[-122.030099,44.042129],[-122.02508,44.042129],[-122.020061,44.042128],[-122.020061,44.045749]]]}},{"type":"Feature","properties":{"MAPTAXLOT":"1766000000100","MAPNUMBER":"17660000","TAXLOT":"100","ACCTNO":"1857398","MAPACRES":13130.95840377},"geometry":{"type":"Polygon","coordinates":[[[-121.94964,44.042178],[-121.94964,44.045799],[-121.94964,44.04942],[-121.94964,44.05304],[-121.94964,44.053041],[-121.949762,44.056609],[-121.949763,44.066488],[-121.949763,44.070108],[-121.949763,44.071091],[-121.949763,44.073728],[-121.949763,44.077348],[-121.949763,44.080969],[-121.949763,44.084589],[-121.949763,44.085572],[-121.949763,44.088209],[-121.949763,44.091829],[-121.949763,44.09545],[-121.949763,44.09907],[-121.949763,44.100053],[-121.949763,44.10269],[-121.949763,44.10631],[-121.949763,44.10993],[-121.949763,44.113551],[-121.949763,44.113551],[-121.949763,44.114534],[-121.949763,44.117171],[-121.949763,44.120791],[-121.949763,44.124411],[-121.949763,44.125394],[-121.949763,44.127034],[-121.954789,44.127034],[-121.95531,44.127034],[-121.959815,44.127034],[-121.960336,44.127034],[-121.964842,44.127034],[-121.965362,44.127034],[-121.969867,44.127034],[-121.970388,44.127034],[-121.974893,44.127034],[-121.975414,44.127034],[-121.97992,44.127034],[-121.98044,44.127034],[-121.984946,44.127034],[-121.985466,44.127034],[-121.989972,44.127034],[-121.990492,44.127034],[-121.994998,44.127034],[-121.995518,44.127034],[-122.000024,44.127034],[-122.000545,44.127034],[-122.00505,44.127034],[-122.010076,44.127034],[-122.020201,44.126911],[-122.020246,44.12691],[-122.020061,44.114534],[-122.020061,44.110913],[-122.020061,44.107293],[-122.020061,44.103673],[-122.020061,44.100053],[-122.020061,44.096433],[-122.020061,44.092812],[-122.020061,44.089192],[-122.020061,44.085572],[-122.020061,44.081952],[-122.020061,44.078331],[-122.020061,44.074711],[-122.020061,44.071091],[-122.020061,44.067471],[-122.020061,44.06385],[-122.020061,44.06023],[-122.020061,44.05661],[-122.020061,44.05299],[-122.020061,44.04937],[-122.020061,44.045749],[-122.020061,44.042128],[-122.015008,44.042128],[-122.009989,44.042128],[-122.00497,44.042128],[-121.999951,44.042128],[-121.994932,44.042128],[-121.989913,44.042128],[-121.984894,44.042128],[-121.979875,44.042128],[-121.974856,44.042128],[-121.969837,44.042128],[-121.94964,44.042128],[-121.94964,44.042178]]]}},{"type":"Feature","properties":{"MAPTAXLOT":"1865000000100","MAPNUMBER":"18650000","TAXLOT":"100","ACCTNO":"1857422","MAPACRES":23940.23749406},"geometry":{"type":"Polygon","coordinates":[[[-122.135494,44.042129],[-122.141083,44.042129],[-122.141083,44.039192],[-122.141083,44.035572],[-122.141083,44.031951],[-122.141083,44.028331],[-122.141083,44.024711],[-122.141083,44.021091],[-122.141083,44.01747],[-122.141083,44.01385],[-122.141083,44.01023],[-122.141083,44.006609],[-122.141083,44.002989],[-122.141083,43.999369],[-122.141083,43.995749],[-122.141083,43.992128],[-122.141083,43.988508],[-122.141083,43.984888],[-122.141083,43.981267],[-122.141083,43.977647],[-122.141083,43.974027],[-122.141083,43.970406],[-122.141083,43.966786],[-122.141083,43.963978],[-122.141083,43.963896],[-122.141083,43.963166],[-122.141083,43.962294],[-122.141083,43.962226],[-122.141083,43.959545],[-122.141083,43.955925],[-122.141083,43.952305],[-122.140264,43.952305],[-122.13532,43.952305],[-122.135252,43.952305],[-122.130241,43.952305],[-122.12523,43.952305],[-122.120287,43.952305],[-122.120218,43.952305],[-122.115207,43.952305],[-122.110196,43.952305],[-122.105184,43.952305],[-122.100241,43.952305],[-122.100173,43.952305],[-122.095162,43.952305],[-122.09015,43.952305],[-122.085139,43.952305],[-122.080196,43.952305],[-122.080128,43.952305],[-122.075116,43.952305],[-122.070105,43.952305],[-122.065094,43.952305],[-122.060151,43.952305],[-122.060011,43.952305],[-122.055,43.952305],[-122.049988,43.952305],[-122.044977,43.952305],[-122.040105,43.952305],[-122.039966,43.952305],[-122.034954,43.952305],[-122.029943,43.952305],[-122.024932,43.952305],[-122.02006,43.952305],[-122.02006,43.955925],[-122.02006,43.959546],[-122.020061,43.963166],[-122.020061,43.966786],[-122.02006,43.970407],[-122.02006,43.974027],[-122.02006,43.977647],[-122.020061,43.981267],[-122.020061,43.984888],[-122.02006,43.988508],[-122.020061,43.992128],[-122.020061,43.995749],[-122.020061,43.999369],[-122.020061,44.002989],[-122.020061,44.00661],[-122.020061,44.01023],[-122.020061,44.01385],[-122.020061,44.01747],[-122.020061,44.021091],[-122.020061,44.024711],[-122.020061,44.028331],[-122.020061,44.031951],[-122.020061,44.035572],[-122.020061,44.039192],[-122.020061,44.042128],[-122.02508,44.042129],[-122.030099,44.042129],[-122.035117,44.042129],[-122.040136,44.042129],[-122.045155,44.042129],[-122.050174,44.042129],[-122.055193,44.042129],[-122.060211,44.042129],[-122.06523,44.042129],[-122.070249,44.042129],[-122.075268,44.042129],[-122.080287,44.042129],[-122.085306,44.042129],[-122.090325,44.042129],[-122.095343,44.042129],[-122.100362,44.042129],[-122.105381,44.042129],[-122.1104,44.042129],[-122.115419,44.042129],[-122.120438,44.042129],[-122.125457,44.042129],[-122.130475,44.042129],[-122.135494,44.042129]]]}},{"type":"Feature","properties":{"MAPTAXLOT":"1866000000100","MAPNUMBER":"18660000","TAXLOT":"100","ACCTNO":"1857430","MAPACRES":13821.29049651},"geometry":{"type":"Polygon","coordinates":[[[-121.950055,43.984356],[-121.949985,43.987965],[-121.949914,43.991574],[-121.949844,43.995183],[-121.949839,43.995749],[-121.94981,43.998794],[-121.949776,44.002406],[-121.949742,44.006017],[-121.949708,44.009629],[-121.949707,44.01023],[-121.949699,44.013244],[-121.94969,44.016859],[-121.949682,44.020474],[-121.949673,44.024089],[-121.949673,44.024711],[-121.949672,44.027706],[-121.949671,44.031322],[-121.949669,44.034939],[-121.949668,44.038556],[-121.94964,44.042128],[-121.969837,44.042128],[-121.974856,44.042128],[-121.979875,44.042128],[-121.984894,44.042128],[-121.989913,44.042128],[-121.994932,44.042128],[-121.999951,44.042128],[-122.00497,44.042128],[-122.009989,44.042128],[-122.015008,44.042128],[-122.020061,44.042128],[-122.020061,44.039192],[-122.020061,44.035572],[-122.020061,44.031951],[-122.020061,44.028331],[-122.020061,44.024711],[-122.020061,44.021091],[-122.020061,44.01747],[-122.020061,44.01385],[-122.020061,44.01023],[-122.020061,44.00661],[-122.020061,44.002989],[-122.020061,43.999369],[-122.020061,43.995749],[-122.020061,43.992128],[-122.02006,43.988508],[-122.020061,43.984888],[-122.020061,43.981267],[-122.02006,43.977647],[-122.02006,43.974027],[-122.02006,43.970407],[-122.020061,43.966786],[-122.020061,43.963166],[-122.02006,43.959546],[-122.02006,43.955925],[-122.02006,43.952305],[-122.019921,43.952305],[-122.014909,43.952305],[-122.009898,43.952305],[-122.004887,43.952305],[-121.999876,43.952305],[-121.994864,43.952305],[-121.989853,43.952305],[-121.984842,43.952305],[-121.97983,43.952305],[-121.974819,43.952305],[-121.969808,43.952305],[-121.950012,43.952305],[-121.950029,43.955325],[-121.950039,43.958958],[-121.950048,43.96259],[-121.950057,43.966222],[-121.95006,43.966786],[-121.950074,43.969854],[-121.950091,43.973485],[-121.950108,43.977116],[-121.950125,43.980748],[-121.950115,43.981268],[-121.950055,43.984356]],[[-121.977733,43.97332],[-121.977896,43.973337],[-121.978115,43.973413],[-121.978227,43.973549],[-121.978336,43.973606],[-121.978475,43.973741],[-121.97856,43.973877],[-121.978618,43.974033],[-121.978622,43.974209],[-121.978572,43.974367],[-121.978576,43.974523],[-121.978578,43.974621],[-121.978527,43.974759],[-121.978395,43.974878],[-121.978371,43.975016],[-121.97832,43.975153],[-121.978323,43.975271],[-121.97838,43.975368],[-121.978438,43.975524],[-121.978522,43.97566],[-121.978472,43.975817],[-121.978394,43.975955],[-121.978317,43.976152],[-121.978186,43.976311],[-121.978137,43.976527],[-121.978113,43.976684],[-121.978144,43.97684],[-121.9782,43.976917],[-121.978338,43.976994],[-121.978423,43.97713],[-121.978455,43.977345],[-121.978541,43.97752],[-121.978653,43.977676],[-121.978764,43.977772],[-121.978955,43.977809],[-121.979147,43.977904],[-121.979204,43.978021],[-121.979261,43.978138],[-121.979209,43.978217],[-121.979103,43.978336],[-121.978971,43.978474],[-121.978813,43.978672],[-121.978656,43.97889],[-121.978579,43.979106],[-121.978502,43.979283],[-121.978506,43.97944],[-121.978483,43.979617],[-121.978488,43.979793],[-121.978437,43.979931],[-121.978386,43.980088],[-121.978418,43.980264],[-121.978503,43.980419],[-121.978534,43.980556],[-121.978617,43.980653],[-121.978565,43.980751],[-121.978397,43.980882],[-121.978134,43.981051],[-121.977908,43.981192],[-121.977604,43.981278],[-121.977338,43.981309],[-121.976956,43.981314],[-121.976647,43.98118],[-121.97622,43.980937],[-121.975986,43.980747],[-121.975638,43.980586],[-121.975403,43.98034],[-121.975244,43.980094],[-121.97505,43.979958],[-121.974892,43.979767],[-121.974926,43.979574],[-121.974919,43.979325],[-121.975028,43.979075],[-121.975098,43.978826],[-121.975246,43.978603],[-121.975203,43.978411],[-121.975199,43.978245],[-121.975004,43.978082],[-121.974884,43.97789],[-121.97469,43.977755],[-121.974686,43.977589],[-121.974643,43.977397],[-121.974563,43.977232],[-121.974446,43.977151],[-121.974405,43.977041],[-121.974556,43.976956],[-121.974515,43.976846],[-121.974323,43.976821],[-121.974359,43.97671],[-121.974393,43.976544],[-121.974504,43.976377],[-121.974422,43.976158],[-121.97423,43.976132],[-121.973998,43.976025],[-121.973956,43.97586],[-121.973688,43.975863],[-121.973458,43.975811],[-121.973492,43.975645],[-121.973526,43.975451],[-121.973521,43.975258],[-121.973516,43.975065],[-121.973512,43.9749],[-121.973662,43.974787],[-121.973888,43.974646],[-121.974229,43.974532],[-121.974425,43.974459],[-121.974638,43.974299],[-121.974824,43.97416],[-121.974983,43.973982],[-121.975278,43.97386],[-121.975521,43.973798],[-121.975844,43.973716],[-121.976166,43.973555],[-121.976435,43.973473],[-121.976732,43.973411],[-121.977001,43.973329],[-121.977271,43.973287],[-121.977461,43.973284],[-121.977733,43.97332]]]}}]}