{"type":"FeatureCollection","features":[{"type":"Feature","properties":{"MAPTAXLOT":"2365000000100","MAPNUMBER":"23650000","TAXLOT":"100","ACCTNO":"1857489","MAPACRES":1563.51084974},"geometry":{"type":"MultiPolygon","coordinates":[[[[-122.0098,43.60977],[-122.007877,43.611187],[-122.006016,43.612992],[-122.005008,43.61354],[-122.0034,43.61443],[-122.002801,43.615024],[-122.002767,43.615058],[-122.00711,43.615031],[-122.012093,43.615],[-122.017075,43.61497],[-122.022058,43.614939],[-122.022592,43.614936],[-122.027041,43.614909],[-122.032024,43.61488],[-122.037007,43.61485],[-122.04199,43.61482],[-122.042528,43.614817],[-122.046974,43.614793],[-122.051958,43.614766],[-122.056941,43.614738],[-122.061442,43.614716],[-122.061396,43.61261],[-122.061396,43.61185],[-122.06124,43.61184],[-122.060877,43.611799],[-122.06047,43.611704],[-122.060095,43.611596],[-122.059664,43.611411],[-122.059246,43.611072],[-122.057465,43.609243],[-122.056844,43.608598],[-122.056684,43.608459],[-122.056524,43.608355],[-122.056284,43.608253],[-122.05602,43.608147],[-122.055679,43.608043],[-122.055094,43.607917],[-122.054494,43.607788],[-122.053695,43.607606],[-122.052248,43.607183],[-122.049917,43.606636],[-122.046744,43.605828],[-122.045624,43.605514],[-122.044805,43.605246],[-122.04413,43.604985],[-122.043429,43.604651],[-122.04291,43.604392],[-122.042385,43.604117],[-122.041808,43.603858],[-122.041365,43.603525],[-122.040637,43.603037],[-122.039925,43.602454],[-122.039261,43.601979],[-122.037514,43.600601],[-122.037421,43.600645],[-122.032194,43.60254],[-122.030933,43.603202],[-122.028603,43.604092],[-122.027405,43.604823],[-122.026208,43.605874],[-122.025829,43.60608],[-122.025389,43.606171],[-122.024665,43.606125],[-122.022808,43.606054],[-122.021107,43.60635],[-122.019753,43.606715],[-122.017483,43.609046],[-122.01701,43.609274],[-122.015656,43.609525],[-122.012036,43.609247],[-122.011092,43.609314],[-122.0098,43.60977]]],[[[-122.03793,43.600403],[-122.039614,43.601731],[-122.040281,43.602208],[-122.040988,43.602787],[-122.041708,43.60327],[-122.042119,43.603578],[-122.042658,43.603821],[-122.043192,43.604101],[-122.043702,43.604355],[-122.044381,43.604678],[-122.045022,43.604926],[-122.045813,43.605184],[-122.046914,43.605494],[-122.050074,43.606298],[-122.052415,43.606847],[-122.05386,43.60727],[-122.054637,43.607447],[-122.055234,43.607575],[-122.055844,43.607707],[-122.056234,43.607825],[-122.056527,43.607943],[-122.056814,43.608066],[-122.057038,43.60821],[-122.057234,43.608382],[-122.057866,43.609038],[-122.05963,43.610849],[-122.059979,43.611132],[-122.060312,43.611274],[-122.060637,43.611368],[-122.060991,43.611451],[-122.061298,43.611486],[-122.061396,43.611492],[-122.061396,43.609018],[-122.061396,43.601778],[-122.061397,43.601259],[-122.061397,43.599566],[-122.060938,43.599602],[-122.060545,43.599646],[-122.060095,43.599749],[-122.059674,43.599857],[-122.0592,43.599979],[-122.058692,43.600009],[-122.05817,43.600039],[-122.057656,43.599999],[-122.057232,43.599934],[-122.056832,43.599819],[-122.056441,43.59966],[-122.056024,43.599436],[-122.055665,43.599185],[-122.055024,43.598208],[-122.054772,43.59753],[-122.054317,43.596575],[-122.053943,43.595509],[-122.053516,43.594418],[-122.053168,43.593625],[-122.053136,43.593634],[-122.051624,43.594479],[-122.050112,43.595714],[-122.049419,43.595919],[-122.048757,43.596559],[-122.047655,43.597084],[-122.045797,43.597838],[-122.042239,43.599528],[-122.041231,43.59987],[-122.040601,43.599984],[-122.039877,43.599984],[-122.038429,43.600166],[-122.03793,43.600403]]],[[[-122.060945,43.589841],[-122.060063,43.590207],[-122.059559,43.590573],[-122.058897,43.591533],[-122.058456,43.591853],[-122.05726,43.592081],[-122.056379,43.592469],[-122.055686,43.592881],[-122.054962,43.593132],[-122.053875,43.593431],[-122.053881,43.593444],[-122.054239,43.59426],[-122.054672,43.595367],[-122.05504,43.596417],[-122.055494,43.597368],[-122.055735,43.598017],[-122.056288,43.598858],[-122.056513,43.599016],[-122.056852,43.599198],[-122.057156,43.599322],[-122.05745,43.599406],[-122.057774,43.599456],[-122.058181,43.599488],[-122.058632,43.599462],[-122.059041,43.599438],[-122.059422,43.59934],[-122.059855,43.599228],[-122.060374,43.59911],[-122.06084,43.599058],[-122.061355,43.599017],[-122.061391,43.599015],[-122.061397,43.599014],[-122.061396,43.598157],[-122.061396,43.594537],[-122.061396,43.590916],[-122.061396,43.58948],[-122.060945,43.589841]]]]}}]}