{"type":"FeatureCollection","features":[{"type":"Feature","properties":{"MAPTAXLOT":"2455000000100","MAPNUMBER":"24550000","TAXLOT":"100","ACCTNO":"0976595","MAPACRES":20905.07208391},"geometry":{"type":"Polygon","coordinates":[[[-122.191184,43.527399],[-122.196166,43.527409],[-122.201149,43.527419],[-122.206131,43.527429],[-122.211114,43.52744],[-122.216098,43.527449],[-122.221083,43.527458],[-122.226068,43.527468],[-122.231052,43.527477],[-122.236041,43.527487],[-122.241029,43.527497],[-122.246018,43.527507],[-122.251006,43.527517],[-122.255999,43.527517],[-122.260992,43.527517],[-122.265984,43.527517],[-122.271007,43.527545],[-122.271086,43.523899],[-122.271087,43.523874],[-122.271168,43.520252],[-122.271168,43.520219],[-122.271119,43.516837],[-122.271116,43.516644],[-122.27107,43.513422],[-122.271075,43.513003],[-122.265812,43.512891],[-122.260853,43.512896],[-122.260784,43.501961],[-122.255829,43.501963],[-122.255802,43.498303],[-122.260761,43.498289],[-122.265727,43.498282],[-122.2712,43.498135],[-122.271207,43.496914],[-122.271201,43.496715],[-122.271198,43.496623],[-122.2712,43.495374],[-122.271202,43.494546],[-122.271207,43.491735],[-122.27121,43.490956],[-122.271219,43.488114],[-122.271222,43.487366],[-122.27123,43.484491],[-122.271229,43.483777],[-122.271218,43.480876],[-122.271217,43.480163],[-122.271207,43.47726],[-122.271206,43.476549],[-122.271196,43.473644],[-122.271195,43.472936],[-122.271185,43.470028],[-122.271185,43.469322],[-122.271183,43.466408],[-122.271183,43.465706],[-122.271181,43.462788],[-122.271181,43.462091],[-122.27118,43.459168],[-122.27118,43.458475],[-122.271178,43.455548],[-122.271178,43.454859],[-122.271179,43.451927],[-122.271179,43.451234],[-122.271181,43.448306],[-122.271181,43.447609],[-122.271182,43.444686],[-122.271182,43.443984],[-122.271183,43.441624],[-122.271183,43.44107],[-122.271183,43.440364],[-122.265596,43.440364],[-122.260624,43.440363],[-122.250676,43.440358],[-122.230751,43.44033],[-122.21084,43.440308],[-122.190935,43.440285],[-122.190967,43.45477],[-122.181001,43.454765],[-122.180993,43.451142],[-122.180985,43.447519],[-122.180977,43.443896],[-122.175994,43.443891],[-122.175986,43.440267],[-122.171003,43.44026],[-122.151037,43.440224],[-122.151033,43.443366],[-122.151035,43.444176],[-122.151692,43.44457],[-122.15229,43.445897],[-122.153169,43.44672],[-122.153044,43.447704],[-122.152699,43.448093],[-122.152385,43.448299],[-122.151317,43.448528],[-122.151045,43.448556],[-122.151049,43.450662],[-122.151058,43.454308],[-122.151059,43.454752],[-122.151061,43.457953],[-122.151074,43.46158],[-122.151075,43.462015],[-122.151084,43.465206],[-122.151097,43.468832],[-122.151099,43.469267],[-122.151104,43.472457],[-122.151116,43.476094],[-122.151117,43.476519],[-122.151126,43.479731],[-122.151138,43.483367],[-122.151139,43.483769],[-122.151145,43.487004],[-122.151163,43.49063],[-122.151165,43.491023],[-122.151178,43.494256],[-122.151197,43.497882],[-122.151199,43.49828],[-122.151209,43.501509],[-122.151227,43.50514],[-122.151229,43.505542],[-122.151242,43.508772],[-122.15126,43.512403],[-122.151262,43.512807],[-122.151276,43.516033],[-122.151302,43.520074],[-122.151319,43.523305],[-122.15132,43.523707],[-122.151331,43.526451],[-122.151334,43.527344],[-122.156315,43.527353],[-122.161295,43.527362],[-122.166276,43.527371],[-122.171256,43.52738],[-122.176238,43.527385],[-122.18122,43.527389],[-122.186202,43.527394],[-122.191184,43.527399]],[[-122.210847,43.454791],[-122.210882,43.462034],[-122.200931,43.462029],[-122.200919,43.458405],[-122.195946,43.458401],[-122.195937,43.454776],[-122.210847,43.454791]],[[-122.235818,43.483818],[-122.240808,43.483813],[-122.245799,43.483809],[-122.25079,43.483804],[-122.250803,43.487432],[-122.250817,43.49106],[-122.25083,43.494688],[-122.250843,43.498316],[-122.245852,43.498324],[-122.240861,43.498332],[-122.23587,43.49834],[-122.230879,43.498347],[-122.230866,43.494716],[-122.230853,43.491085],[-122.23084,43.487453],[-122.230827,43.483822],[-122.22586,43.483817],[-122.220893,43.483813],[-122.215926,43.483808],[-122.210959,43.483803],[-122.21097,43.491069],[-122.196038,43.491046],[-122.196011,43.483785],[-122.200994,43.483791],[-122.205976,43.483797],[-122.210959,43.483803],[-122.210938,43.47654],[-122.215905,43.476546],[-122.215895,43.472916],[-122.220863,43.472923],[-122.22583,43.472929],[-122.225821,43.4693],[-122.230789,43.469307],[-122.230827,43.483822],[-122.235818,43.483818]]]}},{"type":"Feature","properties":{"MAPTAXLOT":"2456000000100","MAPNUMBER":"24560000","TAXLOT":"100","ACCTNO":"1857364","MAPACRES":2310.60884751},"geometry":{"type":"MultiPolygon","coordinates":[[[[-122.149999,43.448665],[-122.148335,43.449398],[-122.147896,43.449855],[-122.14755,43.450519],[-122.147865,43.452371],[-122.147614,43.453012],[-122.145982,43.454545],[-122.145041,43.456306],[-122.144633,43.45681],[-122.144036,43.458068],[-122.144633,43.459669],[-122.144351,43.459989],[-122.14366,43.460355],[-122.142593,43.460744],[-122.141682,43.46166],[-122.141588,43.462254],[-122.141683,43.46349],[-122.141212,43.465205],[-122.140961,43.465731],[-122.140553,43.466166],[-122.139014,43.46795],[-122.138512,43.468316],[-122.136816,43.469163],[-122.136376,43.469598],[-122.136251,43.470124],[-122.135874,43.470604],[-122.135309,43.471199],[-122.134932,43.471839],[-122.13443,43.472526],[-122.132922,43.474745],[-122.132514,43.475362],[-122.132451,43.475751],[-122.133551,43.478222],[-122.133677,43.478702],[-122.133677,43.479869],[-122.133268,43.48115],[-122.132201,43.482865],[-122.131384,43.484787],[-122.131478,43.485244],[-122.131855,43.485656],[-122.132421,43.486754],[-122.132955,43.488058],[-122.133835,43.488927],[-122.134118,43.489407],[-122.134275,43.490185],[-122.134118,43.490688],[-122.133804,43.491146],[-122.133333,43.491626],[-122.132799,43.492404],[-122.131542,43.493708],[-122.129594,43.495012],[-122.128871,43.495881],[-122.129092,43.497368],[-122.12972,43.498145],[-122.130537,43.498832],[-122.131071,43.499586],[-122.131134,43.4997],[-122.130954,43.499962],[-122.130765,43.500283],[-122.13042,43.501358],[-122.130169,43.502181],[-122.129698,43.504469],[-122.129855,43.505018],[-122.130766,43.506665],[-122.131961,43.507877],[-122.132401,43.508975],[-122.132778,43.509547],[-122.13391,43.51053],[-122.134696,43.51101],[-122.13677,43.511628],[-122.14073,43.512496],[-122.144754,43.513639],[-122.146137,43.514188],[-122.147049,43.514783],[-122.148118,43.515903],[-122.148496,43.517299],[-122.149503,43.520501],[-122.149409,43.520798],[-122.148686,43.521462],[-122.148403,43.522034],[-122.147649,43.522789],[-122.146926,43.523223],[-122.146706,43.523658],[-122.146896,43.524985],[-122.146707,43.526289],[-122.146331,43.527089],[-122.145514,43.52821],[-122.14347,43.528737],[-122.141301,43.529103],[-122.140547,43.529469],[-122.140388,43.529598],[-122.141013,43.529598],[-122.145989,43.529598],[-122.151043,43.529598],[-122.151334,43.527344],[-122.151331,43.526451],[-122.15132,43.523707],[-122.151319,43.523305],[-122.151302,43.520074],[-122.151276,43.516033],[-122.151262,43.512807],[-122.15126,43.512403],[-122.151242,43.508772],[-122.151229,43.505542],[-122.151227,43.50514],[-122.151209,43.501509],[-122.151199,43.49828],[-122.151197,43.497882],[-122.151178,43.494256],[-122.151165,43.491023],[-122.151163,43.49063],[-122.151145,43.487004],[-122.151139,43.483769],[-122.151138,43.483367],[-122.151126,43.479731],[-122.151117,43.476519],[-122.151116,43.476094],[-122.151104,43.472457],[-122.151099,43.469267],[-122.151097,43.468832],[-122.151084,43.465206],[-122.151075,43.462015],[-122.151074,43.46158],[-122.151061,43.457953],[-122.151059,43.454752],[-122.151058,43.454308],[-122.151049,43.450662],[-122.151045,43.448556],[-122.149999,43.448665]]],[[[-122.139354,43.443955],[-122.14105,43.444847],[-122.141677,43.445007],[-122.142243,43.444778],[-122.14287,43.444114],[-122.143467,43.443771],[-122.143841,43.443385],[-122.140957,43.443392],[-122.138035,43.443399],[-122.139354,43.443955]]],[[[-122.150091,43.44361],[-122.151035,43.444176],[-122.151033,43.443366],[-122.150909,43.443366],[-122.149626,43.44337],[-122.150091,43.44361]]]]}},{"type":"Feature","properties":{"MAPTAXLOT":"2556000000100","MAPNUMBER":"25560000","TAXLOT":"100","ACCTNO":"1857372","MAPACRES":105.20674687},"geometry":{"type":"Polygon","coordinates":[[[-122.150909,43.443366],[-122.151033,43.443366],[-122.151037,43.440224],[-122.15078,43.440224],[-122.132196,43.440273],[-122.132133,43.440456],[-122.132415,43.440776],[-122.133357,43.441462],[-122.134739,43.442103],[-122.136152,43.442606],[-122.138035,43.443399],[-122.140957,43.443392],[-122.143841,43.443385],[-122.143843,43.443382],[-122.144408,43.442559],[-122.144942,43.442353],[-122.147296,43.442284],[-122.147924,43.442489],[-122.149626,43.44337],[-122.150909,43.443366]]]}}]}