{"type":"FeatureCollection","features":[{"type":"Feature","properties":{"MAPTAXLOT":"1835000000100","MAPNUMBER":"18350000","TAXLOT":"100","ACCTNO":"0809945","MAPACRES":6723.43295408},"geometry":{"type":"MultiPolygon","coordinates":[[[[-122.386239,44.024683],[-122.386263,44.03193],[-122.386269,44.035552],[-122.386291,44.042604],[-122.390495,44.042622],[-122.391339,44.042626],[-122.394616,44.04264],[-122.395461,44.042644],[-122.395688,44.042644],[-122.396387,44.042643],[-122.399365,44.04264],[-122.400373,44.042639],[-122.400629,44.042639],[-122.401429,44.042638],[-122.405285,44.042634],[-122.406472,44.042634],[-122.41018,44.042633],[-122.4115,44.042633],[-122.415074,44.042633],[-122.416527,44.04264],[-122.420295,44.042659],[-122.421564,44.042665],[-122.425516,44.042685],[-122.4266,44.042695],[-122.4266,44.042694],[-122.426575,44.035459],[-122.426567,44.031839],[-122.426543,44.0246],[-122.421509,44.024599],[-122.40641,44.024597],[-122.406341,44.010128],[-122.421437,44.010124],[-122.426469,44.010122],[-122.426384,43.995642],[-122.421354,43.995645],[-122.406261,43.995656],[-122.406214,43.981872],[-122.406209,43.981878],[-122.406034,43.982018],[-122.405868,43.982129],[-122.405665,43.982231],[-122.405353,43.982389],[-122.405065,43.982528],[-122.404761,43.982641],[-122.404372,43.982725],[-122.403914,43.982809],[-122.403478,43.982906],[-122.403121,43.982988],[-122.40276,43.983115],[-122.402415,43.983272],[-122.40211,43.983424],[-122.401751,43.983557],[-122.401398,43.983654],[-122.401023,43.983783],[-122.400818,43.983865],[-122.400687,43.98397],[-122.400399,43.984217],[-122.400169,43.984419],[-122.399972,43.98465],[-122.399876,43.98484],[-122.399732,43.985133],[-122.399594,43.985402],[-122.399433,43.985627],[-122.399211,43.985839],[-122.39901,43.985976],[-122.398783,43.98605],[-122.398483,43.986048],[-122.398307,43.985996],[-122.398063,43.985877],[-122.397917,43.985783],[-122.397767,43.985717],[-122.397558,43.985677],[-122.397363,43.985686],[-122.397195,43.985738],[-122.397026,43.985839],[-122.396832,43.985971],[-122.396648,43.986111],[-122.396444,43.986286],[-122.396283,43.98643],[-122.396029,43.986504],[-122.395771,43.986537],[-122.395506,43.986563],[-122.395284,43.98656],[-122.395104,43.986607],[-122.394899,43.986695],[-122.394714,43.986815],[-122.394593,43.986949],[-122.39445,43.987035],[-122.394292,43.987115],[-122.393997,43.98712],[-122.393712,43.987019],[-122.393545,43.986888],[-122.393365,43.986728],[-122.393213,43.986575],[-122.392948,43.986419],[-122.392715,43.98639],[-122.39244,43.986416],[-122.392128,43.986485],[-122.391671,43.986615],[-122.391237,43.986755],[-122.390896,43.986826],[-122.390518,43.986956],[-122.390061,43.987075],[-122.389639,43.98717],[-122.389254,43.987264],[-122.388877,43.987323],[-122.388505,43.987379],[-122.388163,43.987506],[-122.387758,43.987642],[-122.387434,43.987821],[-122.387126,43.987957],[-122.38687,43.988113],[-122.386538,43.988281],[-122.386282,43.988408],[-122.386138,43.988495],[-122.386179,43.995699],[-122.386185,44.010186],[-122.386239,44.024683]]],[[[-122.386137,43.988353],[-122.38619,43.98832],[-122.386452,43.988191],[-122.386777,43.988026],[-122.387037,43.987868],[-122.387348,43.98773],[-122.387679,43.987548],[-122.388096,43.987407],[-122.388454,43.987274],[-122.388846,43.987215],[-122.389214,43.987159],[-122.389592,43.987065],[-122.390013,43.986971],[-122.39046,43.986855],[-122.390842,43.986724],[-122.391185,43.986652],[-122.391612,43.986514],[-122.392077,43.986381],[-122.392408,43.986308],[-122.392718,43.986279],[-122.393013,43.986315],[-122.393325,43.986499],[-122.393486,43.986662],[-122.39366,43.986817],[-122.393805,43.986929],[-122.394031,43.987009],[-122.394242,43.987006],[-122.394358,43.986947],[-122.394478,43.986876],[-122.394598,43.986743],[-122.394808,43.986607],[-122.395039,43.986507],[-122.395259,43.98645],[-122.395497,43.986453],[-122.395748,43.986429],[-122.395987,43.986398],[-122.39619,43.986339],[-122.396327,43.986216],[-122.396535,43.986038],[-122.396725,43.985894],[-122.396925,43.985757],[-122.397115,43.985643],[-122.397327,43.985578],[-122.397573,43.985566],[-122.397827,43.985615],[-122.398008,43.985695],[-122.398156,43.98579],[-122.398379,43.985899],[-122.398514,43.985938],[-122.398751,43.98594],[-122.398924,43.985884],[-122.399098,43.985765],[-122.399304,43.985568],[-122.399455,43.985358],[-122.399589,43.985096],[-122.399733,43.984803],[-122.399835,43.984602],[-122.400045,43.984355],[-122.400282,43.984147],[-122.400573,43.983899],[-122.400722,43.983778],[-122.400953,43.983686],[-122.401338,43.983553],[-122.401689,43.983457],[-122.402032,43.983329],[-122.402331,43.98318],[-122.402686,43.98302],[-122.403065,43.982885],[-122.403432,43.982802],[-122.403873,43.982704],[-122.404331,43.98262],[-122.404704,43.982539],[-122.404988,43.982433],[-122.405267,43.982299],[-122.405578,43.982142],[-122.405772,43.982043],[-122.405925,43.981941],[-122.406087,43.981812],[-122.406209,43.981672],[-122.406213,43.981665],[-122.406212,43.981181],[-122.406517,43.981181],[-122.406655,43.981077],[-122.406768,43.981038],[-122.406897,43.981036],[-122.407057,43.981056],[-122.40724,43.981108],[-122.407482,43.981138],[-122.40782,43.981174],[-122.407867,43.98118],[-122.421315,43.98117],[-122.426349,43.981165],[-122.426295,43.966686],[-122.426243,43.952201],[-122.419007,43.952212],[-122.416212,43.952213],[-122.408964,43.952224],[-122.406181,43.952227],[-122.398922,43.952249],[-122.396152,43.952252],[-122.38888,43.952275],[-122.386119,43.952282],[-122.3861,43.966748],[-122.386096,43.981219],[-122.386137,43.988353]]],[[[-122.406804,43.981147],[-122.406746,43.981167],[-122.406727,43.981181],[-122.40708,43.981181],[-122.407015,43.981162],[-122.406886,43.981146],[-122.406804,43.981147]]]]}},{"type":"Feature","properties":{"MAPTAXLOT":"1835000002800","MAPNUMBER":"18350000","TAXLOT":"2800","ACCTNO":"0810216","MAPACRES":639.14505308},"geometry":{"type":"Polygon","coordinates":[[[-122.446449,43.966665],[-122.466468,43.966658],[-122.466362,43.952179],[-122.459105,43.952185],[-122.456333,43.952186],[-122.456278,43.952186],[-122.449082,43.952191],[-122.446307,43.952191],[-122.446449,43.966665]]]}},{"type":"Feature","properties":{"MAPTAXLOT":"1835000002900","MAPNUMBER":"18350000","TAXLOT":"2900","ACCTNO":"0810224","MAPACRES":641.68963392},"geometry":{"type":"Polygon","coordinates":[[[-122.426295,43.966686],[-122.446449,43.966665],[-122.446307,43.952191],[-122.439068,43.952194],[-122.436276,43.952195],[-122.42905,43.952199],[-122.426243,43.952201],[-122.426295,43.966686]]]}},{"type":"Feature","properties":{"MAPTAXLOT":"1845000000100","MAPNUMBER":"18450000","TAXLOT":"100","ACCTNO":"0810232","MAPACRES":23760.36954722},"geometry":{"type":"Polygon","coordinates":[[[-122.361515,44.0419],[-122.366277,44.041991],[-122.371404,44.042092],[-122.376352,44.04225],[-122.38094,44.042425],[-122.385529,44.042601],[-122.386291,44.042604],[-122.386269,44.035552],[-122.386263,44.03193],[-122.386239,44.024683],[-122.386185,44.010186],[-122.386179,43.995699],[-122.386138,43.988495],[-122.386137,43.988353],[-122.386096,43.981219],[-122.3861,43.966748],[-122.386119,43.952282],[-122.381608,43.952273],[-122.376088,43.952259],[-122.371576,43.95225],[-122.366054,43.952242],[-122.361541,43.952238],[-122.356019,43.952231],[-122.351567,43.952227],[-122.345985,43.952226],[-122.341534,43.952224],[-122.335952,43.952222],[-122.331515,43.952221],[-122.32592,43.95222],[-122.321483,43.95222],[-122.315887,43.95222],[-122.311426,43.95222],[-122.305855,43.952223],[-122.301393,43.952229],[-122.295822,43.952238],[-122.291406,43.952244],[-122.285788,43.952243],[-122.281371,43.952251],[-122.275754,43.952264],[-122.271398,43.952271],[-122.26572,43.952272],[-122.265719,43.955872],[-122.265719,43.959472],[-122.265719,43.963072],[-122.265718,43.966672],[-122.265718,43.966786],[-122.265714,43.970272],[-122.265709,43.973871],[-122.265704,43.977471],[-122.2657,43.981071],[-122.265699,43.981267],[-122.265689,43.98467],[-122.265679,43.988269],[-122.265669,43.991868],[-122.265658,43.995468],[-122.265657,43.995749],[-122.265642,43.999066],[-122.265625,44.002665],[-122.265609,44.006263],[-122.265592,44.009862],[-122.265589,44.01023],[-122.265559,44.013459],[-122.265525,44.017057],[-122.265491,44.020654],[-122.265458,44.024252],[-122.265453,44.024711],[-122.26542,44.027849],[-122.265382,44.031447],[-122.265344,44.035044],[-122.265307,44.038642],[-122.265285,44.04134],[-122.27338,44.041483],[-122.275363,44.041489],[-122.283546,44.041506],[-122.285441,44.041506],[-122.293649,44.041513],[-122.295575,44.041512],[-122.29856,44.041513],[-122.303472,44.041515],[-122.305706,44.041511],[-122.308416,44.041511],[-122.31336,44.041511],[-122.315839,44.041525],[-122.323103,44.041579],[-122.325969,44.04161],[-122.332858,44.041702],[-122.336083,44.041715],[-122.342421,44.041753],[-122.346195,44.041747],[-122.352039,44.041752],[-122.356242,44.041815],[-122.35889,44.041857],[-122.361515,44.0419]]]}},{"type":"Feature","properties":{"MAPTAXLOT":"1935000000100","MAPNUMBER":"19350000","TAXLOT":"100","ACCTNO":"0876688","MAPACRES":7567.82564045},"geometry":{"type":"Polygon","coordinates":[[[-122.388817,43.881206],[-122.388831,43.8957],[-122.388835,43.910193],[-122.388856,43.924684],[-122.388879,43.939178],[-122.38888,43.946424],[-122.38888,43.950046],[-122.38888,43.952275],[-122.396152,43.952252],[-122.398922,43.952249],[-122.406181,43.952227],[-122.408964,43.952224],[-122.416212,43.952213],[-122.419007,43.952212],[-122.426243,43.952201],[-122.42905,43.952199],[-122.429047,43.949964],[-122.429039,43.946343],[-122.429016,43.939099],[-122.428999,43.924604],[-122.42897,43.910116],[-122.428925,43.895629],[-122.428897,43.88115],[-122.428822,43.866667],[-122.421885,43.866681],[-122.419868,43.866682],[-122.41882,43.866683],[-122.411858,43.866696],[-122.408785,43.866699],[-122.407085,43.866701],[-122.40689,43.866701],[-122.401876,43.866705],[-122.39875,43.866707],[-122.391894,43.866713],[-122.388742,43.866715],[-122.388817,43.881206]]]}},{"type":"Feature","properties":{"MAPTAXLOT":"1935000000200","MAPNUMBER":"19350000","TAXLOT":"200","ACCTNO":"0876696","MAPACRES":579.13935801},"geometry":{"type":"Polygon","coordinates":[[[-122.446307,43.952191],[-122.449082,43.952191],[-122.449081,43.94993],[-122.449079,43.94631],[-122.449078,43.939071],[-122.429016,43.939099],[-122.429039,43.946343],[-122.429047,43.949964],[-122.42905,43.952199],[-122.436276,43.952195],[-122.439068,43.952194],[-122.446307,43.952191]]]}},{"type":"Feature","properties":{"MAPTAXLOT":"1935000000300","MAPNUMBER":"19350000","TAXLOT":"300","ACCTNO":"0876704","MAPACRES":580.66563796},"geometry":{"type":"Polygon","coordinates":[[[-122.466362,43.952179],[-122.469131,43.952179],[-122.469128,43.949869],[-122.469122,43.946248],[-122.469107,43.939006],[-122.449078,43.939071],[-122.449079,43.94631],[-122.449081,43.94993],[-122.449082,43.952191],[-122.456278,43.952186],[-122.456333,43.952186],[-122.459105,43.952185],[-122.466362,43.952179]]]}},{"type":"Feature","properties":{"MAPTAXLOT":"1935000000800","MAPNUMBER":"19350000","TAXLOT":"800","ACCTNO":"0876753","MAPACRES":638.77425687},"geometry":{"type":"Polygon","coordinates":[[[-122.449078,43.939071],[-122.469107,43.939006],[-122.469067,43.924525],[-122.449071,43.924595],[-122.449078,43.939071]]]}},{"type":"Feature","properties":{"MAPTAXLOT":"1935000000900","MAPNUMBER":"19350000","TAXLOT":"900","ACCTNO":"0876761","MAPACRES":640.84058602},"geometry":{"type":"Polygon","coordinates":[[[-122.429016,43.939099],[-122.449078,43.939071],[-122.449071,43.924595],[-122.434017,43.924602],[-122.428999,43.924604],[-122.429016,43.939099]]]}},{"type":"Feature","properties":{"MAPTAXLOT":"1935000001000","MAPNUMBER":"19350000","TAXLOT":"1000","ACCTNO":"0876779","MAPACRES":160.40233292},"geometry":{"type":"Polygon","coordinates":[[[-122.428999,43.924604],[-122.434017,43.924602],[-122.433994,43.910115],[-122.42897,43.910116],[-122.428999,43.924604]]]}},{"type":"Feature","properties":{"MAPTAXLOT":"1935000001100","MAPNUMBER":"19350000","TAXLOT":"1100","ACCTNO":"0876787","MAPACRES":481.15330246},"geometry":{"type":"Polygon","coordinates":[[[-122.434017,43.924602],[-122.449071,43.924595],[-122.449067,43.910111],[-122.433994,43.910115],[-122.434017,43.924602]]]}},{"type":"Feature","properties":{"MAPTAXLOT":"1935000001200","MAPNUMBER":"19350000","TAXLOT":"1200","ACCTNO":"0876795","MAPACRES":637.69711888},"geometry":{"type":"Polygon","coordinates":[[[-122.449071,43.924595],[-122.469067,43.924525],[-122.469017,43.910051],[-122.449067,43.910111],[-122.449071,43.924595]]]}},{"type":"Feature","properties":{"MAPTAXLOT":"1935000001700","MAPNUMBER":"19350000","TAXLOT":"1700","ACCTNO":"0876845","MAPACRES":637.16527299},"geometry":{"type":"Polygon","coordinates":[[[-122.449067,43.910111],[-122.469017,43.910051],[-122.468999,43.89558],[-122.449038,43.895629],[-122.449067,43.910111]]]}},{"type":"Feature","properties":{"MAPTAXLOT":"1935000001800","MAPNUMBER":"19350000","TAXLOT":"1800","ACCTNO":"0876852","MAPACRES":642.30742442},"geometry":{"type":"Polygon","coordinates":[[[-122.433994,43.910115],[-122.449067,43.910111],[-122.449038,43.895629],[-122.438982,43.895629],[-122.428925,43.895629],[-122.42897,43.910116],[-122.433994,43.910115]]]}},{"type":"Feature","properties":{"MAPTAXLOT":"1935000001900","MAPNUMBER":"19350000","TAXLOT":"1900","ACCTNO":"0876860","MAPACRES":320.73135636},"geometry":{"type":"Polygon","coordinates":[[[-122.428925,43.895629],[-122.438982,43.895629],[-122.438919,43.881146],[-122.428897,43.88115],[-122.428925,43.895629]]]}},{"type":"Feature","properties":{"MAPTAXLOT":"1935000002000","MAPNUMBER":"19350000","TAXLOT":"2000","ACCTNO":"0876878","MAPACRES":320.79532691},"geometry":{"type":"Polygon","coordinates":[[[-122.438982,43.895629],[-122.449038,43.895629],[-122.448941,43.881143],[-122.438919,43.881146],[-122.438982,43.895629]]]}},{"type":"Feature","properties":{"MAPTAXLOT":"1935000002100","MAPNUMBER":"19350000","TAXLOT":"2100","ACCTNO":"0876886","MAPACRES":637.68492365},"geometry":{"type":"Polygon","coordinates":[[[-122.449038,43.895629],[-122.468999,43.89558],[-122.468909,43.88111],[-122.448941,43.881143],[-122.449038,43.895629]]]}},{"type":"Feature","properties":{"MAPTAXLOT":"1945000000100","MAPNUMBER":"19450000","TAXLOT":"100","ACCTNO":"0876951","MAPACRES":22155.24309164},"geometry":{"type":"Polygon","coordinates":[[[-122.386119,43.952282],[-122.38888,43.952275],[-122.38888,43.950046],[-122.38888,43.946424],[-122.388879,43.939178],[-122.388856,43.924684],[-122.388835,43.910193],[-122.388831,43.8957],[-122.388817,43.881206],[-122.388742,43.866715],[-122.38633,43.866715],[-122.381326,43.866716],[-122.376321,43.866718],[-122.371317,43.866719],[-122.366315,43.86672],[-122.366176,43.86672],[-122.365901,43.86672],[-122.361313,43.86672],[-122.356311,43.86672],[-122.351309,43.866721],[-122.346309,43.866719],[-122.341308,43.866717],[-122.336307,43.866716],[-122.331306,43.866714],[-122.326306,43.866715],[-122.321306,43.866716],[-122.316305,43.866717],[-122.311305,43.866718],[-122.306302,43.866722],[-122.3013,43.866725],[-122.296297,43.866729],[-122.291295,43.866733],[-122.286292,43.866738],[-122.281289,43.866744],[-122.276287,43.86675],[-122.271284,43.866756],[-122.271291,43.870378],[-122.271297,43.874001],[-122.271304,43.877623],[-122.27131,43.881245],[-122.27132,43.884868],[-122.27133,43.88849],[-122.27134,43.892112],[-122.27135,43.895734],[-122.271356,43.899355],[-122.271362,43.902977],[-122.271368,43.906598],[-122.271374,43.910219],[-122.271379,43.91384],[-122.271383,43.917461],[-122.271388,43.921082],[-122.271392,43.924703],[-122.271395,43.928324],[-122.271398,43.931946],[-122.271402,43.935567],[-122.271405,43.939188],[-122.271403,43.942804],[-122.271401,43.94642],[-122.271399,43.950036],[-122.271398,43.952271],[-122.275754,43.952264],[-122.281371,43.952251],[-122.285788,43.952243],[-122.291406,43.952244],[-122.295822,43.952238],[-122.301393,43.952229],[-122.305855,43.952223],[-122.311426,43.95222],[-122.315887,43.95222],[-122.321483,43.95222],[-122.32592,43.95222],[-122.331515,43.952221],[-122.335952,43.952222],[-122.341534,43.952224],[-122.345985,43.952226],[-122.351567,43.952227],[-122.356019,43.952231],[-122.361541,43.952238],[-122.366054,43.952242],[-122.371576,43.95225],[-122.376088,43.952259],[-122.381608,43.952273],[-122.386119,43.952282]]]}}]}