{"type":"FeatureCollection","features":[{"type":"Feature","properties":{"MAPTAXLOT":"1725000002300","MAPNUMBER":"17250000","TAXLOT":"2300","ACCTNO":"0551323","MAPACRES":303.94772925},"geometry":{"type":"Polygon","coordinates":[[[-122.516182,44.113346],[-122.526075,44.113335],[-122.52597,44.099411],[-122.516088,44.099302],[-122.516135,44.106324],[-122.516182,44.113346]]]}},{"type":"Feature","properties":{"MAPTAXLOT":"1725000002500","MAPNUMBER":"17250000","TAXLOT":"2500","ACCTNO":"0551349","MAPACRES":150.77507572},"geometry":{"type":"Polygon","coordinates":[[[-122.506298,44.106394],[-122.516135,44.106324],[-122.516088,44.099302],[-122.506309,44.099432],[-122.506304,44.102913],[-122.506298,44.106394]]]}},{"type":"Feature","properties":{"MAPTAXLOT":"1725000002600","MAPNUMBER":"17250000","TAXLOT":"2600","ACCTNO":"0551356","MAPACRES":610.19403753},"geometry":{"type":"Polygon","coordinates":[[[-122.516088,44.099302],[-122.52597,44.099411],[-122.525916,44.085292],[-122.506101,44.085314],[-122.506153,44.088843],[-122.506205,44.092373],[-122.506257,44.095902],[-122.506309,44.099432],[-122.516088,44.099302]]]}},{"type":"Feature","properties":{"MAPTAXLOT":"1725000003800","MAPNUMBER":"17250000","TAXLOT":"3800","ACCTNO":"0551471","MAPACRES":619.86114894},"geometry":{"type":"Polygon","coordinates":[[[-122.506101,44.085314],[-122.525916,44.085292],[-122.526109,44.071168],[-122.50615,44.071094],[-122.506138,44.074649],[-122.506138,44.074649],[-122.506126,44.078204],[-122.506126,44.078204],[-122.506113,44.081759],[-122.506113,44.081759],[-122.506101,44.085314]]]}},{"type":"Feature","properties":{"MAPTAXLOT":"1725000003900","MAPNUMBER":"17250000","TAXLOT":"3900","ACCTNO":"0551489","MAPACRES":621.37105837},"geometry":{"type":"Polygon","coordinates":[[[-122.50615,44.071094],[-122.526109,44.071168],[-122.526347,44.057046],[-122.516365,44.056983],[-122.506384,44.056918],[-122.506326,44.060462],[-122.506326,44.060462],[-122.506267,44.064006],[-122.506209,44.06755],[-122.50615,44.071094]]]}},{"type":"Feature","properties":{"MAPTAXLOT":"1725000005100","MAPNUMBER":"17250000","TAXLOT":"5100","ACCTNO":"0551604","MAPACRES":306.23747564},"geometry":{"type":"Polygon","coordinates":[[[-122.516693,44.051695],[-122.516365,44.056983],[-122.526347,44.057046],[-122.526968,44.042931],[-122.526968,44.042929],[-122.526318,44.042926],[-122.526316,44.042926],[-122.525998,44.042924],[-122.522058,44.042897],[-122.521399,44.042892],[-122.517241,44.042864],[-122.51724,44.042875],[-122.516693,44.051695]]]}},{"type":"Feature","properties":{"MAPTAXLOT":"1725000005200","MAPNUMBER":"17250000","TAXLOT":"5200","ACCTNO":"0551612","MAPACRES":115.63786702},"geometry":{"type":"Polygon","coordinates":[[[-122.506384,44.056918],[-122.516365,44.056983],[-122.516693,44.051695],[-122.516659,44.051695],[-122.506816,44.051624],[-122.506672,44.053389],[-122.506672,44.053389],[-122.506384,44.056918]]]}},{"type":"Feature","properties":{"MAPTAXLOT":"1725000005201","MAPNUMBER":"17250000","TAXLOT":"5201","ACCTNO":"1140399","MAPACRES":190.24673967},"geometry":{"type":"Polygon","coordinates":[[[-122.507535,44.042806],[-122.507247,44.046331],[-122.507247,44.046331],[-122.50696,44.04986],[-122.506959,44.04986],[-122.506816,44.051624],[-122.516659,44.051695],[-122.516693,44.051695],[-122.51724,44.042875],[-122.517241,44.042864],[-122.517146,44.042863],[-122.516481,44.042859],[-122.512341,44.042834],[-122.511563,44.04283],[-122.508995,44.042814],[-122.507535,44.042803],[-122.507535,44.042806]]]}},{"type":"Feature","properties":{"MAPTAXLOT":"1735000000500","MAPNUMBER":"17350000","TAXLOT":"500","ACCTNO":"0552040","MAPACRES":627.83708745},"geometry":{"type":"Polygon","coordinates":[[[-122.50126,44.113237],[-122.506288,44.113357],[-122.506293,44.109876],[-122.506298,44.106394],[-122.506304,44.102913],[-122.506309,44.099432],[-122.501123,44.099201],[-122.496087,44.098976],[-122.486014,44.098543],[-122.486175,44.11289],[-122.491203,44.113004],[-122.496232,44.113118],[-122.50126,44.113237]]]}},{"type":"Feature","properties":{"MAPTAXLOT":"1735000000600","MAPNUMBER":"17350000","TAXLOT":"600","ACCTNO":"0552057","MAPACRES":634.70601511},"geometry":{"type":"Polygon","coordinates":[[[-122.476116,44.112933],[-122.486175,44.11289],[-122.486014,44.098543],[-122.465686,44.098773],[-122.465872,44.105874],[-122.465965,44.109425],[-122.466058,44.112975],[-122.476116,44.112933]]]}},{"type":"Feature","properties":{"MAPTAXLOT":"1735000000700","MAPNUMBER":"17350000","TAXLOT":"700","ACCTNO":"0552065","MAPACRES":487.40843889},"geometry":{"type":"Polygon","coordinates":[[[-122.462174,44.112975],[-122.466058,44.112975],[-122.465965,44.109425],[-122.465872,44.105874],[-122.465686,44.098773],[-122.460614,44.098713],[-122.455541,44.098653],[-122.450469,44.098592],[-122.445396,44.098531],[-122.445394,44.102084],[-122.445393,44.105637],[-122.450811,44.1057],[-122.450983,44.109277],[-122.45642,44.109331],[-122.456518,44.110511],[-122.456535,44.110509],[-122.457562,44.110412],[-122.458453,44.110517],[-122.459209,44.1106],[-122.45984,44.110908],[-122.460395,44.111274],[-122.460773,44.11152],[-122.461267,44.112047],[-122.461826,44.112532],[-122.462174,44.112975]]]}},{"type":"Feature","properties":{"MAPTAXLOT":"1735000002200","MAPNUMBER":"17350000","TAXLOT":"2200","ACCTNO":"0552222","MAPACRES":234.47197812},"geometry":{"type":"Polygon","coordinates":[[[-122.460614,44.098713],[-122.465686,44.098773],[-122.464942,44.095223],[-122.464198,44.091673],[-122.454321,44.091552],[-122.454931,44.095102],[-122.444921,44.094981],[-122.445396,44.098531],[-122.450469,44.098592],[-122.455541,44.098653],[-122.460614,44.098713]]]}},{"type":"Feature","properties":{"MAPTAXLOT":"1735000002201","MAPNUMBER":"17350000","TAXLOT":"2201","ACCTNO":"0552230","MAPACRES":393.99048927},"geometry":{"type":"Polygon","coordinates":[[[-122.444921,44.094981],[-122.454931,44.095102],[-122.454321,44.091552],[-122.464198,44.091673],[-122.464268,44.084251],[-122.444469,44.084297],[-122.444445,44.09143],[-122.444921,44.094981]]]}},{"type":"Feature","properties":{"MAPTAXLOT":"1735000002300","MAPNUMBER":"17350000","TAXLOT":"2300","ACCTNO":"0552248","MAPACRES":676.61629536},"geometry":{"type":"Polygon","coordinates":[[[-122.465686,44.098773],[-122.486014,44.098543],[-122.485904,44.094957],[-122.485793,44.09137],[-122.485571,44.084198],[-122.475445,44.084097],[-122.464268,44.084251],[-122.464198,44.091673],[-122.464942,44.095223],[-122.465686,44.098773]]]}},{"type":"Feature","properties":{"MAPTAXLOT":"1735000002400","MAPNUMBER":"17350000","TAXLOT":"2400","ACCTNO":"0552255","MAPACRES":278.8820254},"geometry":{"type":"Polygon","coordinates":[[[-122.501123,44.099201],[-122.506309,44.099432],[-122.506257,44.095902],[-122.506205,44.092373],[-122.501121,44.092124],[-122.501122,44.095664],[-122.496107,44.095431],[-122.496127,44.091878],[-122.487634,44.091461],[-122.485793,44.09137],[-122.485904,44.094957],[-122.486014,44.098543],[-122.496087,44.098976],[-122.501123,44.099201]]]}},{"type":"Feature","properties":{"MAPTAXLOT":"1735000002401","MAPNUMBER":"17350000","TAXLOT":"2401","ACCTNO":"1429818","MAPACRES":38.30964757},"geometry":{"type":"Polygon","coordinates":[[[-122.501121,44.092124],[-122.506205,44.092373],[-122.506153,44.088843],[-122.50112,44.088763],[-122.501121,44.092124]]]}},{"type":"Feature","properties":{"MAPTAXLOT":"1735000002500","MAPNUMBER":"17350000","TAXLOT":"2500","ACCTNO":"0552263","MAPACRES":263.21226545},"geometry":{"type":"Polygon","coordinates":[[[-122.496107,44.095431],[-122.501122,44.095664],[-122.501121,44.092124],[-122.50112,44.088763],[-122.506153,44.088843],[-122.506101,44.085314],[-122.501119,44.085402],[-122.496163,44.085488],[-122.487327,44.084412],[-122.487369,44.084555],[-122.48754,44.084715],[-122.487773,44.084911],[-122.487876,44.085129],[-122.487979,44.085341],[-122.48798,44.085623],[-122.4879,44.085844],[-122.487828,44.08604],[-122.487851,44.086202],[-122.487937,44.086444],[-122.487962,44.086682],[-122.488064,44.086849],[-122.488303,44.08699],[-122.488448,44.087163],[-122.488562,44.087449],[-122.488614,44.087681],[-122.48861,44.08785],[-122.488592,44.088076],[-122.488554,44.088253],[-122.488614,44.08849],[-122.488742,44.08867],[-122.488939,44.088836],[-122.488988,44.088992],[-122.488869,44.089105],[-122.488663,44.089203],[-122.488545,44.089324],[-122.488466,44.089564],[-122.488345,44.089867],[-122.488378,44.090074],[-122.488486,44.090197],[-122.488753,44.090368],[-122.488932,44.090497],[-122.489103,44.090676],[-122.489154,44.090882],[-122.488967,44.091048],[-122.488537,44.091194],[-122.488164,44.091263],[-122.487776,44.091364],[-122.487634,44.091461],[-122.496127,44.091878],[-122.496107,44.095431]]]}},{"type":"Feature","properties":{"MAPTAXLOT":"1735000002501","MAPNUMBER":"17350000","TAXLOT":"2501","ACCTNO":"1429800","MAPACRES":41.33604739},"geometry":{"type":"Polygon","coordinates":[[[-122.485793,44.09137],[-122.487634,44.091461],[-122.487776,44.091364],[-122.488164,44.091263],[-122.488537,44.091194],[-122.488967,44.091048],[-122.489154,44.090882],[-122.489103,44.090676],[-122.488932,44.090497],[-122.488753,44.090368],[-122.488486,44.090197],[-122.488378,44.090074],[-122.488345,44.089867],[-122.488466,44.089564],[-122.488545,44.089324],[-122.488663,44.089203],[-122.488869,44.089105],[-122.488988,44.088992],[-122.488939,44.088836],[-122.488742,44.08867],[-122.488614,44.08849],[-122.488554,44.088253],[-122.488592,44.088076],[-122.48861,44.08785],[-122.488614,44.087681],[-122.488562,44.087449],[-122.488448,44.087163],[-122.488303,44.08699],[-122.488064,44.086849],[-122.487962,44.086682],[-122.487937,44.086444],[-122.487851,44.086202],[-122.487828,44.08604],[-122.4879,44.085844],[-122.48798,44.085623],[-122.487979,44.085341],[-122.487876,44.085129],[-122.487773,44.084911],[-122.48754,44.084715],[-122.487369,44.084555],[-122.487327,44.084412],[-122.485571,44.084198],[-122.485793,44.09137]]]}},{"type":"Feature","properties":{"MAPTAXLOT":"1735000002600","MAPNUMBER":"17350000","TAXLOT":"2600","ACCTNO":"0552271","MAPACRES":642.70127231},"geometry":{"type":"Polygon","coordinates":[[[-122.487327,44.084412],[-122.496163,44.085488],[-122.501119,44.085402],[-122.506101,44.085314],[-122.506113,44.081759],[-122.506113,44.081759],[-122.506126,44.078204],[-122.506126,44.078204],[-122.506138,44.074649],[-122.506138,44.074649],[-122.50615,44.071094],[-122.501144,44.070934],[-122.496137,44.070774],[-122.486167,44.070193],[-122.485571,44.084198],[-122.487327,44.084412]]]}},{"type":"Feature","properties":{"MAPTAXLOT":"1735000002700","MAPNUMBER":"17350000","TAXLOT":"2700","ACCTNO":"0552289","MAPACRES":623.39338502},"geometry":{"type":"Polygon","coordinates":[[[-122.475445,44.084097],[-122.485571,44.084198],[-122.486167,44.070193],[-122.466385,44.070505],[-122.464268,44.084251],[-122.475445,44.084097]]]}},{"type":"Feature","properties":{"MAPTAXLOT":"1735000002800","MAPNUMBER":"17350000","TAXLOT":"2800","ACCTNO":"0552297","MAPACRES":589.57986593},"geometry":{"type":"Polygon","coordinates":[[[-122.444469,44.084297],[-122.464268,44.084251],[-122.466385,44.070505],[-122.456354,44.071004],[-122.445748,44.070881],[-122.445483,44.078195],[-122.444469,44.084297]]]}},{"type":"Feature","properties":{"MAPTAXLOT":"1735000003900","MAPNUMBER":"17350000","TAXLOT":"3900","ACCTNO":"0552404","MAPACRES":673.81952838},"geometry":{"type":"Polygon","coordinates":[[[-122.445748,44.070881],[-122.456354,44.071004],[-122.466385,44.070505],[-122.466308,44.0634],[-122.46592,44.056151],[-122.445148,44.056272],[-122.445177,44.063566],[-122.445748,44.070881]]]}},{"type":"Feature","properties":{"MAPTAXLOT":"1735000004000","MAPNUMBER":"17350000","TAXLOT":"4000","ACCTNO":"0552412","MAPACRES":628.09588579},"geometry":{"type":"Polygon","coordinates":[[[-122.466385,44.070505],[-122.486167,44.070193],[-122.486287,44.055997],[-122.46592,44.056151],[-122.466308,44.0634],[-122.466385,44.070505]]]}},{"type":"Feature","properties":{"MAPTAXLOT":"1735000004100","MAPNUMBER":"17350000","TAXLOT":"4100","ACCTNO":"0552420","MAPACRES":625.83115793},"geometry":{"type":"Polygon","coordinates":[[[-122.501144,44.070934],[-122.50615,44.071094],[-122.506209,44.06755],[-122.506267,44.064006],[-122.506326,44.060462],[-122.506326,44.060462],[-122.506384,44.056918],[-122.501401,44.056754],[-122.496368,44.056588],[-122.486287,44.055997],[-122.486167,44.070193],[-122.496137,44.070774],[-122.501144,44.070934]]]}},{"type":"Feature","properties":{"MAPTAXLOT":"1735000004200","MAPNUMBER":"17350000","TAXLOT":"4200","ACCTNO":"0552438","MAPACRES":632.59993646},"geometry":{"type":"Polygon","coordinates":[[[-122.486287,44.055997],[-122.496368,44.056588],[-122.501401,44.056754],[-122.506384,44.056918],[-122.506672,44.053389],[-122.506672,44.053389],[-122.506816,44.051624],[-122.506959,44.04986],[-122.50696,44.04986],[-122.507247,44.046331],[-122.507247,44.046331],[-122.507535,44.042806],[-122.507535,44.042803],[-122.506707,44.042812],[-122.502463,44.04285],[-122.501913,44.042855],[-122.497261,44.042897],[-122.496885,44.042852],[-122.491924,44.042245],[-122.491872,44.042239],[-122.486858,44.041626],[-122.486588,44.041594],[-122.486287,44.055997]]]}},{"type":"Feature","properties":{"MAPTAXLOT":"1735000004300","MAPNUMBER":"17350000","TAXLOT":"4300","ACCTNO":"0552446","MAPACRES":635.49482471},"geometry":{"type":"Polygon","coordinates":[[[-122.46592,44.056151],[-122.486287,44.055997],[-122.486588,44.041594],[-122.48186,44.041601],[-122.481845,44.041601],[-122.477301,44.041608],[-122.477088,44.041608],[-122.477088,44.041608],[-122.477086,44.041608],[-122.476843,44.04161],[-122.472038,44.041635],[-122.471829,44.041637],[-122.466987,44.041661],[-122.46592,44.056151]]]}},{"type":"Feature","properties":{"MAPTAXLOT":"1735000004400","MAPNUMBER":"17350000","TAXLOT":"4400","ACCTNO":"0552453","MAPACRES":638.40214745},"geometry":{"type":"Polygon","coordinates":[[[-122.466816,44.041664],[-122.464026,44.041743],[-122.461831,44.041805],[-122.461794,44.041806],[-122.456772,44.041947],[-122.456675,44.04195],[-122.451759,44.042101],[-122.451481,44.042109],[-122.446744,44.042254],[-122.446284,44.042268],[-122.446403,44.04973],[-122.445776,44.053001],[-122.445148,44.056272],[-122.46592,44.056151],[-122.466987,44.041661],[-122.466816,44.041664]]]}},{"type":"Feature","properties":{"MAPTAXLOT":"1825000000100","MAPNUMBER":"18250000","TAXLOT":"100","ACCTNO":"0809507","MAPACRES":780.13168636},"geometry":{"type":"Polygon","coordinates":[[[-122.508995,44.042814],[-122.511563,44.04283],[-122.512341,44.042834],[-122.516481,44.042859],[-122.517146,44.042863],[-122.517241,44.042864],[-122.521399,44.042892],[-122.522058,44.042897],[-122.525998,44.042924],[-122.526316,44.042926],[-122.526318,44.042926],[-122.526409,44.039017],[-122.526487,44.035402],[-122.526565,44.031787],[-122.526883,44.024626],[-122.50727,44.024559],[-122.507269,44.024559],[-122.507385,44.031593],[-122.507373,44.031788],[-122.506707,44.042812],[-122.507535,44.042803],[-122.508995,44.042814]]]}},{"type":"Feature","properties":{"MAPTAXLOT":"1835000000300","MAPNUMBER":"18350000","TAXLOT":"300","ACCTNO":"0809960","MAPACRES":768.73615025},"geometry":{"type":"Polygon","coordinates":[[[-122.44671,44.031814],[-122.446719,44.035434],[-122.446744,44.042254],[-122.451481,44.042109],[-122.451759,44.042101],[-122.456675,44.04195],[-122.456772,44.041947],[-122.461794,44.041806],[-122.461831,44.041805],[-122.464026,44.041743],[-122.466816,44.041664],[-122.466795,44.035392],[-122.466785,44.031773],[-122.466759,44.024537],[-122.446683,44.024573],[-122.44671,44.031814]]]}},{"type":"Feature","properties":{"MAPTAXLOT":"1835000000400","MAPNUMBER":"18350000","TAXLOT":"400","ACCTNO":"0809978","MAPACRES":754.31302207},"geometry":{"type":"Polygon","coordinates":[[[-122.477301,44.041608],[-122.481845,44.041601],[-122.48186,44.041601],[-122.486588,44.041594],[-122.486858,44.041626],[-122.486855,44.03539],[-122.48685,44.031772],[-122.486848,44.024539],[-122.466759,44.024537],[-122.466785,44.031773],[-122.466795,44.035392],[-122.466816,44.041664],[-122.466987,44.041661],[-122.471829,44.041637],[-122.472038,44.041635],[-122.476843,44.04161],[-122.477086,44.041608],[-122.477088,44.041608],[-122.477088,44.041608],[-122.477301,44.041608]]]}},{"type":"Feature","properties":{"MAPTAXLOT":"1835000000500","MAPNUMBER":"18350000","TAXLOT":"500","ACCTNO":"0809986","MAPACRES":804.41065505},"geometry":{"type":"Polygon","coordinates":[[[-122.48685,44.031772],[-122.486855,44.03539],[-122.486858,44.041626],[-122.491872,44.042239],[-122.491924,44.042245],[-122.496885,44.042852],[-122.497261,44.042897],[-122.501913,44.042855],[-122.502463,44.04285],[-122.506707,44.042812],[-122.507373,44.031788],[-122.507385,44.031593],[-122.507269,44.024559],[-122.507269,44.024555],[-122.496883,44.024547],[-122.486848,44.024539],[-122.48685,44.031772]]]}}]}