{"type":"FeatureCollection","features":[{"type":"Feature","properties":{"MAPTAXLOT":"1925000002500","MAPNUMBER":"19250000","TAXLOT":"2500","ACCTNO":"0876555","MAPACRES":641.373136},"geometry":{"type":"Polygon","coordinates":[[[-122.509052,43.895514],[-122.529145,43.895553],[-122.529116,43.881091],[-122.509004,43.881051],[-122.509052,43.895514]]]}},{"type":"Feature","properties":{"MAPTAXLOT":"1925000002600","MAPNUMBER":"19250000","TAXLOT":"2600","ACCTNO":"0876563","MAPACRES":638.47841434},"geometry":{"type":"Polygon","coordinates":[[[-122.529145,43.895553],[-122.549187,43.895559],[-122.54914,43.881127],[-122.529116,43.881091],[-122.529145,43.895553]]]}},{"type":"Feature","properties":{"MAPTAXLOT":"1925000002700","MAPNUMBER":"19250000","TAXLOT":"2700","ACCTNO":"0876571","MAPACRES":629.11178465},"geometry":{"type":"Polygon","coordinates":[[[-122.549187,43.895559],[-122.569113,43.895408],[-122.569121,43.888153],[-122.569129,43.881262],[-122.54914,43.881127],[-122.549187,43.895559]]]}},{"type":"Feature","properties":{"MAPTAXLOT":"1925000002800","MAPNUMBER":"19250000","TAXLOT":"2800","ACCTNO":"0876589","MAPACRES":614.59801394},"geometry":{"type":"Polygon","coordinates":[[[-122.569113,43.895408],[-122.589113,43.89581],[-122.589111,43.895096],[-122.588032,43.895095],[-122.588046,43.888555],[-122.588046,43.888193],[-122.588064,43.880938],[-122.579136,43.880919],[-122.578057,43.880919],[-122.569129,43.8809],[-122.569129,43.881262],[-122.569121,43.888153],[-122.569113,43.895408]]]}},{"type":"Feature","properties":{"MAPTAXLOT":"1925000002900","MAPNUMBER":"19250000","TAXLOT":"2900","ACCTNO":"0876597","MAPACRES":223.262216},"geometry":{"type":"Polygon","coordinates":[[[-122.598598,43.894983],[-122.607005,43.894859],[-122.607222,43.891244],[-122.59763,43.891444],[-122.597742,43.887911],[-122.588046,43.888193],[-122.588046,43.888555],[-122.588032,43.895095],[-122.589111,43.895096],[-122.597001,43.894987],[-122.598598,43.894983]]]}},{"type":"Feature","properties":{"MAPTAXLOT":"1925000003000","MAPNUMBER":"19250000","TAXLOT":"3000","ACCTNO":"0876605","MAPACRES":388.72797191},"geometry":{"type":"Polygon","coordinates":[[[-122.597742,43.887911],[-122.59763,43.891444],[-122.607222,43.891244],[-122.607438,43.887628],[-122.60787,43.880411],[-122.597874,43.88067],[-122.588064,43.880938],[-122.588046,43.888193],[-122.597742,43.887911]]]}},{"type":"Feature","properties":{"MAPTAXLOT":"1925000003100","MAPNUMBER":"19250000","TAXLOT":"3100","ACCTNO":"0876613","MAPACRES":1858.43608499},"geometry":{"type":"Polygon","coordinates":[[[-122.616988,43.895309],[-122.627095,43.895764],[-122.627251,43.888575],[-122.627408,43.881382],[-122.627595,43.874191],[-122.627768,43.86698],[-122.617633,43.866812],[-122.607722,43.866469],[-122.588215,43.866753],[-122.588064,43.880938],[-122.597874,43.88067],[-122.60787,43.880411],[-122.607438,43.887628],[-122.607222,43.891244],[-122.607005,43.894859],[-122.616988,43.895309]]]}},{"type":"Feature","properties":{"MAPTAXLOT":"1925000003200","MAPNUMBER":"19250000","TAXLOT":"3200","ACCTNO":"0876621","MAPACRES":460.59204332},"geometry":{"type":"Polygon","coordinates":[[[-122.579136,43.880919],[-122.588064,43.880938],[-122.588215,43.866753],[-122.578485,43.866795],[-122.568754,43.866837],[-122.568495,43.873937],[-122.578317,43.873892],[-122.578057,43.880919],[-122.579136,43.880919]]]}},{"type":"Feature","properties":{"MAPTAXLOT":"1925000003300","MAPNUMBER":"19250000","TAXLOT":"3300","ACCTNO":"0876639","MAPACRES":149.53740089},"geometry":{"type":"Polygon","coordinates":[[[-122.569129,43.8809],[-122.578057,43.880919],[-122.578317,43.873892],[-122.568495,43.873937],[-122.568495,43.87401],[-122.5685,43.8809],[-122.569129,43.8809]]]}},{"type":"Feature","properties":{"MAPTAXLOT":"1925000003400","MAPNUMBER":"19250000","TAXLOT":"3400","ACCTNO":"0876647","MAPACRES":615.90291353},"geometry":{"type":"Polygon","coordinates":[[[-122.54914,43.881127],[-122.569129,43.881262],[-122.569129,43.8809],[-122.5685,43.8809],[-122.568495,43.87401],[-122.568495,43.873937],[-122.568754,43.866837],[-122.559087,43.866745],[-122.554223,43.866714],[-122.549359,43.866684],[-122.54914,43.881127]]]}},{"type":"Feature","properties":{"MAPTAXLOT":"1925000003500","MAPNUMBER":"19250000","TAXLOT":"3500","ACCTNO":"0876654","MAPACRES":644.14182987},"geometry":{"type":"Polygon","coordinates":[[[-122.529116,43.881091],[-122.54914,43.881127],[-122.549359,43.866684],[-122.539007,43.866652],[-122.528998,43.866622],[-122.529116,43.881091]]]}},{"type":"Feature","properties":{"MAPTAXLOT":"1925000003600","MAPNUMBER":"19250000","TAXLOT":"3600","ACCTNO":"0876662","MAPACRES":640.22957423},"geometry":{"type":"Polygon","coordinates":[[[-122.509004,43.881051],[-122.529116,43.881091],[-122.528998,43.866622],[-122.508973,43.866605],[-122.509004,43.881051]]]}},{"type":"Feature","properties":{"MAPTAXLOT":"2025000000033","MAPNUMBER":"20250000","TAXLOT":"33","ACCTNO":"000None","MAPACRES":193.77387231},"geometry":{"type":"MultiPolygon","coordinates":[[[[-122.597893,43.829105],[-122.598042,43.829113],[-122.602972,43.829372],[-122.602794,43.831173],[-122.607722,43.831435],[-122.607802,43.827592],[-122.607726,43.827596],[-122.60765,43.827601],[-122.607575,43.827606],[-122.607499,43.82761],[-122.607423,43.827615],[-122.607347,43.82762],[-122.607271,43.827624],[-122.607197,43.827629],[-122.607121,43.827633],[-122.607045,43.827637],[-122.606969,43.827641],[-122.606893,43.827645],[-122.606817,43.827649],[-122.60674,43.827653],[-122.606664,43.827657],[-122.606588,43.82766],[-122.606512,43.827664],[-122.606437,43.827667],[-122.606361,43.827671],[-122.606285,43.827674],[-122.60621,43.827678],[-122.606134,43.827681],[-122.606058,43.827685],[-122.605983,43.827688],[-122.605907,43.827692],[-122.605831,43.827695],[-122.605756,43.827699],[-122.60568,43.827702],[-122.605604,43.827706],[-122.605527,43.827709],[-122.605448,43.827713],[-122.605367,43.827714],[-122.605285,43.827715],[-122.605204,43.827714],[-122.605122,43.827711],[-122.605042,43.827707],[-122.604961,43.827701],[-122.604882,43.827695],[-122.604808,43.827688],[-122.604732,43.827682],[-122.604658,43.827675],[-122.604582,43.827669],[-122.604498,43.827661],[-122.604411,43.82765],[-122.604331,43.827636],[-122.604251,43.827621],[-122.604231,43.827616],[-122.604208,43.827663],[-122.604143,43.827649],[-122.604064,43.82763],[-122.603988,43.827611],[-122.603848,43.827574],[-122.603775,43.827556],[-122.603704,43.827538],[-122.603632,43.82752],[-122.60349,43.827483],[-122.603417,43.827465],[-122.603345,43.827446],[-122.603276,43.827428],[-122.603203,43.82741],[-122.603133,43.827392],[-122.60306,43.827373],[-122.602918,43.827337],[-122.602846,43.827319],[-122.602773,43.8273],[-122.602704,43.827282],[-122.602632,43.827264],[-122.60249,43.827227],[-122.602417,43.827209],[-122.602347,43.827191],[-122.602274,43.827172],[-122.602133,43.827136],[-122.602059,43.827118],[-122.601987,43.827099],[-122.601918,43.827081],[-122.601844,43.827062],[-122.601772,43.827043],[-122.601712,43.827028],[-122.601657,43.827016],[-122.6016,43.827006],[-122.601541,43.826997],[-122.601484,43.826991],[-122.601424,43.826986],[-122.601356,43.826982],[-122.601281,43.826979],[-122.601206,43.826975],[-122.600902,43.82696],[-122.600819,43.826955],[-122.600736,43.826949],[-122.600651,43.826942],[-122.600568,43.826932],[-122.600485,43.826922],[-122.600402,43.82691],[-122.60032,43.826897],[-122.600236,43.826882],[-122.600155,43.826866],[-122.600009,43.826835],[-122.599935,43.82682],[-122.599643,43.826759],[-122.599571,43.826744],[-122.599427,43.826713],[-122.599353,43.826698],[-122.599278,43.826682],[-122.59919,43.826663],[-122.599097,43.826638],[-122.599013,43.826611],[-122.598928,43.826582],[-122.598847,43.826549],[-122.598766,43.826513],[-122.598691,43.826476],[-122.598617,43.826437],[-122.598554,43.8264],[-122.598496,43.826367],[-122.598434,43.826331],[-122.598376,43.826297],[-122.598199,43.826196],[-122.598138,43.826161],[-122.598018,43.826093],[-122.59796,43.826058],[-122.597903,43.826026],[-122.597841,43.82599],[-122.597782,43.825956],[-122.597603,43.825854],[-122.597545,43.82582],[-122.597483,43.825785],[-122.597414,43.825743],[-122.597347,43.825699],[-122.597288,43.825658],[-122.59723,43.825616],[-122.597173,43.825574],[-122.597116,43.825531],[-122.597062,43.825488],[-122.597009,43.825446],[-122.596951,43.825398],[-122.596853,43.825309],[-122.596804,43.825266],[-122.596754,43.825221],[-122.59671,43.82518],[-122.596661,43.825138],[-122.596565,43.82505],[-122.59652,43.825009],[-122.596471,43.824967],[-122.596422,43.824922],[-122.596375,43.824879],[-122.59633,43.824838],[-122.596281,43.824795],[-122.596229,43.824747],[-122.596183,43.824703],[-122.596089,43.824616],[-122.596044,43.824573],[-122.596,43.824532],[-122.59595,43.824486],[-122.595905,43.824443],[-122.595861,43.824402],[-122.595811,43.824356],[-122.595759,43.824306],[-122.595709,43.824253],[-122.595659,43.824197],[-122.595613,43.82414],[-122.595572,43.824084],[-122.595533,43.824028],[-122.595499,43.823976],[-122.595469,43.823929],[-122.595435,43.82388],[-122.595401,43.823827],[-122.595373,43.823784],[-122.59534,43.823739],[-122.595307,43.823691],[-122.595275,43.823648],[-122.59524,43.823604],[-122.595203,43.823556],[-122.595168,43.823512],[-122.595131,43.823469],[-122.595095,43.823425],[-122.595056,43.823382],[-122.595015,43.823337],[-122.59498,43.823298],[-122.594938,43.823257],[-122.594895,43.823213],[-122.59486,43.823178],[-122.594823,43.823146],[-122.594784,43.823115],[-122.594744,43.823086],[-122.594704,43.823061],[-122.594657,43.823034],[-122.5946,43.823003],[-122.594538,43.82297],[-122.594476,43.822936],[-122.594403,43.822895],[-122.594322,43.822842],[-122.594249,43.822784],[-122.594181,43.82272],[-122.594124,43.822654],[-122.594073,43.822584],[-122.59403,43.822507],[-122.593999,43.82243],[-122.593977,43.822352],[-122.593967,43.822274],[-122.593964,43.822195],[-122.593993,43.821911],[-122.593997,43.821856],[-122.594003,43.821802],[-122.594006,43.821757],[-122.594006,43.821712],[-122.594004,43.821668],[-122.594,43.821627],[-122.593983,43.821528],[-122.59396,43.82142],[-122.593951,43.821365],[-122.593928,43.821257],[-122.593919,43.821202],[-122.593896,43.821094],[-122.593886,43.821039],[-122.593864,43.820931],[-122.593854,43.820877],[-122.593832,43.820771],[-122.593945,43.820759],[-122.593944,43.820757],[-122.593935,43.820702],[-122.593912,43.820593],[-122.593903,43.820542],[-122.59389,43.82049],[-122.593868,43.820381],[-122.593854,43.820327],[-122.593832,43.820219],[-122.593818,43.820165],[-122.593796,43.820056],[-122.593783,43.820002],[-122.59376,43.819894],[-122.593747,43.81984],[-122.593735,43.819786],[-122.593722,43.819731],[-122.593699,43.819623],[-122.593686,43.819569],[-122.593663,43.81946],[-122.59365,43.819406],[-122.593627,43.819298],[-122.593614,43.819244],[-122.593592,43.819138],[-122.59358,43.819096],[-122.593566,43.81906],[-122.593547,43.819026],[-122.593525,43.818993],[-122.593496,43.818961],[-122.593464,43.81893],[-122.593431,43.818904],[-122.593395,43.81888],[-122.593355,43.818859],[-122.593308,43.81884],[-122.593259,43.818822],[-122.593233,43.818814],[-122.593185,43.818801],[-122.593191,43.818775],[-122.593165,43.818769],[-122.593108,43.81876],[-122.593051,43.818753],[-122.592907,43.818746],[-122.592831,43.818742],[-122.592529,43.818725],[-122.592453,43.818721],[-122.592378,43.818717],[-122.592308,43.818714],[-122.592008,43.818706],[-122.591933,43.818704],[-122.591477,43.818692],[-122.591403,43.818689],[-122.591326,43.818687],[-122.591243,43.818685],[-122.591159,43.818679],[-122.59108,43.818672],[-122.591004,43.818665],[-122.590925,43.818657],[-122.590847,43.818648],[-122.590771,43.818639],[-122.590694,43.818629],[-122.590615,43.818619],[-122.590539,43.818608],[-122.590554,43.818554],[-122.590552,43.818553],[-122.590473,43.81854],[-122.590398,43.818524],[-122.590324,43.818509],[-122.590251,43.818494],[-122.590106,43.818464],[-122.590033,43.818449],[-122.589961,43.818434],[-122.589887,43.818419],[-122.589814,43.818404],[-122.589669,43.818374],[-122.589594,43.818358],[-122.589519,43.818341],[-122.589443,43.818323],[-122.589368,43.818303],[-122.589294,43.818282],[-122.589222,43.81826],[-122.589148,43.818237],[-122.589075,43.818211],[-122.588937,43.818158],[-122.588872,43.818132],[-122.588806,43.818106],[-122.588739,43.81808],[-122.58867,43.818054],[-122.588605,43.818028],[-122.588472,43.817976],[-122.588404,43.81795],[-122.588338,43.817924],[-122.588272,43.817898],[-122.588242,43.817887],[-122.588194,43.819946],[-122.593105,43.820005],[-122.593045,43.823584],[-122.592941,43.827185],[-122.597921,43.827288],[-122.597893,43.829105]]],[[[-122.603783,43.827209],[-122.603855,43.827227],[-122.603926,43.827246],[-122.603999,43.827264],[-122.60414,43.8273],[-122.604212,43.827319],[-122.604281,43.827336],[-122.604351,43.827351],[-122.604424,43.827365],[-122.604494,43.827376],[-122.604564,43.827386],[-122.604637,43.827393],[-122.604713,43.827399],[-122.604787,43.827406],[-122.604863,43.827412],[-122.604937,43.827419],[-122.605012,43.827425],[-122.605087,43.82743],[-122.605159,43.827434],[-122.605233,43.827436],[-122.605307,43.827438],[-122.605381,43.827437],[-122.605455,43.827436],[-122.605529,43.827433],[-122.60674,43.827378],[-122.606815,43.827374],[-122.606891,43.82737],[-122.606966,43.827367],[-122.607193,43.827354],[-122.607266,43.82735],[-122.607342,43.827346],[-122.607417,43.827341],[-122.607493,43.827337],[-122.607569,43.827332],[-122.607644,43.827327],[-122.60772,43.827323],[-122.607796,43.827318],[-122.607816,43.827317],[-122.607821,43.827122],[-122.607698,43.827133],[-122.607247,43.827136],[-122.60696,43.827109],[-122.606478,43.827092],[-122.606333,43.827029],[-122.605924,43.826956],[-122.605825,43.82692],[-122.605649,43.826847],[-122.605431,43.826851],[-122.605209,43.826931],[-122.605036,43.826946],[-122.60493,43.82691],[-122.604583,43.826866],[-122.604552,43.826834],[-122.604432,43.826836],[-122.604281,43.826839],[-122.604222,43.826862],[-122.604262,43.826921],[-122.604219,43.826971],[-122.604198,43.827031],[-122.604154,43.827042],[-122.604085,43.827027],[-122.604032,43.827012],[-122.603942,43.827025],[-122.603822,43.827011],[-122.603105,43.826741],[-122.60284,43.82667],[-122.602435,43.826498],[-122.602144,43.826363],[-122.601453,43.825968],[-122.600797,43.825502],[-122.600347,43.825103],[-122.600045,43.824721],[-122.59955,43.824116],[-122.599339,43.823713],[-122.59934,43.823689],[-122.59935,43.823185],[-122.599154,43.822381],[-122.59909,43.822252],[-122.598773,43.821818],[-122.598514,43.821524],[-122.598156,43.821199],[-122.597822,43.820895],[-122.597521,43.820684],[-122.597395,43.820534],[-122.597041,43.820073],[-122.596913,43.819924],[-122.596875,43.819924],[-122.596821,43.819893],[-122.596781,43.819606],[-122.596584,43.819348],[-122.596358,43.819119],[-122.595868,43.818873],[-122.595683,43.818746],[-122.595132,43.818473],[-122.594277,43.818131],[-122.594095,43.818085],[-122.59405,43.818081],[-122.593719,43.818042],[-122.593341,43.817978],[-122.593003,43.817979],[-122.592325,43.817938],[-122.5921,43.817969],[-122.591852,43.817974],[-122.591667,43.818053],[-122.591451,43.818096],[-122.590978,43.81811],[-122.590388,43.818007],[-122.590229,43.817983],[-122.589988,43.817966],[-122.589457,43.817851],[-122.589081,43.817635],[-122.588384,43.817235],[-122.588259,43.817163],[-122.588246,43.817702],[-122.588312,43.817727],[-122.588379,43.817753],[-122.588447,43.817779],[-122.588512,43.817805],[-122.588579,43.817831],[-122.588713,43.817883],[-122.588779,43.817909],[-122.588846,43.817935],[-122.588913,43.817961],[-122.588981,43.817987],[-122.589046,43.818013],[-122.589178,43.818064],[-122.589243,43.818087],[-122.589312,43.818109],[-122.58938,43.81813],[-122.589449,43.818149],[-122.589518,43.818168],[-122.589588,43.818185],[-122.58966,43.818201],[-122.589731,43.818216],[-122.589876,43.818245],[-122.589949,43.818261],[-122.590023,43.818276],[-122.590096,43.818291],[-122.590168,43.818306],[-122.590313,43.818336],[-122.590386,43.818351],[-122.59046,43.818366],[-122.590531,43.81838],[-122.590601,43.818393],[-122.590673,43.818403],[-122.590748,43.818413],[-122.590822,43.818423],[-122.590895,43.818432],[-122.590968,43.81844],[-122.591043,43.818447],[-122.591117,43.818454],[-122.591192,43.81846],[-122.591265,43.818466],[-122.591339,43.818468],[-122.591414,43.81847],[-122.591488,43.818472],[-122.591943,43.818485],[-122.592019,43.818486],[-122.592324,43.818495],[-122.592399,43.818498],[-122.592475,43.818503],[-122.592551,43.818506],[-122.592853,43.818523],[-122.592929,43.818527],[-122.593084,43.818535],[-122.593164,43.818544],[-122.593244,43.818557],[-122.593322,43.818574],[-122.593398,43.818596],[-122.593471,43.818622],[-122.593542,43.818652],[-122.59361,43.818688],[-122.593672,43.818728],[-122.593727,43.818773],[-122.593776,43.81882],[-122.593821,43.818871],[-122.593858,43.818924],[-122.593889,43.81898],[-122.593912,43.819037],[-122.593928,43.819095],[-122.593951,43.819204],[-122.593964,43.819258],[-122.593987,43.819366],[-122.594,43.81942],[-122.594023,43.819529],[-122.594036,43.819583],[-122.594059,43.819691],[-122.594072,43.819746],[-122.594083,43.8198],[-122.594096,43.819854],[-122.594119,43.819962],[-122.594132,43.820016],[-122.594155,43.820125],[-122.594168,43.820179],[-122.594191,43.820287],[-122.594204,43.820341],[-122.594227,43.82045],[-122.59424,43.820505],[-122.59425,43.82056],[-122.594273,43.820668],[-122.594282,43.820723],[-122.594305,43.820831],[-122.594314,43.820885],[-122.594337,43.820994],[-122.594346,43.821049],[-122.594369,43.821157],[-122.594378,43.821211],[-122.594401,43.82132],[-122.594411,43.821374],[-122.594433,43.821483],[-122.594453,43.821594],[-122.594459,43.821651],[-122.594461,43.821708],[-122.594461,43.821765],[-122.594457,43.821822],[-122.594451,43.821877],[-122.594447,43.821931],[-122.594419,43.822203],[-122.594421,43.822253],[-122.594428,43.822303],[-122.594441,43.822352],[-122.59446,43.822399],[-122.594486,43.822445],[-122.594518,43.82249],[-122.594554,43.822532],[-122.594597,43.822571],[-122.594643,43.822608],[-122.594694,43.822642],[-122.594752,43.822674],[-122.594811,43.822706],[-122.594873,43.82274],[-122.594933,43.822773],[-122.594996,43.822808],[-122.595055,43.822847],[-122.595113,43.822887],[-122.595166,43.82293],[-122.595217,43.822974],[-122.595264,43.82302],[-122.595307,43.823065],[-122.595353,43.82311],[-122.595396,43.823157],[-122.595437,43.823203],[-122.595479,43.82325],[-122.595519,43.823297],[-122.595559,43.823345],[-122.595597,43.823393],[-122.595635,43.823441],[-122.595673,43.823489],[-122.59571,43.823539],[-122.595744,43.823587],[-122.59578,43.823637],[-122.595813,43.823688],[-122.595845,43.823737],[-122.595879,43.823786],[-122.595911,43.823836],[-122.595943,43.823885],[-122.595976,43.823933],[-122.596011,43.82398],[-122.596047,43.824026],[-122.596086,43.82407],[-122.596128,43.824114],[-122.596172,43.824156],[-122.596218,43.824198],[-122.596266,43.824242],[-122.596311,43.824286],[-122.596357,43.824329],[-122.596405,43.824372],[-122.59645,43.824416],[-122.596544,43.824503],[-122.596589,43.824546],[-122.596635,43.824588],[-122.596684,43.824631],[-122.596731,43.824674],[-122.596778,43.824717],[-122.596824,43.824759],[-122.596873,43.824802],[-122.596921,43.824845],[-122.597014,43.82493],[-122.597063,43.824973],[-122.597111,43.825016],[-122.597157,43.825059],[-122.597206,43.825101],[-122.597299,43.825186],[-122.597348,43.825226],[-122.597398,43.825266],[-122.597448,43.825306],[-122.5975,43.825345],[-122.597552,43.825384],[-122.597605,43.825422],[-122.597659,43.825459],[-122.597713,43.825495],[-122.597769,43.825529],[-122.597828,43.825563],[-122.597886,43.825597],[-122.598066,43.825699],[-122.598124,43.825733],[-122.598184,43.825767],[-122.598244,43.825801],[-122.598302,43.825835],[-122.598422,43.825904],[-122.598423,43.825904],[-122.59848,43.825937],[-122.598481,43.825938],[-122.59866,43.82604],[-122.598718,43.826074],[-122.598777,43.826108],[-122.598838,43.826142],[-122.598895,43.826176],[-122.598954,43.826207],[-122.599013,43.826237],[-122.599075,43.826264],[-122.599138,43.826289],[-122.599204,43.826312],[-122.59927,43.826333],[-122.599336,43.826351],[-122.599406,43.826366],[-122.599478,43.826381],[-122.599552,43.826397],[-122.599697,43.826427],[-122.59977,43.826443],[-122.60006,43.826504],[-122.600134,43.826519],[-122.600279,43.82655],[-122.60035,43.826564],[-122.600423,43.826576],[-122.600495,43.826588],[-122.600568,43.826598],[-122.60064,43.826607],[-122.600713,43.826615],[-122.600787,43.826622],[-122.600859,43.826627],[-122.600934,43.826631],[-122.601238,43.826646],[-122.601312,43.82665],[-122.601388,43.826654],[-122.601465,43.826658],[-122.601544,43.826664],[-122.601622,43.826673],[-122.6017,43.826684],[-122.601777,43.826698],[-122.601853,43.826715],[-122.601926,43.826733],[-122.601997,43.826752],[-122.602069,43.82677],[-122.60214,43.826789],[-122.602211,43.826807],[-122.602283,43.826825],[-122.602425,43.826862],[-122.602497,43.82688],[-122.602568,43.826898],[-122.602641,43.826917],[-122.602782,43.826953],[-122.602855,43.826971],[-122.602926,43.82699],[-122.602997,43.827008],[-122.603069,43.827026],[-122.603211,43.827063],[-122.603283,43.827081],[-122.603354,43.827099],[-122.603427,43.827118],[-122.603498,43.827136],[-122.603568,43.827154],[-122.603641,43.827172],[-122.603783,43.827209]]]]}},{"type":"Feature","properties":{"MAPTAXLOT":"2025000000077","MAPNUMBER":"20250000","TAXLOT":"77","ACCTNO":"000None","MAPACRES":43.77756761},"geometry":{"type":"MultiPolygon","coordinates":[[[[-122.533683,43.781492],[-122.533768,43.781567],[-122.533855,43.781641],[-122.533983,43.781744],[-122.534116,43.781843],[-122.534253,43.781938],[-122.534394,43.782031],[-122.53454,43.782119],[-122.53469,43.782205],[-122.534843,43.782286],[-122.535001,43.782364],[-122.535162,43.782438],[-122.535214,43.782461],[-122.536262,43.782915],[-122.53632,43.78294],[-122.536675,43.783094],[-122.536879,43.783182],[-122.537004,43.783238],[-122.537127,43.783296],[-122.537218,43.783341],[-122.537308,43.783387],[-122.537455,43.783467],[-122.5376,43.783551],[-122.537746,43.783642],[-122.537888,43.783736],[-122.538026,43.783833],[-122.538159,43.783934],[-122.538288,43.784038],[-122.538412,43.784145],[-122.538531,43.784255],[-122.538645,43.784367],[-122.538754,43.784482],[-122.538858,43.784599],[-122.539089,43.784844],[-122.539966,43.785774],[-122.54106,43.786849],[-122.541683,43.78747],[-122.541978,43.787763],[-122.542716,43.788499],[-122.542782,43.788565],[-122.543696,43.789487],[-122.544013,43.789812],[-122.544418,43.790227],[-122.544863,43.790687],[-122.545424,43.79127],[-122.545814,43.79164],[-122.546211,43.791965],[-122.546595,43.792194],[-122.546729,43.792274],[-122.547163,43.792483],[-122.547545,43.792621],[-122.548132,43.792767],[-122.549012,43.792949],[-122.549469,43.793044],[-122.549786,43.793103],[-122.550026,43.793147],[-122.550326,43.793218],[-122.551832,43.793704],[-122.553066,43.794199],[-122.553445,43.794321],[-122.55405,43.794491],[-122.554773,43.794594],[-122.555971,43.794734],[-122.556179,43.794762],[-122.556385,43.794795],[-122.55659,43.794833],[-122.556793,43.794876],[-122.556993,43.794923],[-122.557192,43.794976],[-122.557387,43.795033],[-122.55758,43.795096],[-122.55777,43.795162],[-122.557957,43.795234],[-122.55814,43.79531],[-122.55832,43.79539],[-122.558496,43.795475],[-122.558668,43.795564],[-122.558835,43.795657],[-122.558998,43.795755],[-122.559725,43.79575],[-122.559566,43.795639],[-122.559403,43.795531],[-122.559234,43.795427],[-122.559061,43.795327],[-122.558884,43.795232],[-122.558703,43.79514],[-122.558517,43.795053],[-122.558328,43.794971],[-122.558135,43.794893],[-122.557938,43.794819],[-122.557739,43.794751],[-122.557536,43.794687],[-122.557331,43.794628],[-122.557123,43.794573],[-122.556912,43.794524],[-122.5567,43.79448],[-122.556486,43.794441],[-122.55627,43.794406],[-122.556052,43.794378],[-122.554862,43.794238],[-122.55419,43.794143],[-122.553636,43.793987],[-122.553288,43.793876],[-122.552056,43.79338],[-122.550509,43.792879],[-122.550171,43.792798],[-122.549599,43.79269],[-122.548998,43.792566],[-122.548274,43.792414],[-122.547729,43.79228],[-122.547533,43.79221],[-122.547405,43.792164],[-122.547019,43.791978],[-122.546553,43.7917],[-122.546195,43.791408],[-122.545825,43.791056],[-122.544824,43.79002],[-122.544101,43.789277],[-122.543992,43.789168],[-122.543399,43.78857],[-122.543118,43.788288],[-122.54238,43.787551],[-122.54146,43.786636],[-122.540369,43.785563],[-122.539271,43.784399],[-122.539176,43.784291],[-122.539076,43.784185],[-122.538955,43.784065],[-122.538829,43.783947],[-122.538698,43.783832],[-122.538562,43.78372],[-122.538421,43.783612],[-122.538275,43.783507],[-122.538125,43.783405],[-122.53797,43.783307],[-122.537811,43.783213],[-122.537648,43.783122],[-122.537481,43.783035],[-122.537311,43.782952],[-122.537136,43.782873],[-122.535471,43.782152],[-122.535316,43.782082],[-122.535165,43.782009],[-122.535017,43.781931],[-122.534874,43.78185],[-122.534734,43.781766],[-122.534599,43.781678],[-122.534467,43.781586],[-122.534341,43.781491],[-122.534332,43.781485],[-122.533679,43.781488],[-122.533683,43.781492]]],[[[-122.604251,43.827621],[-122.604331,43.827636],[-122.604411,43.82765],[-122.604498,43.827661],[-122.604582,43.827669],[-122.604658,43.827675],[-122.604732,43.827682],[-122.604808,43.827688],[-122.604882,43.827695],[-122.604961,43.827701],[-122.605042,43.827707],[-122.605122,43.827711],[-122.605204,43.827714],[-122.605285,43.827715],[-122.605367,43.827714],[-122.605448,43.827713],[-122.605527,43.827709],[-122.605604,43.827706],[-122.60568,43.827702],[-122.605756,43.827699],[-122.605831,43.827695],[-122.605907,43.827692],[-122.605983,43.827688],[-122.606058,43.827685],[-122.606134,43.827681],[-122.60621,43.827678],[-122.606285,43.827674],[-122.606361,43.827671],[-122.606437,43.827667],[-122.606512,43.827664],[-122.606588,43.82766],[-122.606664,43.827657],[-122.60674,43.827653],[-122.606817,43.827649],[-122.606893,43.827645],[-122.606969,43.827641],[-122.607045,43.827637],[-122.607121,43.827633],[-122.607197,43.827629],[-122.607271,43.827624],[-122.607347,43.82762],[-122.607423,43.827615],[-122.607499,43.82761],[-122.607575,43.827606],[-122.60765,43.827601],[-122.607726,43.827596],[-122.607802,43.827592],[-122.607815,43.827372],[-122.607816,43.827317],[-122.607796,43.827318],[-122.60772,43.827323],[-122.607644,43.827327],[-122.607569,43.827332],[-122.607493,43.827337],[-122.607417,43.827341],[-122.607342,43.827346],[-122.607266,43.82735],[-122.607193,43.827354],[-122.606966,43.827367],[-122.606891,43.82737],[-122.606815,43.827374],[-122.60674,43.827378],[-122.605529,43.827433],[-122.605455,43.827436],[-122.605381,43.827437],[-122.605307,43.827438],[-122.605233,43.827436],[-122.605159,43.827434],[-122.605087,43.82743],[-122.605012,43.827425],[-122.604937,43.827419],[-122.604863,43.827412],[-122.604787,43.827406],[-122.604713,43.827399],[-122.604637,43.827393],[-122.604564,43.827386],[-122.604494,43.827376],[-122.604424,43.827365],[-122.604351,43.827351],[-122.604281,43.827336],[-122.604212,43.827319],[-122.60414,43.8273],[-122.603999,43.827264],[-122.603926,43.827246],[-122.603855,43.827227],[-122.603783,43.827209],[-122.603641,43.827172],[-122.603568,43.827154],[-122.603498,43.827136],[-122.603427,43.827118],[-122.603354,43.827099],[-122.603283,43.827081],[-122.603211,43.827063],[-122.603069,43.827026],[-122.602997,43.827008],[-122.602926,43.82699],[-122.602855,43.826971],[-122.602782,43.826953],[-122.602641,43.826917],[-122.602568,43.826898],[-122.602497,43.82688],[-122.602425,43.826862],[-122.602283,43.826825],[-122.602211,43.826807],[-122.60214,43.826789],[-122.602069,43.82677],[-122.601997,43.826752],[-122.601926,43.826733],[-122.601853,43.826715],[-122.601777,43.826698],[-122.6017,43.826684],[-122.601622,43.826673],[-122.601544,43.826664],[-122.601465,43.826658],[-122.601388,43.826654],[-122.601312,43.82665],[-122.601238,43.826646],[-122.600934,43.826631],[-122.600859,43.826627],[-122.600787,43.826622],[-122.600713,43.826615],[-122.60064,43.826607],[-122.600568,43.826598],[-122.600495,43.826588],[-122.600423,43.826576],[-122.60035,43.826564],[-122.600279,43.82655],[-122.600134,43.826519],[-122.60006,43.826504],[-122.59977,43.826443],[-122.599697,43.826427],[-122.599552,43.826397],[-122.599478,43.826381],[-122.599406,43.826366],[-122.599336,43.826351],[-122.59927,43.826333],[-122.599204,43.826312],[-122.599138,43.826289],[-122.599075,43.826264],[-122.599013,43.826237],[-122.598954,43.826207],[-122.598895,43.826176],[-122.598838,43.826142],[-122.598777,43.826108],[-122.598718,43.826074],[-122.59866,43.82604],[-122.598481,43.825938],[-122.59848,43.825937],[-122.598423,43.825904],[-122.598422,43.825904],[-122.598302,43.825835],[-122.598244,43.825801],[-122.598184,43.825767],[-122.598124,43.825733],[-122.598066,43.825699],[-122.597886,43.825597],[-122.597828,43.825563],[-122.597769,43.825529],[-122.597713,43.825495],[-122.597659,43.825459],[-122.597605,43.825422],[-122.597552,43.825384],[-122.5975,43.825345],[-122.597448,43.825306],[-122.597398,43.825266],[-122.597348,43.825226],[-122.597299,43.825186],[-122.597206,43.825101],[-122.597157,43.825059],[-122.597111,43.825016],[-122.597063,43.824973],[-122.597014,43.82493],[-122.596921,43.824845],[-122.596873,43.824802],[-122.596824,43.824759],[-122.596778,43.824717],[-122.596731,43.824674],[-122.596684,43.824631],[-122.596635,43.824588],[-122.596589,43.824546],[-122.596544,43.824503],[-122.59645,43.824416],[-122.596405,43.824372],[-122.596357,43.824329],[-122.596311,43.824286],[-122.596266,43.824242],[-122.596218,43.824198],[-122.596172,43.824156],[-122.596128,43.824114],[-122.596086,43.82407],[-122.596047,43.824026],[-122.596011,43.82398],[-122.595976,43.823933],[-122.595943,43.823885],[-122.595911,43.823836],[-122.595879,43.823786],[-122.595845,43.823737],[-122.595813,43.823688],[-122.59578,43.823637],[-122.595744,43.823587],[-122.59571,43.823539],[-122.595673,43.823489],[-122.595635,43.823441],[-122.595597,43.823393],[-122.595559,43.823345],[-122.595519,43.823297],[-122.595479,43.82325],[-122.595437,43.823203],[-122.595396,43.823157],[-122.595353,43.82311],[-122.595307,43.823065],[-122.595264,43.82302],[-122.595217,43.822974],[-122.595166,43.82293],[-122.595113,43.822887],[-122.595055,43.822847],[-122.594996,43.822808],[-122.594933,43.822773],[-122.594873,43.82274],[-122.594811,43.822706],[-122.594752,43.822674],[-122.594694,43.822642],[-122.594643,43.822608],[-122.594597,43.822571],[-122.594554,43.822532],[-122.594518,43.82249],[-122.594486,43.822445],[-122.59446,43.822399],[-122.594441,43.822352],[-122.594428,43.822303],[-122.594421,43.822253],[-122.594419,43.822203],[-122.594447,43.821931],[-122.594451,43.821877],[-122.594457,43.821822],[-122.594461,43.821765],[-122.594461,43.821708],[-122.594459,43.821651],[-122.594453,43.821594],[-122.594433,43.821483],[-122.594411,43.821374],[-122.594401,43.82132],[-122.594378,43.821211],[-122.594369,43.821157],[-122.594346,43.821049],[-122.594337,43.820994],[-122.594314,43.820885],[-122.594305,43.820831],[-122.594282,43.820723],[-122.594273,43.820668],[-122.59425,43.82056],[-122.59424,43.820505],[-122.594227,43.82045],[-122.594204,43.820341],[-122.594191,43.820287],[-122.594168,43.820179],[-122.594155,43.820125],[-122.594132,43.820016],[-122.594119,43.819962],[-122.594096,43.819854],[-122.594083,43.8198],[-122.594072,43.819746],[-122.594059,43.819691],[-122.594036,43.819583],[-122.594023,43.819529],[-122.594,43.81942],[-122.593987,43.819366],[-122.593964,43.819258],[-122.593951,43.819204],[-122.593928,43.819095],[-122.593912,43.819037],[-122.593889,43.81898],[-122.593858,43.818924],[-122.593821,43.818871],[-122.593776,43.81882],[-122.593727,43.818773],[-122.593672,43.818728],[-122.59361,43.818688],[-122.593542,43.818652],[-122.593471,43.818622],[-122.593398,43.818596],[-122.593322,43.818574],[-122.593244,43.818557],[-122.593164,43.818544],[-122.593084,43.818535],[-122.592929,43.818527],[-122.592853,43.818523],[-122.592551,43.818506],[-122.592475,43.818503],[-122.592399,43.818498],[-122.592324,43.818495],[-122.592019,43.818486],[-122.591943,43.818485],[-122.591488,43.818472],[-122.591414,43.81847],[-122.591339,43.818468],[-122.591265,43.818466],[-122.591192,43.81846],[-122.591117,43.818454],[-122.591043,43.818447],[-122.590968,43.81844],[-122.590895,43.818432],[-122.590822,43.818423],[-122.590748,43.818413],[-122.590673,43.818403],[-122.590601,43.818393],[-122.590531,43.81838],[-122.59046,43.818366],[-122.590386,43.818351],[-122.590313,43.818336],[-122.590168,43.818306],[-122.590096,43.818291],[-122.590023,43.818276],[-122.589949,43.818261],[-122.589876,43.818245],[-122.589731,43.818216],[-122.58966,43.818201],[-122.589588,43.818185],[-122.589518,43.818168],[-122.589449,43.818149],[-122.58938,43.81813],[-122.589312,43.818109],[-122.589243,43.818087],[-122.589178,43.818064],[-122.589046,43.818013],[-122.588981,43.817987],[-122.588913,43.817961],[-122.588846,43.817935],[-122.588779,43.817909],[-122.588713,43.817883],[-122.588579,43.817831],[-122.588512,43.817805],[-122.588447,43.817779],[-122.588379,43.817753],[-122.588312,43.817727],[-122.588246,43.817702],[-122.588242,43.817887],[-122.588272,43.817898],[-122.588338,43.817924],[-122.588404,43.81795],[-122.588472,43.817976],[-122.588605,43.818028],[-122.58867,43.818054],[-122.588739,43.81808],[-122.588806,43.818106],[-122.588872,43.818132],[-122.588937,43.818158],[-122.589075,43.818211],[-122.589148,43.818237],[-122.589222,43.81826],[-122.589294,43.818282],[-122.589368,43.818303],[-122.589443,43.818323],[-122.589519,43.818341],[-122.589594,43.818358],[-122.589669,43.818374],[-122.589814,43.818404],[-122.589887,43.818419],[-122.589961,43.818434],[-122.590033,43.818449],[-122.590106,43.818464],[-122.590251,43.818494],[-122.590324,43.818509],[-122.590398,43.818524],[-122.590473,43.81854],[-122.590552,43.818553],[-122.590554,43.818554],[-122.590539,43.818608],[-122.590615,43.818619],[-122.590694,43.818629],[-122.590771,43.818639],[-122.590847,43.818648],[-122.590925,43.818657],[-122.591004,43.818665],[-122.59108,43.818672],[-122.591159,43.818679],[-122.591243,43.818685],[-122.591326,43.818687],[-122.591403,43.818689],[-122.591477,43.818692],[-122.591933,43.818704],[-122.592008,43.818706],[-122.592308,43.818714],[-122.592378,43.818717],[-122.592453,43.818721],[-122.592529,43.818725],[-122.592831,43.818742],[-122.592907,43.818746],[-122.593051,43.818753],[-122.593108,43.81876],[-122.593165,43.818769],[-122.593191,43.818775],[-122.593185,43.818801],[-122.593233,43.818814],[-122.593259,43.818822],[-122.593308,43.81884],[-122.593355,43.818859],[-122.593395,43.81888],[-122.593431,43.818904],[-122.593464,43.81893],[-122.593496,43.818961],[-122.593525,43.818993],[-122.593547,43.819026],[-122.593566,43.81906],[-122.59358,43.819096],[-122.593592,43.819138],[-122.593614,43.819244],[-122.593627,43.819298],[-122.59365,43.819406],[-122.593663,43.81946],[-122.593686,43.819569],[-122.593699,43.819623],[-122.593722,43.819731],[-122.593735,43.819786],[-122.593747,43.81984],[-122.59376,43.819894],[-122.593783,43.820002],[-122.593796,43.820056],[-122.593818,43.820165],[-122.593832,43.820219],[-122.593854,43.820327],[-122.593868,43.820381],[-122.59389,43.82049],[-122.593903,43.820542],[-122.593912,43.820593],[-122.593935,43.820702],[-122.593944,43.820757],[-122.593945,43.820759],[-122.593832,43.820771],[-122.593854,43.820877],[-122.593864,43.820931],[-122.593886,43.821039],[-122.593896,43.821094],[-122.593919,43.821202],[-122.593928,43.821257],[-122.593951,43.821365],[-122.59396,43.82142],[-122.593983,43.821528],[-122.594,43.821627],[-122.594004,43.821668],[-122.594006,43.821712],[-122.594006,43.821757],[-122.594003,43.821802],[-122.593997,43.821856],[-122.593993,43.821911],[-122.593964,43.822195],[-122.593967,43.822274],[-122.593977,43.822352],[-122.593999,43.82243],[-122.59403,43.822507],[-122.594073,43.822584],[-122.594124,43.822654],[-122.594181,43.82272],[-122.594249,43.822784],[-122.594322,43.822842],[-122.594403,43.822895],[-122.594476,43.822936],[-122.594538,43.82297],[-122.5946,43.823003],[-122.594657,43.823034],[-122.594704,43.823061],[-122.594744,43.823086],[-122.594784,43.823115],[-122.594823,43.823146],[-122.59486,43.823178],[-122.594895,43.823213],[-122.594938,43.823257],[-122.59498,43.823298],[-122.595015,43.823337],[-122.595056,43.823382],[-122.595095,43.823425],[-122.595131,43.823469],[-122.595168,43.823512],[-122.595203,43.823556],[-122.59524,43.823604],[-122.595275,43.823648],[-122.595307,43.823691],[-122.59534,43.823739],[-122.595373,43.823784],[-122.595401,43.823827],[-122.595435,43.82388],[-122.595469,43.823929],[-122.595499,43.823976],[-122.595533,43.824028],[-122.595572,43.824084],[-122.595613,43.82414],[-122.595659,43.824197],[-122.595709,43.824253],[-122.595759,43.824306],[-122.595811,43.824356],[-122.595861,43.824402],[-122.595905,43.824443],[-122.59595,43.824486],[-122.596,43.824532],[-122.596044,43.824573],[-122.596089,43.824616],[-122.596183,43.824703],[-122.596229,43.824747],[-122.596281,43.824795],[-122.59633,43.824838],[-122.596375,43.824879],[-122.596422,43.824922],[-122.596471,43.824967],[-122.59652,43.825009],[-122.596565,43.82505],[-122.596661,43.825138],[-122.59671,43.82518],[-122.596754,43.825221],[-122.596804,43.825266],[-122.596853,43.825309],[-122.596951,43.825398],[-122.597009,43.825446],[-122.597062,43.825488],[-122.597116,43.825531],[-122.597173,43.825574],[-122.59723,43.825616],[-122.597288,43.825658],[-122.597347,43.825699],[-122.597414,43.825743],[-122.597483,43.825785],[-122.597545,43.82582],[-122.597603,43.825854],[-122.597782,43.825956],[-122.597841,43.82599],[-122.597903,43.826026],[-122.59796,43.826058],[-122.598018,43.826093],[-122.598138,43.826161],[-122.598199,43.826196],[-122.598376,43.826297],[-122.598434,43.826331],[-122.598496,43.826367],[-122.598554,43.8264],[-122.598617,43.826437],[-122.598691,43.826476],[-122.598766,43.826513],[-122.598847,43.826549],[-122.598928,43.826582],[-122.599013,43.826611],[-122.599097,43.826638],[-122.59919,43.826663],[-122.599278,43.826682],[-122.599353,43.826698],[-122.599427,43.826713],[-122.599571,43.826744],[-122.599643,43.826759],[-122.599935,43.82682],[-122.600009,43.826835],[-122.600155,43.826866],[-122.600236,43.826882],[-122.60032,43.826897],[-122.600402,43.82691],[-122.600485,43.826922],[-122.600568,43.826932],[-122.600651,43.826942],[-122.600736,43.826949],[-122.600819,43.826955],[-122.600902,43.82696],[-122.601206,43.826975],[-122.601281,43.826979],[-122.601356,43.826982],[-122.601424,43.826986],[-122.601484,43.826991],[-122.601541,43.826997],[-122.6016,43.827006],[-122.601657,43.827016],[-122.601712,43.827028],[-122.601772,43.827043],[-122.601844,43.827062],[-122.601918,43.827081],[-122.601987,43.827099],[-122.602059,43.827118],[-122.602133,43.827136],[-122.602274,43.827172],[-122.602347,43.827191],[-122.602417,43.827209],[-122.60249,43.827227],[-122.602632,43.827264],[-122.602704,43.827282],[-122.602773,43.8273],[-122.602846,43.827319],[-122.602918,43.827337],[-122.60306,43.827373],[-122.603133,43.827392],[-122.603203,43.82741],[-122.603276,43.827428],[-122.603345,43.827446],[-122.603417,43.827465],[-122.60349,43.827483],[-122.603632,43.82752],[-122.603704,43.827538],[-122.603775,43.827556],[-122.603848,43.827574],[-122.603988,43.827611],[-122.604064,43.82763],[-122.604143,43.827649],[-122.604208,43.827663],[-122.604231,43.827616],[-122.604251,43.827621]]]]}},{"type":"Feature","properties":{"MAPTAXLOT":"2025000000100","MAPNUMBER":"20250000","TAXLOT":"100","ACCTNO":"0926541","MAPACRES":598.26913438},"geometry":{"type":"Polygon","coordinates":[[[-122.508973,43.866605],[-122.528998,43.866622],[-122.528988,43.860833],[-122.528987,43.860274],[-122.529038,43.8536],[-122.528441,43.8536],[-122.528441,43.85304],[-122.518744,43.853043],[-122.50904,43.853046],[-122.509006,43.859826],[-122.508973,43.866605]]]}},{"type":"Feature","properties":{"MAPTAXLOT":"2025000000200","MAPNUMBER":"20250000","TAXLOT":"200","ACCTNO":"0926566","MAPACRES":10468.13989637},"geometry":{"type":"MultiPolygon","coordinates":[[[[-122.554223,43.866714],[-122.559087,43.866745],[-122.568754,43.866837],[-122.578485,43.866795],[-122.588215,43.866753],[-122.607722,43.866469],[-122.607406,43.859099],[-122.607097,43.851762],[-122.607626,43.845552],[-122.607751,43.838444],[-122.597761,43.838154],[-122.597813,43.834591],[-122.592791,43.834413],[-122.59284,43.830783],[-122.592941,43.827185],[-122.593045,43.823584],[-122.588108,43.82351],[-122.587816,43.830654],[-122.587727,43.837821],[-122.58775,43.839721],[-122.577946,43.839748],[-122.568151,43.839772],[-122.568095,43.831914],[-122.568037,43.824052],[-122.568706,43.824032],[-122.568679,43.816857],[-122.568667,43.813264],[-122.568655,43.809668],[-122.558623,43.80967],[-122.553886,43.809806],[-122.549142,43.809943],[-122.549134,43.802857],[-122.549107,43.795779],[-122.544211,43.795721],[-122.539331,43.795662],[-122.534407,43.795635],[-122.529498,43.795609],[-122.529459,43.792039],[-122.52942,43.788467],[-122.529353,43.785573],[-122.529353,43.785573],[-122.529339,43.785569],[-122.528731,43.785393],[-122.528466,43.785322],[-122.528204,43.785246],[-122.527945,43.785166],[-122.527688,43.785081],[-122.527434,43.784993],[-122.527022,43.784992],[-122.526896,43.784941],[-122.52675,43.784868],[-122.526606,43.784792],[-122.526466,43.784712],[-122.52633,43.78463],[-122.526197,43.784544],[-122.525947,43.784373],[-122.5257,43.784199],[-122.525382,43.783985],[-122.525068,43.783767],[-122.52476,43.783545],[-122.524456,43.78332],[-122.524158,43.78309],[-122.523865,43.782858],[-122.523637,43.782667],[-122.523413,43.782475],[-122.523288,43.782357],[-122.523169,43.782237],[-122.523054,43.782115],[-122.522944,43.78199],[-122.52284,43.781863],[-122.52274,43.781734],[-122.522646,43.781603],[-122.522557,43.781469],[-122.519441,43.781464],[-122.514454,43.781448],[-122.509466,43.781431],[-122.508707,43.795686],[-122.509093,43.809893],[-122.508707,43.817091],[-122.50872,43.824205],[-122.508825,43.831292],[-122.513722,43.831611],[-122.513759,43.838954],[-122.508921,43.838567],[-122.50904,43.853046],[-122.518744,43.853043],[-122.528441,43.85304],[-122.528454,43.850183],[-122.538262,43.850092],[-122.538037,43.853613],[-122.529038,43.8536],[-122.528987,43.860274],[-122.528988,43.860833],[-122.528998,43.866622],[-122.539007,43.866652],[-122.549359,43.866684],[-122.547979,43.860859],[-122.553763,43.860178],[-122.554223,43.866714]],[[-122.533849,43.810407],[-122.53895,43.810457],[-122.549133,43.810567],[-122.549126,43.817488],[-122.549139,43.821534],[-122.549148,43.824298],[-122.548346,43.824314],[-122.54835,43.825179],[-122.543399,43.825091],[-122.53845,43.825001],[-122.528559,43.824817],[-122.52865,43.817584],[-122.528696,43.813971],[-122.528743,43.810357],[-122.533849,43.810407]]],[[[-122.528345,43.784994],[-122.528604,43.785069],[-122.528866,43.785139],[-122.529347,43.785278],[-122.529342,43.784995],[-122.529322,43.78148],[-122.528299,43.781478],[-122.524381,43.781472],[-122.523813,43.781471],[-122.523425,43.781471],[-122.523435,43.781485],[-122.523516,43.781599],[-122.523603,43.78171],[-122.523694,43.781819],[-122.523791,43.781926],[-122.523893,43.78203],[-122.524,43.782132],[-122.524213,43.782315],[-122.524429,43.782496],[-122.524432,43.782499],[-122.524719,43.782726],[-122.52501,43.78295],[-122.525307,43.78317],[-122.525608,43.783387],[-122.525914,43.7836],[-122.526225,43.78381],[-122.526465,43.783978],[-122.526708,43.784145],[-122.526711,43.784146],[-122.526852,43.784237],[-122.526997,43.784323],[-122.527147,43.784405],[-122.527301,43.784483],[-122.527554,43.78458],[-122.52781,43.784672],[-122.528069,43.78476],[-122.528331,43.784842],[-122.528596,43.784921],[-122.528864,43.784994],[-122.528345,43.784994]]]]}},{"type":"Feature","properties":{"MAPTAXLOT":"2025000000300","MAPNUMBER":"20250000","TAXLOT":"300","ACCTNO":"0926582","MAPACRES":73.28123883},"geometry":{"type":"Polygon","coordinates":[[[-122.547979,43.860859],[-122.549359,43.866684],[-122.554223,43.866714],[-122.553763,43.860178],[-122.547979,43.860859]]]}},{"type":"Feature","properties":{"MAPTAXLOT":"2025000000400","MAPNUMBER":"20250000","TAXLOT":"400","ACCTNO":"0926590","MAPACRES":74.28561755},"geometry":{"type":"Polygon","coordinates":[[[-122.529038,43.8536],[-122.538037,43.853613],[-122.538262,43.850092],[-122.528454,43.850183],[-122.528441,43.85304],[-122.528441,43.8536],[-122.529038,43.8536]]]}},{"type":"Feature","properties":{"MAPTAXLOT":"2025000000600","MAPNUMBER":"20250000","TAXLOT":"600","ACCTNO":"0926616","MAPACRES":59.62123832},"geometry":{"type":"Polygon","coordinates":[[[-122.57305,43.838771],[-122.580411,43.83874],[-122.580446,43.835736],[-122.580453,43.834738],[-122.575548,43.834752],[-122.575537,43.83578],[-122.573051,43.835802],[-122.57305,43.838771]]]}},{"type":"Feature","properties":{"MAPTAXLOT":"2025000000700","MAPNUMBER":"20250000","TAXLOT":"700","ACCTNO":"0926624","MAPACRES":639.86717083},"geometry":{"type":"Polygon","coordinates":[[[-122.568706,43.824032],[-122.568037,43.824052],[-122.568095,43.831914],[-122.568151,43.839772],[-122.577946,43.839748],[-122.58775,43.839721],[-122.587727,43.837821],[-122.587816,43.830654],[-122.588108,43.82351],[-122.583196,43.823571],[-122.578307,43.823632],[-122.568706,43.824032]],[[-122.575548,43.834752],[-122.580453,43.834738],[-122.580446,43.835736],[-122.580411,43.83874],[-122.57305,43.838771],[-122.573051,43.835802],[-122.575537,43.83578],[-122.575548,43.834752]]]}},{"type":"Feature","properties":{"MAPTAXLOT":"2025000000900","MAPNUMBER":"20250000","TAXLOT":"900","ACCTNO":"0926640","MAPACRES":291.7918051},"geometry":{"type":"Polygon","coordinates":[[[-122.528696,43.813971],[-122.533759,43.814033],[-122.53882,43.814095],[-122.538698,43.81773],[-122.543721,43.817801],[-122.54356,43.821446],[-122.549139,43.821534],[-122.549126,43.817488],[-122.549133,43.810567],[-122.53895,43.810457],[-122.533849,43.810407],[-122.528743,43.810357],[-122.528696,43.813971]]]}},{"type":"Feature","properties":{"MAPTAXLOT":"2025000001000","MAPNUMBER":"20250000","TAXLOT":"1000","ACCTNO":"0926657","MAPACRES":364.87532569},"geometry":{"type":"Polygon","coordinates":[[[-122.52865,43.817584],[-122.528559,43.824817],[-122.53845,43.825001],[-122.543399,43.825091],[-122.54835,43.825179],[-122.548346,43.824314],[-122.549148,43.824298],[-122.549139,43.821534],[-122.54356,43.821446],[-122.543721,43.817801],[-122.538698,43.81773],[-122.53882,43.814095],[-122.533759,43.814033],[-122.528696,43.813971],[-122.52865,43.817584]]]}},{"type":"Feature","properties":{"MAPTAXLOT":"2025000002300","MAPNUMBER":"20250000","TAXLOT":"2300","ACCTNO":"0926780","MAPACRES":3860.88798973},"geometry":{"type":"MultiPolygon","coordinates":[[[[-122.607974,43.80941],[-122.607915,43.816548],[-122.612939,43.816668],[-122.612929,43.820278],[-122.627854,43.820583],[-122.627854,43.820583],[-122.627895,43.809862],[-122.627854,43.802692],[-122.627844,43.795513],[-122.627799,43.791954],[-122.622978,43.791657],[-122.62291,43.788274],[-122.622829,43.784781],[-122.617946,43.78473],[-122.612999,43.784747],[-122.612906,43.78132],[-122.612906,43.78132],[-122.607986,43.781335],[-122.588298,43.781491],[-122.56855,43.781644],[-122.558833,43.781312],[-122.548817,43.781525],[-122.548836,43.788613],[-122.548984,43.792231],[-122.548998,43.792566],[-122.549599,43.79269],[-122.550171,43.792798],[-122.550509,43.792879],[-122.552056,43.79338],[-122.553288,43.793876],[-122.553636,43.793987],[-122.55419,43.794143],[-122.554862,43.794238],[-122.556052,43.794378],[-122.55627,43.794406],[-122.556486,43.794441],[-122.5567,43.79448],[-122.556912,43.794524],[-122.557123,43.794573],[-122.557331,43.794628],[-122.557536,43.794687],[-122.557739,43.794751],[-122.557938,43.794819],[-122.558135,43.794893],[-122.558328,43.794971],[-122.558517,43.795053],[-122.558703,43.79514],[-122.558884,43.795232],[-122.559061,43.795327],[-122.559234,43.795427],[-122.559403,43.795531],[-122.559566,43.795639],[-122.559725,43.79575],[-122.568293,43.795677],[-122.588175,43.795873],[-122.588267,43.803148],[-122.593208,43.80282],[-122.593231,43.806367],[-122.593254,43.809919],[-122.598164,43.80938],[-122.607974,43.80941]]],[[[-122.549107,43.795779],[-122.554221,43.795764],[-122.553983,43.795712],[-122.553743,43.795662],[-122.553502,43.795616],[-122.55326,43.795573],[-122.552394,43.795475],[-122.552149,43.795439],[-122.551905,43.795397],[-122.551663,43.79535],[-122.551423,43.795298],[-122.551186,43.795241],[-122.55095,43.795179],[-122.550718,43.795112],[-122.550488,43.795039],[-122.550261,43.794962],[-122.550038,43.79488],[-122.549818,43.794793],[-122.549602,43.794702],[-122.54939,43.794606],[-122.549063,43.794476],[-122.549107,43.795779]]],[[[-122.549041,43.793856],[-122.549796,43.794143],[-122.549989,43.79423],[-122.550185,43.794314],[-122.550384,43.794393],[-122.550587,43.794468],[-122.550793,43.794538],[-122.551001,43.794604],[-122.551212,43.794665],[-122.551425,43.794722],[-122.551641,43.794774],[-122.551858,43.794822],[-122.552078,43.794864],[-122.552299,43.794903],[-122.552521,43.794936],[-122.55342,43.795038],[-122.553672,43.795083],[-122.553923,43.79513],[-122.554173,43.795181],[-122.554421,43.795236],[-122.554668,43.795294],[-122.555297,43.795473],[-122.555461,43.795522],[-122.555622,43.795575],[-122.555782,43.795631],[-122.555939,43.79569],[-122.556094,43.795754],[-122.557658,43.795748],[-122.558239,43.795751],[-122.558816,43.795754],[-122.558998,43.795755],[-122.558835,43.795657],[-122.558668,43.795564],[-122.558496,43.795475],[-122.55832,43.79539],[-122.55814,43.79531],[-122.557957,43.795234],[-122.55777,43.795162],[-122.55758,43.795096],[-122.557387,43.795033],[-122.557192,43.794976],[-122.556993,43.794923],[-122.556793,43.794876],[-122.55659,43.794833],[-122.556385,43.794795],[-122.556179,43.794762],[-122.555971,43.794734],[-122.554773,43.794594],[-122.55405,43.794491],[-122.553445,43.794321],[-122.553066,43.794199],[-122.551832,43.793704],[-122.550326,43.793218],[-122.550026,43.793147],[-122.549786,43.793103],[-122.549469,43.793044],[-122.549012,43.792949],[-122.549041,43.793856]]]]}},{"type":"Feature","properties":{"MAPTAXLOT":"2025200000033","MAPNUMBER":"20252000","TAXLOT":"33","ACCTNO":"000None","MAPACRES":144.54505363},"geometry":{"type":"MultiPolygon","coordinates":[[[[-122.598907,43.818817],[-122.599985,43.81932],[-122.601058,43.819827],[-122.602128,43.820339],[-122.603194,43.820855],[-122.604256,43.821375],[-122.604459,43.821486],[-122.604667,43.821592],[-122.60488,43.821694],[-122.605095,43.821792],[-122.605315,43.821886],[-122.605538,43.821975],[-122.605765,43.822059],[-122.605994,43.822139],[-122.606227,43.822214],[-122.606462,43.822285],[-122.6067,43.82235],[-122.606941,43.822411],[-122.607184,43.822467],[-122.607429,43.822518],[-122.607675,43.822564],[-122.607924,43.822605],[-122.607935,43.822118],[-122.607663,43.822066],[-122.607392,43.82201],[-122.607124,43.821949],[-122.606857,43.821884],[-122.606592,43.821815],[-122.606329,43.821742],[-122.606418,43.821624],[-122.606277,43.821567],[-122.60614,43.821506],[-122.606005,43.821442],[-122.605873,43.821374],[-122.605745,43.821303],[-122.60562,43.821229],[-122.605394,43.821097],[-122.605173,43.820961],[-122.604956,43.820821],[-122.604744,43.820678],[-122.604537,43.820531],[-122.604334,43.820385],[-122.604127,43.820242],[-122.603916,43.820102],[-122.603701,43.819965],[-122.603483,43.819831],[-122.60326,43.819701],[-122.60311,43.819623],[-122.602957,43.819548],[-122.602956,43.819566],[-122.602188,43.819546],[-122.602181,43.819544],[-122.601601,43.819368],[-122.601212,43.819251],[-122.600745,43.81911],[-122.600716,43.819101],[-122.60143,43.818376],[-122.601468,43.818375],[-122.602153,43.818367],[-122.60297,43.818357],[-122.602971,43.818313],[-122.602992,43.816506],[-122.60303,43.81295],[-122.598116,43.812923],[-122.598068,43.816462],[-122.596544,43.81645],[-122.596372,43.816348],[-122.596195,43.816249],[-122.596014,43.816155],[-122.59583,43.816063],[-122.595642,43.815976],[-122.595451,43.815892],[-122.595298,43.816082],[-122.595111,43.816006],[-122.594922,43.815933],[-122.594729,43.815865],[-122.594535,43.8158],[-122.594315,43.815733],[-122.594093,43.815671],[-122.593869,43.815614],[-122.593642,43.815562],[-122.593413,43.815515],[-122.593182,43.815474],[-122.593182,43.815446],[-122.593187,43.815053],[-122.593212,43.81317],[-122.588309,43.813417],[-122.588291,43.814837],[-122.588081,43.815464],[-122.58843,43.815463],[-122.588779,43.815467],[-122.589129,43.815475],[-122.589478,43.815488],[-122.589826,43.815505],[-122.590175,43.815527],[-122.590522,43.815554],[-122.590757,43.81554],[-122.590992,43.815532],[-122.591228,43.81553],[-122.591463,43.815533],[-122.591699,43.815541],[-122.591934,43.815555],[-122.592168,43.815574],[-122.592401,43.815599],[-122.592633,43.815629],[-122.592863,43.815664],[-122.593092,43.815705],[-122.593319,43.815751],[-122.593544,43.815802],[-122.593766,43.815858],[-122.593986,43.81592],[-122.594203,43.815986],[-122.594417,43.816058],[-122.594627,43.816134],[-122.594834,43.816216],[-122.595038,43.816302],[-122.595237,43.816393],[-122.595433,43.816488],[-122.595624,43.816588],[-122.59581,43.816692],[-122.595992,43.8168],[-122.596169,43.816913],[-122.596708,43.817301],[-122.597251,43.817685],[-122.597798,43.818066],[-122.598351,43.818443],[-122.598907,43.818817]]],[[[-122.607213,43.823091],[-122.607494,43.823183],[-122.607839,43.823183],[-122.607911,43.823182],[-122.608119,43.823182],[-122.608663,43.823241],[-122.608855,43.823189],[-122.607915,43.822982],[-122.604806,43.822298],[-122.604581,43.822211],[-122.604359,43.822121],[-122.604026,43.821975],[-122.603696,43.821825],[-122.603368,43.821672],[-122.600045,43.820106],[-122.599722,43.819952],[-122.599401,43.819796],[-122.599084,43.819636],[-122.598865,43.819517],[-122.59865,43.819395],[-122.598439,43.81927],[-122.598233,43.819141],[-122.59803,43.819008],[-122.597751,43.818812],[-122.597475,43.818613],[-122.597203,43.818411],[-122.596726,43.818055],[-122.596859,43.817957],[-122.596667,43.817813],[-122.596472,43.817672],[-122.596274,43.817533],[-122.596071,43.817396],[-122.595866,43.817263],[-122.595692,43.81716],[-122.595513,43.817061],[-122.59533,43.816966],[-122.595143,43.816876],[-122.594952,43.816791],[-122.594758,43.816709],[-122.594559,43.816633],[-122.594357,43.816561],[-122.594152,43.816494],[-122.593945,43.816432],[-122.593734,43.816376],[-122.593521,43.816324],[-122.593306,43.816277],[-122.593089,43.816235],[-122.59287,43.816198],[-122.592649,43.816167],[-122.592428,43.816141],[-122.592153,43.816118],[-122.591878,43.816099],[-122.591602,43.816083],[-122.591327,43.816071],[-122.59105,43.816063],[-122.590102,43.816031],[-122.589718,43.816017],[-122.589335,43.816],[-122.588952,43.815978],[-122.588726,43.81596],[-122.588501,43.815939],[-122.588276,43.815914],[-122.58827,43.816379],[-122.588779,43.816613],[-122.589964,43.817177],[-122.590246,43.817269],[-122.590723,43.817374],[-122.591198,43.817419],[-122.591946,43.817327],[-122.59264,43.817178],[-122.593246,43.817101],[-122.593798,43.816982],[-122.593985,43.816951],[-122.594372,43.817052],[-122.594619,43.817232],[-122.594984,43.817345],[-122.595612,43.817665],[-122.59608,43.817928],[-122.596172,43.817996],[-122.596451,43.818013],[-122.596497,43.818246],[-122.596574,43.818283],[-122.596868,43.818321],[-122.597125,43.81856],[-122.59716,43.818701],[-122.59729,43.818769],[-122.597381,43.818778],[-122.597661,43.81905],[-122.597825,43.819221],[-122.597925,43.819279],[-122.598051,43.819244],[-122.598186,43.819215],[-122.598338,43.819368],[-122.59856,43.819472],[-122.598551,43.819641],[-122.59848,43.819767],[-122.598736,43.82017],[-122.599513,43.820867],[-122.599996,43.821342],[-122.600425,43.821774],[-122.600629,43.821938],[-122.600914,43.822101],[-122.601156,43.822363],[-122.60168,43.822495],[-122.602058,43.822564],[-122.602242,43.822642],[-122.602441,43.822741],[-122.602607,43.822766],[-122.602773,43.82279],[-122.602924,43.822803],[-122.602958,43.822694],[-122.603113,43.822609],[-122.603466,43.822597],[-122.603904,43.822665],[-122.604262,43.822778],[-122.604709,43.822933],[-122.605153,43.823092],[-122.605975,43.823186],[-122.606448,43.823166],[-122.606354,43.82307],[-122.606034,43.822946],[-122.606403,43.822961],[-122.606453,43.822895],[-122.606554,43.82299],[-122.606738,43.823079],[-122.606993,43.823052],[-122.607213,43.823091]]]]}},{"type":"Feature","properties":{"MAPTAXLOT":"2025200000066","MAPNUMBER":"20252000","TAXLOT":"66","ACCTNO":"000None","MAPACRES":48.75319563},"geometry":{"type":"Polygon","coordinates":[[[-122.59934,43.823689],[-122.599751,43.823696],[-122.607553,43.823816],[-122.607838,43.82382],[-122.607838,43.823409],[-122.607839,43.823183],[-122.607494,43.823183],[-122.607213,43.823091],[-122.606993,43.823052],[-122.606738,43.823079],[-122.606554,43.82299],[-122.606453,43.822895],[-122.606403,43.822961],[-122.606034,43.822946],[-122.606354,43.82307],[-122.606448,43.823166],[-122.605975,43.823186],[-122.605153,43.823092],[-122.604709,43.822933],[-122.604262,43.822778],[-122.603904,43.822665],[-122.603466,43.822597],[-122.603113,43.822609],[-122.602958,43.822694],[-122.602924,43.822803],[-122.602773,43.82279],[-122.602607,43.822766],[-122.602441,43.822741],[-122.602242,43.822642],[-122.602058,43.822564],[-122.60168,43.822495],[-122.601156,43.822363],[-122.600914,43.822101],[-122.600629,43.821938],[-122.600425,43.821774],[-122.599996,43.821342],[-122.599513,43.820867],[-122.598736,43.82017],[-122.59848,43.819767],[-122.598551,43.819641],[-122.59856,43.819472],[-122.598338,43.819368],[-122.598186,43.819215],[-122.598051,43.819244],[-122.597925,43.819279],[-122.597825,43.819221],[-122.597661,43.81905],[-122.597381,43.818778],[-122.59729,43.818769],[-122.59716,43.818701],[-122.597125,43.81856],[-122.596868,43.818321],[-122.596574,43.818283],[-122.596497,43.818246],[-122.596451,43.818013],[-122.596172,43.817996],[-122.59608,43.817928],[-122.595612,43.817665],[-122.594984,43.817345],[-122.594619,43.817232],[-122.594372,43.817052],[-122.593985,43.816951],[-122.593798,43.816982],[-122.593246,43.817101],[-122.59264,43.817178],[-122.591946,43.817327],[-122.591198,43.817419],[-122.590723,43.817374],[-122.590246,43.817269],[-122.589964,43.817177],[-122.588779,43.816613],[-122.58827,43.816379],[-122.588259,43.817163],[-122.588384,43.817235],[-122.589081,43.817635],[-122.589457,43.817851],[-122.589988,43.817966],[-122.590229,43.817983],[-122.590388,43.818007],[-122.590978,43.81811],[-122.591451,43.818096],[-122.591667,43.818053],[-122.591852,43.817974],[-122.5921,43.817969],[-122.592325,43.817938],[-122.593003,43.817979],[-122.593341,43.817978],[-122.593719,43.818042],[-122.59405,43.818081],[-122.594095,43.818085],[-122.594277,43.818131],[-122.595132,43.818473],[-122.595683,43.818746],[-122.595868,43.818873],[-122.596358,43.819119],[-122.596584,43.819348],[-122.596781,43.819606],[-122.596821,43.819893],[-122.596875,43.819924],[-122.596913,43.819924],[-122.597041,43.820073],[-122.597395,43.820534],[-122.597521,43.820684],[-122.597822,43.820895],[-122.598156,43.821199],[-122.598514,43.821524],[-122.598773,43.821818],[-122.59909,43.822252],[-122.599154,43.822381],[-122.59935,43.823185],[-122.59934,43.823689]]]}},{"type":"Feature","properties":{"MAPTAXLOT":"2025200000099","MAPNUMBER":"20252000","TAXLOT":"99","ACCTNO":"000None","MAPACRES":26.08788982},"geometry":{"type":"Polygon","coordinates":[[[-122.588276,43.815914],[-122.588501,43.815939],[-122.588726,43.81596],[-122.588952,43.815978],[-122.589335,43.816],[-122.589718,43.816017],[-122.590102,43.816031],[-122.59105,43.816063],[-122.591327,43.816071],[-122.591602,43.816083],[-122.591878,43.816099],[-122.592153,43.816118],[-122.592428,43.816141],[-122.592649,43.816167],[-122.59287,43.816198],[-122.593089,43.816235],[-122.593306,43.816277],[-122.593521,43.816324],[-122.593734,43.816376],[-122.593945,43.816432],[-122.594152,43.816494],[-122.594357,43.816561],[-122.594559,43.816633],[-122.594758,43.816709],[-122.594952,43.816791],[-122.595143,43.816876],[-122.59533,43.816966],[-122.595513,43.817061],[-122.595692,43.81716],[-122.595866,43.817263],[-122.596071,43.817396],[-122.596274,43.817533],[-122.596472,43.817672],[-122.596667,43.817813],[-122.596859,43.817957],[-122.596726,43.818055],[-122.597203,43.818411],[-122.597475,43.818613],[-122.597751,43.818812],[-122.59803,43.819008],[-122.598233,43.819141],[-122.598439,43.81927],[-122.59865,43.819395],[-122.598865,43.819517],[-122.599084,43.819636],[-122.599401,43.819796],[-122.599722,43.819952],[-122.600045,43.820106],[-122.603368,43.821672],[-122.603696,43.821825],[-122.604026,43.821975],[-122.604359,43.822121],[-122.604581,43.822211],[-122.604806,43.822298],[-122.607915,43.822982],[-122.607924,43.822605],[-122.607675,43.822564],[-122.607429,43.822518],[-122.607184,43.822467],[-122.606941,43.822411],[-122.6067,43.82235],[-122.606462,43.822285],[-122.606227,43.822214],[-122.605994,43.822139],[-122.605765,43.822059],[-122.605538,43.821975],[-122.605315,43.821886],[-122.605095,43.821792],[-122.60488,43.821694],[-122.604667,43.821592],[-122.604459,43.821486],[-122.604256,43.821375],[-122.603194,43.820855],[-122.602128,43.820339],[-122.601058,43.819827],[-122.599985,43.81932],[-122.598907,43.818817],[-122.598351,43.818443],[-122.597798,43.818066],[-122.597251,43.817685],[-122.596708,43.817301],[-122.596169,43.816913],[-122.595992,43.8168],[-122.59581,43.816692],[-122.595624,43.816588],[-122.595433,43.816488],[-122.595237,43.816393],[-122.595038,43.816302],[-122.594834,43.816216],[-122.594627,43.816134],[-122.594417,43.816058],[-122.594203,43.815986],[-122.593986,43.81592],[-122.593766,43.815858],[-122.593544,43.815802],[-122.593319,43.815751],[-122.593092,43.815705],[-122.592863,43.815664],[-122.592633,43.815629],[-122.592401,43.815599],[-122.592168,43.815574],[-122.591934,43.815555],[-122.591699,43.815541],[-122.591463,43.815533],[-122.591228,43.81553],[-122.590992,43.815532],[-122.590757,43.81554],[-122.590522,43.815554],[-122.590175,43.815527],[-122.589826,43.815505],[-122.589478,43.815488],[-122.589129,43.815475],[-122.588779,43.815467],[-122.58843,43.815463],[-122.588081,43.815464],[-122.588069,43.815508],[-122.588276,43.815914]]]}},{"type":"Feature","properties":{"MAPTAXLOT":"2025200000100","MAPNUMBER":"20252000","TAXLOT":"100","ACCTNO":"0926871","MAPACRES":38.85538342},"geometry":{"type":"Polygon","coordinates":[[[-122.588108,43.82351],[-122.593045,43.823584],[-122.593105,43.820005],[-122.588194,43.819946],[-122.588108,43.82351]]]}},{"type":"Feature","properties":{"MAPTAXLOT":"2025210000033","MAPNUMBER":"20252100","TAXLOT":"33","ACCTNO":"000None","MAPACRES":214.79256326},"geometry":{"type":"MultiPolygon","coordinates":[[[[-122.583292,43.820034],[-122.58819,43.819946],[-122.588194,43.819946],[-122.588242,43.817887],[-122.588205,43.817872],[-122.588136,43.817846],[-122.588071,43.81782],[-122.587938,43.817768],[-122.58787,43.817742],[-122.587804,43.817716],[-122.587738,43.81769],[-122.587603,43.817638],[-122.587537,43.817612],[-122.587404,43.81756],[-122.587336,43.817534],[-122.58727,43.817508],[-122.587204,43.817482],[-122.587311,43.817337],[-122.587379,43.817363],[-122.587444,43.817389],[-122.587511,43.817415],[-122.587646,43.817467],[-122.587711,43.817493],[-122.587845,43.817545],[-122.587912,43.817571],[-122.587978,43.817597],[-122.588045,43.817623],[-122.588179,43.817675],[-122.588245,43.817701],[-122.588246,43.817702],[-122.588259,43.817163],[-122.587878,43.816944],[-122.587156,43.816567],[-122.58657,43.816273],[-122.58579,43.815785],[-122.585687,43.815706],[-122.584624,43.815478],[-122.584758,43.815141],[-122.584652,43.815088],[-122.584589,43.815035],[-122.583426,43.814781],[-122.583061,43.814701],[-122.582698,43.814618],[-122.582337,43.814532],[-122.582049,43.814458],[-122.581693,43.814359],[-122.581338,43.814257],[-122.580985,43.814152],[-122.576562,43.812835],[-122.576209,43.81273],[-122.575858,43.812621],[-122.57551,43.812508],[-122.57528,43.812428],[-122.575052,43.812344],[-122.574828,43.812256],[-122.574606,43.812164],[-122.574388,43.812068],[-122.574172,43.811969],[-122.57396,43.811866],[-122.573592,43.811676],[-122.573592,43.811845],[-122.573254,43.811666],[-122.572919,43.811484],[-122.571132,43.810504],[-122.570911,43.810382],[-122.570687,43.810264],[-122.57046,43.810148],[-122.57023,43.810035],[-122.569998,43.809926],[-122.569846,43.809861],[-122.569691,43.809798],[-122.569535,43.809739],[-122.569376,43.809682],[-122.568655,43.809668],[-122.568667,43.813264],[-122.573589,43.813283],[-122.573587,43.81505],[-122.578493,43.814962],[-122.578485,43.816604],[-122.583379,43.816494],[-122.583292,43.820034]]],[[[-122.570924,43.809713],[-122.57115,43.809828],[-122.571373,43.809947],[-122.571593,43.810068],[-122.573378,43.811047],[-122.573594,43.811165],[-122.573593,43.811336],[-122.573881,43.811489],[-122.574172,43.811639],[-122.574174,43.81164],[-122.574378,43.811739],[-122.574586,43.811834],[-122.574796,43.811926],[-122.575009,43.812014],[-122.575225,43.812099],[-122.575443,43.81218],[-122.575664,43.812257],[-122.575667,43.812258],[-122.57601,43.812369],[-122.576355,43.812476],[-122.576702,43.81258],[-122.581127,43.813898],[-122.581475,43.814001],[-122.581824,43.814102],[-122.582175,43.8142],[-122.582177,43.8142],[-122.582452,43.814271],[-122.582454,43.814272],[-122.582811,43.814356],[-122.58317,43.814438],[-122.58353,43.814518],[-122.58406,43.814633],[-122.584005,43.814539],[-122.583763,43.814476],[-122.583564,43.814336],[-122.583071,43.814123],[-122.582623,43.8139],[-122.58229,43.8138],[-122.581738,43.81362],[-122.581472,43.813492],[-122.581237,43.813429],[-122.581014,43.813235],[-122.580617,43.813234],[-122.579864,43.813078],[-122.57917,43.812922],[-122.578349,43.8128],[-122.578099,43.812711],[-122.5777,43.81265],[-122.577169,43.812427],[-122.576674,43.812209],[-122.576321,43.812068],[-122.576072,43.812044],[-122.575874,43.811932],[-122.575663,43.811662],[-122.575455,43.811238],[-122.575255,43.810842],[-122.575175,43.810652],[-122.575109,43.810483],[-122.575058,43.81026],[-122.574753,43.809883],[-122.574694,43.809801],[-122.574037,43.809774],[-122.570924,43.809713]]],[[[-122.585665,43.813795],[-122.585883,43.813925],[-122.586106,43.814053],[-122.586333,43.814176],[-122.586563,43.814295],[-122.586797,43.814411],[-122.586952,43.814476],[-122.58711,43.814537],[-122.587271,43.814594],[-122.587436,43.814646],[-122.587602,43.814694],[-122.587771,43.814737],[-122.587943,43.814775],[-122.588116,43.814808],[-122.588291,43.814837],[-122.588309,43.813417],[-122.588345,43.810452],[-122.578517,43.809982],[-122.576438,43.80988],[-122.576524,43.810014],[-122.576616,43.810145],[-122.576715,43.810274],[-122.57682,43.810401],[-122.576932,43.810524],[-122.577049,43.810645],[-122.577172,43.810763],[-122.577301,43.810877],[-122.578191,43.810331],[-122.578306,43.810427],[-122.578427,43.810521],[-122.578553,43.810611],[-122.578683,43.810697],[-122.578818,43.81078],[-122.578957,43.810859],[-122.579101,43.810934],[-122.579248,43.811005],[-122.579399,43.811071],[-122.579553,43.811134],[-122.579711,43.811191],[-122.579872,43.811245],[-122.580035,43.811294],[-122.580201,43.811338],[-122.580369,43.811377],[-122.580037,43.812192],[-122.581263,43.812466],[-122.581566,43.812534],[-122.581868,43.812607],[-122.582167,43.812685],[-122.582463,43.812768],[-122.582756,43.812856],[-122.583047,43.812949],[-122.583154,43.812804],[-122.583281,43.812853],[-122.583406,43.812903],[-122.583678,43.813031],[-122.583946,43.813163],[-122.584209,43.813299],[-122.584468,43.81344],[-122.584723,43.813585],[-122.584973,43.813734],[-122.585421,43.814002],[-122.585665,43.813795]]],[[[-122.575801,43.810307],[-122.57594,43.810683],[-122.575902,43.81083],[-122.576085,43.811161],[-122.576142,43.811313],[-122.576395,43.81149],[-122.576437,43.811632],[-122.576462,43.811719],[-122.577136,43.811962],[-122.57744,43.812095],[-122.577703,43.812119],[-122.577924,43.812209],[-122.578685,43.81238],[-122.579447,43.812558],[-122.580425,43.812705],[-122.581142,43.812951],[-122.581633,43.813104],[-122.582231,43.813294],[-122.582632,43.813421],[-122.583087,43.813607],[-122.583634,43.813842],[-122.584016,43.814078],[-122.584641,43.814431],[-122.585221,43.814758],[-122.585403,43.814875],[-122.58566,43.814949],[-122.58574,43.815],[-122.588069,43.815508],[-122.588081,43.815464],[-122.587896,43.815433],[-122.587713,43.815398],[-122.587532,43.815358],[-122.587352,43.815313],[-122.587175,43.815264],[-122.587001,43.815211],[-122.586828,43.815154],[-122.586659,43.815092],[-122.586493,43.815026],[-122.58633,43.814956],[-122.584946,43.814425],[-122.584495,43.814156],[-122.584259,43.814015],[-122.584019,43.813878],[-122.583775,43.813745],[-122.583526,43.813616],[-122.583274,43.813491],[-122.583017,43.813371],[-122.582922,43.813333],[-122.582826,43.813296],[-122.582547,43.813208],[-122.582266,43.813123],[-122.581983,43.813044],[-122.581697,43.812969],[-122.581409,43.8129],[-122.581118,43.812835],[-122.579887,43.81256],[-122.579686,43.812514],[-122.579487,43.812462],[-122.579291,43.812406],[-122.579098,43.812346],[-122.578908,43.81228],[-122.57872,43.81221],[-122.578537,43.812136],[-122.578356,43.812057],[-122.57818,43.811973],[-122.578007,43.811886],[-122.577839,43.811794],[-122.577675,43.811698],[-122.577516,43.811598],[-122.577361,43.811494],[-122.577211,43.811387],[-122.577067,43.811276],[-122.576927,43.811162],[-122.576793,43.811044],[-122.576665,43.810923],[-122.576542,43.810799],[-122.576425,43.810672],[-122.576315,43.810542],[-122.57621,43.81041],[-122.576111,43.810275],[-122.576019,43.810138],[-122.575933,43.809998],[-122.575854,43.809857],[-122.575873,43.809852],[-122.575705,43.809843],[-122.575625,43.80984],[-122.575801,43.810307]]],[[[-122.587509,43.816007],[-122.587895,43.816202],[-122.58827,43.816379],[-122.588276,43.815914],[-122.588043,43.815883],[-122.58781,43.815849],[-122.587578,43.815811],[-122.587509,43.816007]]]]}},{"type":"Feature","properties":{"MAPTAXLOT":"2025210000100","MAPNUMBER":"20252100","TAXLOT":"100","ACCTNO":"0926954","MAPACRES":38.46327394},"geometry":{"type":"Polygon","coordinates":[[[-122.583196,43.823571],[-122.588108,43.82351],[-122.588194,43.819946],[-122.58819,43.819946],[-122.583292,43.820034],[-122.583196,43.823552],[-122.583196,43.823571]]]}},{"type":"Feature","properties":{"MAPTAXLOT":"2025210000199","MAPNUMBER":"20252100","TAXLOT":"199","ACCTNO":"0926962","MAPACRES":284.53118685},"geometry":{"type":"Polygon","coordinates":[[[-122.568667,43.813264],[-122.568679,43.816857],[-122.568706,43.824032],[-122.578307,43.823632],[-122.583196,43.823571],[-122.583196,43.823552],[-122.583292,43.820034],[-122.583379,43.816494],[-122.578485,43.816604],[-122.578493,43.814962],[-122.573587,43.81505],[-122.573589,43.813283],[-122.568667,43.813264]]]}}]}