{"type":"FeatureCollection","features":[{"type":"Feature","properties":{"MAPTAXLOT":"2425000000100","MAPNUMBER":"24250000","TAXLOT":"100","ACCTNO":"0976207","MAPACRES":22100.89018319},"geometry":{"type":"Polygon","coordinates":[[[-122.618003,43.527489],[-122.622896,43.527485],[-122.622885,43.525002],[-122.622889,43.523485],[-122.622904,43.519861],[-122.622911,43.517708],[-122.622909,43.516239],[-122.62291,43.512615],[-122.622909,43.510424],[-122.622921,43.508991],[-122.622955,43.505367],[-122.622975,43.503155],[-122.622968,43.501744],[-122.622953,43.498119],[-122.622945,43.495927],[-122.622936,43.494494],[-122.622918,43.490868],[-122.622905,43.488658],[-122.622903,43.487243],[-122.622904,43.483617],[-122.622902,43.481521],[-122.62286,43.479989],[-122.622764,43.476362],[-122.622713,43.474459],[-122.622709,43.472737],[-122.622702,43.46911],[-122.622698,43.467274],[-122.622707,43.465483],[-122.622723,43.461857],[-122.622732,43.460108],[-122.622736,43.458232],[-122.622741,43.454605],[-122.622746,43.452781],[-122.62275,43.45098],[-122.622758,43.447355],[-122.622763,43.445378],[-122.622783,43.44373],[-122.622829,43.440105],[-122.618281,43.44011],[-122.608331,43.440135],[-122.588402,43.440219],[-122.56847,43.440305],[-122.548539,43.440351],[-122.528613,43.440401],[-122.508694,43.440457],[-122.508693,43.441499],[-122.508693,43.447705],[-122.508693,43.448746],[-122.508693,43.454953],[-122.508692,43.455994],[-122.508678,43.462203],[-122.508678,43.463245],[-122.508665,43.469453],[-122.508663,43.470495],[-122.508671,43.476707],[-122.508671,43.477749],[-122.508678,43.483721],[-122.508678,43.483961],[-122.508741,43.491096],[-122.508741,43.491216],[-122.508806,43.498471],[-122.508811,43.505716],[-122.508812,43.505845],[-122.508863,43.509454],[-122.508912,43.512962],[-122.508912,43.513063],[-122.508771,43.520223],[-122.50877,43.520308],[-122.508774,43.527527],[-122.508853,43.527527],[-122.513734,43.527531],[-122.518695,43.527535],[-122.523655,43.52754],[-122.528616,43.527544],[-122.533582,43.527539],[-122.538548,43.527534],[-122.543514,43.527529],[-122.54848,43.527525],[-122.553448,43.527519],[-122.558415,43.527513],[-122.563383,43.527508],[-122.56835,43.527502],[-122.573316,43.527506],[-122.57332,43.527506],[-122.578282,43.52751],[-122.583248,43.527514],[-122.588214,43.527518],[-122.593179,43.527513],[-122.598144,43.527508],[-122.60311,43.527503],[-122.608075,43.527498],[-122.613039,43.527494],[-122.618003,43.527489]]]}}]}