{"type":"FeatureCollection","features":[{"type":"Feature","properties":{"MAPTAXLOT":"1507000000500","MAPNUMBER":"15070000","TAXLOT":"500","ACCTNO":"0022515","MAPACRES":2875.84470334},"geometry":{"type":"Polygon","coordinates":[[[-123.564914,44.282022],[-123.569241,44.282299],[-123.573567,44.282576],[-123.57358,44.278781],[-123.573592,44.274987],[-123.573636,44.271305],[-123.57368,44.267623],[-123.573728,44.260186],[-123.573722,44.256402],[-123.573717,44.252618],[-123.57374,44.245061],[-123.573787,44.23744],[-123.573865,44.229828],[-123.568573,44.229828],[-123.563282,44.229828],[-123.552689,44.22984],[-123.552751,44.237277],[-123.552783,44.244579],[-123.542466,44.244674],[-123.532146,44.244802],[-123.532225,44.25219],[-123.532106,44.259461],[-123.542281,44.25935],[-123.555876,44.260078],[-123.55615,44.266189],[-123.55615,44.266189],[-123.556067,44.27391],[-123.555989,44.281397],[-123.560452,44.28171],[-123.560059,44.278077],[-123.564091,44.278501],[-123.564914,44.282022]]]}},{"type":"Feature","properties":{"MAPTAXLOT":"1507000000600","MAPNUMBER":"15070000","TAXLOT":"600","ACCTNO":"0022531","MAPACRES":32.81179863},"geometry":{"type":"Polygon","coordinates":[[[-123.560452,44.28171],[-123.564914,44.282022],[-123.564091,44.278501],[-123.560059,44.278077],[-123.560452,44.28171]]]}},{"type":"Feature","properties":{"MAPTAXLOT":"1507000000700","MAPNUMBER":"15070000","TAXLOT":"700","ACCTNO":"0022549","MAPACRES":184.84332789},"geometry":{"type":"Polygon","coordinates":[[[-123.534535,44.281526],[-123.545601,44.28146],[-123.545346,44.273903],[-123.534177,44.273919],[-123.534535,44.281526]]]}},{"type":"Feature","properties":{"MAPTAXLOT":"1507000000701","MAPNUMBER":"15070000","TAXLOT":"701","ACCTNO":"1055381","MAPACRES":174.06153425},"geometry":{"type":"Polygon","coordinates":[[[-123.545601,44.28146],[-123.555989,44.281397],[-123.556067,44.27391],[-123.545346,44.273903],[-123.545601,44.28146]]]}},{"type":"Feature","properties":{"MAPTAXLOT":"1507000000800","MAPNUMBER":"15070000","TAXLOT":"800","ACCTNO":"0022556","MAPACRES":338.26797636},"geometry":{"type":"Polygon","coordinates":[[[-123.501888,44.28134],[-123.51287,44.281413],[-123.511778,44.27389],[-123.501397,44.273852],[-123.491627,44.273848],[-123.491757,44.281271],[-123.501888,44.28134]]]}},{"type":"Feature","properties":{"MAPTAXLOT":"1507000002100","MAPNUMBER":"15070000","TAXLOT":"2100","ACCTNO":"0022721","MAPACRES":322.18983334},"geometry":{"type":"Polygon","coordinates":[[[-123.491557,44.259049],[-123.501679,44.259115],[-123.501589,44.244438],[-123.49659,44.24448],[-123.492841,44.244511],[-123.491591,44.244521],[-123.491574,44.251823],[-123.491565,44.255436],[-123.491557,44.259049]]]}},{"type":"Feature","properties":{"MAPTAXLOT":"1507000002800","MAPNUMBER":"15070000","TAXLOT":"2800","ACCTNO":"0022796","MAPACRES":666.4043676},"geometry":{"type":"Polygon","coordinates":[[[-123.512111,44.244679],[-123.521906,44.244632],[-123.532146,44.244802],[-123.532299,44.237385],[-123.532165,44.229876],[-123.521941,44.229897],[-123.511629,44.229913],[-123.511516,44.23743],[-123.511837,44.241337],[-123.511848,44.241474],[-123.512111,44.244679]]]}},{"type":"Feature","properties":{"MAPTAXLOT":"1507000002900","MAPNUMBER":"15070000","TAXLOT":"2900","ACCTNO":"0022804","MAPACRES":335.14976275},"geometry":{"type":"Polygon","coordinates":[[[-123.532146,44.244802],[-123.542466,44.244674],[-123.54252,44.229835],[-123.532165,44.229876],[-123.532299,44.237385],[-123.532146,44.244802]]]}},{"type":"Feature","properties":{"MAPTAXLOT":"1507000003000","MAPNUMBER":"15070000","TAXLOT":"3000","ACCTNO":"0022812","MAPACRES":332.55528313},"geometry":{"type":"Polygon","coordinates":[[[-123.542466,44.244674],[-123.552783,44.244579],[-123.552751,44.237277],[-123.552689,44.22984],[-123.54252,44.229835],[-123.542466,44.244674]]]}},{"type":"Feature","properties":{"MAPTAXLOT":"1507000003700","MAPNUMBER":"15070000","TAXLOT":"3700","ACCTNO":"1914346","MAPACRES":4964.15586456},"geometry":{"type":"Polygon","coordinates":[[[-123.51287,44.281413],[-123.534535,44.281526],[-123.534177,44.273919],[-123.545346,44.273903],[-123.556067,44.27391],[-123.55615,44.266189],[-123.55615,44.266189],[-123.555876,44.260078],[-123.542281,44.25935],[-123.532106,44.259461],[-123.532225,44.25219],[-123.532146,44.244802],[-123.521906,44.244632],[-123.512111,44.244679],[-123.511848,44.241474],[-123.511837,44.241337],[-123.511516,44.23743],[-123.511629,44.229913],[-123.501526,44.2299],[-123.49145,44.229886],[-123.491542,44.237134],[-123.496539,44.237208],[-123.496494,44.233584],[-123.501542,44.233591],[-123.501547,44.23482],[-123.50155,44.235437],[-123.501558,44.237283],[-123.501589,44.244438],[-123.501679,44.259115],[-123.491557,44.259049],[-123.491565,44.255436],[-123.491574,44.251823],[-123.491591,44.244521],[-123.481516,44.244514],[-123.476755,44.244606],[-123.47203,44.244698],[-123.472031,44.248108],[-123.472031,44.248108],[-123.472032,44.248314],[-123.472032,44.248314],[-123.472028,44.251517],[-123.472028,44.251517],[-123.472028,44.25193],[-123.472028,44.25193],[-123.472019,44.254927],[-123.472017,44.25557],[-123.472017,44.25557],[-123.472009,44.258336],[-123.476145,44.258422],[-123.476156,44.273892],[-123.481196,44.273927],[-123.491627,44.273848],[-123.501397,44.273852],[-123.511778,44.27389],[-123.51287,44.281413]]]}},{"type":"Feature","properties":{"MAPTAXLOT":"1507260000200","MAPNUMBER":"15072600","TAXLOT":"200","ACCTNO":"0022945","MAPACRES":139.71136881},"geometry":{"type":"Polygon","coordinates":[[[-123.491542,44.237134],[-123.491567,44.240827],[-123.491573,44.241751],[-123.492822,44.241759],[-123.492816,44.240842],[-123.49281,44.239919],[-123.494059,44.239935],[-123.494056,44.239474],[-123.496555,44.239504],[-123.496558,44.239965],[-123.496565,44.240884],[-123.495315,44.24087],[-123.495334,44.243585],[-123.496583,44.243581],[-123.49659,44.24448],[-123.501589,44.244438],[-123.501558,44.237283],[-123.500303,44.237264],[-123.500308,44.238167],[-123.497798,44.238129],[-123.497793,44.237227],[-123.497783,44.235394],[-123.50155,44.235437],[-123.501547,44.23482],[-123.501542,44.233591],[-123.496494,44.233584],[-123.496539,44.237208],[-123.491542,44.237134]]]}}]}