{"type":"FeatureCollection","features":[{"type":"Feature","properties":{"MAPTAXLOT":"1745000000600","MAPNUMBER":"17450000","TAXLOT":"600","ACCTNO":"0554673","MAPACRES":1168.24120816},"geometry":{"type":"Polygon","coordinates":[[[-122.303591,44.126421],[-122.308754,44.126447],[-122.313917,44.126473],[-122.313758,44.119647],[-122.308651,44.120175],[-122.308598,44.116703],[-122.313682,44.116379],[-122.313599,44.112821],[-122.313608,44.109314],[-122.318658,44.109078],[-122.318661,44.105601],[-122.318664,44.102124],[-122.313627,44.102294],[-122.30859,44.102462],[-122.308608,44.098921],[-122.308624,44.095391],[-122.303598,44.095513],[-122.303576,44.099052],[-122.298605,44.099071],[-122.293631,44.099087],[-122.283684,44.099118],[-122.273564,44.099044],[-122.273571,44.102655],[-122.268517,44.102621],[-122.268526,44.106231],[-122.273574,44.106263],[-122.283668,44.106322],[-122.283675,44.102719],[-122.288646,44.102697],[-122.288635,44.106293],[-122.293601,44.106263],[-122.298567,44.106233],[-122.303529,44.106199],[-122.303514,44.113388],[-122.298529,44.113395],[-122.298554,44.117064],[-122.303515,44.117026],[-122.303544,44.120703],[-122.303574,44.124352],[-122.303591,44.126421]]]}},{"type":"Feature","properties":{"MAPTAXLOT":"1745000001202","MAPNUMBER":"17450000","TAXLOT":"1202","ACCTNO":"1878071","MAPACRES":1094.70323163},"geometry":{"type":"Polygon","coordinates":[[[-122.35362,44.126708],[-122.363424,44.127069],[-122.36354,44.127073],[-122.363729,44.12708],[-122.363678,44.123259],[-122.36363,44.119669],[-122.3636,44.116384],[-122.363597,44.11611],[-122.363564,44.11255],[-122.363566,44.112417],[-122.363567,44.11233],[-122.363603,44.109038],[-122.358587,44.10906],[-122.353574,44.10903],[-122.353681,44.102049],[-122.353733,44.098531],[-122.363719,44.098504],[-122.363818,44.094967],[-122.358774,44.094922],[-122.353747,44.094878],[-122.35379,44.084428],[-122.343757,44.084436],[-122.343745,44.098421],[-122.343745,44.098558],[-122.343608,44.105603],[-122.343543,44.108968],[-122.343472,44.112649],[-122.353518,44.1126],[-122.353544,44.116179],[-122.35357,44.119758],[-122.353595,44.123233],[-122.35362,44.126708]]]}},{"type":"Feature","properties":{"MAPTAXLOT":"1745000001400","MAPNUMBER":"17450000","TAXLOT":"1400","ACCTNO":"0554756","MAPACRES":825.87438676},"geometry":{"type":"Polygon","coordinates":[[[-122.378636,44.112685],[-122.383653,44.11273],[-122.385286,44.112743],[-122.385301,44.109238],[-122.385316,44.105734],[-122.38538,44.102284],[-122.385382,44.102211],[-122.385445,44.098835],[-122.385448,44.098689],[-122.383877,44.098677],[-122.383869,44.095157],[-122.373886,44.095062],[-122.373974,44.091533],[-122.368872,44.091498],[-122.368758,44.098547],[-122.363719,44.098504],[-122.353733,44.098531],[-122.353681,44.102049],[-122.35868,44.102032],[-122.358587,44.10906],[-122.363603,44.109038],[-122.363567,44.11233],[-122.363566,44.112417],[-122.363564,44.11255],[-122.368587,44.112595],[-122.373609,44.11264],[-122.378636,44.112685]],[[-122.383821,44.102191],[-122.383765,44.105704],[-122.383709,44.109217],[-122.373656,44.109128],[-122.373703,44.105615],[-122.373751,44.102103],[-122.383821,44.102191]]]}},{"type":"Feature","properties":{"MAPTAXLOT":"1745000001700","MAPNUMBER":"17450000","TAXLOT":"1700","ACCTNO":"0554780","MAPACRES":416.099431},"geometry":{"type":"Polygon","coordinates":[[[-122.333592,44.112471],[-122.338532,44.11256],[-122.338546,44.108937],[-122.343543,44.108968],[-122.343608,44.105603],[-122.333656,44.105503],[-122.333721,44.098532],[-122.323696,44.098511],[-122.323705,44.105403],[-122.323709,44.108847],[-122.323713,44.112292],[-122.328652,44.112381],[-122.333592,44.112471]]]}},{"type":"Feature","properties":{"MAPTAXLOT":"1745000001800","MAPNUMBER":"17450000","TAXLOT":"1800","ACCTNO":"0554798","MAPACRES":153.90375482},"geometry":{"type":"Polygon","coordinates":[[[-122.333656,44.105503],[-122.343608,44.105603],[-122.343745,44.098558],[-122.333721,44.098532],[-122.333656,44.105503]]]}},{"type":"Feature","properties":{"MAPTAXLOT":"1745000001900","MAPNUMBER":"17450000","TAXLOT":"1900","ACCTNO":"0554814","MAPACRES":192.32224039},"geometry":{"type":"Polygon","coordinates":[[[-122.313608,44.109314],[-122.313599,44.112821],[-122.318656,44.112557],[-122.323713,44.112292],[-122.323709,44.108847],[-122.323705,44.105403],[-122.323696,44.098511],[-122.318667,44.098646],[-122.318664,44.102124],[-122.318661,44.105601],[-122.318658,44.109078],[-122.313608,44.109314]]]}},{"type":"Feature","properties":{"MAPTAXLOT":"1745000002000","MAPNUMBER":"17450000","TAXLOT":"2000","ACCTNO":"0554822","MAPACRES":77.67271458},"geometry":{"type":"Polygon","coordinates":[[[-122.308608,44.098921],[-122.30859,44.102462],[-122.313627,44.102294],[-122.318664,44.102124],[-122.318667,44.098646],[-122.313638,44.098784],[-122.308608,44.098921]]]}},{"type":"Feature","properties":{"MAPTAXLOT":"1745000002900","MAPNUMBER":"17450000","TAXLOT":"2900","ACCTNO":"0554913","MAPACRES":77.93266177},"geometry":{"type":"Polygon","coordinates":[[[-122.308624,44.095391],[-122.308608,44.098921],[-122.313638,44.098784],[-122.318667,44.098646],[-122.31867,44.095123],[-122.313647,44.095257],[-122.308624,44.095391]]]}},{"type":"Feature","properties":{"MAPTAXLOT":"1745000003000","MAPNUMBER":"17450000","TAXLOT":"3000","ACCTNO":"0554921","MAPACRES":116.67770665},"geometry":{"type":"Polygon","coordinates":[[[-122.308642,44.091863],[-122.308624,44.095391],[-122.313647,44.095257],[-122.31867,44.095123],[-122.318676,44.088074],[-122.313668,44.088205],[-122.313658,44.091731],[-122.308642,44.091863]]]}},{"type":"Feature","properties":{"MAPTAXLOT":"1745000003100","MAPNUMBER":"17450000","TAXLOT":"3100","ACCTNO":"0554939","MAPACRES":116.56085875},"geometry":{"type":"Polygon","coordinates":[[[-122.31867,44.095123],[-122.318667,44.098646],[-122.323696,44.098511],[-122.323685,44.091473],[-122.323682,44.08795],[-122.318676,44.088074],[-122.31867,44.095123]]]}},{"type":"Feature","properties":{"MAPTAXLOT":"1745000003300","MAPNUMBER":"17450000","TAXLOT":"3300","ACCTNO":"0554954","MAPACRES":194.18039548},"geometry":{"type":"Polygon","coordinates":[[[-122.303645,44.088447],[-122.30362,44.091976],[-122.308642,44.091863],[-122.313658,44.091731],[-122.313668,44.088205],[-122.318676,44.088074],[-122.323682,44.08795],[-122.323681,44.084418],[-122.313685,44.08468],[-122.308682,44.08481],[-122.30866,44.088335],[-122.303645,44.088447]]]}},{"type":"Feature","properties":{"MAPTAXLOT":"1745000003400","MAPNUMBER":"17450000","TAXLOT":"3400","ACCTNO":"0554962","MAPACRES":622.38838197},"geometry":{"type":"Polygon","coordinates":[[[-122.333721,44.098532],[-122.343745,44.098558],[-122.343745,44.098421],[-122.343757,44.084436],[-122.323681,44.084418],[-122.323682,44.08795],[-122.323685,44.091473],[-122.323696,44.098511],[-122.333721,44.098532]]]}},{"type":"Feature","properties":{"MAPTAXLOT":"1745000003500","MAPNUMBER":"17450000","TAXLOT":"3500","ACCTNO":"0554970","MAPACRES":231.48364219},"geometry":{"type":"Polygon","coordinates":[[[-122.358774,44.094922],[-122.363818,44.094967],[-122.36377,44.091462],[-122.363822,44.08442],[-122.35379,44.084428],[-122.353747,44.094878],[-122.358774,44.094922]]]}},{"type":"Feature","properties":{"MAPTAXLOT":"1745000003600","MAPNUMBER":"17450000","TAXLOT":"3600","ACCTNO":"0554988","MAPACRES":137.70153605},"geometry":{"type":"Polygon","coordinates":[[[-122.363719,44.098504],[-122.368758,44.098547],[-122.368872,44.091498],[-122.366321,44.09148],[-122.366363,44.087957],[-122.368929,44.087973],[-122.368986,44.084448],[-122.363822,44.08442],[-122.36377,44.091462],[-122.363818,44.094967],[-122.363719,44.098504]]]}},{"type":"Feature","properties":{"MAPTAXLOT":"1745000004000","MAPNUMBER":"17450000","TAXLOT":"4000","ACCTNO":"0555027","MAPACRES":151.76189496},"geometry":{"type":"Polygon","coordinates":[[[-122.373974,44.091533],[-122.38386,44.091638],[-122.383852,44.088118],[-122.383844,44.084598],[-122.37415,44.084476],[-122.373974,44.091533]]]}},{"type":"Feature","properties":{"MAPTAXLOT":"1745000004001","MAPNUMBER":"17450000","TAXLOT":"4001","ACCTNO":"1722147","MAPACRES":76.98665011},"geometry":{"type":"Polygon","coordinates":[[[-122.373886,44.095062],[-122.383869,44.095157],[-122.38386,44.091638],[-122.373974,44.091533],[-122.373886,44.095062]]]}},{"type":"Feature","properties":{"MAPTAXLOT":"1745000004100","MAPNUMBER":"17450000","TAXLOT":"4100","ACCTNO":"0555035","MAPACRES":79.62518445},"geometry":{"type":"Polygon","coordinates":[[[-122.368872,44.091498],[-122.373974,44.091533],[-122.37415,44.084476],[-122.368986,44.084448],[-122.368929,44.087973],[-122.368872,44.091498]]]}},{"type":"Feature","properties":{"MAPTAXLOT":"1745000004200","MAPNUMBER":"17450000","TAXLOT":"4200","ACCTNO":"0555043","MAPACRES":19.82882927},"geometry":{"type":"Polygon","coordinates":[[[-122.366321,44.09148],[-122.368872,44.091498],[-122.368929,44.087973],[-122.366363,44.087957],[-122.366321,44.09148]]]}},{"type":"Feature","properties":{"MAPTAXLOT":"1745000004300","MAPNUMBER":"17450000","TAXLOT":"4300","ACCTNO":"0555050","MAPACRES":309.3630751},"geometry":{"type":"Polygon","coordinates":[[[-122.383844,44.084598],[-122.385785,44.084622],[-122.385804,44.081435],[-122.385807,44.081049],[-122.385826,44.077889],[-122.385822,44.077476],[-122.385784,44.074336],[-122.385779,44.073904],[-122.385741,44.070783],[-122.385738,44.070331],[-122.382673,44.070322],[-122.377709,44.070309],[-122.378353,44.077423],[-122.373447,44.077386],[-122.37415,44.084476],[-122.383844,44.084598]]]}},{"type":"Feature","properties":{"MAPTAXLOT":"1745000004400","MAPNUMBER":"17450000","TAXLOT":"4400","ACCTNO":"0555068","MAPACRES":315.42510385},"geometry":{"type":"Polygon","coordinates":[[[-122.368986,44.084448],[-122.37415,44.084476],[-122.373447,44.077386],[-122.372744,44.070297],[-122.362815,44.070271],[-122.363822,44.08442],[-122.368986,44.084448]]]}},{"type":"Feature","properties":{"MAPTAXLOT":"1745000004500","MAPNUMBER":"17450000","TAXLOT":"4500","ACCTNO":"0555076","MAPACRES":77.05377594},"geometry":{"type":"Polygon","coordinates":[[[-122.373447,44.077386],[-122.378353,44.077423],[-122.377709,44.070309],[-122.372744,44.070297],[-122.373447,44.077386]]]}},{"type":"Feature","properties":{"MAPTAXLOT":"1745000004600","MAPNUMBER":"17450000","TAXLOT":"4600","ACCTNO":"0555084","MAPACRES":616.10591247},"geometry":{"type":"Polygon","coordinates":[[[-122.35379,44.084428],[-122.363822,44.08442],[-122.362815,44.070271],[-122.343378,44.070218],[-122.343757,44.084436],[-122.35379,44.084428]]]}},{"type":"Feature","properties":{"MAPTAXLOT":"1745000004700","MAPNUMBER":"17450000","TAXLOT":"4700","ACCTNO":"0555092","MAPACRES":624.42788482},"geometry":{"type":"Polygon","coordinates":[[[-122.323681,44.084418],[-122.343757,44.084436],[-122.343378,44.070218],[-122.323755,44.070029],[-122.323681,44.084418]]]}},{"type":"Feature","properties":{"MAPTAXLOT":"1745000004800","MAPNUMBER":"17450000","TAXLOT":"4800","ACCTNO":"0555100","MAPACRES":516.47989233},"geometry":{"type":"Polygon","coordinates":[[[-122.313685,44.08468],[-122.323681,44.084418],[-122.323755,44.070029],[-122.303644,44.07053],[-122.303755,44.077883],[-122.303713,44.081401],[-122.308712,44.081271],[-122.308728,44.077691],[-122.313723,44.077532],[-122.313685,44.08468]]]}},{"type":"Feature","properties":{"MAPTAXLOT":"1745000004900","MAPNUMBER":"17450000","TAXLOT":"4900","ACCTNO":"0555118","MAPACRES":117.24951737},"geometry":{"type":"Polygon","coordinates":[[[-122.308682,44.08481],[-122.313685,44.08468],[-122.313723,44.077532],[-122.308728,44.077691],[-122.308712,44.081271],[-122.303713,44.081401],[-122.303677,44.084935],[-122.308682,44.08481]]]}},{"type":"Feature","properties":{"MAPTAXLOT":"1745000005500","MAPNUMBER":"17450000","TAXLOT":"5500","ACCTNO":"0555175","MAPACRES":628.64671057},"geometry":{"type":"Polygon","coordinates":[[[-122.303644,44.07053],[-122.323755,44.070029],[-122.323492,44.062984],[-122.32326,44.055905],[-122.303478,44.056001],[-122.303644,44.07053]]]}},{"type":"Feature","properties":{"MAPTAXLOT":"1745000005600","MAPNUMBER":"17450000","TAXLOT":"5600","ACCTNO":"1698438","MAPACRES":305.28745642},"geometry":{"type":"Polygon","coordinates":[[[-122.323755,44.070029],[-122.343378,44.070218],[-122.343118,44.063115],[-122.323492,44.062984],[-122.323755,44.070029]]]}},{"type":"Feature","properties":{"MAPTAXLOT":"1745000005601","MAPNUMBER":"17450000","TAXLOT":"5601","ACCTNO":"1698446","MAPACRES":305.79505501},"geometry":{"type":"Polygon","coordinates":[[[-122.323492,44.062984],[-122.343118,44.063115],[-122.342853,44.056019],[-122.336328,44.055977],[-122.32326,44.055905],[-122.323492,44.062984]]]}},{"type":"Feature","properties":{"MAPTAXLOT":"1745000005700","MAPNUMBER":"17450000","TAXLOT":"5700","ACCTNO":"0555191","MAPACRES":602.33143095},"geometry":{"type":"Polygon","coordinates":[[[-122.342853,44.056019],[-122.343118,44.063115],[-122.343378,44.070218],[-122.362815,44.070271],[-122.362095,44.056148],[-122.352542,44.056084],[-122.342853,44.056019]]]}},{"type":"Feature","properties":{"MAPTAXLOT":"1745000005800","MAPNUMBER":"17450000","TAXLOT":"5800","ACCTNO":"0555209","MAPACRES":268.84321987},"geometry":{"type":"Polygon","coordinates":[[[-122.362815,44.070271],[-122.372744,44.070297],[-122.372367,44.063269],[-122.372179,44.059755],[-122.367227,44.059717],[-122.367043,44.056195],[-122.362095,44.056148],[-122.362815,44.070271]]]}},{"type":"Feature","properties":{"MAPTAXLOT":"1745000005900","MAPNUMBER":"17450000","TAXLOT":"5900","ACCTNO":"0555217","MAPACRES":76.58619023},"geometry":{"type":"Polygon","coordinates":[[[-122.372744,44.070297],[-122.377709,44.070309],[-122.377324,44.063297],[-122.372367,44.063269],[-122.372744,44.070297]]]}},{"type":"Feature","properties":{"MAPTAXLOT":"1745000006000","MAPNUMBER":"17450000","TAXLOT":"6000","ACCTNO":"0555225","MAPACRES":333.23171394},"geometry":{"type":"Polygon","coordinates":[[[-122.377709,44.070309],[-122.382673,44.070322],[-122.385738,44.070331],[-122.385707,44.067231],[-122.385704,44.066837],[-122.385672,44.063678],[-122.38567,44.063343],[-122.385632,44.060183],[-122.38563,44.059849],[-122.385592,44.056688],[-122.385606,44.056355],[-122.385606,44.056355],[-122.381886,44.056335],[-122.37199,44.056241],[-122.372179,44.059755],[-122.372367,44.063269],[-122.377324,44.063297],[-122.377709,44.070309]]]}},{"type":"Feature","properties":{"MAPTAXLOT":"1745000006100","MAPNUMBER":"17450000","TAXLOT":"6100","ACCTNO":"0555233","MAPACRES":38.29620353},"geometry":{"type":"Polygon","coordinates":[[[-122.367227,44.059717],[-122.372179,44.059755],[-122.37199,44.056241],[-122.367043,44.056195],[-122.367227,44.059717]]]}},{"type":"Feature","properties":{"MAPTAXLOT":"1745000006300","MAPNUMBER":"17450000","TAXLOT":"6300","ACCTNO":"0555258","MAPACRES":56.8461675},"geometry":{"type":"Polygon","coordinates":[[[-122.37199,44.056241],[-122.381886,44.056335],[-122.38165,44.052854],[-122.376792,44.052779],[-122.376865,44.054533],[-122.371917,44.054473],[-122.37199,44.056241]]]}},{"type":"Feature","properties":{"MAPTAXLOT":"1745000006400","MAPNUMBER":"17450000","TAXLOT":"6400","ACCTNO":"0555266","MAPACRES":516.23401568},"geometry":{"type":"Polygon","coordinates":[[[-122.362095,44.056148],[-122.367043,44.056195],[-122.37199,44.056241],[-122.371917,44.054473],[-122.376865,44.054533],[-122.376792,44.052779],[-122.38165,44.052854],[-122.381177,44.045903],[-122.376498,44.04576],[-122.376352,44.04225],[-122.371404,44.042092],[-122.366277,44.041991],[-122.361515,44.0419],[-122.361951,44.052617],[-122.362095,44.056148]]]}},{"type":"Feature","properties":{"MAPTAXLOT":"1745000006500","MAPNUMBER":"17450000","TAXLOT":"6500","ACCTNO":"0555274","MAPACRES":133.97150674},"geometry":{"type":"Polygon","coordinates":[[[-122.376498,44.04576],[-122.381177,44.045903],[-122.38165,44.052854],[-122.385636,44.052916],[-122.385652,44.049797],[-122.385658,44.049478],[-122.385597,44.046199],[-122.385597,44.046199],[-122.3856,44.046039],[-122.3856,44.046039],[-122.385529,44.042601],[-122.38094,44.042425],[-122.376352,44.04225],[-122.376498,44.04576]]]}},{"type":"Feature","properties":{"MAPTAXLOT":"1745000006600","MAPNUMBER":"17450000","TAXLOT":"6600","ACCTNO":"0555282","MAPACRES":74.23248913},"geometry":{"type":"Polygon","coordinates":[[[-122.352542,44.056084],[-122.362095,44.056148],[-122.361951,44.052617],[-122.352427,44.052539],[-122.35254,44.056047],[-122.352542,44.056084]]]}},{"type":"Feature","properties":{"MAPTAXLOT":"1745000006601","MAPNUMBER":"17450000","TAXLOT":"6601","ACCTNO":"1848249","MAPACRES":131.94647413},"geometry":{"type":"Polygon","coordinates":[[[-122.352039,44.041752],[-122.352323,44.050532],[-122.359173,44.050589],[-122.35889,44.041857],[-122.356242,44.041815],[-122.352039,44.041752]]]}},{"type":"Feature","properties":{"MAPTAXLOT":"1745000006602","MAPNUMBER":"17450000","TAXLOT":"6602","ACCTNO":"1848256","MAPACRES":396.67264},"geometry":{"type":"Polygon","coordinates":[[[-122.342853,44.056019],[-122.352542,44.056084],[-122.35254,44.056047],[-122.352427,44.052539],[-122.361951,44.052617],[-122.361515,44.0419],[-122.35889,44.041857],[-122.359173,44.050589],[-122.352323,44.050532],[-122.352039,44.041752],[-122.346195,44.041747],[-122.342421,44.041753],[-122.342637,44.048886],[-122.342745,44.052458],[-122.342853,44.056019]]]}},{"type":"Feature","properties":{"MAPTAXLOT":"1745000006700","MAPNUMBER":"17450000","TAXLOT":"6700","ACCTNO":"1698404","MAPACRES":381.0154355},"geometry":{"type":"Polygon","coordinates":[[[-122.323218,44.052326],[-122.332983,44.052388],[-122.33291,44.048814],[-122.342637,44.048886],[-122.342421,44.041753],[-122.336083,44.041715],[-122.332858,44.041702],[-122.325969,44.04161],[-122.323103,44.041579],[-122.32318,44.048743],[-122.323218,44.052326]]]}},{"type":"Feature","properties":{"MAPTAXLOT":"1745000006701","MAPNUMBER":"17450000","TAXLOT":"6701","ACCTNO":"1698412","MAPACRES":89.14772867},"geometry":{"type":"Polygon","coordinates":[[[-122.32326,44.055905],[-122.336328,44.055977],[-122.336395,44.055753],[-122.336641,44.055566],[-122.33674,44.055238],[-122.336531,44.054975],[-122.336384,44.054835],[-122.336013,44.054738],[-122.335706,44.054804],[-122.335221,44.054689],[-122.334966,44.054652],[-122.334816,44.05445],[-122.334644,44.054391],[-122.334471,44.054292],[-122.334329,44.054273],[-122.334128,44.054195],[-122.3339,44.054137],[-122.333835,44.053954],[-122.333691,44.053875],[-122.333464,44.053858],[-122.333292,44.053779],[-122.333115,44.053618],[-122.333007,44.053544],[-122.332983,44.052388],[-122.323218,44.052326],[-122.32326,44.055905]]]}},{"type":"Feature","properties":{"MAPTAXLOT":"1745000006702","MAPNUMBER":"17450000","TAXLOT":"6702","ACCTNO":"1698420","MAPACRES":141.07473502},"geometry":{"type":"Polygon","coordinates":[[[-122.336328,44.055977],[-122.342853,44.056019],[-122.342745,44.052458],[-122.342637,44.048886],[-122.33291,44.048814],[-122.332983,44.052388],[-122.333007,44.053544],[-122.333115,44.053618],[-122.333292,44.053779],[-122.333464,44.053858],[-122.333691,44.053875],[-122.333835,44.053954],[-122.3339,44.054137],[-122.334128,44.054195],[-122.334329,44.054273],[-122.334471,44.054292],[-122.334644,44.054391],[-122.334816,44.05445],[-122.334966,44.054652],[-122.335221,44.054689],[-122.335706,44.054804],[-122.336013,44.054738],[-122.336384,44.054835],[-122.336531,44.054975],[-122.33674,44.055238],[-122.336641,44.055566],[-122.336395,44.055753],[-122.336328,44.055977]]]}},{"type":"Feature","properties":{"MAPTAXLOT":"1745000006800","MAPNUMBER":"17450000","TAXLOT":"6800","ACCTNO":"1698388","MAPACRES":468.09375508},"geometry":{"type":"Polygon","coordinates":[[[-122.303478,44.056001],[-122.32326,44.055905],[-122.323218,44.052326],[-122.32318,44.048743],[-122.323103,44.041579],[-122.315839,44.041525],[-122.31336,44.041511],[-122.313364,44.048732],[-122.308419,44.048747],[-122.303474,44.048756],[-122.303478,44.056001]]]}},{"type":"Feature","properties":{"MAPTAXLOT":"1745000006802","MAPNUMBER":"17450000","TAXLOT":"6802","ACCTNO":"1698396","MAPACRES":78.65158076},"geometry":{"type":"Polygon","coordinates":[[[-122.308419,44.048747],[-122.313364,44.048732],[-122.31336,44.041511],[-122.308416,44.041511],[-122.308416,44.041513],[-122.308419,44.048747]]]}},{"type":"Feature","properties":{"MAPTAXLOT":"1845000000100","MAPNUMBER":"18450000","TAXLOT":"100","ACCTNO":"0810232","MAPACRES":23760.36954722},"geometry":{"type":"Polygon","coordinates":[[[-122.361515,44.0419],[-122.366277,44.041991],[-122.371404,44.042092],[-122.376352,44.04225],[-122.38094,44.042425],[-122.385529,44.042601],[-122.386291,44.042604],[-122.386269,44.035552],[-122.386263,44.03193],[-122.386239,44.024683],[-122.386185,44.010186],[-122.386179,43.995699],[-122.386138,43.988495],[-122.386137,43.988353],[-122.386096,43.981219],[-122.3861,43.966748],[-122.386119,43.952282],[-122.381608,43.952273],[-122.376088,43.952259],[-122.371576,43.95225],[-122.366054,43.952242],[-122.361541,43.952238],[-122.356019,43.952231],[-122.351567,43.952227],[-122.345985,43.952226],[-122.341534,43.952224],[-122.335952,43.952222],[-122.331515,43.952221],[-122.32592,43.95222],[-122.321483,43.95222],[-122.315887,43.95222],[-122.311426,43.95222],[-122.305855,43.952223],[-122.301393,43.952229],[-122.295822,43.952238],[-122.291406,43.952244],[-122.285788,43.952243],[-122.281371,43.952251],[-122.275754,43.952264],[-122.271398,43.952271],[-122.26572,43.952272],[-122.265719,43.955872],[-122.265719,43.959472],[-122.265719,43.963072],[-122.265718,43.966672],[-122.265718,43.966786],[-122.265714,43.970272],[-122.265709,43.973871],[-122.265704,43.977471],[-122.2657,43.981071],[-122.265699,43.981267],[-122.265689,43.98467],[-122.265679,43.988269],[-122.265669,43.991868],[-122.265658,43.995468],[-122.265657,43.995749],[-122.265642,43.999066],[-122.265625,44.002665],[-122.265609,44.006263],[-122.265592,44.009862],[-122.265589,44.01023],[-122.265559,44.013459],[-122.265525,44.017057],[-122.265491,44.020654],[-122.265458,44.024252],[-122.265453,44.024711],[-122.26542,44.027849],[-122.265382,44.031447],[-122.265344,44.035044],[-122.265307,44.038642],[-122.265285,44.04134],[-122.27338,44.041483],[-122.275363,44.041489],[-122.283546,44.041506],[-122.285441,44.041506],[-122.293649,44.041513],[-122.295575,44.041512],[-122.29856,44.041513],[-122.303472,44.041515],[-122.305706,44.041511],[-122.308416,44.041511],[-122.31336,44.041511],[-122.315839,44.041525],[-122.323103,44.041579],[-122.325969,44.04161],[-122.332858,44.041702],[-122.336083,44.041715],[-122.342421,44.041753],[-122.346195,44.041747],[-122.352039,44.041752],[-122.356242,44.041815],[-122.35889,44.041857],[-122.361515,44.0419]]]}}]}