{"type":"FeatureCollection","features":[{"type":"Feature","properties":{"MAPTAXLOT":"1576000000066","MAPNUMBER":"15760000","TAXLOT":"66","ACCTNO":"000None","MAPACRES":40.79097837},"geometry":{"type":"Polygon","coordinates":[[[-121.876145,44.229787],[-121.8762,44.229923],[-121.876099,44.230036],[-121.875928,44.230125],[-121.875722,44.230177],[-121.875516,44.230229],[-121.875327,44.230268],[-121.875208,44.230357],[-121.87509,44.23047],[-121.874971,44.230571],[-121.874869,44.230659],[-121.874698,44.230735],[-121.874527,44.230787],[-121.874408,44.230875],[-121.874255,44.230989],[-121.874137,44.231127],[-121.874036,44.231215],[-121.873901,44.231353],[-121.873772,44.231466],[-121.873664,44.231567],[-121.873563,44.231705],[-121.873532,44.231855],[-121.873518,44.232004],[-121.873556,44.23214],[-121.873594,44.232289],[-121.873648,44.232412],[-121.87372,44.232523],[-121.873775,44.232659],[-121.873916,44.232769],[-121.874004,44.232855],[-121.874058,44.232942],[-121.874025,44.233041],[-121.874045,44.233128],[-121.874116,44.233214],[-121.874256,44.233299],[-121.874396,44.233397],[-121.874502,44.233495],[-121.874624,44.233519],[-121.874622,44.23343],[-121.874535,44.23343],[-121.874516,44.233334],[-121.874549,44.233271],[-121.874495,44.233185],[-121.874425,44.233124],[-121.874354,44.23305],[-121.8743,44.232976],[-121.87435,44.232901],[-121.874435,44.232825],[-121.874503,44.232787],[-121.87459,44.232811],[-121.874643,44.23286],[-121.874765,44.232884],[-121.874903,44.232882],[-121.875005,44.232831],[-121.875004,44.232781],[-121.874934,44.23272],[-121.874864,44.232708],[-121.874727,44.23276],[-121.87464,44.232724],[-121.874638,44.232637],[-121.874671,44.232562],[-121.874686,44.232475],[-121.874633,44.232413],[-121.874666,44.232326],[-121.874803,44.232287],[-121.874975,44.232272],[-121.875149,44.232295],[-121.87527,44.232331],[-121.875512,44.232316],[-121.875649,44.232277],[-121.875839,44.23225],[-121.875926,44.232274],[-121.876013,44.232322],[-121.876154,44.232445],[-121.876258,44.232456],[-121.876413,44.232417],[-121.87648,44.232354],[-121.876496,44.232267],[-121.876512,44.232217],[-121.876596,44.232141],[-121.876578,44.23208],[-121.876559,44.232018],[-121.876661,44.231942],[-121.876782,44.231928],[-121.876953,44.231914],[-121.877074,44.23185],[-121.877213,44.231911],[-121.877386,44.231909],[-121.877506,44.231882],[-121.87761,44.231906],[-121.877681,44.231967],[-121.877767,44.231966],[-121.877871,44.231977],[-121.877925,44.232051],[-121.877995,44.232112],[-121.878049,44.232211],[-121.878135,44.232185],[-121.878151,44.232135],[-121.878097,44.232037],[-121.878077,44.231925],[-121.878109,44.231801],[-121.878209,44.23165],[-121.878361,44.231475],[-121.878494,44.231274],[-121.878594,44.231112],[-121.878677,44.230962],[-121.878743,44.230824],[-121.878739,44.230663],[-121.878786,44.230451],[-121.8788,44.230302],[-121.878779,44.230141],[-121.878774,44.229905],[-121.878737,44.229689],[-121.878594,44.229596],[-121.878504,44.229436],[-121.878518,44.229299],[-121.878602,44.229174],[-121.878669,44.229074],[-121.878752,44.228948],[-121.878781,44.228855],[-121.878806,44.228735],[-121.87883,44.228596],[-121.878912,44.228555],[-121.878938,44.228465],[-121.878963,44.228356],[-121.879043,44.228236],[-121.87911,44.228125],[-121.879232,44.228045],[-121.87934,44.227934],[-121.879463,44.227843],[-121.879585,44.227762],[-121.879735,44.227681],[-121.87983,44.22761],[-121.879953,44.227519],[-121.880102,44.227418],[-121.880252,44.227317],[-121.880401,44.227176],[-121.880523,44.227075],[-121.880604,44.226985],[-121.880725,44.226854],[-121.88082,44.226754],[-121.880818,44.226684],[-121.880802,44.226605],[-121.880843,44.226555],[-121.880896,44.226465],[-121.880976,44.226344],[-121.881072,44.226294],[-121.881111,44.226184],[-121.881163,44.226044],[-121.881244,44.225964],[-121.881312,44.225903],[-121.881421,44.225842],[-121.881474,44.225752],[-121.881431,44.225703],[-121.881307,44.225704],[-121.88121,44.225706],[-121.8811,44.225727],[-121.881075,44.225826],[-121.880993,44.225877],[-121.880856,44.225918],[-121.880718,44.22594],[-121.880553,44.225982],[-121.880414,44.225954],[-121.880249,44.225965],[-121.880125,44.225987],[-121.87989,44.22597],[-121.879681,44.225932],[-121.8795,44.225845],[-121.879373,44.225727],[-121.87937,44.225598],[-121.879283,44.22544],[-121.879295,44.225341],[-121.879222,44.225193],[-121.879165,44.225094],[-121.879011,44.225026],[-121.878927,44.224977],[-121.878884,44.224888],[-121.878716,44.224811],[-121.878564,44.224813],[-121.878486,44.224889],[-121.878419,44.224977],[-121.878354,44.225139],[-121.878374,44.225251],[-121.878324,44.225363],[-121.878412,44.225424],[-121.878516,44.225436],[-121.878618,44.225372],[-121.878722,44.225371],[-121.878828,44.225457],[-121.878986,44.225567],[-121.879093,44.225739],[-121.879201,44.225937],[-121.879257,44.226098],[-121.879173,44.226223],[-121.879175,44.226285],[-121.879263,44.226346],[-121.879351,44.226432],[-121.879406,44.226593],[-121.879443,44.226704],[-121.879499,44.226865],[-121.879399,44.227015],[-121.879298,44.227128],[-121.879214,44.227229],[-121.87906,44.227305],[-121.878941,44.227406],[-121.878823,44.227531],[-121.87874,44.227669],[-121.878776,44.227743],[-121.878902,44.22794],[-121.878869,44.22804],[-121.878732,44.228091],[-121.878682,44.228142],[-121.878561,44.228131],[-121.878437,44.228033],[-121.878366,44.227947],[-121.878346,44.227798],[-121.878223,44.227725],[-121.878085,44.227726],[-121.878035,44.227802],[-121.87802,44.227926],[-121.87792,44.228064],[-121.877819,44.228177],[-121.877647,44.228228],[-121.87744,44.228243],[-121.877288,44.228369],[-121.87717,44.228495],[-121.877051,44.228621],[-121.876916,44.228746],[-121.876851,44.228934],[-121.876717,44.229084],[-121.876685,44.229209],[-121.876514,44.229273],[-121.876357,44.229225],[-121.876251,44.229115],[-121.876198,44.228987],[-121.876263,44.228878],[-121.876295,44.228779],[-121.876362,44.228678],[-121.87636,44.228592],[-121.876169,44.228544],[-121.875978,44.228497],[-121.875855,44.228436],[-121.875731,44.228288],[-121.875573,44.228166],[-121.875414,44.228006],[-121.875306,44.227834],[-121.875149,44.227761],[-121.874959,44.227788],[-121.874838,44.227765],[-121.874594,44.227693],[-121.874493,44.227781],[-121.874513,44.227918],[-121.874707,44.228077],[-121.874865,44.228199],[-121.875041,44.228346],[-121.875219,44.228555],[-121.875274,44.228691],[-121.875346,44.22884],[-121.875524,44.229049],[-121.875685,44.229308],[-121.875845,44.22948],[-121.875987,44.229677],[-121.876145,44.229787]]]}},{"type":"Feature","properties":{"MAPTAXLOT":"1576000000077","MAPNUMBER":"15760000","TAXLOT":"77","ACCTNO":"000None","MAPACRES":28.87555066},"geometry":{"type":"Polygon","coordinates":[[[-121.836674,44.249558],[-121.836674,44.249725],[-121.836692,44.249723],[-121.836736,44.249718],[-121.836841,44.249701],[-121.836969,44.249692],[-121.837986,44.249563],[-121.838147,44.249537],[-121.838303,44.249498],[-121.838595,44.249471],[-121.838763,44.249422],[-121.838929,44.249334],[-121.839073,44.249236],[-121.839127,44.249104],[-121.839185,44.249047],[-121.839238,44.248968],[-121.839211,44.248877],[-121.839226,44.248786],[-121.839261,44.24868],[-121.839339,44.248597],[-121.839465,44.248503],[-121.839678,44.248434],[-121.839962,44.248401],[-121.84039,44.248366],[-121.841226,44.248364],[-121.841345,44.248362],[-121.841456,44.248331],[-121.841671,44.248246],[-121.841928,44.248111],[-121.842415,44.247911],[-121.843211,44.247584],[-121.843487,44.247448],[-121.843612,44.247329],[-121.843717,44.24724],[-121.843742,44.247047],[-121.843704,44.246906],[-121.843678,44.246782],[-121.843641,44.246645],[-121.843514,44.246346],[-121.843338,44.245983],[-121.84329,44.245873],[-121.843305,44.245822],[-121.843333,44.245695],[-121.843373,44.245612],[-121.843453,44.24556],[-121.843542,44.245485],[-121.844008,44.245239],[-121.844318,44.245108],[-121.844535,44.245043],[-121.845193,44.244722],[-121.845982,44.244379],[-121.847266,44.243784],[-121.847466,44.243713],[-121.847647,44.243638],[-121.848096,44.243398],[-121.849224,44.242868],[-121.85025,44.242429],[-121.850787,44.242182],[-121.851465,44.241855],[-121.853214,44.241037],[-121.854325,44.240567],[-121.854619,44.240433],[-121.854885,44.240341],[-121.855045,44.240304],[-121.855296,44.240263],[-121.855484,44.240238],[-121.855717,44.240212],[-121.856008,44.240194],[-121.856263,44.240199],[-121.856407,44.240197],[-121.856527,44.240229],[-121.856618,44.240252],[-121.85671,44.240273],[-121.856817,44.24031],[-121.857187,44.240289],[-121.857519,44.240293],[-121.857952,44.24028],[-121.858406,44.240251],[-121.858867,44.240223],[-121.859452,44.2402],[-121.860035,44.240154],[-121.860167,44.240146],[-121.860299,44.240166],[-121.860542,44.240181],[-121.860738,44.240143],[-121.860874,44.240109],[-121.86105,44.240053],[-121.861135,44.239989],[-121.861355,44.239857],[-121.861556,44.23973],[-121.861904,44.239519],[-121.862369,44.23928],[-121.862868,44.238965],[-121.863075,44.238789],[-121.863295,44.238617],[-121.863366,44.238519],[-121.863437,44.238404],[-121.863525,44.237897],[-121.863705,44.237251],[-121.86379,44.236792],[-121.863962,44.236136],[-121.864212,44.234976],[-121.864233,44.234887],[-121.86431,44.234785],[-121.864393,44.234685],[-121.864512,44.234561],[-121.864742,44.234421],[-121.864945,44.234271],[-121.865098,44.234168],[-121.865234,44.234052],[-121.865331,44.233898],[-121.865464,44.233747],[-121.865538,44.233605],[-121.865576,44.233484],[-121.865584,44.233398],[-121.865582,44.233312],[-121.865521,44.233006],[-121.86548,44.232844],[-121.865452,44.232743],[-121.865437,44.23267],[-121.865485,44.232574],[-121.865523,44.232503],[-121.865613,44.232419],[-121.865705,44.232351],[-121.86579,44.232311],[-121.865923,44.232288],[-121.866036,44.232281],[-121.86703,44.232276],[-121.867217,44.232267],[-121.867369,44.232266],[-121.867537,44.232218],[-121.867678,44.232161],[-121.867819,44.232094],[-121.867923,44.232009],[-121.867976,44.231943],[-121.868026,44.23186],[-121.868063,44.231732],[-121.868079,44.231632],[-121.868094,44.231531],[-121.868092,44.231406],[-121.868046,44.231332],[-121.867994,44.231257],[-121.867904,44.231159],[-121.86757,44.230882],[-121.86729,44.23057],[-121.867181,44.230451],[-121.867073,44.230323],[-121.867032,44.230209],[-121.867021,44.230084],[-121.866984,44.229939],[-121.867013,44.229795],[-121.86707,44.229606],[-121.867101,44.229474],[-121.867196,44.229325],[-121.867261,44.229233],[-121.867327,44.229161],[-121.867434,44.229056],[-121.86764,44.22889],[-121.868819,44.227907],[-121.86909,44.227692],[-121.869389,44.227438],[-121.870602,44.226361],[-121.870913,44.226082],[-121.871061,44.225883],[-121.871251,44.225488],[-121.872231,44.223661],[-121.872472,44.223198],[-121.872521,44.22308],[-121.8726,44.222966],[-121.872708,44.222837],[-121.872831,44.222715],[-121.872943,44.222631],[-121.873075,44.222552],[-121.873193,44.222495],[-121.873368,44.22241],[-121.873542,44.222326],[-121.873788,44.222225],[-121.874485,44.222008],[-121.875893,44.221661],[-121.876781,44.221477],[-121.877404,44.221305],[-121.877719,44.221217],[-121.877874,44.221159],[-121.878006,44.221088],[-121.878111,44.221027],[-121.878172,44.220958],[-121.878269,44.22085],[-121.878297,44.220781],[-121.878358,44.220687],[-121.878386,44.220577],[-121.878404,44.220465],[-121.87839,44.220313],[-121.878349,44.220128],[-121.878031,44.219049],[-121.877995,44.218584],[-121.878009,44.218411],[-121.878025,44.21829],[-121.877953,44.218073],[-121.877888,44.217859],[-121.877779,44.217389],[-121.877641,44.216768],[-121.877276,44.21483],[-121.877209,44.214568],[-121.877169,44.214375],[-121.877157,44.214259],[-121.877154,44.214103],[-121.877123,44.213917],[-121.877098,44.213614],[-121.876891,44.212772],[-121.876811,44.212343],[-121.876694,44.21195],[-121.876578,44.211577],[-121.876447,44.211269],[-121.876208,44.211269],[-121.876218,44.211293],[-121.876356,44.211619],[-121.876471,44.211986],[-121.876585,44.212371],[-121.876665,44.212797],[-121.876871,44.213633],[-121.876895,44.213931],[-121.876925,44.214115],[-121.876929,44.214266],[-121.876941,44.214393],[-121.876983,44.214595],[-121.87705,44.214856],[-121.877415,44.216792],[-121.877553,44.217416],[-121.877664,44.21789],[-121.87773,44.21811],[-121.877794,44.218301],[-121.877781,44.218398],[-121.877765,44.218583],[-121.877804,44.219071],[-121.878124,44.220159],[-121.878163,44.220331],[-121.878174,44.220461],[-121.878159,44.220553],[-121.878138,44.220636],[-121.878081,44.220723],[-121.878058,44.220782],[-121.87798,44.220868],[-121.877938,44.220916],[-121.877865,44.220959],[-121.877752,44.221019],[-121.877624,44.221067],[-121.877321,44.221152],[-121.876708,44.221321],[-121.875824,44.221504],[-121.874402,44.221855],[-121.873685,44.222077],[-121.873421,44.222186],[-121.873241,44.222273],[-121.873065,44.222359],[-121.872938,44.22242],[-121.872787,44.22251],[-121.872655,44.222609],[-121.872517,44.222746],[-121.872399,44.222887],[-121.872308,44.223019],[-121.872255,44.223145],[-121.872018,44.223603],[-121.871036,44.225432],[-121.870851,44.225816],[-121.870721,44.225991],[-121.870424,44.226257],[-121.869213,44.227333],[-121.868917,44.227584],[-121.868648,44.227798],[-121.867468,44.228781],[-121.867255,44.228952],[-121.867138,44.229067],[-121.867063,44.229151],[-121.86699,44.229253],[-121.86688,44.229425],[-121.866845,44.229575],[-121.866788,44.229766],[-121.866752,44.229942],[-121.866794,44.230104],[-121.866805,44.230235],[-121.86686,44.230388],[-121.866988,44.230538],[-121.867098,44.23066],[-121.867386,44.230981],[-121.867721,44.231259],[-121.867795,44.231339],[-121.867838,44.231402],[-121.867863,44.231443],[-121.867865,44.231523],[-121.867851,44.231614],[-121.867837,44.231706],[-121.867807,44.23181],[-121.867772,44.231868],[-121.867736,44.231912],[-121.867667,44.231969],[-121.867559,44.232021],[-121.867439,44.232069],[-121.867324,44.232102],[-121.867208,44.232103],[-121.867022,44.232112],[-121.866025,44.232117],[-121.865886,44.232126],[-121.865699,44.232158],[-121.865559,44.232223],[-121.86544,44.232311],[-121.865321,44.232422],[-121.865271,44.232517],[-121.865202,44.232653],[-121.865226,44.232771],[-121.865256,44.232875],[-121.865295,44.233032],[-121.865354,44.233325],[-121.865355,44.233393],[-121.865348,44.23346],[-121.865318,44.233558],[-121.865258,44.233674],[-121.865129,44.23382],[-121.865039,44.233963],[-121.864932,44.234054],[-121.864784,44.234153],[-121.864585,44.234301],[-121.864341,44.234449],[-121.8642,44.234596],[-121.864111,44.234704],[-121.864014,44.234833],[-121.863986,44.23495],[-121.863736,44.23611],[-121.863564,44.236766],[-121.863479,44.237224],[-121.863299,44.237871],[-121.863214,44.238359],[-121.86316,44.238447],[-121.863106,44.238521],[-121.862903,44.23868],[-121.862704,44.23885],[-121.862226,44.239151],[-121.861763,44.239389],[-121.861407,44.239605],[-121.861206,44.239732],[-121.860978,44.239869],[-121.860916,44.239915],[-121.860789,44.239956],[-121.86067,44.239986],[-121.860521,44.240015],[-121.860332,44.240003],[-121.860181,44.23998],[-121.860012,44.239991],[-121.859433,44.240036],[-121.858851,44.240058],[-121.858386,44.240087],[-121.857937,44.240116],[-121.857516,44.240128],[-121.85718,44.240124],[-121.856861,44.240142],[-121.856795,44.240119],[-121.856691,44.240096],[-121.856605,44.240074],[-121.856446,44.240032],[-121.856264,44.240034],[-121.856001,44.240029],[-121.85569,44.240049],[-121.855446,44.240076],[-121.85525,44.240102],[-121.854984,44.240145],[-121.854799,44.240188],[-121.854508,44.240289],[-121.854206,44.240426],[-121.853094,44.240897],[-121.851339,44.241718],[-121.850661,44.242044],[-121.85013,44.242289],[-121.849103,44.242728],[-121.847965,44.243263],[-121.847521,44.2435],[-121.847358,44.243568],[-121.847153,44.243641],[-121.845861,44.24424],[-121.84507,44.244583],[-121.844425,44.244897],[-121.844215,44.244961],[-121.843882,44.245101],[-121.843386,44.245363],[-121.843288,44.245445],[-121.843176,44.245519],[-121.84311,44.245655],[-121.843079,44.245793],[-121.843055,44.245882],[-121.84312,44.246034],[-121.843296,44.246397],[-121.843419,44.246685],[-121.843452,44.24681],[-121.843478,44.246934],[-121.843511,44.247056],[-121.843496,44.247173],[-121.843433,44.247226],[-121.843326,44.247327],[-121.843089,44.247445],[-121.842124,44.247841],[-121.841953,44.247911],[-121.841804,44.247972],[-121.841548,44.248107],[-121.841358,44.248182],[-121.841299,44.248198],[-121.841223,44.248199],[-121.840376,44.248201],[-121.839931,44.248238],[-121.839611,44.248275],[-121.839331,44.248366],[-121.83916,44.248493],[-121.839048,44.248613],[-121.839001,44.248757],[-121.838979,44.248884],[-121.838998,44.248947],[-121.838988,44.248962],[-121.838919,44.24903],[-121.838871,44.249147],[-121.838782,44.249208],[-121.83865,44.249278],[-121.838537,44.24931],[-121.83825,44.249337],[-121.838084,44.249379],[-121.837941,44.249402],[-121.836937,44.249529],[-121.836806,44.249539],[-121.836694,44.249556],[-121.836674,44.249558]]]}},{"type":"Feature","properties":{"MAPTAXLOT":"1576000000100","MAPNUMBER":"15760000","TAXLOT":"100","ACCTNO":"1857315","MAPACRES":7501.85194588},"geometry":{"type":"MultiPolygon","coordinates":[[[[-121.839962,44.248401],[-121.839678,44.248434],[-121.839465,44.248503],[-121.839339,44.248597],[-121.839261,44.24868],[-121.839226,44.248786],[-121.839211,44.248877],[-121.839238,44.248968],[-121.839185,44.249047],[-121.839127,44.249104],[-121.839073,44.249236],[-121.838929,44.249334],[-121.838763,44.249422],[-121.838595,44.249471],[-121.838303,44.249498],[-121.838147,44.249537],[-121.837986,44.249563],[-121.836969,44.249692],[-121.836841,44.249701],[-121.836736,44.249718],[-121.836692,44.249723],[-121.836674,44.249725],[-121.836674,44.251531],[-121.836674,44.255151],[-121.836674,44.258253],[-121.908903,44.258237],[-121.908926,44.24791],[-121.908926,44.24429],[-121.908926,44.24067],[-121.908926,44.23705],[-121.908926,44.23343],[-121.908926,44.211312],[-121.908926,44.211299],[-121.907551,44.211297],[-121.90503,44.211295],[-121.899987,44.211289],[-121.897068,44.211286],[-121.894952,44.211284],[-121.889916,44.211279],[-121.884881,44.211274],[-121.879846,44.211269],[-121.876936,44.211269],[-121.876447,44.211269],[-121.876578,44.211577],[-121.876694,44.21195],[-121.876811,44.212343],[-121.876891,44.212772],[-121.877098,44.213614],[-121.877123,44.213917],[-121.877154,44.214103],[-121.877157,44.214259],[-121.877169,44.214375],[-121.877209,44.214568],[-121.877276,44.21483],[-121.877641,44.216768],[-121.877779,44.217389],[-121.877888,44.217859],[-121.877953,44.218073],[-121.878025,44.21829],[-121.878009,44.218411],[-121.877995,44.218584],[-121.878031,44.219049],[-121.878349,44.220128],[-121.87839,44.220313],[-121.878404,44.220465],[-121.878386,44.220577],[-121.878358,44.220687],[-121.878297,44.220781],[-121.878269,44.22085],[-121.878172,44.220958],[-121.878111,44.221027],[-121.878006,44.221088],[-121.877874,44.221159],[-121.877719,44.221217],[-121.877404,44.221305],[-121.876781,44.221477],[-121.875893,44.221661],[-121.874485,44.222008],[-121.873788,44.222225],[-121.873542,44.222326],[-121.873368,44.22241],[-121.873193,44.222495],[-121.873075,44.222552],[-121.872943,44.222631],[-121.872831,44.222715],[-121.872708,44.222837],[-121.8726,44.222966],[-121.872521,44.22308],[-121.872472,44.223198],[-121.872231,44.223661],[-121.871251,44.225488],[-121.871061,44.225883],[-121.870913,44.226082],[-121.870602,44.226361],[-121.869389,44.227438],[-121.86909,44.227692],[-121.868819,44.227907],[-121.86764,44.22889],[-121.867434,44.229056],[-121.867327,44.229161],[-121.867261,44.229233],[-121.867196,44.229325],[-121.867101,44.229474],[-121.86707,44.229606],[-121.867013,44.229795],[-121.866984,44.229939],[-121.867021,44.230084],[-121.867032,44.230209],[-121.867073,44.230323],[-121.867181,44.230451],[-121.86729,44.23057],[-121.86757,44.230882],[-121.867904,44.231159],[-121.867994,44.231257],[-121.868046,44.231332],[-121.868092,44.231406],[-121.868094,44.231531],[-121.868079,44.231632],[-121.868063,44.231732],[-121.868026,44.23186],[-121.867976,44.231943],[-121.867923,44.232009],[-121.867819,44.232094],[-121.867678,44.232161],[-121.867537,44.232218],[-121.867369,44.232266],[-121.867217,44.232267],[-121.86703,44.232276],[-121.866036,44.232281],[-121.865923,44.232288],[-121.86579,44.232311],[-121.865705,44.232351],[-121.865613,44.232419],[-121.865523,44.232503],[-121.865485,44.232574],[-121.865437,44.23267],[-121.865452,44.232743],[-121.86548,44.232844],[-121.865521,44.233006],[-121.865582,44.233312],[-121.865584,44.233398],[-121.865576,44.233484],[-121.865538,44.233605],[-121.865464,44.233747],[-121.865331,44.233898],[-121.865234,44.234052],[-121.865098,44.234168],[-121.864945,44.234271],[-121.864742,44.234421],[-121.864512,44.234561],[-121.864393,44.234685],[-121.86431,44.234785],[-121.864233,44.234887],[-121.864212,44.234976],[-121.863962,44.236136],[-121.86379,44.236792],[-121.863705,44.237251],[-121.863525,44.237897],[-121.863437,44.238404],[-121.863366,44.238519],[-121.863295,44.238617],[-121.863075,44.238789],[-121.862868,44.238965],[-121.862369,44.23928],[-121.861904,44.239519],[-121.861556,44.23973],[-121.861355,44.239857],[-121.861135,44.239989],[-121.86105,44.240053],[-121.860874,44.240109],[-121.860738,44.240143],[-121.860542,44.240181],[-121.860299,44.240166],[-121.860167,44.240146],[-121.860035,44.240154],[-121.859452,44.2402],[-121.858867,44.240223],[-121.858406,44.240251],[-121.857952,44.24028],[-121.857519,44.240293],[-121.857187,44.240289],[-121.856817,44.24031],[-121.85671,44.240273],[-121.856618,44.240252],[-121.856527,44.240229],[-121.856407,44.240197],[-121.856263,44.240199],[-121.856008,44.240194],[-121.855717,44.240212],[-121.855484,44.240238],[-121.855296,44.240263],[-121.855045,44.240304],[-121.854885,44.240341],[-121.854619,44.240433],[-121.854325,44.240567],[-121.853214,44.241037],[-121.851465,44.241855],[-121.850787,44.242182],[-121.85025,44.242429],[-121.849224,44.242868],[-121.848096,44.243398],[-121.847647,44.243638],[-121.847466,44.243713],[-121.847266,44.243784],[-121.845982,44.244379],[-121.845193,44.244722],[-121.844535,44.245043],[-121.844318,44.245108],[-121.844008,44.245239],[-121.843542,44.245485],[-121.843453,44.24556],[-121.843373,44.245612],[-121.843333,44.245695],[-121.843305,44.245822],[-121.84329,44.245873],[-121.843338,44.245983],[-121.843514,44.246346],[-121.843641,44.246645],[-121.843678,44.246782],[-121.843704,44.246906],[-121.843742,44.247047],[-121.843717,44.24724],[-121.843612,44.247329],[-121.843487,44.247448],[-121.843211,44.247584],[-121.842415,44.247911],[-121.841928,44.248111],[-121.841671,44.248246],[-121.841456,44.248331],[-121.841345,44.248362],[-121.841226,44.248364],[-121.84039,44.248366],[-121.839962,44.248401]],[[-121.87435,44.232901],[-121.8743,44.232976],[-121.874354,44.23305],[-121.874425,44.233124],[-121.874495,44.233185],[-121.874549,44.233271],[-121.874516,44.233334],[-121.874535,44.23343],[-121.874622,44.23343],[-121.874624,44.233519],[-121.874502,44.233495],[-121.874396,44.233397],[-121.874256,44.233299],[-121.874116,44.233214],[-121.874045,44.233128],[-121.874025,44.233041],[-121.874058,44.232942],[-121.874004,44.232855],[-121.873916,44.232769],[-121.873775,44.232659],[-121.87372,44.232523],[-121.873648,44.232412],[-121.873594,44.232289],[-121.873556,44.23214],[-121.873518,44.232004],[-121.873532,44.231855],[-121.873563,44.231705],[-121.873664,44.231567],[-121.873772,44.231466],[-121.873901,44.231353],[-121.874036,44.231215],[-121.874137,44.231127],[-121.874255,44.230989],[-121.874408,44.230875],[-121.874527,44.230787],[-121.874698,44.230735],[-121.874869,44.230659],[-121.874971,44.230571],[-121.87509,44.23047],[-121.875208,44.230357],[-121.875327,44.230268],[-121.875516,44.230229],[-121.875722,44.230177],[-121.875928,44.230125],[-121.876099,44.230036],[-121.8762,44.229923],[-121.876145,44.229787],[-121.875987,44.229677],[-121.875845,44.22948],[-121.875685,44.229308],[-121.875524,44.229049],[-121.875346,44.22884],[-121.875274,44.228691],[-121.875219,44.228555],[-121.875041,44.228346],[-121.874865,44.228199],[-121.874707,44.228077],[-121.874513,44.227918],[-121.874493,44.227781],[-121.874594,44.227693],[-121.874838,44.227765],[-121.874959,44.227788],[-121.875149,44.227761],[-121.875306,44.227834],[-121.875414,44.228006],[-121.875573,44.228166],[-121.875731,44.228288],[-121.875855,44.228436],[-121.875978,44.228497],[-121.876169,44.228544],[-121.87636,44.228592],[-121.876362,44.228678],[-121.876295,44.228779],[-121.876263,44.228878],[-121.876198,44.228987],[-121.876251,44.229115],[-121.876357,44.229225],[-121.876514,44.229273],[-121.876685,44.229209],[-121.876717,44.229084],[-121.876851,44.228934],[-121.876916,44.228746],[-121.877051,44.228621],[-121.87717,44.228495],[-121.877288,44.228369],[-121.87744,44.228243],[-121.877647,44.228228],[-121.877819,44.228177],[-121.87792,44.228064],[-121.87802,44.227926],[-121.878035,44.227802],[-121.878085,44.227726],[-121.878223,44.227725],[-121.878346,44.227798],[-121.878366,44.227947],[-121.878437,44.228033],[-121.878561,44.228131],[-121.878682,44.228142],[-121.878732,44.228091],[-121.878869,44.22804],[-121.878902,44.22794],[-121.878776,44.227743],[-121.87874,44.227669],[-121.878823,44.227531],[-121.878941,44.227406],[-121.87906,44.227305],[-121.879214,44.227229],[-121.879298,44.227128],[-121.879399,44.227015],[-121.879499,44.226865],[-121.879443,44.226704],[-121.879406,44.226593],[-121.879351,44.226432],[-121.879263,44.226346],[-121.879175,44.226285],[-121.879173,44.226223],[-121.879257,44.226098],[-121.879201,44.225937],[-121.879093,44.225739],[-121.878986,44.225567],[-121.878828,44.225457],[-121.878722,44.225371],[-121.878618,44.225372],[-121.878516,44.225436],[-121.878412,44.225424],[-121.878324,44.225363],[-121.878374,44.225251],[-121.878354,44.225139],[-121.878419,44.224977],[-121.878486,44.224889],[-121.878564,44.224813],[-121.878716,44.224811],[-121.878884,44.224888],[-121.878927,44.224977],[-121.879011,44.225026],[-121.879165,44.225094],[-121.879222,44.225193],[-121.879295,44.225341],[-121.879283,44.22544],[-121.87937,44.225598],[-121.879373,44.225727],[-121.8795,44.225845],[-121.879681,44.225932],[-121.87989,44.22597],[-121.880125,44.225987],[-121.880249,44.225965],[-121.880414,44.225954],[-121.880553,44.225982],[-121.880718,44.22594],[-121.880856,44.225918],[-121.880993,44.225877],[-121.881075,44.225826],[-121.8811,44.225727],[-121.88121,44.225706],[-121.881307,44.225704],[-121.881431,44.225703],[-121.881474,44.225752],[-121.881421,44.225842],[-121.881312,44.225903],[-121.881244,44.225964],[-121.881163,44.226044],[-121.881111,44.226184],[-121.881072,44.226294],[-121.880976,44.226344],[-121.880896,44.226465],[-121.880843,44.226555],[-121.880802,44.226605],[-121.880818,44.226684],[-121.88082,44.226754],[-121.880725,44.226854],[-121.880604,44.226985],[-121.880523,44.227075],[-121.880401,44.227176],[-121.880252,44.227317],[-121.880102,44.227418],[-121.879953,44.227519],[-121.87983,44.22761],[-121.879735,44.227681],[-121.879585,44.227762],[-121.879463,44.227843],[-121.87934,44.227934],[-121.879232,44.228045],[-121.87911,44.228125],[-121.879043,44.228236],[-121.878963,44.228356],[-121.878938,44.228465],[-121.878912,44.228555],[-121.87883,44.228596],[-121.878806,44.228735],[-121.878781,44.228855],[-121.878752,44.228948],[-121.878669,44.229074],[-121.878602,44.229174],[-121.878518,44.229299],[-121.878504,44.229436],[-121.878594,44.229596],[-121.878737,44.229689],[-121.878774,44.229905],[-121.878779,44.230141],[-121.8788,44.230302],[-121.878786,44.230451],[-121.878739,44.230663],[-121.878743,44.230824],[-121.878677,44.230962],[-121.878594,44.231112],[-121.878494,44.231274],[-121.878361,44.231475],[-121.878209,44.23165],[-121.878109,44.231801],[-121.878077,44.231925],[-121.878097,44.232037],[-121.878151,44.232135],[-121.878135,44.232185],[-121.878049,44.232211],[-121.877995,44.232112],[-121.877925,44.232051],[-121.877871,44.231977],[-121.877767,44.231966],[-121.877681,44.231967],[-121.87761,44.231906],[-121.877506,44.231882],[-121.877386,44.231909],[-121.877213,44.231911],[-121.877074,44.23185],[-121.876953,44.231914],[-121.876782,44.231928],[-121.876661,44.231942],[-121.876559,44.232018],[-121.876578,44.23208],[-121.876596,44.232141],[-121.876512,44.232217],[-121.876496,44.232267],[-121.87648,44.232354],[-121.876413,44.232417],[-121.876258,44.232456],[-121.876154,44.232445],[-121.876013,44.232322],[-121.875926,44.232274],[-121.875839,44.23225],[-121.875649,44.232277],[-121.875512,44.232316],[-121.87527,44.232331],[-121.875149,44.232295],[-121.874975,44.232272],[-121.874803,44.232287],[-121.874666,44.232326],[-121.874633,44.232413],[-121.874686,44.232475],[-121.874671,44.232562],[-121.874638,44.232637],[-121.87464,44.232724],[-121.874727,44.23276],[-121.874864,44.232708],[-121.874934,44.23272],[-121.875004,44.232781],[-121.875005,44.232831],[-121.874903,44.232882],[-121.874765,44.232884],[-121.874643,44.23286],[-121.87459,44.232811],[-121.874503,44.232787],[-121.874435,44.232825],[-121.87435,44.232901]]],[[[-121.836674,44.249558],[-121.836694,44.249556],[-121.836806,44.249539],[-121.836937,44.249529],[-121.837941,44.249402],[-121.838084,44.249379],[-121.83825,44.249337],[-121.838537,44.24931],[-121.83865,44.249278],[-121.838782,44.249208],[-121.838871,44.249147],[-121.838919,44.24903],[-121.838988,44.248962],[-121.838998,44.248947],[-121.838979,44.248884],[-121.839001,44.248757],[-121.839048,44.248613],[-121.83916,44.248493],[-121.839331,44.248366],[-121.839611,44.248275],[-121.839931,44.248238],[-121.840376,44.248201],[-121.841223,44.248199],[-121.841299,44.248198],[-121.841358,44.248182],[-121.841548,44.248107],[-121.841804,44.247972],[-121.841953,44.247911],[-121.842124,44.247841],[-121.843089,44.247445],[-121.843326,44.247327],[-121.843433,44.247226],[-121.843496,44.247173],[-121.843511,44.247056],[-121.843478,44.246934],[-121.843452,44.24681],[-121.843419,44.246685],[-121.843296,44.246397],[-121.84312,44.246034],[-121.843055,44.245882],[-121.843079,44.245793],[-121.84311,44.245655],[-121.843176,44.245519],[-121.843288,44.245445],[-121.843386,44.245363],[-121.843882,44.245101],[-121.844215,44.244961],[-121.844425,44.244897],[-121.84507,44.244583],[-121.845861,44.24424],[-121.847153,44.243641],[-121.847358,44.243568],[-121.847521,44.2435],[-121.847965,44.243263],[-121.849103,44.242728],[-121.85013,44.242289],[-121.850661,44.242044],[-121.851339,44.241718],[-121.853094,44.240897],[-121.854206,44.240426],[-121.854508,44.240289],[-121.854799,44.240188],[-121.854984,44.240145],[-121.85525,44.240102],[-121.855446,44.240076],[-121.85569,44.240049],[-121.856001,44.240029],[-121.856264,44.240034],[-121.856446,44.240032],[-121.856605,44.240074],[-121.856691,44.240096],[-121.856795,44.240119],[-121.856861,44.240142],[-121.85718,44.240124],[-121.857516,44.240128],[-121.857937,44.240116],[-121.858386,44.240087],[-121.858851,44.240058],[-121.859433,44.240036],[-121.860012,44.239991],[-121.860181,44.23998],[-121.860332,44.240003],[-121.860521,44.240015],[-121.86067,44.239986],[-121.860789,44.239956],[-121.860916,44.239915],[-121.860978,44.239869],[-121.861206,44.239732],[-121.861407,44.239605],[-121.861763,44.239389],[-121.862226,44.239151],[-121.862704,44.23885],[-121.862903,44.23868],[-121.863106,44.238521],[-121.86316,44.238447],[-121.863214,44.238359],[-121.863299,44.237871],[-121.863479,44.237224],[-121.863564,44.236766],[-121.863736,44.23611],[-121.863986,44.23495],[-121.864014,44.234833],[-121.864111,44.234704],[-121.8642,44.234596],[-121.864341,44.234449],[-121.864585,44.234301],[-121.864784,44.234153],[-121.864932,44.234054],[-121.865039,44.233963],[-121.865129,44.23382],[-121.865258,44.233674],[-121.865318,44.233558],[-121.865348,44.23346],[-121.865355,44.233393],[-121.865354,44.233325],[-121.865295,44.233032],[-121.865256,44.232875],[-121.865226,44.232771],[-121.865202,44.232653],[-121.865271,44.232517],[-121.865321,44.232422],[-121.86544,44.232311],[-121.865559,44.232223],[-121.865699,44.232158],[-121.865886,44.232126],[-121.866025,44.232117],[-121.867022,44.232112],[-121.867208,44.232103],[-121.867324,44.232102],[-121.867439,44.232069],[-121.867559,44.232021],[-121.867667,44.231969],[-121.867736,44.231912],[-121.867772,44.231868],[-121.867807,44.23181],[-121.867837,44.231706],[-121.867851,44.231614],[-121.867865,44.231523],[-121.867863,44.231443],[-121.867838,44.231402],[-121.867795,44.231339],[-121.867721,44.231259],[-121.867386,44.230981],[-121.867098,44.23066],[-121.866988,44.230538],[-121.86686,44.230388],[-121.866805,44.230235],[-121.866794,44.230104],[-121.866752,44.229942],[-121.866788,44.229766],[-121.866845,44.229575],[-121.86688,44.229425],[-121.86699,44.229253],[-121.867063,44.229151],[-121.867138,44.229067],[-121.867255,44.228952],[-121.867468,44.228781],[-121.868648,44.227798],[-121.868917,44.227584],[-121.869213,44.227333],[-121.870424,44.226257],[-121.870721,44.225991],[-121.870851,44.225816],[-121.871036,44.225432],[-121.872018,44.223603],[-121.872255,44.223145],[-121.872308,44.223019],[-121.872399,44.222887],[-121.872517,44.222746],[-121.872655,44.222609],[-121.872787,44.22251],[-121.872938,44.22242],[-121.873065,44.222359],[-121.873241,44.222273],[-121.873421,44.222186],[-121.873685,44.222077],[-121.874402,44.221855],[-121.875824,44.221504],[-121.876708,44.221321],[-121.877321,44.221152],[-121.877624,44.221067],[-121.877752,44.221019],[-121.877865,44.220959],[-121.877938,44.220916],[-121.87798,44.220868],[-121.878058,44.220782],[-121.878081,44.220723],[-121.878138,44.220636],[-121.878159,44.220553],[-121.878174,44.220461],[-121.878163,44.220331],[-121.878124,44.220159],[-121.877804,44.219071],[-121.877765,44.218583],[-121.877781,44.218398],[-121.877794,44.218301],[-121.87773,44.21811],[-121.877664,44.21789],[-121.877553,44.217416],[-121.877415,44.216792],[-121.87705,44.214856],[-121.876983,44.214595],[-121.876941,44.214393],[-121.876929,44.214266],[-121.876925,44.214115],[-121.876895,44.213931],[-121.876871,44.213633],[-121.876665,44.212797],[-121.876585,44.212371],[-121.876471,44.211986],[-121.876356,44.211619],[-121.876218,44.211293],[-121.876208,44.211269],[-121.874814,44.211269],[-121.869783,44.211268],[-121.864759,44.211263],[-121.859735,44.211257],[-121.856806,44.211578],[-121.851773,44.211578],[-121.848128,44.211578],[-121.84674,44.211578],[-121.843095,44.211578],[-121.841707,44.211578],[-121.838062,44.211578],[-121.836673,44.211578],[-121.833028,44.211578],[-121.83164,44.211578],[-121.827995,44.211579],[-121.827995,44.211578],[-121.827995,44.215329],[-121.827995,44.21895],[-121.827995,44.21895],[-121.83147,44.21895],[-121.83164,44.21895],[-121.836673,44.21895],[-121.836673,44.22257],[-121.836674,44.22619],[-121.836674,44.22981],[-121.836674,44.23343],[-121.836674,44.23705],[-121.836674,44.24067],[-121.836674,44.244291],[-121.836674,44.247911],[-121.836674,44.249558]]]]}},{"type":"Feature","properties":{"MAPTAXLOT":"1585000000100","MAPNUMBER":"15850000","TAXLOT":"100","ACCTNO":"1857323","MAPACRES":4197.56248677},"geometry":{"type":"MultiPolygon","coordinates":[[[[-121.789984,44.249532],[-121.790365,44.249852],[-121.791203,44.250481],[-121.792538,44.251214],[-121.793301,44.251718],[-121.793904,44.252701],[-121.794413,44.253091],[-121.794954,44.253274],[-121.79683,44.254281],[-121.797307,44.254625],[-121.798767,44.257576],[-121.799339,44.258285],[-121.812545,44.258271],[-121.81302,44.258265],[-121.813269,44.258141],[-121.813815,44.257869],[-121.814601,44.257448],[-121.8154,44.257055],[-121.816588,44.256457],[-121.817357,44.256064],[-121.817777,44.255858],[-121.818391,44.255531],[-121.819056,44.255186],[-121.819442,44.255021],[-121.820236,44.254623],[-121.821587,44.253967],[-121.822246,44.253619],[-121.822794,44.253314],[-121.823016,44.253193],[-121.824431,44.252518],[-121.824802,44.252306],[-121.825562,44.2519],[-121.826102,44.251635],[-121.826379,44.251523],[-121.826725,44.251344],[-121.827132,44.251122],[-121.827988,44.2507],[-121.828321,44.250539],[-121.828771,44.25034],[-121.829174,44.250148],[-121.829738,44.249937],[-121.830138,44.2498],[-121.831467,44.249358],[-121.833308,44.24876],[-121.833576,44.248708],[-121.833719,44.248683],[-121.833853,44.248664],[-121.834255,44.248667],[-121.834417,44.248674],[-121.834621,44.248705],[-121.834811,44.248758],[-121.834917,44.248831],[-121.835645,44.249338],[-121.835832,44.249429],[-121.835985,44.249486],[-121.836146,44.249534],[-121.836317,44.249561],[-121.836423,44.249573],[-121.836555,44.249572],[-121.836656,44.24956],[-121.836674,44.249558],[-121.836674,44.247911],[-121.836674,44.244291],[-121.836674,44.24067],[-121.836674,44.23705],[-121.836674,44.23343],[-121.836674,44.22981],[-121.836674,44.22619],[-121.836673,44.22257],[-121.836673,44.21895],[-121.83164,44.21895],[-121.83147,44.21895],[-121.827995,44.21895],[-121.822618,44.21895],[-121.817584,44.21895],[-121.816369,44.21895],[-121.81255,44.21895],[-121.807516,44.21895],[-121.807516,44.21895],[-121.802482,44.21895],[-121.797448,44.21895],[-121.796233,44.21895],[-121.792414,44.21895],[-121.78738,44.21895],[-121.782346,44.21895],[-121.777808,44.21895],[-121.777783,44.219149],[-121.777909,44.22011],[-121.778668,44.222969],[-121.778985,44.223519],[-121.779683,44.22416],[-121.781399,44.225213],[-121.782321,44.225351],[-121.783815,44.225924],[-121.784196,44.226336],[-121.785782,44.229379],[-121.78594,44.2305],[-121.785779,44.231163],[-121.786127,44.232444],[-121.787397,44.234618],[-121.78784,44.236219],[-121.787965,44.237866],[-121.787836,44.238621],[-121.787833,44.241091],[-121.788944,44.242715],[-121.790055,44.24402],[-121.790468,44.244683],[-121.790499,44.245187],[-121.790403,44.245575],[-121.789383,44.247427],[-121.789446,44.247907],[-121.789698,44.248982],[-121.789984,44.249532]]],[[[-121.836674,44.258253],[-121.836674,44.255151],[-121.836674,44.251531],[-121.836674,44.249725],[-121.836575,44.249736],[-121.836406,44.249738],[-121.836274,44.249722],[-121.836077,44.249691],[-121.835889,44.249635],[-121.835715,44.249571],[-121.8355,44.249466],[-121.834759,44.24895],[-121.834686,44.2489],[-121.834555,44.248864],[-121.834386,44.248837],[-121.834247,44.248832],[-121.833874,44.248829],[-121.833769,44.248844],[-121.833634,44.248868],[-121.833385,44.248915],[-121.831562,44.249507],[-121.830235,44.249949],[-121.82984,44.250084],[-121.829291,44.25029],[-121.828894,44.250479],[-121.828444,44.250678],[-121.828116,44.250836],[-121.827266,44.251255],[-121.826861,44.251477],[-121.826502,44.251662],[-121.826223,44.251775],[-121.825695,44.252034],[-121.824942,44.252436],[-121.824566,44.252651],[-121.823149,44.253327],[-121.822933,44.253445],[-121.822384,44.253751],[-121.821719,44.254101],[-121.820366,44.254759],[-121.819566,44.255159],[-121.819181,44.255324],[-121.818526,44.255663],[-121.81791,44.255992],[-121.817488,44.256199],[-121.81672,44.256591],[-121.81553,44.25719],[-121.814735,44.257582],[-121.813948,44.258002],[-121.813431,44.25826],[-121.814455,44.258249],[-121.836674,44.258253]]]]}},{"type":"Feature","properties":{"MAPTAXLOT":"1685000000066","MAPNUMBER":"16850000","TAXLOT":"66","ACCTNO":"000None","MAPACRES":57.12148722},"geometry":{"type":"Polygon","coordinates":[[[-121.892835,44.168776],[-121.892819,44.168933],[-121.892724,44.169076],[-121.892588,44.169177],[-121.89247,44.169207],[-121.892531,44.169278],[-121.892671,44.169347],[-121.89291,44.169444],[-121.893109,44.169513],[-121.893309,44.16961],[-121.893467,44.169608],[-121.893606,44.169635],[-121.893804,44.169646],[-121.894003,44.169715],[-121.894181,44.169713],[-121.89434,44.169754],[-121.894457,44.16971],[-121.894654,44.169665],[-121.894833,44.169719],[-121.894973,44.169775],[-121.895131,44.169773],[-121.895309,44.169785],[-121.895546,44.169796],[-121.895644,44.169752],[-121.895724,44.169794],[-121.895864,44.169864],[-121.896061,44.169861],[-121.896221,44.16993],[-121.896401,44.169999],[-121.89658,44.170054],[-121.896678,44.170024],[-121.896798,44.170108],[-121.896899,44.170207],[-121.897099,44.170304],[-121.897277,44.170302],[-121.897437,44.170399],[-121.897638,44.170539],[-121.897736,44.17051],[-121.897695,44.170439],[-121.897616,44.17044],[-121.897554,44.170327],[-121.897492,44.170185],[-121.897311,44.170074],[-121.89725,44.169989],[-121.89713,44.169919],[-121.896991,44.169907],[-121.896813,44.169881],[-121.896653,44.169826],[-121.896514,44.16977],[-121.896374,44.169687],[-121.896234,44.169632],[-121.896073,44.16952],[-121.895932,44.169393],[-121.895811,44.169267],[-121.895768,44.169139],[-121.895783,44.16894],[-121.895761,44.168812],[-121.895797,44.168684],[-121.895794,44.16857],[-121.895832,44.16847],[-121.895888,44.168356],[-121.895925,44.168241],[-121.895923,44.168156],[-121.896,44.168041],[-121.896076,44.167913],[-121.896112,44.16777],[-121.896129,44.16767],[-121.896165,44.167513],[-121.896202,44.167399],[-121.896219,44.167271],[-121.896335,44.167156],[-121.896452,44.167083],[-121.896588,44.16701],[-121.896705,44.166938],[-121.896862,44.166893],[-121.89698,44.166863],[-121.897118,44.166848],[-121.897098,44.166819],[-121.897038,44.166792],[-121.896918,44.166765],[-121.896838,44.166709],[-121.896797,44.166624],[-121.896815,44.166553],[-121.896832,44.166467],[-121.89693,44.166395],[-121.897107,44.166378],[-121.897285,44.166405],[-121.897483,44.166388],[-121.897661,44.1664],[-121.897719,44.166357],[-121.897897,44.166355],[-121.897995,44.166325],[-121.898153,44.166337],[-121.898311,44.166321],[-121.898428,44.166249],[-121.898504,44.166134],[-121.89862,44.166005],[-121.898755,44.165861],[-121.89891,44.165745],[-121.899124,44.165615],[-121.89934,44.165541],[-121.899037,44.165514],[-121.898869,44.165468],[-121.898518,44.165424],[-121.898201,44.16544],[-121.897966,44.165383],[-121.897749,44.165385],[-121.897416,44.165401],[-121.897149,44.165417],[-121.896831,44.165372],[-121.896613,44.165315],[-121.896378,44.16527],[-121.896077,44.165249],[-121.89581,44.16524],[-121.895609,44.165207],[-121.895307,44.165138],[-121.89514,44.165128],[-121.894923,44.165131],[-121.894689,44.16511],[-121.894422,44.165089],[-121.89417,44.16502],[-121.893902,44.164987],[-121.893668,44.164966],[-121.893451,44.164944],[-121.89325,44.164911],[-121.893099,44.164889],[-121.892932,44.164891],[-121.892833,44.164928],[-121.892869,44.165035],[-121.892785,44.165024],[-121.892654,44.16511],[-121.892521,44.16516],[-121.892389,44.165209],[-121.892273,44.165223],[-121.892191,44.165296],[-121.892108,44.165309],[-121.891941,44.165311],[-121.89186,44.165408],[-121.891744,44.165469],[-121.891627,44.165447],[-121.891494,44.165472],[-121.891362,44.165534],[-121.891162,44.165548],[-121.891013,44.16561],[-121.890813,44.165589],[-121.890645,44.165543],[-121.890594,44.165495],[-121.890477,44.165484],[-121.890293,44.165499],[-121.890045,44.165574],[-121.889863,44.16566],[-121.889723,44.165784],[-121.889608,44.165942],[-121.889551,44.166042],[-121.889515,44.166185],[-121.889597,44.166326],[-121.889679,44.166439],[-121.889818,44.16648],[-121.889958,44.166521],[-121.88992,44.166607],[-121.889922,44.166706],[-121.889966,44.166876],[-121.890007,44.166908],[-121.890055,44.166923],[-121.890027,44.166947],[-121.889968,44.166976],[-121.889911,44.167076],[-121.889875,44.167205],[-121.889898,44.167375],[-121.890022,44.167601],[-121.890085,44.167742],[-121.890245,44.16784],[-121.890425,44.167923],[-121.890622,44.167907],[-121.89082,44.167919],[-121.891056,44.167887],[-121.891214,44.167871],[-121.891294,44.167941],[-121.891392,44.167898],[-121.891411,44.16784],[-121.891449,44.167769],[-121.891487,44.16774],[-121.891547,44.167739],[-121.891567,44.167782],[-121.891647,44.167823],[-121.891665,44.167738],[-121.891723,44.167666],[-121.89188,44.167636],[-121.892039,44.167676],[-121.89212,44.167747],[-121.892279,44.167773],[-121.892321,44.167915],[-121.892305,44.168043],[-121.892287,44.168157],[-121.892231,44.168286],[-121.892312,44.168356],[-121.89247,44.168354],[-121.892571,44.168438],[-121.892494,44.168539],[-121.892535,44.168595],[-121.892633,44.168565],[-121.892772,44.168606],[-121.892852,44.168662],[-121.892835,44.168776]]]}},{"type":"Feature","properties":{"MAPTAXLOT":"1685000000077","MAPNUMBER":"16850000","TAXLOT":"77","ACCTNO":"000None","MAPACRES":26.74645075},"geometry":{"type":"Polygon","coordinates":[[[-121.876208,44.211269],[-121.876447,44.211269],[-121.876437,44.211245],[-121.876154,44.21058],[-121.875966,44.210068],[-121.875878,44.209738],[-121.875717,44.209449],[-121.87522,44.20818],[-121.875173,44.207988],[-121.875112,44.207673],[-121.875044,44.207457],[-121.875014,44.207288],[-121.874985,44.207145],[-121.874981,44.206983],[-121.874968,44.206769],[-121.874945,44.20657],[-121.874948,44.206286],[-121.874952,44.206047],[-121.874981,44.205861],[-121.875029,44.205637],[-121.875076,44.20537],[-121.875148,44.205106],[-121.875272,44.204787],[-121.875407,44.204514],[-121.875577,44.2042],[-121.876224,44.202982],[-121.876495,44.202443],[-121.876647,44.202241],[-121.876753,44.20209],[-121.876952,44.201763],[-121.877458,44.200795],[-121.878026,44.1992],[-121.878098,44.199046],[-121.878115,44.19893],[-121.878112,44.198822],[-121.878068,44.198659],[-121.878005,44.198573],[-121.877902,44.198424],[-121.877838,44.198355],[-121.877778,44.198264],[-121.877735,44.198201],[-121.877702,44.198114],[-121.877677,44.198037],[-121.877681,44.197923],[-121.877709,44.197849],[-121.87777,44.197751],[-121.87786,44.19765],[-121.877998,44.197566],[-121.87996,44.196363],[-121.882663,44.194748],[-121.883996,44.19394],[-121.88416,44.193791],[-121.884322,44.193643],[-121.884419,44.193521],[-121.884498,44.193347],[-121.884571,44.193201],[-121.884579,44.193058],[-121.884575,44.192882],[-121.884484,44.192525],[-121.883972,44.191156],[-121.883922,44.190935],[-121.883885,44.190807],[-121.883847,44.190645],[-121.883853,44.190541],[-121.883898,44.19041],[-121.883942,44.190333],[-121.883995,44.190275],[-121.884069,44.190195],[-121.884119,44.190153],[-121.884298,44.190053],[-121.884416,44.189936],[-121.884452,44.189889],[-121.884491,44.189846],[-121.88453,44.189778],[-121.884528,44.189692],[-121.88449,44.189607],[-121.88442,44.189526],[-121.884258,44.189414],[-121.884186,44.189356],[-121.884081,44.189332],[-121.883992,44.189304],[-121.883844,44.189289],[-121.883717,44.189318],[-121.883599,44.189372],[-121.883512,44.189397],[-121.883439,44.189398],[-121.883268,44.189378],[-121.883197,44.189353],[-121.883137,44.189303],[-121.883128,44.18924],[-121.883071,44.189145],[-121.88301,44.18908],[-121.882906,44.189014],[-121.882779,44.188946],[-121.882689,44.188909],[-121.882626,44.188875],[-121.882522,44.188778],[-121.882462,44.188736],[-121.88244,44.188697],[-121.882439,44.18865],[-121.88246,44.188581],[-121.882506,44.188489],[-121.882557,44.188419],[-121.882695,44.188303],[-121.882813,44.188211],[-121.882908,44.188151],[-121.883003,44.188104],[-121.883098,44.188069],[-121.883229,44.188029],[-121.883329,44.187994],[-121.883453,44.187982],[-121.883861,44.187983],[-121.884197,44.187999],[-121.884464,44.187976],[-121.885036,44.187937],[-121.885373,44.187889],[-121.885451,44.187893],[-121.885484,44.187901],[-121.885489,44.187902],[-121.885496,44.187909],[-121.885508,44.187923],[-121.885526,44.188003],[-121.885621,44.188127],[-121.88574,44.188249],[-121.885876,44.188409],[-121.886029,44.188508],[-121.886185,44.188529],[-121.886287,44.188555],[-121.886353,44.188621],[-121.886507,44.188735],[-121.886633,44.188853],[-121.886837,44.189028],[-121.887037,44.189166],[-121.887286,44.189206],[-121.88748,44.189204],[-121.887696,44.189195],[-121.887882,44.189186],[-121.88803,44.189165],[-121.888134,44.189164],[-121.88825,44.189163],[-121.888303,44.189181],[-121.888344,44.189206],[-121.888433,44.189289],[-121.888584,44.189347],[-121.888723,44.189396],[-121.888892,44.189424],[-121.889051,44.189422],[-121.889214,44.189413],[-121.889332,44.189379],[-121.88941,44.189299],[-121.889509,44.189246],[-121.8896,44.189217],[-121.889701,44.189216],[-121.890557,44.189302],[-121.890749,44.189299],[-121.8909,44.189268],[-121.891039,44.189231],[-121.891176,44.189172],[-121.891368,44.189067],[-121.891611,44.188962],[-121.891912,44.188881],[-121.892159,44.188866],[-121.892312,44.188865],[-121.892372,44.188882],[-121.892409,44.188896],[-121.892647,44.189111],[-121.892821,44.189213],[-121.892921,44.189336],[-121.892962,44.189463],[-121.892976,44.189661],[-121.892998,44.189869],[-121.892993,44.190046],[-121.892996,44.190193],[-121.892941,44.190316],[-121.892914,44.190445],[-121.893028,44.190532],[-121.893126,44.190601],[-121.893261,44.190619],[-121.893364,44.190618],[-121.893531,44.190547],[-121.893628,44.190465],[-121.893673,44.190359],[-121.893668,44.190151],[-121.893583,44.189525],[-121.893578,44.189311],[-121.893507,44.189157],[-121.893312,44.188819],[-121.893144,44.188479],[-121.893084,44.188376],[-121.892983,44.188251],[-121.89284,44.188132],[-121.892751,44.188056],[-121.892593,44.187969],[-121.892406,44.187915],[-121.892318,44.187916],[-121.892186,44.187892],[-121.892158,44.187881],[-121.892156,44.187876],[-121.892191,44.187808],[-121.892262,44.187766],[-121.892357,44.187761],[-121.892508,44.187789],[-121.892605,44.187797],[-121.892896,44.187753],[-121.8931,44.187728],[-121.893177,44.187743],[-121.893222,44.18777],[-121.893352,44.18784],[-121.893455,44.187896],[-121.893517,44.187954],[-121.893724,44.188342],[-121.893759,44.188413],[-121.893823,44.188465],[-121.893922,44.188569],[-121.894738,44.189378],[-121.894835,44.189485],[-121.895018,44.189556],[-121.895206,44.189589],[-121.895408,44.189615],[-121.895587,44.189612],[-121.895746,44.18961],[-121.896035,44.189544],[-121.896332,44.189443],[-121.896738,44.189314],[-121.897002,44.18918],[-121.897072,44.189166],[-121.897275,44.189065],[-121.897448,44.188971],[-121.897584,44.188887],[-121.897795,44.188743],[-121.897932,44.1886],[-121.898068,44.188459],[-121.898162,44.188318],[-121.898229,44.188157],[-121.898286,44.188072],[-121.898295,44.187988],[-121.898309,44.187903],[-121.898457,44.187369],[-121.898472,44.187267],[-121.898479,44.187243],[-121.898816,44.186508],[-121.898893,44.186338],[-121.898939,44.186209],[-121.898937,44.186124],[-121.898944,44.186004],[-121.898913,44.185894],[-121.898892,44.1858],[-121.898855,44.185646],[-121.898852,44.18549],[-121.898887,44.185445],[-121.89895,44.18537],[-121.898982,44.185317],[-121.899041,44.185262],[-121.899262,44.185078],[-121.899441,44.184951],[-121.899544,44.184882],[-121.899593,44.184808],[-121.899651,44.184743],[-121.899676,44.184672],[-121.899741,44.184597],[-121.899757,44.184514],[-121.899787,44.184467],[-121.899837,44.184429],[-121.899919,44.184353],[-121.899945,44.184313],[-121.899969,44.184276],[-121.899967,44.18419],[-121.899945,44.184128],[-121.899942,44.18412],[-121.899896,44.184058],[-121.899862,44.184018],[-121.899778,44.18395],[-121.899716,44.183929],[-121.899606,44.183898],[-121.89947,44.183979],[-121.899221,44.184103],[-121.899105,44.184215],[-121.899052,44.184244],[-121.899049,44.184244],[-121.899,44.184209],[-121.89894,44.184172],[-121.898935,44.184159],[-121.898953,44.184127],[-121.898987,44.184057],[-121.899104,44.183861],[-121.899193,44.183723],[-121.899248,44.183607],[-121.899326,44.183523],[-121.89946,44.183446],[-121.899642,44.183348],[-121.899812,44.183293],[-121.899879,44.183276],[-121.899911,44.183282],[-121.899924,44.183284],[-121.899944,44.183287],[-121.899944,44.183118],[-121.899871,44.183104],[-121.899727,44.18314],[-121.899525,44.183205],[-121.89932,44.183316],[-121.899156,44.18341],[-121.899041,44.183533],[-121.89898,44.183661],[-121.898895,44.183794],[-121.898774,44.183997],[-121.898739,44.184069],[-121.898692,44.184152],[-121.898742,44.184267],[-121.898845,44.18433],[-121.898939,44.184396],[-121.899112,44.184419],[-121.89927,44.184331],[-121.899382,44.184223],[-121.899608,44.184111],[-121.899644,44.184089],[-121.899678,44.184117],[-121.899698,44.18414],[-121.899727,44.18418],[-121.899739,44.184212],[-121.89974,44.184241],[-121.899723,44.184267],[-121.899664,44.184321],[-121.899594,44.184374],[-121.899535,44.184468],[-121.899521,44.184539],[-121.899463,44.184607],[-121.899438,44.184677],[-121.899392,44.184728],[-121.899356,44.184783],[-121.899283,44.184832],[-121.899095,44.184965],[-121.898863,44.185158],[-121.898784,44.185233],[-121.898746,44.185295],[-121.89869,44.185362],[-121.898622,44.185447],[-121.898627,44.185661],[-121.898666,44.185827],[-121.898688,44.185924],[-121.898715,44.186017],[-121.898708,44.186122],[-121.89871,44.18619],[-121.898673,44.186292],[-121.898598,44.186457],[-121.898257,44.187201],[-121.898246,44.187242],[-121.898231,44.187345],[-121.898083,44.187877],[-121.898068,44.187971],[-121.898061,44.188028],[-121.898015,44.188098],[-121.897948,44.188258],[-121.897869,44.188376],[-121.897744,44.188506],[-121.897621,44.188635],[-121.89743,44.188765],[-121.897304,44.188843],[-121.897141,44.188932],[-121.896974,44.189015],[-121.896904,44.189029],[-121.896625,44.18917],[-121.896237,44.189293],[-121.895951,44.189391],[-121.895709,44.189446],[-121.895583,44.189448],[-121.895426,44.18945],[-121.895253,44.189428],[-121.895101,44.189401],[-121.894995,44.189361],[-121.894927,44.189285],[-121.894109,44.188475],[-121.894004,44.188364],[-121.89396,44.188328],[-121.893939,44.188285],[-121.893719,44.187872],[-121.893617,44.187778],[-121.893489,44.187708],[-121.893364,44.187641],[-121.893285,44.187593],[-121.89311,44.18756],[-121.892853,44.187591],[-121.892594,44.187631],[-121.892549,44.187627],[-121.892378,44.187595],[-121.892173,44.187606],[-121.891999,44.187709],[-121.891914,44.187872],[-121.891968,44.187995],[-121.892102,44.188046],[-121.892291,44.188081],[-121.892364,44.18808],[-121.892479,44.188113],[-121.892592,44.188176],[-121.892666,44.188239],[-121.892796,44.188347],[-121.892879,44.18845],[-121.89293,44.188538],[-121.893098,44.188878],[-121.893292,44.189214],[-121.89335,44.189339],[-121.893354,44.189535],[-121.893439,44.19016],[-121.893443,44.190336],[-121.893423,44.190384],[-121.893382,44.190419],[-121.8933,44.190454],[-121.89328,44.190454],[-121.893236,44.190448],[-121.893191,44.190417],[-121.893157,44.190391],[-121.893164,44.190353],[-121.893225,44.190218],[-121.893221,44.190046],[-121.893227,44.189865],[-121.893204,44.189651],[-121.89319,44.18944],[-121.893136,44.189274],[-121.892997,44.189105],[-121.892811,44.188994],[-121.892559,44.188767],[-121.892469,44.188732],[-121.892353,44.1887],[-121.892147,44.188702],[-121.891862,44.188719],[-121.891511,44.188813],[-121.89124,44.188931],[-121.891048,44.189036],[-121.89094,44.189082],[-121.890829,44.189112],[-121.890715,44.189135],[-121.890571,44.189137],[-121.889715,44.189051],[-121.889549,44.189053],[-121.889394,44.189103],[-121.889244,44.189182],[-121.889184,44.189244],[-121.889162,44.18925],[-121.88904,44.189257],[-121.888916,44.189259],[-121.888799,44.189239],[-121.888688,44.189201],[-121.888585,44.18916],[-121.88851,44.189091],[-121.888428,44.189041],[-121.8883,44.188998],[-121.88813,44.189],[-121.888006,44.189001],[-121.887853,44.189022],[-121.887682,44.189031],[-121.887471,44.189039],[-121.88731,44.189041],[-121.887149,44.189016],[-121.887005,44.188915],[-121.886812,44.18875],[-121.886681,44.188627],[-121.886529,44.188515],[-121.886431,44.188417],[-121.886245,44.188369],[-121.886134,44.188355],[-121.886054,44.188303],[-121.885931,44.188159],[-121.885816,44.18804],[-121.885746,44.187949],[-121.885726,44.187864],[-121.885683,44.187814],[-121.885636,44.18777],[-121.885567,44.187747],[-121.885493,44.18773],[-121.885358,44.187724],[-121.885003,44.187774],[-121.88444,44.187812],[-121.88419,44.187834],[-121.883869,44.187819],[-121.883438,44.187817],[-121.883262,44.187834],[-121.883135,44.187879],[-121.883001,44.187919],[-121.882885,44.187963],[-121.882768,44.188021],[-121.882653,44.188092],[-121.882524,44.188194],[-121.882366,44.188325],[-121.882296,44.188423],[-121.882239,44.188536],[-121.88221,44.188634],[-121.882212,44.188729],[-121.882267,44.188829],[-121.88235,44.188888],[-121.882464,44.188993],[-121.882563,44.189047],[-121.882654,44.189084],[-121.882762,44.189142],[-121.882836,44.189189],[-121.882869,44.189224],[-121.882904,44.189282],[-121.882917,44.189372],[-121.883055,44.189487],[-121.883199,44.189536],[-121.883422,44.189563],[-121.883559,44.189561],[-121.883703,44.189519],[-121.883815,44.189468],[-121.883863,44.189457],[-121.883929,44.189464],[-121.884001,44.189486],[-121.884057,44.189499],[-121.884093,44.189528],[-121.884241,44.18963],[-121.884281,44.189676],[-121.8843,44.189718],[-121.8843,44.189747],[-121.884288,44.189769],[-121.884256,44.189804],[-121.884222,44.189847],[-121.884132,44.189938],[-121.88396,44.190034],[-121.883887,44.190096],[-121.883804,44.190184],[-121.883739,44.190255],[-121.88368,44.190359],[-121.883625,44.190517],[-121.883617,44.190656],[-121.88366,44.190838],[-121.883697,44.190965],[-121.883748,44.191191],[-121.884261,44.192561],[-121.884346,44.192899],[-121.88435,44.193056],[-121.884344,44.193169],[-121.884282,44.193293],[-121.884209,44.193454],[-121.884132,44.193551],[-121.88398,44.193688],[-121.883831,44.193825],[-121.882516,44.194622],[-121.879813,44.196237],[-121.87785,44.197441],[-121.877687,44.19754],[-121.877568,44.197672],[-121.877493,44.197793],[-121.877453,44.197899],[-121.877448,44.198054],[-121.87748,44.198155],[-121.87752,44.198259],[-121.877572,44.198336],[-121.877639,44.198436],[-121.877704,44.198506],[-121.877801,44.198648],[-121.87785,44.198714],[-121.877884,44.198839],[-121.877886,44.198923],[-121.877873,44.199011],[-121.877807,44.199153],[-121.877239,44.200745],[-121.87674,44.201701],[-121.876546,44.20202],[-121.876445,44.202165],[-121.876286,44.202376],[-121.87601,44.202925],[-121.875363,44.204141],[-121.875192,44.204457],[-121.875054,44.204737],[-121.874926,44.205068],[-121.87485,44.205343],[-121.874802,44.205614],[-121.874754,44.205839],[-121.874723,44.206037],[-121.874719,44.206285],[-121.874716,44.206577],[-121.87474,44.20678],[-121.874752,44.206988],[-121.874756,44.207159],[-121.874787,44.20731],[-121.874818,44.207485],[-121.874886,44.207703],[-121.874947,44.208013],[-121.874996,44.208217],[-121.8755,44.209502],[-121.875657,44.209784],[-121.875743,44.210105],[-121.875934,44.210625],[-121.876208,44.211269]]]}},{"type":"Feature","properties":{"MAPTAXLOT":"1685000000100","MAPNUMBER":"16850000","TAXLOT":"100","ACCTNO":"1857349","MAPACRES":11363.77174164},"geometry":{"type":"MultiPolygon","coordinates":[[[[-121.833028,44.211578],[-121.836673,44.211578],[-121.838062,44.211578],[-121.841707,44.211578],[-121.843095,44.211578],[-121.84674,44.211578],[-121.848128,44.211578],[-121.851773,44.211578],[-121.856806,44.211578],[-121.859735,44.211257],[-121.864759,44.211263],[-121.869783,44.211268],[-121.874814,44.211269],[-121.876208,44.211269],[-121.875934,44.210625],[-121.875743,44.210105],[-121.875657,44.209784],[-121.8755,44.209502],[-121.874996,44.208217],[-121.874947,44.208013],[-121.874886,44.207703],[-121.874818,44.207485],[-121.874787,44.20731],[-121.874756,44.207159],[-121.874752,44.206988],[-121.87474,44.20678],[-121.874716,44.206577],[-121.874719,44.206285],[-121.874723,44.206037],[-121.874754,44.205839],[-121.874802,44.205614],[-121.87485,44.205343],[-121.874926,44.205068],[-121.875054,44.204737],[-121.875192,44.204457],[-121.875363,44.204141],[-121.87601,44.202925],[-121.876286,44.202376],[-121.876445,44.202165],[-121.876546,44.20202],[-121.87674,44.201701],[-121.877239,44.200745],[-121.877807,44.199153],[-121.877873,44.199011],[-121.877886,44.198923],[-121.877884,44.198839],[-121.87785,44.198714],[-121.877801,44.198648],[-121.877704,44.198506],[-121.877639,44.198436],[-121.877572,44.198336],[-121.87752,44.198259],[-121.87748,44.198155],[-121.877448,44.198054],[-121.877453,44.197899],[-121.877493,44.197793],[-121.877568,44.197672],[-121.877687,44.19754],[-121.87785,44.197441],[-121.879813,44.196237],[-121.882516,44.194622],[-121.883831,44.193825],[-121.88398,44.193688],[-121.884132,44.193551],[-121.884209,44.193454],[-121.884282,44.193293],[-121.884344,44.193169],[-121.88435,44.193056],[-121.884346,44.192899],[-121.884261,44.192561],[-121.883748,44.191191],[-121.883697,44.190965],[-121.88366,44.190838],[-121.883617,44.190656],[-121.883625,44.190517],[-121.88368,44.190359],[-121.883739,44.190255],[-121.883804,44.190184],[-121.883887,44.190096],[-121.88396,44.190034],[-121.884132,44.189938],[-121.884222,44.189847],[-121.884256,44.189804],[-121.884288,44.189769],[-121.8843,44.189747],[-121.8843,44.189718],[-121.884281,44.189676],[-121.884241,44.18963],[-121.884093,44.189528],[-121.884057,44.189499],[-121.884001,44.189486],[-121.883929,44.189464],[-121.883863,44.189457],[-121.883815,44.189468],[-121.883703,44.189519],[-121.883559,44.189561],[-121.883422,44.189563],[-121.883199,44.189536],[-121.883055,44.189487],[-121.882917,44.189372],[-121.882904,44.189282],[-121.882869,44.189224],[-121.882836,44.189189],[-121.882762,44.189142],[-121.882654,44.189084],[-121.882563,44.189047],[-121.882464,44.188993],[-121.88235,44.188888],[-121.882267,44.188829],[-121.882212,44.188729],[-121.88221,44.188634],[-121.882239,44.188536],[-121.882296,44.188423],[-121.882366,44.188325],[-121.882524,44.188194],[-121.882653,44.188092],[-121.882768,44.188021],[-121.882885,44.187963],[-121.883001,44.187919],[-121.883135,44.187879],[-121.883262,44.187834],[-121.883438,44.187817],[-121.883869,44.187819],[-121.88419,44.187834],[-121.88444,44.187812],[-121.885003,44.187774],[-121.885358,44.187724],[-121.885493,44.18773],[-121.885567,44.187747],[-121.885636,44.18777],[-121.885683,44.187814],[-121.885726,44.187864],[-121.885746,44.187949],[-121.885816,44.18804],[-121.885931,44.188159],[-121.886054,44.188303],[-121.886134,44.188355],[-121.886245,44.188369],[-121.886431,44.188417],[-121.886529,44.188515],[-121.886681,44.188627],[-121.886812,44.18875],[-121.887005,44.188915],[-121.887149,44.189016],[-121.88731,44.189041],[-121.887471,44.189039],[-121.887682,44.189031],[-121.887853,44.189022],[-121.888006,44.189001],[-121.88813,44.189],[-121.8883,44.188998],[-121.888428,44.189041],[-121.88851,44.189091],[-121.888585,44.18916],[-121.888688,44.189201],[-121.888799,44.189239],[-121.888916,44.189259],[-121.88904,44.189257],[-121.889162,44.18925],[-121.889184,44.189244],[-121.889244,44.189182],[-121.889394,44.189103],[-121.889549,44.189053],[-121.889715,44.189051],[-121.890571,44.189137],[-121.890715,44.189135],[-121.890829,44.189112],[-121.89094,44.189082],[-121.891048,44.189036],[-121.89124,44.188931],[-121.891511,44.188813],[-121.891862,44.188719],[-121.892147,44.188702],[-121.892353,44.1887],[-121.892469,44.188732],[-121.892559,44.188767],[-121.892811,44.188994],[-121.892997,44.189105],[-121.893136,44.189274],[-121.89319,44.18944],[-121.893204,44.189651],[-121.893227,44.189865],[-121.893221,44.190046],[-121.893225,44.190218],[-121.893164,44.190353],[-121.893157,44.190391],[-121.893191,44.190417],[-121.893236,44.190448],[-121.89328,44.190454],[-121.8933,44.190454],[-121.893382,44.190419],[-121.893423,44.190384],[-121.893443,44.190336],[-121.893439,44.19016],[-121.893354,44.189535],[-121.89335,44.189339],[-121.893292,44.189214],[-121.893098,44.188878],[-121.89293,44.188538],[-121.892879,44.18845],[-121.892796,44.188347],[-121.892666,44.188239],[-121.892592,44.188176],[-121.892479,44.188113],[-121.892364,44.18808],[-121.892291,44.188081],[-121.892102,44.188046],[-121.891968,44.187995],[-121.891914,44.187872],[-121.891999,44.187709],[-121.892173,44.187606],[-121.892378,44.187595],[-121.892549,44.187627],[-121.892594,44.187631],[-121.892853,44.187591],[-121.89311,44.18756],[-121.893285,44.187593],[-121.893364,44.187641],[-121.893489,44.187708],[-121.893617,44.187778],[-121.893719,44.187872],[-121.893939,44.188285],[-121.89396,44.188328],[-121.894004,44.188364],[-121.894109,44.188475],[-121.894927,44.189285],[-121.894995,44.189361],[-121.895101,44.189401],[-121.895253,44.189428],[-121.895426,44.18945],[-121.895583,44.189448],[-121.895709,44.189446],[-121.895951,44.189391],[-121.896237,44.189293],[-121.896625,44.18917],[-121.896904,44.189029],[-121.896974,44.189015],[-121.897141,44.188932],[-121.897304,44.188843],[-121.89743,44.188765],[-121.897621,44.188635],[-121.897744,44.188506],[-121.897869,44.188376],[-121.897948,44.188258],[-121.898015,44.188098],[-121.898061,44.188028],[-121.898068,44.187971],[-121.898083,44.187877],[-121.898231,44.187345],[-121.898246,44.187242],[-121.898257,44.187201],[-121.898598,44.186457],[-121.898673,44.186292],[-121.89871,44.18619],[-121.898708,44.186122],[-121.898715,44.186017],[-121.898688,44.185924],[-121.898666,44.185827],[-121.898627,44.185661],[-121.898622,44.185447],[-121.89869,44.185362],[-121.898746,44.185295],[-121.898784,44.185233],[-121.898863,44.185158],[-121.899095,44.184965],[-121.899283,44.184832],[-121.899356,44.184783],[-121.899392,44.184728],[-121.899438,44.184677],[-121.899463,44.184607],[-121.899521,44.184539],[-121.899535,44.184468],[-121.899594,44.184374],[-121.899664,44.184321],[-121.899723,44.184267],[-121.89974,44.184241],[-121.899739,44.184212],[-121.899727,44.18418],[-121.899698,44.18414],[-121.899678,44.184117],[-121.899644,44.184089],[-121.899608,44.184111],[-121.899382,44.184223],[-121.89927,44.184331],[-121.899112,44.184419],[-121.898939,44.184396],[-121.898845,44.18433],[-121.898742,44.184267],[-121.898692,44.184152],[-121.898739,44.184069],[-121.898774,44.183997],[-121.898895,44.183794],[-121.89898,44.183661],[-121.899041,44.183533],[-121.899156,44.18341],[-121.89932,44.183316],[-121.899525,44.183205],[-121.899727,44.18314],[-121.899871,44.183104],[-121.899944,44.183118],[-121.899944,44.183016],[-121.899943,44.182313],[-121.900024,44.167957],[-121.900024,44.164337],[-121.900024,44.160716],[-121.900024,44.157096],[-121.900024,44.153475],[-121.900024,44.149855],[-121.900024,44.146234],[-121.900024,44.142614],[-121.900024,44.138993],[-121.898373,44.138993],[-121.893346,44.138993],[-121.888319,44.138993],[-121.883292,44.138993],[-121.878265,44.138993],[-121.873238,44.138993],[-121.868211,44.138993],[-121.863184,44.138993],[-121.858157,44.138993],[-121.85313,44.138993],[-121.848103,44.138993],[-121.843076,44.138993],[-121.838049,44.138993],[-121.833022,44.138993],[-121.827995,44.138993],[-121.827995,44.142613],[-121.827995,44.146234],[-121.827995,44.149854],[-121.827995,44.153474],[-121.827995,44.157094],[-121.827995,44.160715],[-121.827995,44.164335],[-121.827995,44.167955],[-121.827995,44.171575],[-121.827995,44.175195],[-121.827995,44.178815],[-121.827995,44.182436],[-121.827995,44.186056],[-121.827995,44.189676],[-121.827995,44.193296],[-121.827995,44.196916],[-121.827995,44.200536],[-121.827995,44.204156],[-121.827995,44.207776],[-121.827995,44.211396],[-121.827995,44.211579],[-121.83164,44.211578],[-121.833028,44.211578]],[[-121.897736,44.17051],[-121.897638,44.170539],[-121.897437,44.170399],[-121.897277,44.170302],[-121.897099,44.170304],[-121.896899,44.170207],[-121.896798,44.170108],[-121.896678,44.170024],[-121.89658,44.170054],[-121.896401,44.169999],[-121.896221,44.16993],[-121.896061,44.169861],[-121.895864,44.169864],[-121.895724,44.169794],[-121.895644,44.169752],[-121.895546,44.169796],[-121.895309,44.169785],[-121.895131,44.169773],[-121.894973,44.169775],[-121.894833,44.169719],[-121.894654,44.169665],[-121.894457,44.16971],[-121.89434,44.169754],[-121.894181,44.169713],[-121.894003,44.169715],[-121.893804,44.169646],[-121.893606,44.169635],[-121.893467,44.169608],[-121.893309,44.16961],[-121.893109,44.169513],[-121.89291,44.169444],[-121.892671,44.169347],[-121.892531,44.169278],[-121.89247,44.169207],[-121.892588,44.169177],[-121.892724,44.169076],[-121.892819,44.168933],[-121.892835,44.168776],[-121.892852,44.168662],[-121.892772,44.168606],[-121.892633,44.168565],[-121.892535,44.168595],[-121.892494,44.168539],[-121.892571,44.168438],[-121.89247,44.168354],[-121.892312,44.168356],[-121.892231,44.168286],[-121.892287,44.168157],[-121.892305,44.168043],[-121.892321,44.167915],[-121.892279,44.167773],[-121.89212,44.167747],[-121.892039,44.167676],[-121.89188,44.167636],[-121.891723,44.167666],[-121.891665,44.167738],[-121.891647,44.167823],[-121.891567,44.167782],[-121.891547,44.167739],[-121.891487,44.16774],[-121.891449,44.167769],[-121.891411,44.16784],[-121.891392,44.167898],[-121.891294,44.167941],[-121.891214,44.167871],[-121.891056,44.167887],[-121.89082,44.167919],[-121.890622,44.167907],[-121.890425,44.167923],[-121.890245,44.16784],[-121.890085,44.167742],[-121.890022,44.167601],[-121.889898,44.167375],[-121.889875,44.167205],[-121.889911,44.167076],[-121.889968,44.166976],[-121.890027,44.166947],[-121.890055,44.166923],[-121.890007,44.166908],[-121.889966,44.166876],[-121.889922,44.166706],[-121.88992,44.166607],[-121.889958,44.166521],[-121.889818,44.16648],[-121.889679,44.166439],[-121.889597,44.166326],[-121.889515,44.166185],[-121.889551,44.166042],[-121.889608,44.165942],[-121.889723,44.165784],[-121.889863,44.16566],[-121.890045,44.165574],[-121.890293,44.165499],[-121.890477,44.165484],[-121.890594,44.165495],[-121.890645,44.165543],[-121.890813,44.165589],[-121.891013,44.16561],[-121.891162,44.165548],[-121.891362,44.165534],[-121.891494,44.165472],[-121.891627,44.165447],[-121.891744,44.165469],[-121.89186,44.165408],[-121.891941,44.165311],[-121.892108,44.165309],[-121.892191,44.165296],[-121.892273,44.165223],[-121.892389,44.165209],[-121.892521,44.16516],[-121.892654,44.16511],[-121.892785,44.165024],[-121.892869,44.165035],[-121.892833,44.164928],[-121.892932,44.164891],[-121.893099,44.164889],[-121.89325,44.164911],[-121.893451,44.164944],[-121.893668,44.164966],[-121.893902,44.164987],[-121.89417,44.16502],[-121.894422,44.165089],[-121.894689,44.16511],[-121.894923,44.165131],[-121.89514,44.165128],[-121.895307,44.165138],[-121.895609,44.165207],[-121.89581,44.16524],[-121.896077,44.165249],[-121.896378,44.16527],[-121.896613,44.165315],[-121.896831,44.165372],[-121.897149,44.165417],[-121.897416,44.165401],[-121.897749,44.165385],[-121.897966,44.165383],[-121.898201,44.16544],[-121.898518,44.165424],[-121.898869,44.165468],[-121.899037,44.165514],[-121.89934,44.165541],[-121.899124,44.165615],[-121.89891,44.165745],[-121.898755,44.165861],[-121.89862,44.166005],[-121.898504,44.166134],[-121.898428,44.166249],[-121.898311,44.166321],[-121.898153,44.166337],[-121.897995,44.166325],[-121.897897,44.166355],[-121.897719,44.166357],[-121.897661,44.1664],[-121.897483,44.166388],[-121.897285,44.166405],[-121.897107,44.166378],[-121.89693,44.166395],[-121.896832,44.166467],[-121.896815,44.166553],[-121.896797,44.166624],[-121.896838,44.166709],[-121.896918,44.166765],[-121.897038,44.166792],[-121.897098,44.166819],[-121.897118,44.166848],[-121.89698,44.166863],[-121.896862,44.166893],[-121.896705,44.166938],[-121.896588,44.16701],[-121.896452,44.167083],[-121.896335,44.167156],[-121.896219,44.167271],[-121.896202,44.167399],[-121.896165,44.167513],[-121.896129,44.16767],[-121.896112,44.16777],[-121.896076,44.167913],[-121.896,44.168041],[-121.895923,44.168156],[-121.895925,44.168241],[-121.895888,44.168356],[-121.895832,44.16847],[-121.895794,44.16857],[-121.895797,44.168684],[-121.895761,44.168812],[-121.895783,44.16894],[-121.895768,44.169139],[-121.895811,44.169267],[-121.895932,44.169393],[-121.896073,44.16952],[-121.896234,44.169632],[-121.896374,44.169687],[-121.896514,44.16977],[-121.896653,44.169826],[-121.896813,44.169881],[-121.896991,44.169907],[-121.89713,44.169919],[-121.89725,44.169989],[-121.897311,44.170074],[-121.897492,44.170185],[-121.897554,44.170327],[-121.897616,44.17044],[-121.897695,44.170439],[-121.897736,44.17051]]],[[[-121.883885,44.190807],[-121.883922,44.190935],[-121.883972,44.191156],[-121.884484,44.192525],[-121.884575,44.192882],[-121.884579,44.193058],[-121.884571,44.193201],[-121.884498,44.193347],[-121.884419,44.193521],[-121.884322,44.193643],[-121.88416,44.193791],[-121.883996,44.19394],[-121.882663,44.194748],[-121.87996,44.196363],[-121.877998,44.197566],[-121.87786,44.19765],[-121.87777,44.197751],[-121.877709,44.197849],[-121.877681,44.197923],[-121.877677,44.198037],[-121.877702,44.198114],[-121.877735,44.198201],[-121.877778,44.198264],[-121.877838,44.198355],[-121.877902,44.198424],[-121.878005,44.198573],[-121.878068,44.198659],[-121.878112,44.198822],[-121.878115,44.19893],[-121.878098,44.199046],[-121.878026,44.1992],[-121.877458,44.200795],[-121.876952,44.201763],[-121.876753,44.20209],[-121.876647,44.202241],[-121.876495,44.202443],[-121.876224,44.202982],[-121.875577,44.2042],[-121.875407,44.204514],[-121.875272,44.204787],[-121.875148,44.205106],[-121.875076,44.20537],[-121.875029,44.205637],[-121.874981,44.205861],[-121.874952,44.206047],[-121.874948,44.206286],[-121.874945,44.20657],[-121.874968,44.206769],[-121.874981,44.206983],[-121.874985,44.207145],[-121.875014,44.207288],[-121.875044,44.207457],[-121.875112,44.207673],[-121.875173,44.207988],[-121.87522,44.20818],[-121.875717,44.209449],[-121.875878,44.209738],[-121.875966,44.210068],[-121.876154,44.21058],[-121.876437,44.211245],[-121.876447,44.211269],[-121.876936,44.211269],[-121.879846,44.211269],[-121.884881,44.211274],[-121.889916,44.211279],[-121.894952,44.211284],[-121.897068,44.211286],[-121.899987,44.211289],[-121.89998,44.207668],[-121.899972,44.204047],[-121.899965,44.200426],[-121.899957,44.196805],[-121.899954,44.193182],[-121.89995,44.189559],[-121.899947,44.185936],[-121.899945,44.184313],[-121.899919,44.184353],[-121.899837,44.184429],[-121.899787,44.184467],[-121.899757,44.184514],[-121.899741,44.184597],[-121.899676,44.184672],[-121.899651,44.184743],[-121.899593,44.184808],[-121.899544,44.184882],[-121.899441,44.184951],[-121.899262,44.185078],[-121.899041,44.185262],[-121.898982,44.185317],[-121.89895,44.18537],[-121.898887,44.185445],[-121.898852,44.18549],[-121.898855,44.185646],[-121.898892,44.1858],[-121.898913,44.185894],[-121.898944,44.186004],[-121.898937,44.186124],[-121.898939,44.186209],[-121.898893,44.186338],[-121.898816,44.186508],[-121.898479,44.187243],[-121.898472,44.187267],[-121.898457,44.187369],[-121.898309,44.187903],[-121.898295,44.187988],[-121.898286,44.188072],[-121.898229,44.188157],[-121.898162,44.188318],[-121.898068,44.188459],[-121.897932,44.1886],[-121.897795,44.188743],[-121.897584,44.188887],[-121.897448,44.188971],[-121.897275,44.189065],[-121.897072,44.189166],[-121.897002,44.18918],[-121.896738,44.189314],[-121.896332,44.189443],[-121.896035,44.189544],[-121.895746,44.18961],[-121.895587,44.189612],[-121.895408,44.189615],[-121.895206,44.189589],[-121.895018,44.189556],[-121.894835,44.189485],[-121.894738,44.189378],[-121.893922,44.188569],[-121.893823,44.188465],[-121.893759,44.188413],[-121.893724,44.188342],[-121.893517,44.187954],[-121.893455,44.187896],[-121.893352,44.18784],[-121.893222,44.18777],[-121.893177,44.187743],[-121.8931,44.187728],[-121.892896,44.187753],[-121.892605,44.187797],[-121.892508,44.187789],[-121.892357,44.187761],[-121.892262,44.187766],[-121.892191,44.187808],[-121.892156,44.187876],[-121.892158,44.187881],[-121.892186,44.187892],[-121.892318,44.187916],[-121.892406,44.187915],[-121.892593,44.187969],[-121.892751,44.188056],[-121.89284,44.188132],[-121.892983,44.188251],[-121.893084,44.188376],[-121.893144,44.188479],[-121.893312,44.188819],[-121.893507,44.189157],[-121.893578,44.189311],[-121.893583,44.189525],[-121.893668,44.190151],[-121.893673,44.190359],[-121.893628,44.190465],[-121.893531,44.190547],[-121.893364,44.190618],[-121.893261,44.190619],[-121.893126,44.190601],[-121.893028,44.190532],[-121.892914,44.190445],[-121.892941,44.190316],[-121.892996,44.190193],[-121.892993,44.190046],[-121.892998,44.189869],[-121.892976,44.189661],[-121.892962,44.189463],[-121.892921,44.189336],[-121.892821,44.189213],[-121.892647,44.189111],[-121.892409,44.188896],[-121.892372,44.188882],[-121.892312,44.188865],[-121.892159,44.188866],[-121.891912,44.188881],[-121.891611,44.188962],[-121.891368,44.189067],[-121.891176,44.189172],[-121.891039,44.189231],[-121.8909,44.189268],[-121.890749,44.189299],[-121.890557,44.189302],[-121.889701,44.189216],[-121.8896,44.189217],[-121.889509,44.189246],[-121.88941,44.189299],[-121.889332,44.189379],[-121.889214,44.189413],[-121.889051,44.189422],[-121.888892,44.189424],[-121.888723,44.189396],[-121.888584,44.189347],[-121.888433,44.189289],[-121.888344,44.189206],[-121.888303,44.189181],[-121.88825,44.189163],[-121.888134,44.189164],[-121.88803,44.189165],[-121.887882,44.189186],[-121.887696,44.189195],[-121.88748,44.189204],[-121.887286,44.189206],[-121.887037,44.189166],[-121.886837,44.189028],[-121.886633,44.188853],[-121.886507,44.188735],[-121.886353,44.188621],[-121.886287,44.188555],[-121.886185,44.188529],[-121.886029,44.188508],[-121.885876,44.188409],[-121.88574,44.188249],[-121.885621,44.188127],[-121.885526,44.188003],[-121.885508,44.187923],[-121.885496,44.187909],[-121.885489,44.187902],[-121.885484,44.187901],[-121.885451,44.187893],[-121.885373,44.187889],[-121.885036,44.187937],[-121.884464,44.187976],[-121.884197,44.187999],[-121.883861,44.187983],[-121.883453,44.187982],[-121.883329,44.187994],[-121.883229,44.188029],[-121.883098,44.188069],[-121.883003,44.188104],[-121.882908,44.188151],[-121.882813,44.188211],[-121.882695,44.188303],[-121.882557,44.188419],[-121.882506,44.188489],[-121.88246,44.188581],[-121.882439,44.18865],[-121.88244,44.188697],[-121.882462,44.188736],[-121.882522,44.188778],[-121.882626,44.188875],[-121.882689,44.188909],[-121.882779,44.188946],[-121.882906,44.189014],[-121.88301,44.18908],[-121.883071,44.189145],[-121.883128,44.18924],[-121.883137,44.189303],[-121.883197,44.189353],[-121.883268,44.189378],[-121.883439,44.189398],[-121.883512,44.189397],[-121.883599,44.189372],[-121.883717,44.189318],[-121.883844,44.189289],[-121.883992,44.189304],[-121.884081,44.189332],[-121.884186,44.189356],[-121.884258,44.189414],[-121.88442,44.189526],[-121.88449,44.189607],[-121.884528,44.189692],[-121.88453,44.189778],[-121.884491,44.189846],[-121.884452,44.189889],[-121.884416,44.189936],[-121.884298,44.190053],[-121.884119,44.190153],[-121.884069,44.190195],[-121.883995,44.190275],[-121.883942,44.190333],[-121.883898,44.19041],[-121.883853,44.190541],[-121.883847,44.190645],[-121.883885,44.190807]]],[[[-121.898987,44.184057],[-121.898953,44.184127],[-121.898935,44.184159],[-121.89894,44.184172],[-121.899,44.184209],[-121.899049,44.184244],[-121.899052,44.184244],[-121.899105,44.184215],[-121.899221,44.184103],[-121.89947,44.183979],[-121.899606,44.183898],[-121.899716,44.183929],[-121.899778,44.18395],[-121.899862,44.184018],[-121.899896,44.184058],[-121.899942,44.18412],[-121.899945,44.184128],[-121.899944,44.183387],[-121.899944,44.183287],[-121.899924,44.183284],[-121.899911,44.183282],[-121.899879,44.183276],[-121.899812,44.183293],[-121.899642,44.183348],[-121.89946,44.183446],[-121.899326,44.183523],[-121.899248,44.183607],[-121.899193,44.183723],[-121.899104,44.183861],[-121.898987,44.184057]]]]}},{"type":"Feature","properties":{"MAPTAXLOT":"1686000000100","MAPNUMBER":"16860000","TAXLOT":"100","ACCTNO":"1857356","MAPACRES":8602.59997975},"geometry":{"type":"Polygon","coordinates":[[[-121.777808,44.21895],[-121.782346,44.21895],[-121.78738,44.21895],[-121.792414,44.21895],[-121.796233,44.21895],[-121.797448,44.21895],[-121.802482,44.21895],[-121.807516,44.21895],[-121.807516,44.21895],[-121.81255,44.21895],[-121.816369,44.21895],[-121.817584,44.21895],[-121.822618,44.21895],[-121.827995,44.21895],[-121.827995,44.21895],[-121.827995,44.215329],[-121.827995,44.211578],[-121.827995,44.211579],[-121.827995,44.211396],[-121.827995,44.207776],[-121.827995,44.204156],[-121.827995,44.200536],[-121.827995,44.196916],[-121.827995,44.193296],[-121.827995,44.189676],[-121.827995,44.186056],[-121.827995,44.182436],[-121.827995,44.178815],[-121.827995,44.175195],[-121.827995,44.171575],[-121.827995,44.167955],[-121.827995,44.164335],[-121.827995,44.160715],[-121.827995,44.157094],[-121.827995,44.153474],[-121.827995,44.149854],[-121.827995,44.146234],[-121.827995,44.142613],[-121.827995,44.138993],[-121.822488,44.138993],[-121.817461,44.138993],[-121.812434,44.138993],[-121.807407,44.138993],[-121.80238,44.138993],[-121.797353,44.138993],[-121.792325,44.138993],[-121.787298,44.138993],[-121.782271,44.138993],[-121.777244,44.138993],[-121.772681,44.138993],[-121.772543,44.139554],[-121.772891,44.140127],[-121.774128,44.140928],[-121.77895,44.144958],[-121.77987,44.145347],[-121.7826,44.146242],[-121.783869,44.14734],[-121.784154,44.14821],[-121.783739,44.149353],[-121.783674,44.150291],[-121.783356,44.150885],[-121.783037,44.151731],[-121.783099,44.152463],[-121.783289,44.152966],[-121.783828,44.15363],[-121.783827,44.154064],[-121.783604,44.154384],[-121.783192,44.154407],[-121.781475,44.155046],[-121.78103,44.155457],[-121.780807,44.155823],[-121.780997,44.15612],[-121.780996,44.156989],[-121.780962,44.158087],[-121.781247,44.158705],[-121.781723,44.159071],[-121.782008,44.15962],[-121.781913,44.159849],[-121.781499,44.160146],[-121.780132,44.160602],[-121.779116,44.16067],[-121.777941,44.16044],[-121.776766,44.160119],[-121.776225,44.160096],[-121.775971,44.16021],[-121.772885,44.162883],[-121.772471,44.163523],[-121.77247,44.163843],[-121.772818,44.164941],[-121.772785,44.165559],[-121.772435,44.166245],[-121.771861,44.166953],[-121.771829,44.167342],[-121.771955,44.167754],[-121.772463,44.168166],[-121.772843,44.16915],[-121.773477,44.169768],[-121.774652,44.170569],[-121.776398,44.17128],[-121.777509,44.171898],[-121.778302,44.172631],[-121.779063,44.174164],[-121.779506,44.175422],[-121.779504,44.176268],[-121.779409,44.176588],[-121.778485,44.177548],[-121.777466,44.179285],[-121.776891,44.180726],[-121.77479,44.183194],[-121.773866,44.184657],[-121.773578,44.185343],[-121.773514,44.1858],[-121.773736,44.18612],[-121.774466,44.186807],[-121.774401,44.187859],[-121.774015,44.190283],[-121.77411,44.190558],[-121.774332,44.19081],[-121.776365,44.191703],[-121.777635,44.192665],[-121.778491,44.193924],[-121.778936,44.194267],[-121.779254,44.194359],[-121.78078,44.194154],[-121.781193,44.194178],[-121.781701,44.194361],[-121.781796,44.194773],[-121.781541,44.195093],[-121.780523,44.195481],[-121.780237,44.195732],[-121.780236,44.195983],[-121.781379,44.197014],[-121.782077,44.197815],[-121.782236,44.198226],[-121.782108,44.198775],[-121.780929,44.200146],[-121.780578,44.200878],[-121.780418,44.201564],[-121.780609,44.201907],[-121.781053,44.202228],[-121.782102,44.202549],[-121.782356,44.202892],[-121.781336,44.204378],[-121.781176,44.204881],[-121.781494,44.205316],[-121.781939,44.205408],[-121.783814,44.205432],[-121.784036,44.205981],[-121.784735,44.206188],[-121.784894,44.206302],[-121.78483,44.206942],[-121.785115,44.207194],[-121.785718,44.208109],[-121.785717,44.20859],[-121.785303,44.209184],[-121.784826,44.209252],[-121.7833,44.20916],[-121.783141,44.209251],[-121.783109,44.209411],[-121.783267,44.209708],[-121.783871,44.210143],[-121.784569,44.211288],[-121.785361,44.213118],[-121.785232,44.214582],[-121.784563,44.215359],[-121.78329,44.215906],[-121.778772,44.217206],[-121.77788,44.218372],[-121.777808,44.21895]]]}}]}