{"type":"FeatureCollection","features":[{"type":"Feature","properties":{"MAPTAXLOT":"1608000000300","MAPNUMBER":"16080000","TAXLOT":"300","ACCTNO":"0072494","MAPACRES":8264.85910655},"geometry":{"type":"Polygon","coordinates":[[[-123.66483,44.142027],[-123.664699,44.14569],[-123.65515,44.145615],[-123.655331,44.142064],[-123.650202,44.14196],[-123.645073,44.141856],[-123.640069,44.141711],[-123.635066,44.141566],[-123.634955,44.145214],[-123.634845,44.148863],[-123.624776,44.148752],[-123.614547,44.148638],[-123.614513,44.145118],[-123.614478,44.141597],[-123.609595,44.14148],[-123.604714,44.14136],[-123.599379,44.141158],[-123.594044,44.140955],[-123.594044,44.141339],[-123.59404,44.144509],[-123.59404,44.144519],[-123.594036,44.148063],[-123.594032,44.151617],[-123.594028,44.155171],[-123.599214,44.155354],[-123.604411,44.15554],[-123.60962,44.155649],[-123.614825,44.155742],[-123.614712,44.159348],[-123.614598,44.162954],[-123.614484,44.16656],[-123.61437,44.170166],[-123.63403,44.170308],[-123.634269,44.173789],[-123.634509,44.177273],[-123.634741,44.180752],[-123.634986,44.184214],[-123.640193,44.184351],[-123.645364,44.184486],[-123.650274,44.184321],[-123.650276,44.184321],[-123.650078,44.191149],[-123.650018,44.198275],[-123.654831,44.198241],[-123.65485,44.191173],[-123.655147,44.184156],[-123.655041,44.180633],[-123.654932,44.17712],[-123.654656,44.173683],[-123.654381,44.170246],[-123.664361,44.170354],[-123.674346,44.170463],[-123.674358,44.174079],[-123.674371,44.177695],[-123.674419,44.181079],[-123.674468,44.184462],[-123.67951,44.184372],[-123.684552,44.184281],[-123.689466,44.184257],[-123.69438,44.184233],[-123.694449,44.181803],[-123.691965,44.181814],[-123.69198,44.181003],[-123.689477,44.181014],[-123.689488,44.177736],[-123.694568,44.177749],[-123.694628,44.170623],[-123.694466,44.166964],[-123.694307,44.163321],[-123.69414,44.159662],[-123.689104,44.159786],[-123.684065,44.159911],[-123.684174,44.163456],[-123.679157,44.163522],[-123.679051,44.160031],[-123.678943,44.15654],[-123.683957,44.156366],[-123.68897,44.156192],[-123.688966,44.152578],[-123.694012,44.152416],[-123.69404,44.148814],[-123.694051,44.145262],[-123.694062,44.14171],[-123.699065,44.141606],[-123.704069,44.141503],[-123.704008,44.138066],[-123.709014,44.137985],[-123.711513,44.137945],[-123.71389,44.137906],[-123.713806,44.134801],[-123.713798,44.134517],[-123.71371,44.131268],[-123.713706,44.131126],[-123.713614,44.127736],[-123.708839,44.127754],[-123.708387,44.127756],[-123.703902,44.127773],[-123.703579,44.127774],[-123.698964,44.127792],[-123.698769,44.127793],[-123.694025,44.12781],[-123.69396,44.12781],[-123.689148,44.127837],[-123.689085,44.127838],[-123.684337,44.127864],[-123.684145,44.127865],[-123.683988,44.134665],[-123.674251,44.134568],[-123.674587,44.127931],[-123.669904,44.12796],[-123.665092,44.127989],[-123.660273,44.12802],[-123.655454,44.12805],[-123.651211,44.12797],[-123.650443,44.127955],[-123.64753,44.1279],[-123.645432,44.12786],[-123.640263,44.127758],[-123.640263,44.127758],[-123.635095,44.127656],[-123.635066,44.131202],[-123.635036,44.134748],[-123.645251,44.134927],[-123.650322,44.135016],[-123.655297,44.135103],[-123.655314,44.138584],[-123.655331,44.142064],[-123.66483,44.142027]]]}},{"type":"Feature","properties":{"MAPTAXLOT":"1608000001600","MAPNUMBER":"16080000","TAXLOT":"1600","ACCTNO":"0072601","MAPACRES":196.85204887},"geometry":{"type":"Polygon","coordinates":[[[-123.679157,44.163522],[-123.684174,44.163456],[-123.684065,44.159911],[-123.689104,44.159786],[-123.69414,44.159662],[-123.693983,44.156018],[-123.694012,44.152416],[-123.688966,44.152578],[-123.68897,44.156192],[-123.683957,44.156366],[-123.678943,44.15654],[-123.679051,44.160031],[-123.679157,44.163522]]]}},{"type":"Feature","properties":{"MAPTAXLOT":"1608000002500","MAPNUMBER":"16080000","TAXLOT":"2500","ACCTNO":"0072635","MAPACRES":75.48626634},"geometry":{"type":"Polygon","coordinates":[[[-123.65515,44.145615],[-123.664699,44.14569],[-123.66483,44.142027],[-123.655331,44.142064],[-123.65515,44.145615]]]}},{"type":"Feature","properties":{"MAPTAXLOT":"1608000002801","MAPNUMBER":"16080000","TAXLOT":"2801","ACCTNO":"1166907","MAPACRES":54.32978986},"geometry":{"type":"Polygon","coordinates":[[[-123.709072,44.141399],[-123.711018,44.141359],[-123.711181,44.140232],[-123.71141,44.138655],[-123.711513,44.137945],[-123.709014,44.137985],[-123.704008,44.138066],[-123.704069,44.141503],[-123.709072,44.141399]]]}},{"type":"Feature","properties":{"MAPTAXLOT":"1608000003200","MAPNUMBER":"16080000","TAXLOT":"3200","ACCTNO":"0072650","MAPACRES":142.44304189},"geometry":{"type":"Polygon","coordinates":[[[-123.674251,44.134568],[-123.683988,44.134665],[-123.684145,44.127865],[-123.679526,44.127897],[-123.679366,44.127898],[-123.674715,44.12793],[-123.674587,44.127931],[-123.674251,44.134568]]]}},{"type":"Feature","properties":{"MAPTAXLOT":"1608000003400","MAPNUMBER":"16080000","TAXLOT":"3400","ACCTNO":"0072668","MAPACRES":154.94646394},"geometry":{"type":"Polygon","coordinates":[[[-123.650202,44.14196],[-123.655331,44.142064],[-123.655314,44.138584],[-123.655297,44.135103],[-123.650322,44.135016],[-123.645251,44.134927],[-123.645163,44.13837],[-123.645073,44.141856],[-123.650202,44.14196]]]}},{"type":"Feature","properties":{"MAPTAXLOT":"1608000003600","MAPNUMBER":"16080000","TAXLOT":"3600","ACCTNO":"0072676","MAPACRES":152.73747804},"geometry":{"type":"Polygon","coordinates":[[[-123.640069,44.141711],[-123.645073,44.141856],[-123.645163,44.13837],[-123.645251,44.134927],[-123.635036,44.134748],[-123.635051,44.138157],[-123.635066,44.141566],[-123.640069,44.141711]]]}},{"type":"Feature","properties":{"MAPTAXLOT":"1608190000077","MAPNUMBER":"16081900","TAXLOT":"77","ACCTNO":"000None","MAPACRES":7.65728375},"geometry":{"type":"Polygon","coordinates":[[[-123.705449,44.170729],[-123.705602,44.170726],[-123.705589,44.170663],[-123.705568,44.170601],[-123.705542,44.17054],[-123.705509,44.17048],[-123.705502,44.170469],[-123.70544,44.170365],[-123.705384,44.170259],[-123.705333,44.170152],[-123.705287,44.170043],[-123.705259,44.16997],[-123.705236,44.16992],[-123.705208,44.16987],[-123.705176,44.169823],[-123.705138,44.169777],[-123.705096,44.169733],[-123.705049,44.169692],[-123.704994,44.169647],[-123.704941,44.169603],[-123.70489,44.169556],[-123.704448,44.169134],[-123.704213,44.168909],[-123.704135,44.16883],[-123.704062,44.168748],[-123.703995,44.168664],[-123.703935,44.168577],[-123.70388,44.168488],[-123.703831,44.168398],[-123.703582,44.167892],[-123.703529,44.167777],[-123.703483,44.167661],[-123.703442,44.167544],[-123.703408,44.167426],[-123.703381,44.167307],[-123.703346,44.167134],[-123.703327,44.167052],[-123.703303,44.16697],[-123.703274,44.166889],[-123.703241,44.166809],[-123.702926,44.166103],[-123.702862,44.165951],[-123.702805,44.165799],[-123.702754,44.165645],[-123.702709,44.16549],[-123.702574,44.16498],[-123.702547,44.164867],[-123.702526,44.164753],[-123.702511,44.164638],[-123.702494,44.164479],[-123.702478,44.164359],[-123.702455,44.16424],[-123.702427,44.164121],[-123.702482,44.16392],[-123.702458,44.163852],[-123.702442,44.163783],[-123.702432,44.163714],[-123.702429,44.163644],[-123.70243,44.163395],[-123.702426,44.163295],[-123.702417,44.163196],[-123.702401,44.163096],[-123.702378,44.162998],[-123.702304,44.162717],[-123.702339,44.162612],[-123.702325,44.162523],[-123.702298,44.162283],[-123.702286,44.162204],[-123.702266,44.162126],[-123.702241,44.162049],[-123.702209,44.161973],[-123.70217,44.161899],[-123.702125,44.161826],[-123.702076,44.161657],[-123.702024,44.161543],[-123.701957,44.16145],[-123.701969,44.161238],[-123.702098,44.161023],[-123.702222,44.160927],[-123.702292,44.160901],[-123.702365,44.160881],[-123.70244,44.160865],[-123.702517,44.160854],[-123.702595,44.160849],[-123.702673,44.160849],[-123.704349,44.160898],[-123.704414,44.160898],[-123.704479,44.160893],[-123.704543,44.160884],[-123.704606,44.16087],[-123.70483,44.160813],[-123.705234,44.160705],[-123.705608,44.160646],[-123.706002,44.160611],[-123.706444,44.160503],[-123.70693,44.160416],[-123.708562,44.159737],[-123.709158,44.159308],[-123.70928,44.159221],[-123.709472,44.157313],[-123.709521,44.156142],[-123.709331,44.15614],[-123.709254,44.157948],[-123.709151,44.158998],[-123.709133,44.159175],[-123.708469,44.159649],[-123.706873,44.160313],[-123.706407,44.160396],[-123.705983,44.160502],[-123.705589,44.160537],[-123.705182,44.160601],[-123.704779,44.160709],[-123.704554,44.160767],[-123.704506,44.160777],[-123.704456,44.160785],[-123.704406,44.160788],[-123.704355,44.160789],[-123.70268,44.160739],[-123.702593,44.16074],[-123.702507,44.160745],[-123.702421,44.160756],[-123.702338,44.160772],[-123.702256,44.160793],[-123.702178,44.160819],[-123.702103,44.16085],[-123.702031,44.160886],[-123.701965,44.160925],[-123.701903,44.160969],[-123.701847,44.161017],[-123.701796,44.161067],[-123.701752,44.161121],[-123.701715,44.161177],[-123.701684,44.161236],[-123.70166,44.161296],[-123.701644,44.161357],[-123.701635,44.161419],[-123.701634,44.161481],[-123.70164,44.161543],[-123.701653,44.161605],[-123.701674,44.161665],[-123.701701,44.161724],[-123.70173,44.161777],[-123.701799,44.161939],[-123.701835,44.161997],[-123.701866,44.162057],[-123.701891,44.162117],[-123.701912,44.162179],[-123.701927,44.162242],[-123.701937,44.162305],[-123.701964,44.162544],[-123.701974,44.162616],[-123.701988,44.162687],[-123.702005,44.162758],[-123.702079,44.163039],[-123.702099,44.163127],[-123.702114,44.163216],[-123.702122,44.163305],[-123.702125,44.163395],[-123.702124,44.163644],[-123.702223,44.163967],[-123.702257,44.16407],[-123.702285,44.164173],[-123.702309,44.164278],[-123.702328,44.164382],[-123.702342,44.164488],[-123.702359,44.164646],[-123.702374,44.164765],[-123.702396,44.164883],[-123.702424,44.165],[-123.702559,44.16551],[-123.702605,44.165669],[-123.702657,44.165826],[-123.702716,44.165982],[-123.702781,44.166136],[-123.703096,44.166842],[-123.703127,44.166918],[-123.703154,44.166995],[-123.703177,44.167072],[-123.703195,44.16715],[-123.70323,44.167322],[-123.703259,44.167446],[-123.703294,44.167568],[-123.703336,44.16769],[-123.703384,44.16781],[-123.703439,44.167928],[-123.703548,44.16815],[-123.703688,44.168434],[-123.703739,44.16853],[-123.703797,44.168624],[-123.703861,44.168716],[-123.703931,44.168805],[-123.704008,44.168891],[-123.704091,44.168975],[-123.704454,44.169321],[-123.704769,44.169622],[-123.704823,44.169672],[-123.704879,44.16972],[-123.704935,44.169765],[-123.704981,44.169807],[-123.705023,44.169852],[-123.705059,44.169899],[-123.705089,44.169949],[-123.705112,44.17],[-123.705141,44.170073],[-123.705188,44.170185],[-123.70524,44.170296],[-123.705299,44.170406],[-123.705363,44.170514],[-123.705369,44.170525],[-123.705397,44.170574],[-123.70542,44.170625],[-123.705437,44.170677],[-123.705449,44.170729]]]}},{"type":"Feature","properties":{"MAPTAXLOT":"1608190000100","MAPNUMBER":"16081900","TAXLOT":"100","ACCTNO":"0072874","MAPACRES":40.08397774},"geometry":{"type":"Polygon","coordinates":[[[-123.694628,44.170623],[-123.699558,44.170699],[-123.69942,44.16697],[-123.694466,44.166964],[-123.694628,44.170623]]]}},{"type":"Feature","properties":{"MAPTAXLOT":"1608190000200","MAPNUMBER":"16081900","TAXLOT":"200","ACCTNO":"0072882","MAPACRES":273.19430631},"geometry":{"type":"MultiPolygon","coordinates":[[[[-123.694466,44.166964],[-123.69942,44.16697],[-123.699558,44.170699],[-123.704497,44.170747],[-123.704454,44.169321],[-123.704091,44.168975],[-123.704008,44.168891],[-123.703931,44.168805],[-123.703861,44.168716],[-123.703797,44.168624],[-123.703739,44.16853],[-123.703688,44.168434],[-123.703548,44.16815],[-123.703439,44.167928],[-123.703384,44.16781],[-123.703336,44.16769],[-123.703294,44.167568],[-123.703259,44.167446],[-123.70323,44.167322],[-123.703195,44.16715],[-123.703177,44.167072],[-123.703154,44.166995],[-123.703127,44.166918],[-123.703096,44.166842],[-123.702781,44.166136],[-123.702716,44.165982],[-123.702657,44.165826],[-123.702605,44.165669],[-123.702559,44.16551],[-123.702424,44.165],[-123.702396,44.164883],[-123.702374,44.164765],[-123.702359,44.164646],[-123.702342,44.164488],[-123.702328,44.164382],[-123.702309,44.164278],[-123.702285,44.164173],[-123.702257,44.16407],[-123.702223,44.163967],[-123.702124,44.163644],[-123.702125,44.163395],[-123.702122,44.163305],[-123.702114,44.163216],[-123.702099,44.163127],[-123.702079,44.163039],[-123.702005,44.162758],[-123.701988,44.162687],[-123.701974,44.162616],[-123.701964,44.162544],[-123.701937,44.162305],[-123.701927,44.162242],[-123.701912,44.162179],[-123.701891,44.162117],[-123.701866,44.162057],[-123.701835,44.161997],[-123.701799,44.161939],[-123.70173,44.161777],[-123.701701,44.161724],[-123.701674,44.161665],[-123.701653,44.161605],[-123.70164,44.161543],[-123.701634,44.161481],[-123.701635,44.161419],[-123.701644,44.161357],[-123.70166,44.161296],[-123.701684,44.161236],[-123.701715,44.161177],[-123.701752,44.161121],[-123.701796,44.161067],[-123.701847,44.161017],[-123.701903,44.160969],[-123.701965,44.160925],[-123.702031,44.160886],[-123.702103,44.16085],[-123.702178,44.160819],[-123.702256,44.160793],[-123.702338,44.160772],[-123.702421,44.160756],[-123.702507,44.160745],[-123.702593,44.16074],[-123.70268,44.160739],[-123.704355,44.160789],[-123.704406,44.160788],[-123.704456,44.160785],[-123.704506,44.160777],[-123.704554,44.160767],[-123.704779,44.160709],[-123.705182,44.160601],[-123.705589,44.160537],[-123.705983,44.160502],[-123.706407,44.160396],[-123.706873,44.160313],[-123.708469,44.159649],[-123.709133,44.159175],[-123.709151,44.158998],[-123.709082,44.156138],[-123.708881,44.156137],[-123.704052,44.156099],[-123.704162,44.159724],[-123.699152,44.159693],[-123.699286,44.163339],[-123.694307,44.163321],[-123.694466,44.166964]]],[[[-123.703241,44.166809],[-123.703274,44.166889],[-123.703303,44.16697],[-123.703327,44.167052],[-123.703346,44.167134],[-123.703381,44.167307],[-123.703408,44.167426],[-123.703442,44.167544],[-123.703483,44.167661],[-123.703529,44.167777],[-123.703582,44.167892],[-123.703831,44.168398],[-123.70388,44.168488],[-123.703935,44.168577],[-123.703995,44.168664],[-123.704062,44.168748],[-123.704135,44.16883],[-123.704213,44.168909],[-123.704448,44.169134],[-123.704382,44.166975],[-123.709343,44.166981],[-123.709256,44.163374],[-123.709169,44.159755],[-123.709158,44.159308],[-123.708562,44.159737],[-123.70693,44.160416],[-123.706444,44.160503],[-123.706002,44.160611],[-123.705608,44.160646],[-123.705234,44.160705],[-123.70483,44.160813],[-123.704606,44.16087],[-123.704543,44.160884],[-123.704479,44.160893],[-123.704414,44.160898],[-123.704349,44.160898],[-123.702673,44.160849],[-123.702595,44.160849],[-123.702517,44.160854],[-123.70244,44.160865],[-123.702365,44.160881],[-123.702292,44.160901],[-123.702222,44.160927],[-123.702098,44.161023],[-123.701969,44.161238],[-123.701957,44.16145],[-123.702024,44.161543],[-123.702076,44.161657],[-123.702125,44.161826],[-123.70217,44.161899],[-123.702209,44.161973],[-123.702241,44.162049],[-123.702266,44.162126],[-123.702286,44.162204],[-123.702298,44.162283],[-123.702325,44.162523],[-123.702339,44.162612],[-123.702304,44.162717],[-123.702378,44.162998],[-123.702401,44.163096],[-123.702417,44.163196],[-123.702426,44.163295],[-123.70243,44.163395],[-123.702429,44.163644],[-123.702432,44.163714],[-123.702442,44.163783],[-123.702458,44.163852],[-123.702482,44.16392],[-123.702427,44.164121],[-123.702455,44.16424],[-123.702478,44.164359],[-123.702494,44.164479],[-123.702511,44.164638],[-123.702526,44.164753],[-123.702547,44.164867],[-123.702574,44.16498],[-123.702709,44.16549],[-123.702754,44.165645],[-123.702805,44.165799],[-123.702862,44.165951],[-123.702926,44.166103],[-123.703241,44.166809]]]]}},{"type":"Feature","properties":{"MAPTAXLOT":"1608190000300","MAPNUMBER":"16081900","TAXLOT":"300","ACCTNO":"0072890","MAPACRES":177.49119389},"geometry":{"type":"MultiPolygon","coordinates":[[[[-123.704448,44.169134],[-123.70489,44.169556],[-123.704941,44.169603],[-123.704994,44.169647],[-123.705049,44.169692],[-123.705096,44.169733],[-123.705138,44.169777],[-123.705176,44.169823],[-123.705208,44.16987],[-123.705236,44.16992],[-123.705259,44.16997],[-123.705287,44.170043],[-123.705333,44.170152],[-123.705384,44.170259],[-123.70544,44.170365],[-123.705502,44.170469],[-123.705509,44.17048],[-123.705542,44.17054],[-123.705568,44.170601],[-123.705589,44.170663],[-123.705602,44.170726],[-123.709431,44.170653],[-123.713449,44.170581],[-123.713537,44.166985],[-123.713625,44.163389],[-123.713715,44.159782],[-123.713805,44.156176],[-123.709521,44.156142],[-123.709472,44.157313],[-123.70928,44.159221],[-123.709158,44.159308],[-123.709169,44.159755],[-123.709256,44.163374],[-123.709343,44.166981],[-123.704382,44.166975],[-123.704448,44.169134]]],[[[-123.709151,44.158998],[-123.709254,44.157948],[-123.709331,44.15614],[-123.709082,44.156138],[-123.709151,44.158998]]],[[[-123.704497,44.170747],[-123.70522,44.170733],[-123.705449,44.170729],[-123.705437,44.170677],[-123.70542,44.170625],[-123.705397,44.170574],[-123.705369,44.170525],[-123.705363,44.170514],[-123.705299,44.170406],[-123.70524,44.170296],[-123.705188,44.170185],[-123.705141,44.170073],[-123.705112,44.17],[-123.705089,44.169949],[-123.705059,44.169899],[-123.705023,44.169852],[-123.704981,44.169807],[-123.704935,44.169765],[-123.704879,44.16972],[-123.704823,44.169672],[-123.704769,44.169622],[-123.704454,44.169321],[-123.704497,44.170747]]]]}},{"type":"Feature","properties":{"MAPTAXLOT":"1608190000400","MAPNUMBER":"16081900","TAXLOT":"400","ACCTNO":"0072908","MAPACRES":120.23710655},"geometry":{"type":"Polygon","coordinates":[[[-123.694307,44.163321],[-123.699286,44.163339],[-123.699152,44.159693],[-123.704162,44.159724],[-123.704052,44.156099],[-123.699017,44.156059],[-123.693983,44.156018],[-123.69414,44.159662],[-123.694307,44.163321]]]}},{"type":"Feature","properties":{"MAPTAXLOT":"1608300000077","MAPNUMBER":"16083000","TAXLOT":"77","ACCTNO":"000None","MAPACRES":4.55261899},"geometry":{"type":"MultiPolygon","coordinates":[[[[-123.709059,44.145221],[-123.708997,44.145243],[-123.708923,44.145268],[-123.708826,44.145294],[-123.708745,44.145317],[-123.708677,44.145341],[-123.708605,44.14537],[-123.708552,44.145395],[-123.708486,44.145432],[-123.708422,44.145477],[-123.708362,44.145529],[-123.7083,44.14559],[-123.708244,44.145645],[-123.708201,44.145687],[-123.708158,44.14573],[-123.708119,44.145768],[-123.708081,44.145811],[-123.708063,44.145837],[-123.708033,44.145901],[-123.708024,44.145963],[-123.708019,44.146029],[-123.708023,44.146076],[-123.708022,44.146132],[-123.708011,44.146194],[-123.708001,44.146229],[-123.70798,44.146283],[-123.707957,44.146322],[-123.707941,44.146344],[-123.707909,44.146375],[-123.707872,44.146407],[-123.707819,44.146447],[-123.707781,44.146474],[-123.707748,44.146494],[-123.707671,44.146539],[-123.707641,44.146561],[-123.706847,44.147139],[-123.706875,44.147158],[-123.706983,44.147235],[-123.70701,44.147254],[-123.707804,44.146676],[-123.707805,44.146676],[-123.707825,44.146661],[-123.707895,44.14662],[-123.707934,44.146596],[-123.707981,44.146563],[-123.708042,44.146517],[-123.70809,44.146476],[-123.708134,44.146432],[-123.708164,44.146393],[-123.708196,44.146338],[-123.708223,44.146269],[-123.708237,44.146222],[-123.70825,44.146144],[-123.708252,44.146072],[-123.708248,44.146028],[-123.708252,44.145976],[-123.708257,44.145937],[-123.708275,44.1459],[-123.708281,44.145891],[-123.708307,44.145861],[-123.708342,44.145828],[-123.708386,44.145784],[-123.708428,44.145742],[-123.708484,44.145687],[-123.708542,44.14563],[-123.708589,44.14559],[-123.708637,44.145557],[-123.708686,44.145529],[-123.708723,44.145511],[-123.708783,44.145487],[-123.708837,44.145468],[-123.708908,44.145448],[-123.709012,44.14542],[-123.709097,44.145391],[-123.70916,44.145368],[-123.70916,44.145337],[-123.709216,44.145312],[-123.709302,44.145266],[-123.709402,44.145205],[-123.709482,44.145151],[-123.709551,44.145101],[-123.709593,44.145071],[-123.709645,44.145034],[-123.709702,44.144992],[-123.709753,44.144956],[-123.709789,44.144929],[-123.709878,44.144874],[-123.709921,44.144853],[-123.709977,44.14483],[-123.71001,44.144819],[-123.710059,44.144805],[-123.710105,44.144796],[-123.710148,44.144791],[-123.710218,44.144789],[-123.71028,44.144792],[-123.710341,44.144798],[-123.710441,44.144815],[-123.710505,44.14483],[-123.710585,44.144853],[-123.710666,44.14488],[-123.710758,44.14491],[-123.710864,44.144943],[-123.710977,44.144979],[-123.711126,44.145026],[-123.71125,44.145065],[-123.711368,44.145103],[-123.711507,44.145147],[-123.711639,44.145189],[-123.711766,44.145229],[-123.711895,44.145269],[-123.711982,44.145297],[-123.712096,44.145333],[-123.712211,44.145375],[-123.712304,44.145412],[-123.712396,44.145452],[-123.712501,44.145504],[-123.712589,44.145553],[-123.712672,44.145604],[-123.712763,44.145661],[-123.712853,44.145717],[-123.712975,44.145793],[-123.713093,44.145868],[-123.713186,44.145925],[-123.713258,44.14597],[-123.713313,44.146005],[-123.713397,44.146063],[-123.713458,44.146111],[-123.713552,44.146183],[-123.713672,44.146276],[-123.713772,44.146353],[-123.713845,44.146419],[-123.713939,44.146523],[-123.713939,44.146524],[-123.713942,44.14633],[-123.713941,44.14633],[-123.713887,44.146282],[-123.713783,44.146201],[-123.713664,44.146109],[-123.71357,44.146036],[-123.713505,44.145986],[-123.713416,44.145924],[-123.713358,44.145888],[-123.713286,44.145843],[-123.713193,44.145785],[-123.713075,44.14571],[-123.712953,44.145635],[-123.712863,44.145578],[-123.712772,44.145521],[-123.712686,44.145468],[-123.71259,44.145415],[-123.712478,44.14536],[-123.71238,44.145317],[-123.712283,44.145278],[-123.712161,44.145234],[-123.712044,44.145197],[-123.711956,44.145169],[-123.711828,44.145128],[-123.711701,44.145088],[-123.711568,44.145046],[-123.71143,44.145002],[-123.711311,44.144965],[-123.711187,44.144925],[-123.711039,44.144878],[-123.710925,44.144843],[-123.710819,44.144809],[-123.710729,44.14478],[-123.710646,44.144752],[-123.710558,44.144727],[-123.710482,44.144709],[-123.710368,44.14469],[-123.710297,44.144683],[-123.71022,44.144679],[-123.710132,44.144682],[-123.710072,44.144689],[-123.710011,44.144701],[-123.70995,44.144718],[-123.709907,44.144733],[-123.709841,44.144759],[-123.709785,44.144787],[-123.709685,44.144849],[-123.709645,44.144878],[-123.709594,44.144915],[-123.709537,44.144956],[-123.709485,44.144993],[-123.709443,44.145024],[-123.709376,44.145072],[-123.709301,44.145123],[-123.709208,44.14518],[-123.709162,44.145204],[-123.709162,44.14517],[-123.709109,44.145198],[-123.709059,44.145221]]],[[[-123.711249,44.154657],[-123.711148,44.154638],[-123.711046,44.154625],[-123.710943,44.154616],[-123.710839,44.154613],[-123.710735,44.154615],[-123.710632,44.154623],[-123.710529,44.154635],[-123.710428,44.154653],[-123.710329,44.154676],[-123.710233,44.154704],[-123.710139,44.154736],[-123.710049,44.154774],[-123.709963,44.154815],[-123.709881,44.154861],[-123.709804,44.154911],[-123.709731,44.154965],[-123.709665,44.155022],[-123.709604,44.155083],[-123.709549,44.155146],[-123.7095,44.155212],[-123.709458,44.155281],[-123.709422,44.155351],[-123.709394,44.155423],[-123.709373,44.155496],[-123.709359,44.155571],[-123.709352,44.155645],[-123.709331,44.15614],[-123.709521,44.156142],[-123.709542,44.155649],[-123.709549,44.155579],[-123.709563,44.155509],[-123.709585,44.15544],[-123.709613,44.155373],[-123.709649,44.155307],[-123.709692,44.155243],[-123.709741,44.155182],[-123.709796,44.155124],[-123.709858,44.155069],[-123.709925,44.155018],[-123.709997,44.15497],[-123.710075,44.154926],[-123.710156,44.154887],[-123.710242,44.154853],[-123.710331,44.154823],[-123.710422,44.154798],[-123.710517,44.154778],[-123.710612,44.154764],[-123.71071,44.154754],[-123.710808,44.15475],[-123.710906,44.154752],[-123.711003,44.154759],[-123.7111,44.154771],[-123.711195,44.154788],[-123.71219,44.155],[-123.712346,44.155035],[-123.7125,44.155075],[-123.712652,44.155119],[-123.712801,44.155167],[-123.712948,44.155219],[-123.713092,44.155275],[-123.713233,44.155336],[-123.71337,44.155399],[-123.713504,44.155467],[-123.713812,44.155629],[-123.713815,44.155461],[-123.713815,44.15546],[-123.713617,44.155356],[-123.713557,44.155326],[-123.713542,44.155318],[-123.713537,44.155315],[-123.713527,44.15531],[-123.713497,44.155296],[-123.713466,44.155281],[-123.713458,44.155277],[-123.713447,44.155272],[-123.713436,44.155266],[-123.713347,44.155225],[-123.713257,44.155186],[-123.713186,44.155156],[-123.713027,44.155094],[-123.712864,44.155037],[-123.712698,44.154984],[-123.712624,44.154963],[-123.712623,44.154962],[-123.712487,44.154925],[-123.712461,44.154919],[-123.712453,44.154917],[-123.712441,44.154914],[-123.71243,44.154911],[-123.712418,44.154908],[-123.712383,44.1549],[-123.712349,44.154892],[-123.712337,44.154889],[-123.712331,44.154888],[-123.712314,44.154884],[-123.712244,44.154868],[-123.711249,44.154657]]]]}},{"type":"Feature","properties":{"MAPTAXLOT":"1608300000100","MAPNUMBER":"16083000","TAXLOT":"100","ACCTNO":"0072965","MAPACRES":260.46140747},"geometry":{"type":"Polygon","coordinates":[[[-123.693983,44.156018],[-123.699017,44.156059],[-123.704052,44.156099],[-123.704048,44.152438],[-123.709106,44.152448],[-123.709119,44.148756],[-123.70701,44.147254],[-123.706983,44.147235],[-123.706875,44.147158],[-123.706847,44.147139],[-123.704039,44.14514],[-123.699054,44.145201],[-123.694051,44.145262],[-123.69404,44.148814],[-123.699043,44.148795],[-123.69903,44.152427],[-123.694012,44.152416],[-123.693983,44.156018]]]}},{"type":"Feature","properties":{"MAPTAXLOT":"1608300000101","MAPNUMBER":"16083000","TAXLOT":"101","ACCTNO":"1176534","MAPACRES":137.15070117},"geometry":{"type":"MultiPolygon","coordinates":[[[[-123.706847,44.147139],[-123.707641,44.146561],[-123.707671,44.146539],[-123.707748,44.146494],[-123.707781,44.146474],[-123.707819,44.146447],[-123.707872,44.146407],[-123.707909,44.146375],[-123.707941,44.146344],[-123.707957,44.146322],[-123.70798,44.146283],[-123.708001,44.146229],[-123.708011,44.146194],[-123.708022,44.146132],[-123.708023,44.146076],[-123.708019,44.146029],[-123.708024,44.145963],[-123.708033,44.145901],[-123.708063,44.145837],[-123.708081,44.145811],[-123.708119,44.145768],[-123.708158,44.14573],[-123.708201,44.145687],[-123.708244,44.145645],[-123.7083,44.14559],[-123.708362,44.145529],[-123.708422,44.145477],[-123.708486,44.145432],[-123.708552,44.145395],[-123.708605,44.14537],[-123.708677,44.145341],[-123.708745,44.145317],[-123.708826,44.145294],[-123.708923,44.145268],[-123.708997,44.145243],[-123.709059,44.145221],[-123.709109,44.145198],[-123.709162,44.14517],[-123.709162,44.145204],[-123.709208,44.14518],[-123.709301,44.145123],[-123.709376,44.145072],[-123.709443,44.145024],[-123.709485,44.144993],[-123.709537,44.144956],[-123.709594,44.144915],[-123.709645,44.144878],[-123.709685,44.144849],[-123.709785,44.144787],[-123.709841,44.144759],[-123.709907,44.144733],[-123.70995,44.144718],[-123.710011,44.144701],[-123.710072,44.144689],[-123.710132,44.144682],[-123.71022,44.144679],[-123.710297,44.144683],[-123.710368,44.14469],[-123.710482,44.144709],[-123.710558,44.144727],[-123.710646,44.144752],[-123.710729,44.14478],[-123.710819,44.144809],[-123.710925,44.144843],[-123.711039,44.144878],[-123.711187,44.144925],[-123.711311,44.144965],[-123.71143,44.145002],[-123.711568,44.145046],[-123.711701,44.145088],[-123.711828,44.145128],[-123.711956,44.145169],[-123.712044,44.145197],[-123.712161,44.145234],[-123.712283,44.145278],[-123.71238,44.145317],[-123.712478,44.14536],[-123.71259,44.145415],[-123.712686,44.145468],[-123.712772,44.145521],[-123.712863,44.145578],[-123.712953,44.145635],[-123.713075,44.14571],[-123.713193,44.145785],[-123.713286,44.145843],[-123.713358,44.145888],[-123.713416,44.145924],[-123.713505,44.145986],[-123.71357,44.146036],[-123.713664,44.146109],[-123.713783,44.146201],[-123.713887,44.146282],[-123.713941,44.14633],[-123.713942,44.14633],[-123.713953,44.14544],[-123.713958,44.145016],[-123.713973,44.143838],[-123.713998,44.141865],[-123.713983,44.141297],[-123.711018,44.141359],[-123.709072,44.141399],[-123.704069,44.141503],[-123.704039,44.14514],[-123.706847,44.147139]]],[[[-123.710148,44.144791],[-123.710105,44.144796],[-123.710059,44.144805],[-123.71001,44.144819],[-123.709977,44.14483],[-123.709921,44.144853],[-123.709878,44.144874],[-123.709789,44.144929],[-123.709753,44.144956],[-123.709702,44.144992],[-123.709645,44.145034],[-123.709593,44.145071],[-123.709551,44.145101],[-123.709482,44.145151],[-123.709402,44.145205],[-123.709302,44.145266],[-123.709216,44.145312],[-123.70916,44.145337],[-123.70916,44.145368],[-123.709097,44.145391],[-123.709012,44.14542],[-123.708908,44.145448],[-123.708837,44.145468],[-123.708783,44.145487],[-123.708723,44.145511],[-123.708686,44.145529],[-123.708637,44.145557],[-123.708589,44.14559],[-123.708542,44.14563],[-123.708484,44.145687],[-123.708428,44.145742],[-123.708386,44.145784],[-123.708342,44.145828],[-123.708307,44.145861],[-123.708281,44.145891],[-123.708275,44.1459],[-123.708257,44.145937],[-123.708252,44.145976],[-123.708248,44.146028],[-123.708252,44.146072],[-123.70825,44.146144],[-123.708237,44.146222],[-123.708223,44.146269],[-123.708196,44.146338],[-123.708164,44.146393],[-123.708134,44.146432],[-123.70809,44.146476],[-123.708042,44.146517],[-123.707981,44.146563],[-123.707934,44.146596],[-123.707895,44.14662],[-123.707825,44.146661],[-123.707805,44.146676],[-123.707804,44.146676],[-123.70701,44.147254],[-123.709119,44.148756],[-123.713911,44.148736],[-123.713935,44.146875],[-123.713938,44.146668],[-123.713939,44.146524],[-123.713939,44.146523],[-123.713845,44.146419],[-123.713772,44.146353],[-123.713672,44.146276],[-123.713552,44.146183],[-123.713458,44.146111],[-123.713397,44.146063],[-123.713313,44.146005],[-123.713258,44.14597],[-123.713186,44.145925],[-123.713093,44.145868],[-123.712975,44.145793],[-123.712853,44.145717],[-123.712763,44.145661],[-123.712672,44.145604],[-123.712589,44.145553],[-123.712501,44.145504],[-123.712396,44.145452],[-123.712304,44.145412],[-123.712211,44.145375],[-123.712096,44.145333],[-123.711982,44.145297],[-123.711895,44.145269],[-123.711766,44.145229],[-123.711639,44.145189],[-123.711507,44.145147],[-123.711368,44.145103],[-123.71125,44.145065],[-123.711126,44.145026],[-123.710977,44.144979],[-123.710864,44.144943],[-123.710758,44.14491],[-123.710666,44.14488],[-123.710585,44.144853],[-123.710505,44.14483],[-123.710441,44.144815],[-123.710341,44.144798],[-123.71028,44.144792],[-123.710218,44.144789],[-123.710148,44.144791]]]]}},{"type":"Feature","properties":{"MAPTAXLOT":"1608300000200","MAPNUMBER":"16083000","TAXLOT":"200","ACCTNO":"0072973","MAPACRES":40.72771599},"geometry":{"type":"Polygon","coordinates":[[[-123.708881,44.156137],[-123.709082,44.156138],[-123.709106,44.152448],[-123.704048,44.152438],[-123.704052,44.156099],[-123.708881,44.156137]]]}},{"type":"Feature","properties":{"MAPTAXLOT":"1608300000300","MAPNUMBER":"16083000","TAXLOT":"300","ACCTNO":"0072981","MAPACRES":10.49186623},"geometry":{"type":"Polygon","coordinates":[[[-123.709521,44.156142],[-123.713805,44.156176],[-123.713811,44.155751],[-123.713812,44.155629],[-123.713504,44.155467],[-123.71337,44.155399],[-123.713233,44.155336],[-123.713092,44.155275],[-123.712948,44.155219],[-123.712801,44.155167],[-123.712652,44.155119],[-123.7125,44.155075],[-123.712346,44.155035],[-123.71219,44.155],[-123.711195,44.154788],[-123.7111,44.154771],[-123.711003,44.154759],[-123.710906,44.154752],[-123.710808,44.15475],[-123.71071,44.154754],[-123.710612,44.154764],[-123.710517,44.154778],[-123.710422,44.154798],[-123.710331,44.154823],[-123.710242,44.154853],[-123.710156,44.154887],[-123.710075,44.154926],[-123.709997,44.15497],[-123.709925,44.155018],[-123.709858,44.155069],[-123.709796,44.155124],[-123.709741,44.155182],[-123.709692,44.155243],[-123.709649,44.155307],[-123.709613,44.155373],[-123.709585,44.15544],[-123.709563,44.155509],[-123.709549,44.155579],[-123.709542,44.155649],[-123.709521,44.156142]]]}},{"type":"Feature","properties":{"MAPTAXLOT":"1608300000301","MAPNUMBER":"16083000","TAXLOT":"301","ACCTNO":"1176658","MAPACRES":26.24045516},"geometry":{"type":"Polygon","coordinates":[[[-123.709082,44.156138],[-123.709331,44.15614],[-123.709352,44.155645],[-123.709359,44.155571],[-123.709373,44.155496],[-123.709394,44.155423],[-123.709422,44.155351],[-123.709458,44.155281],[-123.7095,44.155212],[-123.709549,44.155146],[-123.709604,44.155083],[-123.709665,44.155022],[-123.709731,44.154965],[-123.709804,44.154911],[-123.709881,44.154861],[-123.709963,44.154815],[-123.710049,44.154774],[-123.710139,44.154736],[-123.710233,44.154704],[-123.710329,44.154676],[-123.710428,44.154653],[-123.710529,44.154635],[-123.710632,44.154623],[-123.710735,44.154615],[-123.710839,44.154613],[-123.710943,44.154616],[-123.711046,44.154625],[-123.711148,44.154638],[-123.711249,44.154657],[-123.712244,44.154868],[-123.712314,44.154884],[-123.712331,44.154888],[-123.712337,44.154889],[-123.712349,44.154892],[-123.712383,44.1549],[-123.712418,44.154908],[-123.71243,44.154911],[-123.712441,44.154914],[-123.712453,44.154917],[-123.712461,44.154919],[-123.712487,44.154925],[-123.712623,44.154962],[-123.712624,44.154963],[-123.712698,44.154984],[-123.712864,44.155037],[-123.713027,44.155094],[-123.713186,44.155156],[-123.713257,44.155186],[-123.713347,44.155225],[-123.713436,44.155266],[-123.713447,44.155272],[-123.713458,44.155277],[-123.713466,44.155281],[-123.713497,44.155296],[-123.713527,44.15531],[-123.713537,44.155315],[-123.713542,44.155318],[-123.713557,44.155326],[-123.713617,44.155356],[-123.713815,44.15546],[-123.713815,44.155461],[-123.713816,44.155414],[-123.71384,44.153734],[-123.713856,44.152595],[-123.713858,44.152456],[-123.713858,44.152456],[-123.713857,44.152456],[-123.709106,44.152448],[-123.709082,44.156138]]]}},{"type":"Feature","properties":{"MAPTAXLOT":"1608300000400","MAPNUMBER":"16083000","TAXLOT":"400","ACCTNO":"0072999","MAPACRES":38.85512031},"geometry":{"type":"Polygon","coordinates":[[[-123.709106,44.152448],[-123.713857,44.152456],[-123.713858,44.152456],[-123.713858,44.152456],[-123.713858,44.152456],[-123.713908,44.149015],[-123.713911,44.148736],[-123.709119,44.148756],[-123.709106,44.152448]]]}},{"type":"Feature","properties":{"MAPTAXLOT":"1608300000500","MAPNUMBER":"16083000","TAXLOT":"500","ACCTNO":"0073005","MAPACRES":39.81818311},"geometry":{"type":"Polygon","coordinates":[[[-123.694012,44.152416],[-123.69903,44.152427],[-123.699043,44.148795],[-123.69404,44.148814],[-123.694012,44.152416]]]}},{"type":"Feature","properties":{"MAPTAXLOT":"1608300000600","MAPNUMBER":"16083000","TAXLOT":"600","ACCTNO":"0073013","MAPACRES":78.94782153},"geometry":{"type":"Polygon","coordinates":[[[-123.699054,44.145201],[-123.704039,44.14514],[-123.704069,44.141503],[-123.699065,44.141606],[-123.694062,44.14171],[-123.694051,44.145262],[-123.699054,44.145201]]]}},{"type":"Feature","properties":{"MAPTAXLOT":"1708000000100","MAPNUMBER":"17080000","TAXLOT":"100","ACCTNO":"0525020","MAPACRES":624.51765589},"geometry":{"type":"Polygon","coordinates":[[[-123.689148,44.127837],[-123.69396,44.12781],[-123.69378,44.124084],[-123.693606,44.120466],[-123.693432,44.116848],[-123.693258,44.11323],[-123.673311,44.113524],[-123.673659,44.117084],[-123.674008,44.120645],[-123.674354,44.124214],[-123.674715,44.12793],[-123.679366,44.127898],[-123.679526,44.127897],[-123.684145,44.127865],[-123.684337,44.127864],[-123.689085,44.127838],[-123.689148,44.127837]]]}},{"type":"Feature","properties":{"MAPTAXLOT":"1708000000200","MAPNUMBER":"17080000","TAXLOT":"200","ACCTNO":"0525038","MAPACRES":83.63960327},"geometry":{"type":"Polygon","coordinates":[[[-123.703579,44.127774],[-123.703902,44.127773],[-123.7037,44.12384],[-123.69378,44.124084],[-123.69396,44.12781],[-123.694025,44.12781],[-123.698769,44.127793],[-123.698964,44.127792],[-123.703579,44.127774]]]}},{"type":"Feature","properties":{"MAPTAXLOT":"1708000000300","MAPNUMBER":"17080000","TAXLOT":"300","ACCTNO":"0525046","MAPACRES":86.80404068},"geometry":{"type":"Polygon","coordinates":[[[-123.708839,44.127754],[-123.713614,44.127736],[-123.713552,44.123597],[-123.7037,44.12384],[-123.703902,44.127773],[-123.708387,44.127756],[-123.708839,44.127754]]]}},{"type":"Feature","properties":{"MAPTAXLOT":"1708000000400","MAPNUMBER":"17080000","TAXLOT":"400","ACCTNO":"0525053","MAPACRES":428.08767335},"geometry":{"type":"Polygon","coordinates":[[[-123.7037,44.12384],[-123.713552,44.123597],[-123.713501,44.120181],[-123.713449,44.116666],[-123.713397,44.11315],[-123.708103,44.113171],[-123.703155,44.113191],[-123.698206,44.113211],[-123.698393,44.116803],[-123.693432,44.116848],[-123.693606,44.120466],[-123.69378,44.124084],[-123.7037,44.12384]]]}},{"type":"Feature","properties":{"MAPTAXLOT":"1708000000600","MAPNUMBER":"17080000","TAXLOT":"600","ACCTNO":"0525079","MAPACRES":39.27894799},"geometry":{"type":"Polygon","coordinates":[[[-123.693432,44.116848],[-123.698393,44.116803],[-123.698206,44.113211],[-123.693258,44.11323],[-123.693432,44.116848]]]}},{"type":"Feature","properties":{"MAPTAXLOT":"1708000000700","MAPNUMBER":"17080000","TAXLOT":"700","ACCTNO":"0525087","MAPACRES":565.65887714},"geometry":{"type":"Polygon","coordinates":[[[-123.708103,44.113171],[-123.713397,44.11315],[-123.713347,44.109722],[-123.713298,44.106294],[-123.713248,44.102866],[-123.713198,44.099437],[-123.710738,44.099355],[-123.710096,44.099333],[-123.709137,44.099301],[-123.708196,44.099269],[-123.70613,44.099203],[-123.705521,44.099183],[-123.705198,44.099173],[-123.70341,44.099115],[-123.698626,44.09908],[-123.698522,44.102603],[-123.693907,44.10252],[-123.693972,44.105996],[-123.693258,44.11323],[-123.698206,44.113211],[-123.703155,44.113191],[-123.708103,44.113171]]]}},{"type":"Feature","properties":{"MAPTAXLOT":"1708000000800","MAPNUMBER":"17080000","TAXLOT":"800","ACCTNO":"0525095","MAPACRES":29.33926149},"geometry":{"type":"MultiPolygon","coordinates":[[[[-123.693907,44.10252],[-123.698522,44.102603],[-123.698626,44.09908],[-123.697911,44.099075],[-123.697911,44.101527],[-123.697152,44.101584],[-123.696678,44.10042],[-123.696517,44.099977],[-123.696519,44.09959],[-123.696625,44.099317],[-123.696445,44.099065],[-123.696444,44.099064],[-123.69479,44.099052],[-123.69385,44.099448],[-123.693907,44.10252]]],[[[-123.693847,44.099258],[-123.694345,44.099048],[-123.693843,44.099045],[-123.693847,44.099258]]]]}},{"type":"Feature","properties":{"MAPTAXLOT":"1708000000801","MAPNUMBER":"17080000","TAXLOT":"801","ACCTNO":"0525103","MAPACRES":6.51661523},"geometry":{"type":"Polygon","coordinates":[[[-123.696678,44.10042],[-123.697152,44.101584],[-123.697911,44.101527],[-123.697911,44.099075],[-123.696444,44.099064],[-123.696445,44.099065],[-123.696625,44.099317],[-123.696519,44.09959],[-123.696517,44.099977],[-123.696678,44.10042]]]}},{"type":"Feature","properties":{"MAPTAXLOT":"1708030000077","MAPNUMBER":"17080300","TAXLOT":"77","ACCTNO":"000None","MAPACRES":9.41482267},"geometry":{"type":"Polygon","coordinates":[[[-123.648908,44.120055],[-123.649036,44.120041],[-123.649165,44.120032],[-123.649294,44.120028],[-123.649424,44.120029],[-123.649553,44.120034],[-123.649681,44.120044],[-123.649809,44.120058],[-123.649936,44.120077],[-123.650061,44.120101],[-123.650214,44.120133],[-123.650475,44.120187],[-123.650639,44.120219],[-123.650804,44.120245],[-123.65097,44.120265],[-123.651138,44.12028],[-123.651306,44.12029],[-123.654484,44.120426],[-123.654457,44.120205],[-123.651324,44.120071],[-123.651169,44.120062],[-123.651015,44.120048],[-123.650862,44.120029],[-123.65071,44.120005],[-123.65056,44.119977],[-123.650146,44.11989],[-123.650003,44.119863],[-123.649858,44.119841],[-123.649711,44.119825],[-123.649564,44.119814],[-123.649416,44.119809],[-123.649268,44.119809],[-123.649131,44.119814],[-123.648993,44.119824],[-123.648856,44.119838],[-123.648778,44.119848],[-123.648565,44.119872],[-123.648351,44.119891],[-123.648137,44.119906],[-123.647922,44.119916],[-123.647707,44.119921],[-123.647491,44.119922],[-123.647276,44.119918],[-123.647061,44.119909],[-123.646862,44.119899],[-123.640723,44.119581],[-123.640723,44.119581],[-123.640507,44.119569],[-123.640292,44.119553],[-123.640078,44.119535],[-123.63986,44.119513],[-123.639644,44.119487],[-123.63946,44.119464],[-123.63934,44.119447],[-123.636968,44.119122],[-123.636803,44.119102],[-123.636637,44.119087],[-123.63647,44.119078],[-123.636303,44.119074],[-123.636136,44.119075],[-123.636103,44.119076],[-123.635077,44.119107],[-123.635088,44.119326],[-123.636115,44.119295],[-123.636118,44.119295],[-123.636119,44.119295],[-123.636278,44.119293],[-123.636437,44.119296],[-123.636596,44.119305],[-123.636754,44.119319],[-123.636911,44.119337],[-123.639366,44.119674],[-123.639404,44.119679],[-123.63968,44.119714],[-123.639882,44.119737],[-123.640084,44.119757],[-123.640289,44.119774],[-123.640495,44.119789],[-123.640702,44.1198],[-123.646244,44.120087],[-123.647039,44.120128],[-123.647263,44.120137],[-123.647488,44.120141],[-123.647712,44.120141],[-123.647937,44.120135],[-123.648161,44.120125],[-123.648385,44.120109],[-123.648608,44.120089],[-123.64883,44.120064],[-123.648908,44.120055]]]}},{"type":"Feature","properties":{"MAPTAXLOT":"1708030000100","MAPNUMBER":"17080300","TAXLOT":"100","ACCTNO":"0525855","MAPACRES":117.59308496},"geometry":{"type":"Polygon","coordinates":[[[-123.630232,44.127771],[-123.635095,44.127656],[-123.640263,44.127758],[-123.640263,44.127756],[-123.64004,44.124136],[-123.639823,44.120615],[-123.639823,44.120612],[-123.639469,44.12061],[-123.635148,44.120585],[-123.635148,44.12059],[-123.635124,44.12407],[-123.629879,44.124024],[-123.630232,44.127771]]]}},{"type":"Feature","properties":{"MAPTAXLOT":"1708030000200","MAPNUMBER":"17080300","TAXLOT":"200","ACCTNO":"0525871","MAPACRES":77.92633885},"geometry":{"type":"Polygon","coordinates":[[[-123.639823,44.120615],[-123.64004,44.124136],[-123.640263,44.127756],[-123.640263,44.127758],[-123.640263,44.127758],[-123.645432,44.12786],[-123.645432,44.12786],[-123.644588,44.121049],[-123.644538,44.120639],[-123.640109,44.120613],[-123.639823,44.120612],[-123.639823,44.120615]]]}},{"type":"Feature","properties":{"MAPTAXLOT":"1708030000300","MAPNUMBER":"17080300","TAXLOT":"300","ACCTNO":"1306016","MAPACRES":36.85919167},"geometry":{"type":"Polygon","coordinates":[[[-123.645432,44.12786],[-123.64753,44.1279],[-123.64753,44.1279],[-123.647505,44.122343],[-123.647541,44.122331],[-123.647573,44.122316],[-123.647602,44.122296],[-123.647625,44.122274],[-123.647643,44.122249],[-123.647655,44.122222],[-123.64766,44.122194],[-123.647658,44.122166],[-123.64765,44.122138],[-123.647635,44.122112],[-123.647615,44.122088],[-123.647254,44.121736],[-123.647183,44.121666],[-123.646868,44.12109],[-123.646853,44.121062],[-123.646851,44.121062],[-123.644588,44.121049],[-123.645432,44.12786],[-123.645432,44.12786]]]}},{"type":"Feature","properties":{"MAPTAXLOT":"1708030000400","MAPNUMBER":"17080300","TAXLOT":"400","ACCTNO":"0525889","MAPACRES":49.75418706},"geometry":{"type":"Polygon","coordinates":[[[-123.64753,44.1279],[-123.650443,44.127955],[-123.651211,44.12797],[-123.651211,44.12797],[-123.650335,44.121082],[-123.647207,44.121064],[-123.646853,44.121062],[-123.646868,44.12109],[-123.647183,44.121666],[-123.647254,44.121736],[-123.647615,44.122088],[-123.647635,44.122112],[-123.64765,44.122138],[-123.647658,44.122166],[-123.64766,44.122194],[-123.647655,44.122222],[-123.647643,44.122249],[-123.647625,44.122274],[-123.647602,44.122296],[-123.647573,44.122316],[-123.647541,44.122331],[-123.647505,44.122343],[-123.64753,44.1279],[-123.64753,44.1279]]]}},{"type":"Feature","properties":{"MAPTAXLOT":"1708030000500","MAPNUMBER":"17080300","TAXLOT":"500","ACCTNO":"1436391","MAPACRES":64.33049436},"geometry":{"type":"Polygon","coordinates":[[[-123.651211,44.12797],[-123.655454,44.12805],[-123.654978,44.12431],[-123.65457,44.121106],[-123.650335,44.121082],[-123.651211,44.12797],[-123.651211,44.12797]]]}},{"type":"Feature","properties":{"MAPTAXLOT":"1708030000600","MAPNUMBER":"17080300","TAXLOT":"600","ACCTNO":"1436409","MAPACRES":8.99625972},"geometry":{"type":"Polygon","coordinates":[[[-123.644588,44.121049],[-123.646851,44.121062],[-123.646853,44.121062],[-123.647207,44.121064],[-123.650335,44.121082],[-123.65457,44.121106],[-123.654518,44.120696],[-123.650282,44.120672],[-123.646595,44.120651],[-123.644538,44.120639],[-123.644588,44.121049]]]}},{"type":"Feature","properties":{"MAPTAXLOT":"1708030000700","MAPNUMBER":"17080300","TAXLOT":"700","ACCTNO":"1393527","MAPACRES":65.26575392},"geometry":{"type":"MultiPolygon","coordinates":[[[[-123.648856,44.119838],[-123.648993,44.119824],[-123.649131,44.119814],[-123.649268,44.119809],[-123.649416,44.119809],[-123.649564,44.119814],[-123.649711,44.119825],[-123.649858,44.119841],[-123.650003,44.119863],[-123.650146,44.11989],[-123.65056,44.119977],[-123.65071,44.120005],[-123.650862,44.120029],[-123.651015,44.120048],[-123.651169,44.120062],[-123.651324,44.120071],[-123.654457,44.120205],[-123.654294,44.118894],[-123.654069,44.11708],[-123.644091,44.117033],[-123.64427,44.118482],[-123.644496,44.118531],[-123.645327,44.118637],[-123.646037,44.11876],[-123.646677,44.118803],[-123.646957,44.11878],[-123.646862,44.119899],[-123.647061,44.119909],[-123.647276,44.119918],[-123.647491,44.119922],[-123.647707,44.119921],[-123.647922,44.119916],[-123.648137,44.119906],[-123.648351,44.119891],[-123.648565,44.119872],[-123.648778,44.119848],[-123.648856,44.119838]]],[[[-123.646595,44.120651],[-123.650282,44.120672],[-123.654518,44.120696],[-123.654484,44.120426],[-123.651306,44.12029],[-123.651138,44.12028],[-123.65097,44.120265],[-123.650804,44.120245],[-123.650639,44.120219],[-123.650475,44.120187],[-123.650214,44.120133],[-123.650061,44.120101],[-123.649936,44.120077],[-123.649809,44.120058],[-123.649681,44.120044],[-123.649553,44.120034],[-123.649424,44.120029],[-123.649294,44.120028],[-123.649165,44.120032],[-123.649036,44.120041],[-123.648908,44.120055],[-123.64883,44.120064],[-123.648608,44.120089],[-123.648385,44.120109],[-123.648161,44.120125],[-123.647937,44.120135],[-123.647712,44.120141],[-123.647488,44.120141],[-123.647263,44.120137],[-123.647039,44.120128],[-123.646244,44.120087],[-123.646595,44.120651]]]]}},{"type":"Feature","properties":{"MAPTAXLOT":"1708030000800","MAPNUMBER":"17080300","TAXLOT":"800","ACCTNO":"0525905","MAPACRES":110.1497265},"geometry":{"type":"Polygon","coordinates":[[[-123.644091,44.117033],[-123.654069,44.11708],[-123.653594,44.113466],[-123.639898,44.113405],[-123.639898,44.11341],[-123.640004,44.117013],[-123.640004,44.117014],[-123.644091,44.117033]]]}},{"type":"Feature","properties":{"MAPTAXLOT":"1708030000801","MAPNUMBER":"17080300","TAXLOT":"801","ACCTNO":"1525326","MAPACRES":7.85790615},"geometry":{"type":"Polygon","coordinates":[[[-123.639248,44.117011],[-123.640004,44.117014],[-123.640004,44.117013],[-123.639898,44.11341],[-123.639898,44.113405],[-123.638672,44.113399],[-123.639248,44.117011]]]}},{"type":"Feature","properties":{"MAPTAXLOT":"1708030000900","MAPNUMBER":"17080300","TAXLOT":"900","ACCTNO":"0525913","MAPACRES":40.6092381},"geometry":{"type":"MultiPolygon","coordinates":[[[[-123.640078,44.119535],[-123.640292,44.119553],[-123.640507,44.119569],[-123.640723,44.119581],[-123.640723,44.119581],[-123.646862,44.119899],[-123.646957,44.11878],[-123.646677,44.118803],[-123.646037,44.11876],[-123.645327,44.118637],[-123.644496,44.118531],[-123.64427,44.118482],[-123.644091,44.117033],[-123.640004,44.117014],[-123.640016,44.117415],[-123.640041,44.118282],[-123.640078,44.119535]]],[[[-123.640109,44.120613],[-123.644538,44.120639],[-123.646595,44.120651],[-123.646244,44.120087],[-123.640702,44.1198],[-123.640495,44.119789],[-123.640289,44.119774],[-123.640084,44.119757],[-123.640109,44.120613]]]]}},{"type":"Feature","properties":{"MAPTAXLOT":"1708030001000","MAPNUMBER":"17080300","TAXLOT":"1000","ACCTNO":"1306057","MAPACRES":3.91476838},"geometry":{"type":"MultiPolygon","coordinates":[[[[-123.639644,44.119487],[-123.63986,44.119513],[-123.640078,44.119535],[-123.640041,44.118282],[-123.640016,44.117415],[-123.640004,44.117014],[-123.639248,44.117011],[-123.639644,44.119487]]],[[[-123.639823,44.120612],[-123.640109,44.120613],[-123.640084,44.119757],[-123.639882,44.119737],[-123.63968,44.119714],[-123.639823,44.120612]]]]}},{"type":"Feature","properties":{"MAPTAXLOT":"1708040000077","MAPNUMBER":"17080400","TAXLOT":"77","ACCTNO":"000None","MAPACRES":9.60632353},"geometry":{"type":"Polygon","coordinates":[[[-123.659376,44.120538],[-123.659819,44.120542],[-123.659974,44.120542],[-123.660129,44.120536],[-123.660284,44.120526],[-123.660438,44.120512],[-123.66059,44.120493],[-123.660742,44.120469],[-123.660892,44.120441],[-123.661041,44.120408],[-123.661187,44.120372],[-123.661332,44.120331],[-123.661473,44.120285],[-123.664122,44.119393],[-123.664324,44.119325],[-123.664462,44.119276],[-123.664596,44.119223],[-123.664728,44.119166],[-123.664856,44.119106],[-123.664981,44.119042],[-123.665102,44.118974],[-123.665219,44.118903],[-123.665332,44.118828],[-123.665644,44.118614],[-123.665731,44.118543],[-123.665812,44.118468],[-123.665888,44.118391],[-123.665957,44.11831],[-123.666019,44.118226],[-123.666075,44.11814],[-123.666125,44.118052],[-123.666167,44.117962],[-123.666202,44.117871],[-123.66623,44.117778],[-123.666251,44.117684],[-123.666264,44.117589],[-123.666269,44.117495],[-123.66632,44.117082],[-123.666415,44.116304],[-123.666424,44.116201],[-123.666425,44.116097],[-123.66642,44.115994],[-123.666408,44.115891],[-123.666309,44.11526],[-123.666318,44.115208],[-123.666333,44.115157],[-123.666356,44.115107],[-123.666384,44.115058],[-123.666419,44.115012],[-123.666461,44.114969],[-123.666507,44.114929],[-123.666559,44.114892],[-123.666616,44.114858],[-123.666676,44.114829],[-123.666741,44.114805],[-123.667585,44.11437],[-123.667678,44.114319],[-123.667768,44.114265],[-123.667855,44.114209],[-123.667938,44.114149],[-123.668017,44.114087],[-123.668092,44.114023],[-123.668133,44.113985],[-123.668148,44.113971],[-123.668275,44.113859],[-123.668407,44.113751],[-123.668545,44.113646],[-123.668688,44.113546],[-123.668737,44.113513],[-123.668308,44.113507],[-123.668169,44.113613],[-123.668036,44.113723],[-123.667909,44.113836],[-123.667891,44.113852],[-123.66782,44.113916],[-123.667745,44.113977],[-123.667666,44.114035],[-123.667584,44.11409],[-123.667497,44.114143],[-123.667407,44.114192],[-123.666597,44.114611],[-123.66653,44.114637],[-123.666466,44.114666],[-123.666405,44.114698],[-123.666347,44.114734],[-123.666293,44.114772],[-123.666243,44.114813],[-123.666227,44.114828],[-123.66618,44.114875],[-123.666138,44.114925],[-123.666101,44.114976],[-123.66607,44.11503],[-123.666045,44.115085],[-123.666025,44.115142],[-123.666012,44.115199],[-123.666005,44.115257],[-123.666005,44.115275],[-123.666105,44.115915],[-123.666116,44.116008],[-123.666121,44.1161],[-123.666119,44.116192],[-123.666111,44.116284],[-123.666014,44.117081],[-123.665965,44.117487],[-123.66596,44.117571],[-123.665949,44.117655],[-123.665931,44.117737],[-123.665907,44.117817],[-123.665877,44.117896],[-123.66584,44.117973],[-123.665798,44.118049],[-123.66575,44.118123],[-123.665697,44.118195],[-123.665638,44.118265],[-123.665574,44.118332],[-123.665504,44.118397],[-123.66543,44.118458],[-123.665122,44.118669],[-123.665003,44.118747],[-123.664879,44.118821],[-123.66475,44.118891],[-123.664617,44.118957],[-123.66448,44.119018],[-123.664339,44.119074],[-123.664195,44.119126],[-123.664096,44.119159],[-123.661344,44.120087],[-123.661201,44.120132],[-123.661054,44.120173],[-123.660906,44.120209],[-123.660755,44.12024],[-123.660602,44.120267],[-123.660448,44.120288],[-123.660293,44.120304],[-123.660137,44.120316],[-123.65998,44.120322],[-123.659823,44.120323],[-123.659354,44.120319],[-123.656774,44.120295],[-123.656525,44.120291],[-123.656277,44.120282],[-123.65535,44.120243],[-123.654457,44.120205],[-123.654484,44.120426],[-123.655353,44.120463],[-123.656259,44.120501],[-123.656514,44.12051],[-123.65677,44.120514],[-123.658469,44.12053],[-123.659376,44.120538]]]}},{"type":"Feature","properties":{"MAPTAXLOT":"1708040000100","MAPNUMBER":"17080400","TAXLOT":"100","ACCTNO":"1409430","MAPACRES":6.77694961},"geometry":{"type":"Polygon","coordinates":[[[-123.654978,44.12431],[-123.655454,44.12805],[-123.655356,44.120694],[-123.654518,44.120696],[-123.65457,44.121106],[-123.654978,44.12431]]]}},{"type":"Feature","properties":{"MAPTAXLOT":"1708040000200","MAPNUMBER":"17080400","TAXLOT":"200","ACCTNO":"0526077","MAPACRES":0.30044221},"geometry":{"type":"Polygon","coordinates":[[[-123.658477,44.120686],[-123.659391,44.120683],[-123.659376,44.120538],[-123.658469,44.12053],[-123.658477,44.120686]]]}},{"type":"Feature","properties":{"MAPTAXLOT":"1708040000300","MAPNUMBER":"17080400","TAXLOT":"300","ACCTNO":"0525939","MAPACRES":149.60420597},"geometry":{"type":"Polygon","coordinates":[[[-123.660273,44.12802],[-123.665092,44.127989],[-123.664672,44.124262],[-123.664266,44.12067],[-123.659391,44.120683],[-123.658477,44.120686],[-123.655356,44.120694],[-123.655454,44.12805],[-123.660273,44.12802]]]}},{"type":"Feature","properties":{"MAPTAXLOT":"1708040000400","MAPNUMBER":"17080400","TAXLOT":"400","ACCTNO":"0525954","MAPACRES":223.31634275},"geometry":{"type":"Polygon","coordinates":[[[-123.674587,44.127931],[-123.674715,44.12793],[-123.674354,44.124214],[-123.674008,44.120645],[-123.673659,44.117084],[-123.66632,44.117082],[-123.666269,44.117495],[-123.666264,44.117589],[-123.666251,44.117684],[-123.66623,44.117778],[-123.666202,44.117871],[-123.666167,44.117962],[-123.666125,44.118052],[-123.666075,44.11814],[-123.666019,44.118226],[-123.665957,44.11831],[-123.665888,44.118391],[-123.665812,44.118468],[-123.665731,44.118543],[-123.665644,44.118614],[-123.665332,44.118828],[-123.665219,44.118903],[-123.665102,44.118974],[-123.664981,44.119042],[-123.664856,44.119106],[-123.664728,44.119166],[-123.664596,44.119223],[-123.664462,44.119276],[-123.664324,44.119325],[-123.664122,44.119393],[-123.664266,44.12067],[-123.664672,44.124262],[-123.665092,44.127989],[-123.669904,44.12796],[-123.674587,44.127931]]]}},{"type":"Feature","properties":{"MAPTAXLOT":"1708040000500","MAPNUMBER":"17080400","TAXLOT":"500","ACCTNO":"1223542","MAPACRES":45.40312202},"geometry":{"type":"Polygon","coordinates":[[[-123.66632,44.117082],[-123.673659,44.117084],[-123.673311,44.113524],[-123.671255,44.113517],[-123.670532,44.113514],[-123.670242,44.113714],[-123.670243,44.113723],[-123.670306,44.114295],[-123.670796,44.11486],[-123.670158,44.11508],[-123.670025,44.114932],[-123.669353,44.114537],[-123.668857,44.114582],[-123.668322,44.114674],[-123.667826,44.114738],[-123.66765,44.114519],[-123.66821,44.114123],[-123.668092,44.114023],[-123.668017,44.114087],[-123.667938,44.114149],[-123.667855,44.114209],[-123.667768,44.114265],[-123.667678,44.114319],[-123.667585,44.11437],[-123.666741,44.114805],[-123.666676,44.114829],[-123.666616,44.114858],[-123.666559,44.114892],[-123.666507,44.114929],[-123.666461,44.114969],[-123.666419,44.115012],[-123.666384,44.115058],[-123.666356,44.115107],[-123.666333,44.115157],[-123.666318,44.115208],[-123.666309,44.11526],[-123.666408,44.115891],[-123.66642,44.115994],[-123.666425,44.116097],[-123.666424,44.116201],[-123.666415,44.116304],[-123.66632,44.117082]]]}},{"type":"Feature","properties":{"MAPTAXLOT":"1708040000600","MAPNUMBER":"17080400","TAXLOT":"600","ACCTNO":"0525988","MAPACRES":5.02080421},"geometry":{"type":"Polygon","coordinates":[[[-123.668092,44.114023],[-123.66821,44.114123],[-123.66765,44.114519],[-123.667826,44.114738],[-123.668322,44.114674],[-123.668857,44.114582],[-123.669353,44.114537],[-123.670025,44.114932],[-123.670158,44.11508],[-123.670796,44.11486],[-123.670306,44.114295],[-123.670243,44.113723],[-123.669732,44.114055],[-123.669574,44.113935],[-123.669435,44.113862],[-123.6692,44.113775],[-123.66908,44.113726],[-123.668919,44.113661],[-123.668788,44.113621],[-123.668694,44.11355],[-123.668688,44.113546],[-123.668545,44.113646],[-123.668407,44.113751],[-123.668275,44.113859],[-123.668148,44.113971],[-123.668133,44.113985],[-123.668092,44.114023]]]}},{"type":"Feature","properties":{"MAPTAXLOT":"1708040000700","MAPNUMBER":"17080400","TAXLOT":"700","ACCTNO":"1236262","MAPACRES":0.99835707},"geometry":{"type":"Polygon","coordinates":[[[-123.66908,44.113726],[-123.6692,44.113775],[-123.669435,44.113862],[-123.669574,44.113935],[-123.669732,44.114055],[-123.670243,44.113723],[-123.670242,44.113714],[-123.670532,44.113514],[-123.669137,44.11351],[-123.669068,44.11351],[-123.66908,44.113726]]]}},{"type":"Feature","properties":{"MAPTAXLOT":"1708040000800","MAPNUMBER":"17080400","TAXLOT":"800","ACCTNO":"0525996","MAPACRES":0.11321297},"geometry":{"type":"Polygon","coordinates":[[[-123.668688,44.113546],[-123.668694,44.11355],[-123.668788,44.113621],[-123.668919,44.113661],[-123.66908,44.113726],[-123.669068,44.11351],[-123.668737,44.113513],[-123.668688,44.113546]]]}},{"type":"Feature","properties":{"MAPTAXLOT":"1708040000900","MAPNUMBER":"17080400","TAXLOT":"900","ACCTNO":"0526010","MAPACRES":4.79102074},"geometry":{"type":"Polygon","coordinates":[[[-123.666073,44.113958],[-123.665998,44.114456],[-123.665845,44.115097],[-123.665893,44.115517],[-123.665971,44.115995],[-123.665933,44.11632],[-123.665793,44.116781],[-123.665775,44.117081],[-123.666014,44.117081],[-123.666111,44.116284],[-123.666119,44.116192],[-123.666121,44.1161],[-123.666116,44.116008],[-123.666105,44.115915],[-123.666005,44.115275],[-123.666005,44.115257],[-123.666012,44.115199],[-123.666025,44.115142],[-123.666045,44.115085],[-123.66607,44.11503],[-123.666101,44.114976],[-123.666138,44.114925],[-123.66618,44.114875],[-123.666227,44.114828],[-123.666243,44.114813],[-123.666293,44.114772],[-123.666347,44.114734],[-123.666405,44.114698],[-123.666466,44.114666],[-123.66653,44.114637],[-123.666597,44.114611],[-123.667407,44.114192],[-123.667497,44.114143],[-123.667584,44.11409],[-123.667666,44.114035],[-123.667745,44.113977],[-123.66782,44.113916],[-123.667891,44.113852],[-123.667909,44.113836],[-123.668036,44.113723],[-123.668169,44.113613],[-123.668308,44.113507],[-123.66798,44.113506],[-123.667828,44.113505],[-123.66619,44.1135],[-123.666139,44.1135],[-123.666073,44.113958]]]}},{"type":"Feature","properties":{"MAPTAXLOT":"1708040001000","MAPNUMBER":"17080400","TAXLOT":"1000","ACCTNO":"0526028","MAPACRES":101.3409555},"geometry":{"type":"Polygon","coordinates":[[[-123.663124,44.11906],[-123.663524,44.11908],[-123.663967,44.119027],[-123.664077,44.118995],[-123.663861,44.11708],[-123.664586,44.117081],[-123.665388,44.117723],[-123.665931,44.117737],[-123.665949,44.117655],[-123.66596,44.117571],[-123.665965,44.117487],[-123.666014,44.117081],[-123.665775,44.117081],[-123.665793,44.116781],[-123.665933,44.11632],[-123.665971,44.115995],[-123.665893,44.115517],[-123.665845,44.115097],[-123.665998,44.114456],[-123.666073,44.113958],[-123.666139,44.1135],[-123.663456,44.113491],[-123.653594,44.113466],[-123.654069,44.11708],[-123.655308,44.11708],[-123.659023,44.11708],[-123.659898,44.117079],[-123.6629,44.11708],[-123.663124,44.11906]]]}},{"type":"Feature","properties":{"MAPTAXLOT":"1708040001100","MAPNUMBER":"17080400","TAXLOT":"1100","ACCTNO":"0525962","MAPACRES":5.61479717},"geometry":{"type":"Polygon","coordinates":[[[-123.664077,44.118995],[-123.664096,44.119159],[-123.664195,44.119126],[-123.664339,44.119074],[-123.66448,44.119018],[-123.664617,44.118957],[-123.66475,44.118891],[-123.664879,44.118821],[-123.665003,44.118747],[-123.665122,44.118669],[-123.66543,44.118458],[-123.665504,44.118397],[-123.665574,44.118332],[-123.665638,44.118265],[-123.665697,44.118195],[-123.66575,44.118123],[-123.665798,44.118049],[-123.66584,44.117973],[-123.665877,44.117896],[-123.665907,44.117817],[-123.665931,44.117737],[-123.665388,44.117723],[-123.664586,44.117081],[-123.663861,44.11708],[-123.664077,44.118995]]]}},{"type":"Feature","properties":{"MAPTAXLOT":"1708040001200","MAPNUMBER":"17080400","TAXLOT":"1200","ACCTNO":"0526044","MAPACRES":31.78068097},"geometry":{"type":"MultiPolygon","coordinates":[[[[-123.659354,44.120319],[-123.659823,44.120323],[-123.65998,44.120322],[-123.660137,44.120316],[-123.660293,44.120304],[-123.660448,44.120288],[-123.660602,44.120267],[-123.660755,44.12024],[-123.660906,44.120209],[-123.661054,44.120173],[-123.661201,44.120132],[-123.661344,44.120087],[-123.664096,44.119159],[-123.664077,44.118995],[-123.663967,44.119027],[-123.663524,44.11908],[-123.663124,44.11906],[-123.6629,44.11708],[-123.659898,44.117079],[-123.659023,44.11708],[-123.659354,44.120319]]],[[[-123.659391,44.120683],[-123.664266,44.12067],[-123.664122,44.119393],[-123.661473,44.120285],[-123.661332,44.120331],[-123.661187,44.120372],[-123.661041,44.120408],[-123.660892,44.120441],[-123.660742,44.120469],[-123.66059,44.120493],[-123.660438,44.120512],[-123.660284,44.120526],[-123.660129,44.120536],[-123.659974,44.120542],[-123.659819,44.120542],[-123.659376,44.120538],[-123.659391,44.120683]]]]}},{"type":"Feature","properties":{"MAPTAXLOT":"1708040001300","MAPNUMBER":"17080400","TAXLOT":"1300","ACCTNO":"0526069","MAPACRES":28.49910245},"geometry":{"type":"MultiPolygon","coordinates":[[[[-123.65535,44.120243],[-123.656277,44.120282],[-123.656525,44.120291],[-123.656774,44.120295],[-123.659354,44.120319],[-123.659023,44.11708],[-123.655308,44.11708],[-123.65535,44.120243]]],[[[-123.655356,44.120694],[-123.658477,44.120686],[-123.658469,44.12053],[-123.65677,44.120514],[-123.656514,44.12051],[-123.656259,44.120501],[-123.655353,44.120463],[-123.655356,44.120694]]]]}},{"type":"Feature","properties":{"MAPTAXLOT":"1708040001400","MAPNUMBER":"17080400","TAXLOT":"1400","ACCTNO":"1436417","MAPACRES":7.82554872},"geometry":{"type":"MultiPolygon","coordinates":[[[[-123.654294,44.118894],[-123.654457,44.120205],[-123.65535,44.120243],[-123.655308,44.11708],[-123.654069,44.11708],[-123.654294,44.118894]]],[[[-123.654518,44.120696],[-123.655356,44.120694],[-123.655353,44.120463],[-123.654484,44.120426],[-123.654518,44.120696]]]]}},{"type":"Feature","properties":{"MAPTAXLOT":"1708080000077","MAPNUMBER":"17080800","TAXLOT":"77","ACCTNO":"000None","MAPACRES":14.10001336},"geometry":{"type":"Polygon","coordinates":[[[-123.673403,44.111366],[-123.673387,44.111722],[-123.673459,44.111672],[-123.673526,44.11162],[-123.673587,44.111563],[-123.673643,44.111504],[-123.673692,44.111442],[-123.673735,44.111378],[-123.673789,44.111289],[-123.673834,44.111209],[-123.673873,44.111128],[-123.673907,44.111045],[-123.673934,44.11096],[-123.673956,44.110875],[-123.673971,44.110789],[-123.673981,44.110703],[-123.674041,44.109869],[-123.674049,44.109705],[-123.674051,44.10954],[-123.674045,44.109376],[-123.674032,44.109211],[-123.674012,44.109047],[-123.673986,44.108884],[-123.673869,44.108256],[-123.673853,44.108152],[-123.673843,44.108048],[-123.673839,44.107944],[-123.67384,44.10784],[-123.673848,44.107736],[-123.673862,44.107632],[-123.673882,44.107529],[-123.673944,44.107208],[-123.673967,44.107104],[-123.673997,44.107],[-123.674032,44.106898],[-123.674073,44.106796],[-123.674121,44.106696],[-123.674174,44.106598],[-123.674304,44.10637],[-123.674532,44.105973],[-123.674576,44.105901],[-123.674627,44.105831],[-123.674683,44.105764],[-123.674744,44.105699],[-123.674811,44.105637],[-123.674883,44.105578],[-123.674959,44.105522],[-123.67504,44.10547],[-123.675125,44.105421],[-123.675214,44.105376],[-123.675307,44.105334],[-123.675403,44.105297],[-123.676534,44.104888],[-123.676663,44.104843],[-123.676795,44.104803],[-123.676929,44.104766],[-123.677065,44.104733],[-123.677203,44.104705],[-123.677342,44.10468],[-123.677482,44.10466],[-123.678186,44.104569],[-123.678325,44.104549],[-123.678463,44.104523],[-123.678599,44.104493],[-123.678733,44.104458],[-123.678864,44.104418],[-123.678992,44.104373],[-123.679117,44.104324],[-123.679238,44.104271],[-123.679545,44.104128],[-123.679739,44.104041],[-123.679936,44.103959],[-123.680136,44.103882],[-123.68034,44.103809],[-123.680548,44.10374],[-123.680758,44.103677],[-123.68097,44.103618],[-123.681186,44.103565],[-123.681403,44.103516],[-123.683721,44.103027],[-123.687249,44.102283],[-123.687357,44.102258],[-123.687462,44.102229],[-123.687565,44.102196],[-123.687666,44.102158],[-123.687763,44.102116],[-123.687857,44.10207],[-123.687947,44.102021],[-123.688032,44.101967],[-123.688045,44.101959],[-123.688126,44.101908],[-123.688211,44.101861],[-123.688299,44.101817],[-123.68839,44.101776],[-123.688531,44.101717],[-123.688514,44.101696],[-123.692116,44.100178],[-123.693248,44.099701],[-123.69385,44.099448],[-123.693847,44.099258],[-123.6911,44.100416],[-123.688399,44.101554],[-123.688377,44.101527],[-123.688236,44.101587],[-123.688131,44.101633],[-123.68803,44.101684],[-123.687933,44.101739],[-123.68784,44.101797],[-123.687827,44.101805],[-123.687744,44.101856],[-123.687656,44.101904],[-123.687564,44.101947],[-123.687469,44.101985],[-123.68737,44.102019],[-123.687269,44.102048],[-123.687164,44.102072],[-123.687164,44.102073],[-123.683716,44.1028],[-123.68273,44.103008],[-123.682385,44.10308],[-123.681318,44.103306],[-123.681091,44.103356],[-123.680866,44.103412],[-123.680644,44.103473],[-123.680425,44.103539],[-123.680209,44.103611],[-123.679997,44.103687],[-123.679787,44.103768],[-123.679582,44.103853],[-123.67938,44.103944],[-123.679073,44.104087],[-123.678964,44.104134],[-123.678853,44.104178],[-123.678738,44.104218],[-123.678621,44.104253],[-123.678502,44.104285],[-123.67838,44.104312],[-123.678257,44.104335],[-123.678132,44.104353],[-123.677429,44.104444],[-123.677276,44.104466],[-123.677124,44.104493],[-123.676975,44.104524],[-123.676827,44.104559],[-123.676681,44.104599],[-123.676538,44.104643],[-123.676397,44.104692],[-123.675266,44.105101],[-123.675178,44.105135],[-123.675092,44.105171],[-123.67368,44.104303],[-123.673557,44.104228],[-123.673561,44.104374],[-123.673609,44.104404],[-123.674585,44.105004],[-123.674955,44.105231],[-123.674961,44.105235],[-123.674871,44.105286],[-123.674785,44.105339],[-123.674702,44.105397],[-123.674624,44.105457],[-123.674551,44.10552],[-123.674482,44.105586],[-123.674419,44.105654],[-123.674356,44.10573],[-123.6743,44.105808],[-123.67425,44.105889],[-123.673971,44.106376],[-123.673892,44.106514],[-123.673835,44.106621],[-123.673783,44.10673],[-123.673738,44.10684],[-123.6737,44.106952],[-123.673668,44.107064],[-123.673642,44.107178],[-123.673581,44.107495],[-123.673564,44.107579],[-123.673547,44.107696],[-123.673537,44.107814],[-123.673534,44.107932],[-123.673538,44.10805],[-123.673549,44.108167],[-123.673567,44.108285],[-123.673684,44.108913],[-123.673709,44.109069],[-123.673728,44.109227],[-123.673741,44.109384],[-123.673746,44.109542],[-123.673745,44.1097],[-123.673737,44.109858],[-123.673677,44.110692],[-123.673667,44.110779],[-123.673649,44.110866],[-123.673625,44.110952],[-123.673593,44.111037],[-123.673555,44.11112],[-123.673509,44.111201],[-123.673456,44.11129],[-123.673431,44.111328],[-123.673403,44.111366]]]}},{"type":"Feature","properties":{"MAPTAXLOT":"1708080000200","MAPNUMBER":"17080800","TAXLOT":"200","ACCTNO":"0526085","MAPACRES":273.10363228},"geometry":{"type":"MultiPolygon","coordinates":[[[[-123.673981,44.110703],[-123.673971,44.110789],[-123.673956,44.110875],[-123.673934,44.11096],[-123.673907,44.111045],[-123.673873,44.111128],[-123.673834,44.111209],[-123.673789,44.111289],[-123.673735,44.111378],[-123.673692,44.111442],[-123.673643,44.111504],[-123.673587,44.111563],[-123.673526,44.11162],[-123.673459,44.111672],[-123.673387,44.111722],[-123.673311,44.113524],[-123.693258,44.11323],[-123.693972,44.105996],[-123.688883,44.106093],[-123.688577,44.109699],[-123.683539,44.109784],[-123.683793,44.10619],[-123.674304,44.10637],[-123.674174,44.106598],[-123.674121,44.106696],[-123.674073,44.106796],[-123.674032,44.106898],[-123.673997,44.107],[-123.673967,44.107104],[-123.673944,44.107208],[-123.673882,44.107529],[-123.673862,44.107632],[-123.673848,44.107736],[-123.67384,44.10784],[-123.673839,44.107944],[-123.673843,44.108048],[-123.673853,44.108152],[-123.673869,44.108256],[-123.673986,44.108884],[-123.674012,44.109047],[-123.674032,44.109211],[-123.674045,44.109376],[-123.674051,44.10954],[-123.674049,44.109705],[-123.674041,44.109869],[-123.673981,44.110703]]],[[[-123.673564,44.107579],[-123.673581,44.107495],[-123.673642,44.107178],[-123.673668,44.107064],[-123.6737,44.106952],[-123.673738,44.10684],[-123.673783,44.10673],[-123.673835,44.106621],[-123.673892,44.106514],[-123.673971,44.106376],[-123.673615,44.106383],[-123.673564,44.107579]]]]}},{"type":"Feature","properties":{"MAPTAXLOT":"1708080000300","MAPNUMBER":"17080800","TAXLOT":"300","ACCTNO":"0526093","MAPACRES":40.0120201},"geometry":{"type":"Polygon","coordinates":[[[-123.683539,44.109784],[-123.688577,44.109699],[-123.688883,44.106093],[-123.683793,44.10619],[-123.683539,44.109784]]]}},{"type":"Feature","properties":{"MAPTAXLOT":"1708080000500","MAPNUMBER":"17080800","TAXLOT":"500","ACCTNO":"0526127","MAPACRES":33.69049294},"geometry":{"type":"Polygon","coordinates":[[[-123.683696,44.101941],[-123.683713,44.102681],[-123.683716,44.1028],[-123.687164,44.102073],[-123.687164,44.102072],[-123.687269,44.102048],[-123.68737,44.102019],[-123.687469,44.101985],[-123.687564,44.101947],[-123.687656,44.101904],[-123.687744,44.101856],[-123.687827,44.101805],[-123.68784,44.101797],[-123.687933,44.101739],[-123.68803,44.101684],[-123.688131,44.101633],[-123.688236,44.101587],[-123.688377,44.101527],[-123.688399,44.101554],[-123.6911,44.100416],[-123.691093,44.100384],[-123.690833,44.099082],[-123.690127,44.099091],[-123.685797,44.100056],[-123.683664,44.100531],[-123.683669,44.100722],[-123.683684,44.101406],[-123.683696,44.101941]]]}},{"type":"Feature","properties":{"MAPTAXLOT":"1708080000501","MAPNUMBER":"17080800","TAXLOT":"501","ACCTNO":"1066800","MAPACRES":103.03623679},"geometry":{"type":"Polygon","coordinates":[[[-123.688883,44.106093],[-123.693972,44.105996],[-123.693907,44.10252],[-123.69385,44.099448],[-123.693248,44.099701],[-123.693306,44.099772],[-123.692594,44.100199],[-123.692116,44.100178],[-123.688514,44.101696],[-123.688531,44.101717],[-123.68839,44.101776],[-123.688299,44.101817],[-123.688211,44.101861],[-123.688126,44.101908],[-123.688045,44.101959],[-123.688032,44.101967],[-123.687947,44.102021],[-123.687857,44.10207],[-123.687763,44.102116],[-123.687666,44.102158],[-123.687565,44.102196],[-123.687462,44.102229],[-123.687357,44.102258],[-123.687249,44.102283],[-123.683721,44.103027],[-123.683793,44.10619],[-123.688883,44.106093]]]}},{"type":"Feature","properties":{"MAPTAXLOT":"1708080000502","MAPNUMBER":"17080800","TAXLOT":"502","ACCTNO":"1066818","MAPACRES":9.70524575},"geometry":{"type":"Polygon","coordinates":[[[-123.683633,44.099172],[-123.683664,44.100531],[-123.685797,44.100056],[-123.690127,44.099091],[-123.688738,44.099108],[-123.683633,44.099172]]]}},{"type":"Feature","properties":{"MAPTAXLOT":"1708080000503","MAPNUMBER":"17080800","TAXLOT":"503","ACCTNO":"1306149","MAPACRES":5.07403366},"geometry":{"type":"Polygon","coordinates":[[[-123.690833,44.099082],[-123.691093,44.100384],[-123.6911,44.100416],[-123.693847,44.099258],[-123.693843,44.099045],[-123.691484,44.099074],[-123.690833,44.099082]]]}},{"type":"Feature","properties":{"MAPTAXLOT":"1708080000600","MAPNUMBER":"17080800","TAXLOT":"600","ACCTNO":"0526135","MAPACRES":0.3594336},"geometry":{"type":"Polygon","coordinates":[[[-123.692116,44.100178],[-123.692594,44.100199],[-123.693306,44.099772],[-123.693248,44.099701],[-123.692116,44.100178]]]}},{"type":"Feature","properties":{"MAPTAXLOT":"1708080000800","MAPNUMBER":"17080800","TAXLOT":"800","ACCTNO":"0526168","MAPACRES":1.64964536},"geometry":{"type":"Polygon","coordinates":[[[-123.682447,44.102708],[-123.682192,44.102769],[-123.682339,44.103006],[-123.682385,44.10308],[-123.68273,44.103008],[-123.683716,44.1028],[-123.683713,44.102681],[-123.683696,44.101941],[-123.683327,44.102294],[-123.682707,44.102585],[-123.682447,44.102708]]]}},{"type":"Feature","properties":{"MAPTAXLOT":"1708080000801","MAPNUMBER":"17080800","TAXLOT":"801","ACCTNO":"0526176","MAPACRES":0.28087671},"geometry":{"type":"Polygon","coordinates":[[[-123.674585,44.105004],[-123.674419,44.105654],[-123.674482,44.105586],[-123.674551,44.10552],[-123.674624,44.105457],[-123.674702,44.105397],[-123.674785,44.105339],[-123.674871,44.105286],[-123.674961,44.105235],[-123.674955,44.105231],[-123.674585,44.105004]]]}},{"type":"Feature","properties":{"MAPTAXLOT":"1708080000802","MAPNUMBER":"17080800","TAXLOT":"802","ACCTNO":"1061025","MAPACRES":38.73631409},"geometry":{"type":"Polygon","coordinates":[[[-123.673458,44.10056],[-123.678482,44.10128],[-123.683568,44.100733],[-123.683669,44.100722],[-123.683664,44.100531],[-123.683633,44.099172],[-123.678528,44.099236],[-123.673423,44.099299],[-123.673458,44.10056]]]}},{"type":"Feature","properties":{"MAPTAXLOT":"1708080000803","MAPNUMBER":"17080800","TAXLOT":"803","ACCTNO":"1181468","MAPACRES":41.58213788},"geometry":{"type":"Polygon","coordinates":[[[-123.674304,44.10637],[-123.683793,44.10619],[-123.683721,44.103027],[-123.681403,44.103516],[-123.681186,44.103565],[-123.68097,44.103618],[-123.680758,44.103677],[-123.680548,44.10374],[-123.68034,44.103809],[-123.680136,44.103882],[-123.679936,44.103959],[-123.679739,44.104041],[-123.679545,44.104128],[-123.679238,44.104271],[-123.679117,44.104324],[-123.678992,44.104373],[-123.678864,44.104418],[-123.678733,44.104458],[-123.678599,44.104493],[-123.678463,44.104523],[-123.678325,44.104549],[-123.678186,44.104569],[-123.677482,44.10466],[-123.677342,44.10468],[-123.677203,44.104705],[-123.677065,44.104733],[-123.676929,44.104766],[-123.676795,44.104803],[-123.676663,44.104843],[-123.676534,44.104888],[-123.675403,44.105297],[-123.675307,44.105334],[-123.675214,44.105376],[-123.675125,44.105421],[-123.67504,44.10547],[-123.674959,44.105522],[-123.674883,44.105578],[-123.674811,44.105637],[-123.674744,44.105699],[-123.674683,44.105764],[-123.674627,44.105831],[-123.674576,44.105901],[-123.674532,44.105973],[-123.674304,44.10637]]]}},{"type":"Feature","properties":{"MAPTAXLOT":"1708080000804","MAPNUMBER":"17080800","TAXLOT":"804","ACCTNO":"1181476","MAPACRES":1.8492751},"geometry":{"type":"MultiPolygon","coordinates":[[[[-123.673557,44.104228],[-123.67368,44.104303],[-123.673696,44.104277],[-123.674032,44.1039],[-123.674218,44.103655],[-123.674488,44.103396],[-123.674977,44.103074],[-123.674313,44.103139],[-123.673994,44.103158],[-123.673649,44.102955],[-123.673519,44.10284],[-123.673557,44.104228]]],[[[-123.673562,44.10443],[-123.673609,44.104404],[-123.673561,44.104374],[-123.673562,44.10443]]]]}},{"type":"Feature","properties":{"MAPTAXLOT":"1708080000805","MAPNUMBER":"17080800","TAXLOT":"805","ACCTNO":"1061033","MAPACRES":65.24513529},"geometry":{"type":"Polygon","coordinates":[[[-123.67368,44.104303],[-123.675092,44.105171],[-123.675178,44.105135],[-123.675266,44.105101],[-123.676397,44.104692],[-123.676538,44.104643],[-123.676681,44.104599],[-123.676827,44.104559],[-123.676975,44.104524],[-123.677124,44.104493],[-123.677276,44.104466],[-123.677429,44.104444],[-123.678132,44.104353],[-123.678257,44.104335],[-123.67838,44.104312],[-123.678502,44.104285],[-123.678621,44.104253],[-123.678738,44.104218],[-123.678853,44.104178],[-123.678964,44.104134],[-123.679073,44.104087],[-123.67938,44.103944],[-123.679582,44.103853],[-123.679787,44.103768],[-123.679997,44.103687],[-123.680209,44.103611],[-123.680425,44.103539],[-123.680644,44.103473],[-123.680866,44.103412],[-123.681091,44.103356],[-123.681318,44.103306],[-123.682385,44.10308],[-123.682339,44.103006],[-123.682192,44.102769],[-123.682447,44.102708],[-123.682707,44.102585],[-123.683327,44.102294],[-123.683696,44.101941],[-123.683684,44.101406],[-123.683669,44.100722],[-123.683568,44.100733],[-123.678482,44.10128],[-123.673458,44.10056],[-123.673471,44.10107],[-123.673519,44.10284],[-123.673649,44.102955],[-123.673994,44.103158],[-123.674313,44.103139],[-123.674977,44.103074],[-123.674488,44.103396],[-123.674218,44.103655],[-123.674032,44.1039],[-123.673696,44.104277],[-123.67368,44.104303]]]}},{"type":"Feature","properties":{"MAPTAXLOT":"1708080000900","MAPNUMBER":"17080800","TAXLOT":"900","ACCTNO":"0526184","MAPACRES":2.91957112},"geometry":{"type":"Polygon","coordinates":[[[-123.673615,44.106383],[-123.673971,44.106376],[-123.67425,44.105889],[-123.6743,44.105808],[-123.674356,44.10573],[-123.674419,44.105654],[-123.674585,44.105004],[-123.673609,44.104404],[-123.673562,44.10443],[-123.673615,44.106383]]]}},{"type":"Feature","properties":{"MAPTAXLOT":"1708090000077","MAPNUMBER":"17080900","TAXLOT":"77","ACCTNO":"000None","MAPACRES":2.130922},"geometry":{"type":"Polygon","coordinates":[[[-123.669385,44.101016],[-123.669922,44.101414],[-123.670424,44.102155],[-123.671377,44.102485],[-123.672552,44.103754],[-123.673561,44.104374],[-123.673557,44.104228],[-123.672667,44.10368],[-123.67148,44.102399],[-123.670634,44.102106],[-123.670538,44.102073],[-123.670048,44.10135],[-123.669601,44.101019],[-123.669333,44.10082],[-123.669294,44.10031],[-123.669384,44.099238],[-123.669232,44.099236],[-123.669142,44.10031],[-123.669184,44.100867],[-123.669385,44.101016]]]}},{"type":"Feature","properties":{"MAPTAXLOT":"1708090000100","MAPNUMBER":"17080900","TAXLOT":"100","ACCTNO":"0526200","MAPACRES":271.27448612},"geometry":{"type":"Polygon","coordinates":[[[-123.653594,44.113466],[-123.663456,44.113491],[-123.663521,44.109902],[-123.663587,44.106308],[-123.658695,44.106272],[-123.65878,44.102675],[-123.663652,44.10273],[-123.663718,44.099152],[-123.654012,44.099005],[-123.653803,44.106235],[-123.653698,44.109851],[-123.653594,44.113466]]]}},{"type":"Feature","properties":{"MAPTAXLOT":"1708090000200","MAPNUMBER":"17080900","TAXLOT":"200","ACCTNO":"0526218","MAPACRES":33.55497275},"geometry":{"type":"Polygon","coordinates":[[[-123.663456,44.113491],[-123.666139,44.1135],[-123.666229,44.1129],[-123.666443,44.11259],[-123.666626,44.112399],[-123.666737,44.11239],[-123.666956,44.11237],[-123.667528,44.112408],[-123.667759,44.112398],[-123.668005,44.112388],[-123.6684,44.112248],[-123.66843,44.109927],[-123.663521,44.109902],[-123.663456,44.113491]]]}},{"type":"Feature","properties":{"MAPTAXLOT":"1708090000300","MAPNUMBER":"17080900","TAXLOT":"300","ACCTNO":"0526234","MAPACRES":2.42252139},"geometry":{"type":"Polygon","coordinates":[[[-123.666139,44.1135],[-123.66619,44.1135],[-123.667828,44.113505],[-123.666737,44.11239],[-123.666626,44.112399],[-123.666443,44.11259],[-123.666229,44.1129],[-123.666139,44.1135]]]}},{"type":"Feature","properties":{"MAPTAXLOT":"1708090000400","MAPNUMBER":"17080900","TAXLOT":"400","ACCTNO":"1518123","MAPACRES":1.21131033},"geometry":{"type":"Polygon","coordinates":[[[-123.667828,44.113505],[-123.66798,44.113506],[-123.667748,44.113268],[-123.667759,44.112398],[-123.667528,44.112408],[-123.666956,44.11237],[-123.666737,44.11239],[-123.667828,44.113505]]]}},{"type":"Feature","properties":{"MAPTAXLOT":"1708090000401","MAPNUMBER":"17080900","TAXLOT":"401","ACCTNO":"0526242","MAPACRES":1.5611644},"geometry":{"type":"Polygon","coordinates":[[[-123.66798,44.113506],[-123.668308,44.113507],[-123.668384,44.113452],[-123.668395,44.112601],[-123.6684,44.112248],[-123.668005,44.112388],[-123.667759,44.112398],[-123.667748,44.113268],[-123.66798,44.113506]]]}},{"type":"Feature","properties":{"MAPTAXLOT":"1708090000500","MAPNUMBER":"17080900","TAXLOT":"500","ACCTNO":"0526259","MAPACRES":38.65023654},"geometry":{"type":"Polygon","coordinates":[[[-123.663521,44.109902],[-123.66843,44.109927],[-123.668477,44.106345],[-123.663587,44.106308],[-123.663521,44.109902]]]}},{"type":"Feature","properties":{"MAPTAXLOT":"1708090000600","MAPNUMBER":"17080900","TAXLOT":"600","ACCTNO":"0526275","MAPACRES":32.0510676},"geometry":{"type":"Polygon","coordinates":[[[-123.66843,44.109927],[-123.673463,44.109953],[-123.673471,44.109767],[-123.673458,44.10975],[-123.673055,44.109423],[-123.672725,44.108929],[-123.672534,44.108444],[-123.67237,44.108124],[-123.672266,44.107544],[-123.672113,44.107072],[-123.671945,44.10637],[-123.668477,44.106345],[-123.66843,44.109927]]]}},{"type":"Feature","properties":{"MAPTAXLOT":"1708090000700","MAPNUMBER":"17080900","TAXLOT":"700","ACCTNO":"0526283","MAPACRES":9.29167586},"geometry":{"type":"Polygon","coordinates":[[[-123.673405,44.111299],[-123.673403,44.111366],[-123.673431,44.111328],[-123.673456,44.11129],[-123.673509,44.111201],[-123.673555,44.11112],[-123.673593,44.111037],[-123.673625,44.110952],[-123.673649,44.110866],[-123.673667,44.110779],[-123.673677,44.110692],[-123.673737,44.109858],[-123.673745,44.1097],[-123.673746,44.109542],[-123.673741,44.109384],[-123.673728,44.109227],[-123.673709,44.109069],[-123.673684,44.108913],[-123.673567,44.108285],[-123.673549,44.108167],[-123.673538,44.10805],[-123.673534,44.107932],[-123.673537,44.107814],[-123.673547,44.107696],[-123.673564,44.107579],[-123.673615,44.106383],[-123.671945,44.10637],[-123.672113,44.107072],[-123.672266,44.107544],[-123.67237,44.108124],[-123.672534,44.108444],[-123.672725,44.108929],[-123.673055,44.109423],[-123.673458,44.10975],[-123.673471,44.109767],[-123.673463,44.109953],[-123.673405,44.111299]]]}},{"type":"Feature","properties":{"MAPTAXLOT":"1708090000800","MAPNUMBER":"17080900","TAXLOT":"800","ACCTNO":"0526291","MAPACRES":5.38893175},"geometry":{"type":"Polygon","coordinates":[[[-123.671945,44.10637],[-123.673615,44.106383],[-123.673562,44.10443],[-123.673218,44.104619],[-123.672827,44.104755],[-123.672395,44.105104],[-123.67209,44.105424],[-123.67189,44.105813],[-123.671936,44.106328],[-123.671945,44.10637]]]}},{"type":"Feature","properties":{"MAPTAXLOT":"1708090000900","MAPNUMBER":"17080900","TAXLOT":"900","ACCTNO":"0526317","MAPACRES":49.54202798},"geometry":{"type":"MultiPolygon","coordinates":[[[[-123.668524,44.102784],[-123.668477,44.106345],[-123.671945,44.10637],[-123.671936,44.106328],[-123.67189,44.105813],[-123.67209,44.105424],[-123.672395,44.105104],[-123.672827,44.104755],[-123.673218,44.104619],[-123.673562,44.10443],[-123.673561,44.104374],[-123.672552,44.103754],[-123.671377,44.102485],[-123.670424,44.102155],[-123.669922,44.101414],[-123.669385,44.101016],[-123.668547,44.101005],[-123.668524,44.102784]],[[-123.669827,44.10154],[-123.669338,44.101674],[-123.669203,44.101417],[-123.669559,44.10132],[-123.669827,44.10154]]],[[[-123.671241,44.10135],[-123.67123,44.101608],[-123.670634,44.102106],[-123.67148,44.102399],[-123.672667,44.10368],[-123.673557,44.104228],[-123.673519,44.10284],[-123.673471,44.10107],[-123.671215,44.10104],[-123.671241,44.10135]]]]}},{"type":"Feature","properties":{"MAPTAXLOT":"1708090001000","MAPNUMBER":"17080900","TAXLOT":"1000","ACCTNO":"0526325","MAPACRES":76.82795163},"geometry":{"type":"Polygon","coordinates":[[[-123.663587,44.106308],[-123.668477,44.106345],[-123.668524,44.102784],[-123.663652,44.10273],[-123.65878,44.102675],[-123.658695,44.106272],[-123.663587,44.106308]]]}},{"type":"Feature","properties":{"MAPTAXLOT":"1708090001100","MAPNUMBER":"17080900","TAXLOT":"1100","ACCTNO":"0526333","MAPACRES":47.20844087},"geometry":{"type":"MultiPolygon","coordinates":[[[[-123.663652,44.10273],[-123.668524,44.102784],[-123.668547,44.101005],[-123.669385,44.101016],[-123.669184,44.100867],[-123.669142,44.10031],[-123.669232,44.099236],[-123.668851,44.09923],[-123.66857,44.099226],[-123.663718,44.099152],[-123.663652,44.10273]]],[[[-123.669294,44.10031],[-123.669333,44.10082],[-123.669601,44.101019],[-123.671009,44.101037],[-123.671061,44.099263],[-123.669384,44.099238],[-123.669294,44.10031]]]]}},{"type":"Feature","properties":{"MAPTAXLOT":"1708090001200","MAPNUMBER":"17080900","TAXLOT":"1200","ACCTNO":"0526366","MAPACRES":2.19693261},"geometry":{"type":"Polygon","coordinates":[[[-123.669601,44.101019],[-123.670048,44.10135],[-123.670538,44.102073],[-123.670634,44.102106],[-123.67123,44.101608],[-123.671241,44.10135],[-123.671215,44.10104],[-123.671009,44.101037],[-123.669601,44.101019]]]}},{"type":"Feature","properties":{"MAPTAXLOT":"1708090001300","MAPNUMBER":"17080900","TAXLOT":"1300","ACCTNO":"0526374","MAPACRES":0.27247454},"geometry":{"type":"Polygon","coordinates":[[[-123.669203,44.101417],[-123.669338,44.101674],[-123.669827,44.10154],[-123.669559,44.10132],[-123.669203,44.101417]]]}},{"type":"Feature","properties":{"MAPTAXLOT":"1708090001400","MAPNUMBER":"17080900","TAXLOT":"1400","ACCTNO":"0526382","MAPACRES":9.40178598},"geometry":{"type":"Polygon","coordinates":[[[-123.671215,44.10104],[-123.673471,44.10107],[-123.673458,44.10056],[-123.673423,44.099299],[-123.671887,44.099276],[-123.671061,44.099263],[-123.671009,44.101037],[-123.671215,44.10104]]]}},{"type":"Feature","properties":{"MAPTAXLOT":"1708092200077","MAPNUMBER":"17080922","TAXLOT":"77","ACCTNO":"000None","MAPACRES":2.70871258},"geometry":{"type":"Polygon","coordinates":[[[-123.668308,44.113507],[-123.668737,44.113513],[-123.668858,44.113435],[-123.668983,44.11336],[-123.66901,44.113345],[-123.669012,44.113343],[-123.669147,44.113267],[-123.669285,44.113194],[-123.669426,44.113125],[-123.66957,44.113058],[-123.669717,44.112995],[-123.669867,44.112936],[-123.669975,44.1129],[-123.670668,44.11267],[-123.673056,44.111877],[-123.673145,44.111845],[-123.67323,44.111808],[-123.673311,44.111767],[-123.673387,44.111722],[-123.673403,44.111366],[-123.673359,44.111416],[-123.673311,44.111463],[-123.673257,44.111507],[-123.673199,44.111548],[-123.673137,44.111586],[-123.673071,44.111621],[-123.673001,44.111651],[-123.672929,44.111678],[-123.671393,44.112188],[-123.671014,44.112314],[-123.670755,44.112399],[-123.670582,44.112457],[-123.669732,44.112739],[-123.669597,44.112792],[-123.669464,44.112848],[-123.669333,44.112906],[-123.669201,44.112969],[-123.669072,44.113034],[-123.668944,44.113102],[-123.66882,44.113173],[-123.668791,44.11319],[-123.668651,44.113274],[-123.668516,44.113362],[-123.668384,44.113452],[-123.668308,44.113507]]]}},{"type":"Feature","properties":{"MAPTAXLOT":"1708092200100","MAPNUMBER":"17080922","TAXLOT":"100","ACCTNO":"0526390","MAPACRES":0.07358999},"geometry":{"type":"Polygon","coordinates":[[[-123.669068,44.11351],[-123.669137,44.11351],[-123.66901,44.113345],[-123.668983,44.11336],[-123.668858,44.113435],[-123.668737,44.113513],[-123.669068,44.11351]]]}},{"type":"Feature","properties":{"MAPTAXLOT":"1708092200200","MAPNUMBER":"17080922","TAXLOT":"200","ACCTNO":"0526408","MAPACRES":0.80349617},"geometry":{"type":"Polygon","coordinates":[[[-123.669975,44.1129],[-123.670278,44.113337],[-123.670959,44.113091],[-123.670668,44.11267],[-123.669975,44.1129]]]}},{"type":"Feature","properties":{"MAPTAXLOT":"1708092200300","MAPNUMBER":"17080922","TAXLOT":"300","ACCTNO":"0526416","MAPACRES":1.69318378},"geometry":{"type":"Polygon","coordinates":[[[-123.670532,44.113514],[-123.671255,44.113517],[-123.670959,44.113091],[-123.670278,44.113337],[-123.669975,44.1129],[-123.669867,44.112936],[-123.669717,44.112995],[-123.66957,44.113058],[-123.669426,44.113125],[-123.669285,44.113194],[-123.669147,44.113267],[-123.669012,44.113343],[-123.66901,44.113345],[-123.669137,44.11351],[-123.670532,44.113514]]]}},{"type":"Feature","properties":{"MAPTAXLOT":"1708092200400","MAPNUMBER":"17080922","TAXLOT":"400","ACCTNO":"0526432","MAPACRES":7.08963444},"geometry":{"type":"Polygon","coordinates":[[[-123.671255,44.113517],[-123.673311,44.113524],[-123.673387,44.111722],[-123.673311,44.111767],[-123.67323,44.111808],[-123.673145,44.111845],[-123.673056,44.111877],[-123.670668,44.11267],[-123.670959,44.113091],[-123.671255,44.113517]]]}},{"type":"Feature","properties":{"MAPTAXLOT":"1708092200500","MAPNUMBER":"17080922","TAXLOT":"500","ACCTNO":"0526440","MAPACRES":0.96294629},"geometry":{"type":"Polygon","coordinates":[[[-123.671315,44.111736],[-123.671393,44.112188],[-123.672929,44.111678],[-123.673001,44.111651],[-123.673071,44.111621],[-123.673137,44.111586],[-123.673199,44.111548],[-123.673257,44.111507],[-123.673311,44.111463],[-123.673359,44.111416],[-123.673403,44.111366],[-123.673405,44.111299],[-123.67325,44.11142],[-123.673063,44.111531],[-123.672646,44.111661],[-123.672015,44.111711],[-123.671315,44.111736]]]}},{"type":"Feature","properties":{"MAPTAXLOT":"1708092200700","MAPNUMBER":"17080922","TAXLOT":"700","ACCTNO":"0526457","MAPACRES":0.44375327},"geometry":{"type":"Polygon","coordinates":[[[-123.670919,44.111764],[-123.671014,44.112314],[-123.671393,44.112188],[-123.671315,44.111736],[-123.67117,44.111741],[-123.670919,44.111764]]]}},{"type":"Feature","properties":{"MAPTAXLOT":"1708092200800","MAPNUMBER":"17080922","TAXLOT":"800","ACCTNO":"0526465","MAPACRES":0.34361602},"geometry":{"type":"Polygon","coordinates":[[[-123.670657,44.111788],[-123.670755,44.112399],[-123.671014,44.112314],[-123.670919,44.111764],[-123.670657,44.111788]]]}},{"type":"Feature","properties":{"MAPTAXLOT":"1708092200900","MAPNUMBER":"17080922","TAXLOT":"900","ACCTNO":"0526473","MAPACRES":0.25765732},"geometry":{"type":"Polygon","coordinates":[[[-123.670471,44.111805],[-123.670582,44.112457],[-123.670755,44.112399],[-123.670657,44.111788],[-123.670471,44.111805]]]}},{"type":"Feature","properties":{"MAPTAXLOT":"1708092201000","MAPNUMBER":"17080922","TAXLOT":"1000","ACCTNO":"0526499","MAPACRES":4.36603823},"geometry":{"type":"Polygon","coordinates":[[[-123.6684,44.112248],[-123.668395,44.112601],[-123.668384,44.113452],[-123.668516,44.113362],[-123.668651,44.113274],[-123.668791,44.11319],[-123.66882,44.113173],[-123.668944,44.113102],[-123.669072,44.113034],[-123.669201,44.112969],[-123.669333,44.112906],[-123.669464,44.112848],[-123.669597,44.112792],[-123.669732,44.112739],[-123.670582,44.112457],[-123.670471,44.111805],[-123.670346,44.111817],[-123.669468,44.1119],[-123.668952,44.112053],[-123.668401,44.112247],[-123.6684,44.112248]]]}},{"type":"Feature","properties":{"MAPTAXLOT":"1708092201001","MAPNUMBER":"17080922","TAXLOT":"1001","ACCTNO":"1086881","MAPACRES":20.4097413},"geometry":{"type":"Polygon","coordinates":[[[-123.66843,44.109927],[-123.6684,44.112248],[-123.668401,44.112247],[-123.668952,44.112053],[-123.669468,44.1119],[-123.670346,44.111817],[-123.670471,44.111805],[-123.670657,44.111788],[-123.670919,44.111764],[-123.67117,44.111741],[-123.671315,44.111736],[-123.672015,44.111711],[-123.672646,44.111661],[-123.673063,44.111531],[-123.67325,44.11142],[-123.673405,44.111299],[-123.673463,44.109953],[-123.66843,44.109927]]]}},{"type":"Feature","properties":{"MAPTAXLOT":"1708100000100","MAPNUMBER":"17081000","TAXLOT":"100","ACCTNO":"0526515","MAPACRES":157.25869022},"geometry":{"type":"Polygon","coordinates":[[[-123.639898,44.113405],[-123.653594,44.113466],[-123.653698,44.109851],[-123.648759,44.109833],[-123.643819,44.109815],[-123.638879,44.109797],[-123.633939,44.109778],[-123.633694,44.113377],[-123.634455,44.11338],[-123.634791,44.113382],[-123.634805,44.113382],[-123.638669,44.113399],[-123.638672,44.113399],[-123.639898,44.113405]]]}},{"type":"Feature","properties":{"MAPTAXLOT":"1708100000200","MAPNUMBER":"17081000","TAXLOT":"200","ACCTNO":"0526523","MAPACRES":310.49926425},"geometry":{"type":"Polygon","coordinates":[[[-123.648759,44.109833],[-123.653698,44.109851],[-123.653803,44.106235],[-123.648899,44.106222],[-123.643994,44.106208],[-123.64417,44.102601],[-123.644345,44.098994],[-123.634672,44.098982],[-123.633939,44.109778],[-123.638879,44.109797],[-123.643819,44.109815],[-123.648759,44.109833]]]}},{"type":"Feature","properties":{"MAPTAXLOT":"1708100000300","MAPNUMBER":"17081000","TAXLOT":"300","ACCTNO":"0526531","MAPACRES":154.62623543},"geometry":{"type":"Polygon","coordinates":[[[-123.648899,44.106222],[-123.653803,44.106235],[-123.654012,44.099005],[-123.644345,44.098994],[-123.64417,44.102601],[-123.643994,44.106208],[-123.648899,44.106222]]]}}]}