{"type":"FeatureCollection","features":[{"type":"Feature","properties":{"MAPTAXLOT":"1885000000100","MAPNUMBER":"18850000","TAXLOT":"100","ACCTNO":"1857455","MAPACRES":351.8428899},"geometry":{"type":"MultiPolygon","coordinates":[[[[-121.828305,43.99651],[-121.827671,43.997059],[-121.827069,43.997768],[-121.826878,43.998431],[-121.826909,43.999117],[-121.826033,43.999819],[-121.826094,44.001699],[-121.825777,44.002637],[-121.825237,44.003597],[-121.824698,44.004123],[-121.824539,44.004901],[-121.824886,44.006662],[-121.824727,44.007714],[-121.824315,44.008331],[-121.823363,44.009131],[-121.822761,44.00984],[-121.822094,44.011281],[-121.822157,44.012539],[-121.822948,44.013683],[-121.823011,44.014003],[-121.822598,44.015695],[-121.82282,44.015947],[-121.823611,44.016473],[-121.824688,44.017389],[-121.825607,44.018647],[-121.825701,44.019974],[-121.825225,44.020431],[-121.824876,44.021163],[-121.824939,44.021734],[-121.825192,44.022329],[-121.825825,44.023084],[-121.827916,44.025144],[-121.828168,44.02647],[-121.827755,44.028346],[-121.828222,44.029569],[-121.82824,44.027202],[-121.828267,44.023598],[-121.828321,44.020018],[-121.828375,44.016438],[-121.828429,44.012858],[-121.828483,44.009279],[-121.828537,44.0057],[-121.828591,44.002122],[-121.828644,43.998543],[-121.828682,43.996021],[-121.828305,43.99651]]],[[[-121.815435,44.051806],[-121.814825,44.052344],[-121.818014,44.052369],[-121.823035,44.052407],[-121.827641,44.052439],[-121.82777,44.048833],[-121.827899,44.045227],[-121.827979,44.042997],[-121.827967,44.043006],[-121.82562,44.04424],[-121.823875,44.045635],[-121.821272,44.048332],[-121.820828,44.049155],[-121.820541,44.050528],[-121.820256,44.050985],[-121.819082,44.051419],[-121.818162,44.051464],[-121.816482,44.051052],[-121.815943,44.051143],[-121.815435,44.051806]]],[[[-121.802908,44.05221],[-121.80283,44.052252],[-121.802953,44.052253],[-121.806562,44.052281],[-121.805952,44.052212],[-121.803796,44.052051],[-121.802908,44.05221]]],[[[-121.82847,43.989123],[-121.82874,43.989174],[-121.828742,43.988879],[-121.82847,43.989123]]]]}}]}