{"type":"FeatureCollection","features":[{"type":"Feature","properties":{"MAPTAXLOT":"2015000000600","MAPNUMBER":"20150000","TAXLOT":"600","ACCTNO":"0926384","MAPACRES":4301.22333026},"geometry":{"type":"Polygon","coordinates":[[[-122.647419,43.838515],[-122.657297,43.838494],[-122.667173,43.838475],[-122.667229,43.831327],[-122.667284,43.824196],[-122.667401,43.809836],[-122.667435,43.795504],[-122.657474,43.795533],[-122.647509,43.795561],[-122.64747,43.788355],[-122.647432,43.781194],[-122.647419,43.781194],[-122.637548,43.781235],[-122.627664,43.781275],[-122.627709,43.784834],[-122.627754,43.788394],[-122.627799,43.791954],[-122.627844,43.795513],[-122.627854,43.802692],[-122.627895,43.809862],[-122.627854,43.820583],[-122.62784,43.824157],[-122.627756,43.831314],[-122.627764,43.834874],[-122.632687,43.83488],[-122.636366,43.83488],[-122.636322,43.838429],[-122.63754,43.838426],[-122.647419,43.838515]]]}},{"type":"Feature","properties":{"MAPTAXLOT":"2015000001300","MAPNUMBER":"20150000","TAXLOT":"1300","ACCTNO":"0926459","MAPACRES":158.91404377},"geometry":{"type":"Polygon","coordinates":[[[-122.657474,43.795533],[-122.667435,43.795504],[-122.667452,43.788294],[-122.657462,43.788325],[-122.657474,43.795533]]]}},{"type":"Feature","properties":{"MAPTAXLOT":"2015000001400","MAPNUMBER":"20150000","TAXLOT":"1400","ACCTNO":"0926467","MAPACRES":479.24329695},"geometry":{"type":"Polygon","coordinates":[[[-122.647509,43.795561],[-122.657474,43.795533],[-122.657462,43.788325],[-122.667452,43.788294],[-122.66747,43.780967],[-122.667245,43.780969],[-122.657451,43.78108],[-122.657338,43.781081],[-122.647432,43.781194],[-122.64747,43.788355],[-122.647509,43.795561]]]}},{"type":"Feature","properties":{"MAPTAXLOT":"2025000000033","MAPNUMBER":"20250000","TAXLOT":"33","ACCTNO":"000None","MAPACRES":193.77387231},"geometry":{"type":"MultiPolygon","coordinates":[[[[-122.597893,43.829105],[-122.598042,43.829113],[-122.602972,43.829372],[-122.602794,43.831173],[-122.607722,43.831435],[-122.607802,43.827592],[-122.607726,43.827596],[-122.60765,43.827601],[-122.607575,43.827606],[-122.607499,43.82761],[-122.607423,43.827615],[-122.607347,43.82762],[-122.607271,43.827624],[-122.607197,43.827629],[-122.607121,43.827633],[-122.607045,43.827637],[-122.606969,43.827641],[-122.606893,43.827645],[-122.606817,43.827649],[-122.60674,43.827653],[-122.606664,43.827657],[-122.606588,43.82766],[-122.606512,43.827664],[-122.606437,43.827667],[-122.606361,43.827671],[-122.606285,43.827674],[-122.60621,43.827678],[-122.606134,43.827681],[-122.606058,43.827685],[-122.605983,43.827688],[-122.605907,43.827692],[-122.605831,43.827695],[-122.605756,43.827699],[-122.60568,43.827702],[-122.605604,43.827706],[-122.605527,43.827709],[-122.605448,43.827713],[-122.605367,43.827714],[-122.605285,43.827715],[-122.605204,43.827714],[-122.605122,43.827711],[-122.605042,43.827707],[-122.604961,43.827701],[-122.604882,43.827695],[-122.604808,43.827688],[-122.604732,43.827682],[-122.604658,43.827675],[-122.604582,43.827669],[-122.604498,43.827661],[-122.604411,43.82765],[-122.604331,43.827636],[-122.604251,43.827621],[-122.604231,43.827616],[-122.604208,43.827663],[-122.604143,43.827649],[-122.604064,43.82763],[-122.603988,43.827611],[-122.603848,43.827574],[-122.603775,43.827556],[-122.603704,43.827538],[-122.603632,43.82752],[-122.60349,43.827483],[-122.603417,43.827465],[-122.603345,43.827446],[-122.603276,43.827428],[-122.603203,43.82741],[-122.603133,43.827392],[-122.60306,43.827373],[-122.602918,43.827337],[-122.602846,43.827319],[-122.602773,43.8273],[-122.602704,43.827282],[-122.602632,43.827264],[-122.60249,43.827227],[-122.602417,43.827209],[-122.602347,43.827191],[-122.602274,43.827172],[-122.602133,43.827136],[-122.602059,43.827118],[-122.601987,43.827099],[-122.601918,43.827081],[-122.601844,43.827062],[-122.601772,43.827043],[-122.601712,43.827028],[-122.601657,43.827016],[-122.6016,43.827006],[-122.601541,43.826997],[-122.601484,43.826991],[-122.601424,43.826986],[-122.601356,43.826982],[-122.601281,43.826979],[-122.601206,43.826975],[-122.600902,43.82696],[-122.600819,43.826955],[-122.600736,43.826949],[-122.600651,43.826942],[-122.600568,43.826932],[-122.600485,43.826922],[-122.600402,43.82691],[-122.60032,43.826897],[-122.600236,43.826882],[-122.600155,43.826866],[-122.600009,43.826835],[-122.599935,43.82682],[-122.599643,43.826759],[-122.599571,43.826744],[-122.599427,43.826713],[-122.599353,43.826698],[-122.599278,43.826682],[-122.59919,43.826663],[-122.599097,43.826638],[-122.599013,43.826611],[-122.598928,43.826582],[-122.598847,43.826549],[-122.598766,43.826513],[-122.598691,43.826476],[-122.598617,43.826437],[-122.598554,43.8264],[-122.598496,43.826367],[-122.598434,43.826331],[-122.598376,43.826297],[-122.598199,43.826196],[-122.598138,43.826161],[-122.598018,43.826093],[-122.59796,43.826058],[-122.597903,43.826026],[-122.597841,43.82599],[-122.597782,43.825956],[-122.597603,43.825854],[-122.597545,43.82582],[-122.597483,43.825785],[-122.597414,43.825743],[-122.597347,43.825699],[-122.597288,43.825658],[-122.59723,43.825616],[-122.597173,43.825574],[-122.597116,43.825531],[-122.597062,43.825488],[-122.597009,43.825446],[-122.596951,43.825398],[-122.596853,43.825309],[-122.596804,43.825266],[-122.596754,43.825221],[-122.59671,43.82518],[-122.596661,43.825138],[-122.596565,43.82505],[-122.59652,43.825009],[-122.596471,43.824967],[-122.596422,43.824922],[-122.596375,43.824879],[-122.59633,43.824838],[-122.596281,43.824795],[-122.596229,43.824747],[-122.596183,43.824703],[-122.596089,43.824616],[-122.596044,43.824573],[-122.596,43.824532],[-122.59595,43.824486],[-122.595905,43.824443],[-122.595861,43.824402],[-122.595811,43.824356],[-122.595759,43.824306],[-122.595709,43.824253],[-122.595659,43.824197],[-122.595613,43.82414],[-122.595572,43.824084],[-122.595533,43.824028],[-122.595499,43.823976],[-122.595469,43.823929],[-122.595435,43.82388],[-122.595401,43.823827],[-122.595373,43.823784],[-122.59534,43.823739],[-122.595307,43.823691],[-122.595275,43.823648],[-122.59524,43.823604],[-122.595203,43.823556],[-122.595168,43.823512],[-122.595131,43.823469],[-122.595095,43.823425],[-122.595056,43.823382],[-122.595015,43.823337],[-122.59498,43.823298],[-122.594938,43.823257],[-122.594895,43.823213],[-122.59486,43.823178],[-122.594823,43.823146],[-122.594784,43.823115],[-122.594744,43.823086],[-122.594704,43.823061],[-122.594657,43.823034],[-122.5946,43.823003],[-122.594538,43.82297],[-122.594476,43.822936],[-122.594403,43.822895],[-122.594322,43.822842],[-122.594249,43.822784],[-122.594181,43.82272],[-122.594124,43.822654],[-122.594073,43.822584],[-122.59403,43.822507],[-122.593999,43.82243],[-122.593977,43.822352],[-122.593967,43.822274],[-122.593964,43.822195],[-122.593993,43.821911],[-122.593997,43.821856],[-122.594003,43.821802],[-122.594006,43.821757],[-122.594006,43.821712],[-122.594004,43.821668],[-122.594,43.821627],[-122.593983,43.821528],[-122.59396,43.82142],[-122.593951,43.821365],[-122.593928,43.821257],[-122.593919,43.821202],[-122.593896,43.821094],[-122.593886,43.821039],[-122.593864,43.820931],[-122.593854,43.820877],[-122.593832,43.820771],[-122.593945,43.820759],[-122.593944,43.820757],[-122.593935,43.820702],[-122.593912,43.820593],[-122.593903,43.820542],[-122.59389,43.82049],[-122.593868,43.820381],[-122.593854,43.820327],[-122.593832,43.820219],[-122.593818,43.820165],[-122.593796,43.820056],[-122.593783,43.820002],[-122.59376,43.819894],[-122.593747,43.81984],[-122.593735,43.819786],[-122.593722,43.819731],[-122.593699,43.819623],[-122.593686,43.819569],[-122.593663,43.81946],[-122.59365,43.819406],[-122.593627,43.819298],[-122.593614,43.819244],[-122.593592,43.819138],[-122.59358,43.819096],[-122.593566,43.81906],[-122.593547,43.819026],[-122.593525,43.818993],[-122.593496,43.818961],[-122.593464,43.81893],[-122.593431,43.818904],[-122.593395,43.81888],[-122.593355,43.818859],[-122.593308,43.81884],[-122.593259,43.818822],[-122.593233,43.818814],[-122.593185,43.818801],[-122.593191,43.818775],[-122.593165,43.818769],[-122.593108,43.81876],[-122.593051,43.818753],[-122.592907,43.818746],[-122.592831,43.818742],[-122.592529,43.818725],[-122.592453,43.818721],[-122.592378,43.818717],[-122.592308,43.818714],[-122.592008,43.818706],[-122.591933,43.818704],[-122.591477,43.818692],[-122.591403,43.818689],[-122.591326,43.818687],[-122.591243,43.818685],[-122.591159,43.818679],[-122.59108,43.818672],[-122.591004,43.818665],[-122.590925,43.818657],[-122.590847,43.818648],[-122.590771,43.818639],[-122.590694,43.818629],[-122.590615,43.818619],[-122.590539,43.818608],[-122.590554,43.818554],[-122.590552,43.818553],[-122.590473,43.81854],[-122.590398,43.818524],[-122.590324,43.818509],[-122.590251,43.818494],[-122.590106,43.818464],[-122.590033,43.818449],[-122.589961,43.818434],[-122.589887,43.818419],[-122.589814,43.818404],[-122.589669,43.818374],[-122.589594,43.818358],[-122.589519,43.818341],[-122.589443,43.818323],[-122.589368,43.818303],[-122.589294,43.818282],[-122.589222,43.81826],[-122.589148,43.818237],[-122.589075,43.818211],[-122.588937,43.818158],[-122.588872,43.818132],[-122.588806,43.818106],[-122.588739,43.81808],[-122.58867,43.818054],[-122.588605,43.818028],[-122.588472,43.817976],[-122.588404,43.81795],[-122.588338,43.817924],[-122.588272,43.817898],[-122.588242,43.817887],[-122.588194,43.819946],[-122.593105,43.820005],[-122.593045,43.823584],[-122.592941,43.827185],[-122.597921,43.827288],[-122.597893,43.829105]]],[[[-122.603783,43.827209],[-122.603855,43.827227],[-122.603926,43.827246],[-122.603999,43.827264],[-122.60414,43.8273],[-122.604212,43.827319],[-122.604281,43.827336],[-122.604351,43.827351],[-122.604424,43.827365],[-122.604494,43.827376],[-122.604564,43.827386],[-122.604637,43.827393],[-122.604713,43.827399],[-122.604787,43.827406],[-122.604863,43.827412],[-122.604937,43.827419],[-122.605012,43.827425],[-122.605087,43.82743],[-122.605159,43.827434],[-122.605233,43.827436],[-122.605307,43.827438],[-122.605381,43.827437],[-122.605455,43.827436],[-122.605529,43.827433],[-122.60674,43.827378],[-122.606815,43.827374],[-122.606891,43.82737],[-122.606966,43.827367],[-122.607193,43.827354],[-122.607266,43.82735],[-122.607342,43.827346],[-122.607417,43.827341],[-122.607493,43.827337],[-122.607569,43.827332],[-122.607644,43.827327],[-122.60772,43.827323],[-122.607796,43.827318],[-122.607816,43.827317],[-122.607821,43.827122],[-122.607698,43.827133],[-122.607247,43.827136],[-122.60696,43.827109],[-122.606478,43.827092],[-122.606333,43.827029],[-122.605924,43.826956],[-122.605825,43.82692],[-122.605649,43.826847],[-122.605431,43.826851],[-122.605209,43.826931],[-122.605036,43.826946],[-122.60493,43.82691],[-122.604583,43.826866],[-122.604552,43.826834],[-122.604432,43.826836],[-122.604281,43.826839],[-122.604222,43.826862],[-122.604262,43.826921],[-122.604219,43.826971],[-122.604198,43.827031],[-122.604154,43.827042],[-122.604085,43.827027],[-122.604032,43.827012],[-122.603942,43.827025],[-122.603822,43.827011],[-122.603105,43.826741],[-122.60284,43.82667],[-122.602435,43.826498],[-122.602144,43.826363],[-122.601453,43.825968],[-122.600797,43.825502],[-122.600347,43.825103],[-122.600045,43.824721],[-122.59955,43.824116],[-122.599339,43.823713],[-122.59934,43.823689],[-122.59935,43.823185],[-122.599154,43.822381],[-122.59909,43.822252],[-122.598773,43.821818],[-122.598514,43.821524],[-122.598156,43.821199],[-122.597822,43.820895],[-122.597521,43.820684],[-122.597395,43.820534],[-122.597041,43.820073],[-122.596913,43.819924],[-122.596875,43.819924],[-122.596821,43.819893],[-122.596781,43.819606],[-122.596584,43.819348],[-122.596358,43.819119],[-122.595868,43.818873],[-122.595683,43.818746],[-122.595132,43.818473],[-122.594277,43.818131],[-122.594095,43.818085],[-122.59405,43.818081],[-122.593719,43.818042],[-122.593341,43.817978],[-122.593003,43.817979],[-122.592325,43.817938],[-122.5921,43.817969],[-122.591852,43.817974],[-122.591667,43.818053],[-122.591451,43.818096],[-122.590978,43.81811],[-122.590388,43.818007],[-122.590229,43.817983],[-122.589988,43.817966],[-122.589457,43.817851],[-122.589081,43.817635],[-122.588384,43.817235],[-122.588259,43.817163],[-122.588246,43.817702],[-122.588312,43.817727],[-122.588379,43.817753],[-122.588447,43.817779],[-122.588512,43.817805],[-122.588579,43.817831],[-122.588713,43.817883],[-122.588779,43.817909],[-122.588846,43.817935],[-122.588913,43.817961],[-122.588981,43.817987],[-122.589046,43.818013],[-122.589178,43.818064],[-122.589243,43.818087],[-122.589312,43.818109],[-122.58938,43.81813],[-122.589449,43.818149],[-122.589518,43.818168],[-122.589588,43.818185],[-122.58966,43.818201],[-122.589731,43.818216],[-122.589876,43.818245],[-122.589949,43.818261],[-122.590023,43.818276],[-122.590096,43.818291],[-122.590168,43.818306],[-122.590313,43.818336],[-122.590386,43.818351],[-122.59046,43.818366],[-122.590531,43.81838],[-122.590601,43.818393],[-122.590673,43.818403],[-122.590748,43.818413],[-122.590822,43.818423],[-122.590895,43.818432],[-122.590968,43.81844],[-122.591043,43.818447],[-122.591117,43.818454],[-122.591192,43.81846],[-122.591265,43.818466],[-122.591339,43.818468],[-122.591414,43.81847],[-122.591488,43.818472],[-122.591943,43.818485],[-122.592019,43.818486],[-122.592324,43.818495],[-122.592399,43.818498],[-122.592475,43.818503],[-122.592551,43.818506],[-122.592853,43.818523],[-122.592929,43.818527],[-122.593084,43.818535],[-122.593164,43.818544],[-122.593244,43.818557],[-122.593322,43.818574],[-122.593398,43.818596],[-122.593471,43.818622],[-122.593542,43.818652],[-122.59361,43.818688],[-122.593672,43.818728],[-122.593727,43.818773],[-122.593776,43.81882],[-122.593821,43.818871],[-122.593858,43.818924],[-122.593889,43.81898],[-122.593912,43.819037],[-122.593928,43.819095],[-122.593951,43.819204],[-122.593964,43.819258],[-122.593987,43.819366],[-122.594,43.81942],[-122.594023,43.819529],[-122.594036,43.819583],[-122.594059,43.819691],[-122.594072,43.819746],[-122.594083,43.8198],[-122.594096,43.819854],[-122.594119,43.819962],[-122.594132,43.820016],[-122.594155,43.820125],[-122.594168,43.820179],[-122.594191,43.820287],[-122.594204,43.820341],[-122.594227,43.82045],[-122.59424,43.820505],[-122.59425,43.82056],[-122.594273,43.820668],[-122.594282,43.820723],[-122.594305,43.820831],[-122.594314,43.820885],[-122.594337,43.820994],[-122.594346,43.821049],[-122.594369,43.821157],[-122.594378,43.821211],[-122.594401,43.82132],[-122.594411,43.821374],[-122.594433,43.821483],[-122.594453,43.821594],[-122.594459,43.821651],[-122.594461,43.821708],[-122.594461,43.821765],[-122.594457,43.821822],[-122.594451,43.821877],[-122.594447,43.821931],[-122.594419,43.822203],[-122.594421,43.822253],[-122.594428,43.822303],[-122.594441,43.822352],[-122.59446,43.822399],[-122.594486,43.822445],[-122.594518,43.82249],[-122.594554,43.822532],[-122.594597,43.822571],[-122.594643,43.822608],[-122.594694,43.822642],[-122.594752,43.822674],[-122.594811,43.822706],[-122.594873,43.82274],[-122.594933,43.822773],[-122.594996,43.822808],[-122.595055,43.822847],[-122.595113,43.822887],[-122.595166,43.82293],[-122.595217,43.822974],[-122.595264,43.82302],[-122.595307,43.823065],[-122.595353,43.82311],[-122.595396,43.823157],[-122.595437,43.823203],[-122.595479,43.82325],[-122.595519,43.823297],[-122.595559,43.823345],[-122.595597,43.823393],[-122.595635,43.823441],[-122.595673,43.823489],[-122.59571,43.823539],[-122.595744,43.823587],[-122.59578,43.823637],[-122.595813,43.823688],[-122.595845,43.823737],[-122.595879,43.823786],[-122.595911,43.823836],[-122.595943,43.823885],[-122.595976,43.823933],[-122.596011,43.82398],[-122.596047,43.824026],[-122.596086,43.82407],[-122.596128,43.824114],[-122.596172,43.824156],[-122.596218,43.824198],[-122.596266,43.824242],[-122.596311,43.824286],[-122.596357,43.824329],[-122.596405,43.824372],[-122.59645,43.824416],[-122.596544,43.824503],[-122.596589,43.824546],[-122.596635,43.824588],[-122.596684,43.824631],[-122.596731,43.824674],[-122.596778,43.824717],[-122.596824,43.824759],[-122.596873,43.824802],[-122.596921,43.824845],[-122.597014,43.82493],[-122.597063,43.824973],[-122.597111,43.825016],[-122.597157,43.825059],[-122.597206,43.825101],[-122.597299,43.825186],[-122.597348,43.825226],[-122.597398,43.825266],[-122.597448,43.825306],[-122.5975,43.825345],[-122.597552,43.825384],[-122.597605,43.825422],[-122.597659,43.825459],[-122.597713,43.825495],[-122.597769,43.825529],[-122.597828,43.825563],[-122.597886,43.825597],[-122.598066,43.825699],[-122.598124,43.825733],[-122.598184,43.825767],[-122.598244,43.825801],[-122.598302,43.825835],[-122.598422,43.825904],[-122.598423,43.825904],[-122.59848,43.825937],[-122.598481,43.825938],[-122.59866,43.82604],[-122.598718,43.826074],[-122.598777,43.826108],[-122.598838,43.826142],[-122.598895,43.826176],[-122.598954,43.826207],[-122.599013,43.826237],[-122.599075,43.826264],[-122.599138,43.826289],[-122.599204,43.826312],[-122.59927,43.826333],[-122.599336,43.826351],[-122.599406,43.826366],[-122.599478,43.826381],[-122.599552,43.826397],[-122.599697,43.826427],[-122.59977,43.826443],[-122.60006,43.826504],[-122.600134,43.826519],[-122.600279,43.82655],[-122.60035,43.826564],[-122.600423,43.826576],[-122.600495,43.826588],[-122.600568,43.826598],[-122.60064,43.826607],[-122.600713,43.826615],[-122.600787,43.826622],[-122.600859,43.826627],[-122.600934,43.826631],[-122.601238,43.826646],[-122.601312,43.82665],[-122.601388,43.826654],[-122.601465,43.826658],[-122.601544,43.826664],[-122.601622,43.826673],[-122.6017,43.826684],[-122.601777,43.826698],[-122.601853,43.826715],[-122.601926,43.826733],[-122.601997,43.826752],[-122.602069,43.82677],[-122.60214,43.826789],[-122.602211,43.826807],[-122.602283,43.826825],[-122.602425,43.826862],[-122.602497,43.82688],[-122.602568,43.826898],[-122.602641,43.826917],[-122.602782,43.826953],[-122.602855,43.826971],[-122.602926,43.82699],[-122.602997,43.827008],[-122.603069,43.827026],[-122.603211,43.827063],[-122.603283,43.827081],[-122.603354,43.827099],[-122.603427,43.827118],[-122.603498,43.827136],[-122.603568,43.827154],[-122.603641,43.827172],[-122.603783,43.827209]]]]}},{"type":"Feature","properties":{"MAPTAXLOT":"2025000000077","MAPNUMBER":"20250000","TAXLOT":"77","ACCTNO":"000None","MAPACRES":43.77756761},"geometry":{"type":"MultiPolygon","coordinates":[[[[-122.533683,43.781492],[-122.533768,43.781567],[-122.533855,43.781641],[-122.533983,43.781744],[-122.534116,43.781843],[-122.534253,43.781938],[-122.534394,43.782031],[-122.53454,43.782119],[-122.53469,43.782205],[-122.534843,43.782286],[-122.535001,43.782364],[-122.535162,43.782438],[-122.535214,43.782461],[-122.536262,43.782915],[-122.53632,43.78294],[-122.536675,43.783094],[-122.536879,43.783182],[-122.537004,43.783238],[-122.537127,43.783296],[-122.537218,43.783341],[-122.537308,43.783387],[-122.537455,43.783467],[-122.5376,43.783551],[-122.537746,43.783642],[-122.537888,43.783736],[-122.538026,43.783833],[-122.538159,43.783934],[-122.538288,43.784038],[-122.538412,43.784145],[-122.538531,43.784255],[-122.538645,43.784367],[-122.538754,43.784482],[-122.538858,43.784599],[-122.539089,43.784844],[-122.539966,43.785774],[-122.54106,43.786849],[-122.541683,43.78747],[-122.541978,43.787763],[-122.542716,43.788499],[-122.542782,43.788565],[-122.543696,43.789487],[-122.544013,43.789812],[-122.544418,43.790227],[-122.544863,43.790687],[-122.545424,43.79127],[-122.545814,43.79164],[-122.546211,43.791965],[-122.546595,43.792194],[-122.546729,43.792274],[-122.547163,43.792483],[-122.547545,43.792621],[-122.548132,43.792767],[-122.549012,43.792949],[-122.549469,43.793044],[-122.549786,43.793103],[-122.550026,43.793147],[-122.550326,43.793218],[-122.551832,43.793704],[-122.553066,43.794199],[-122.553445,43.794321],[-122.55405,43.794491],[-122.554773,43.794594],[-122.555971,43.794734],[-122.556179,43.794762],[-122.556385,43.794795],[-122.55659,43.794833],[-122.556793,43.794876],[-122.556993,43.794923],[-122.557192,43.794976],[-122.557387,43.795033],[-122.55758,43.795096],[-122.55777,43.795162],[-122.557957,43.795234],[-122.55814,43.79531],[-122.55832,43.79539],[-122.558496,43.795475],[-122.558668,43.795564],[-122.558835,43.795657],[-122.558998,43.795755],[-122.559725,43.79575],[-122.559566,43.795639],[-122.559403,43.795531],[-122.559234,43.795427],[-122.559061,43.795327],[-122.558884,43.795232],[-122.558703,43.79514],[-122.558517,43.795053],[-122.558328,43.794971],[-122.558135,43.794893],[-122.557938,43.794819],[-122.557739,43.794751],[-122.557536,43.794687],[-122.557331,43.794628],[-122.557123,43.794573],[-122.556912,43.794524],[-122.5567,43.79448],[-122.556486,43.794441],[-122.55627,43.794406],[-122.556052,43.794378],[-122.554862,43.794238],[-122.55419,43.794143],[-122.553636,43.793987],[-122.553288,43.793876],[-122.552056,43.79338],[-122.550509,43.792879],[-122.550171,43.792798],[-122.549599,43.79269],[-122.548998,43.792566],[-122.548274,43.792414],[-122.547729,43.79228],[-122.547533,43.79221],[-122.547405,43.792164],[-122.547019,43.791978],[-122.546553,43.7917],[-122.546195,43.791408],[-122.545825,43.791056],[-122.544824,43.79002],[-122.544101,43.789277],[-122.543992,43.789168],[-122.543399,43.78857],[-122.543118,43.788288],[-122.54238,43.787551],[-122.54146,43.786636],[-122.540369,43.785563],[-122.539271,43.784399],[-122.539176,43.784291],[-122.539076,43.784185],[-122.538955,43.784065],[-122.538829,43.783947],[-122.538698,43.783832],[-122.538562,43.78372],[-122.538421,43.783612],[-122.538275,43.783507],[-122.538125,43.783405],[-122.53797,43.783307],[-122.537811,43.783213],[-122.537648,43.783122],[-122.537481,43.783035],[-122.537311,43.782952],[-122.537136,43.782873],[-122.535471,43.782152],[-122.535316,43.782082],[-122.535165,43.782009],[-122.535017,43.781931],[-122.534874,43.78185],[-122.534734,43.781766],[-122.534599,43.781678],[-122.534467,43.781586],[-122.534341,43.781491],[-122.534332,43.781485],[-122.533679,43.781488],[-122.533683,43.781492]]],[[[-122.604251,43.827621],[-122.604331,43.827636],[-122.604411,43.82765],[-122.604498,43.827661],[-122.604582,43.827669],[-122.604658,43.827675],[-122.604732,43.827682],[-122.604808,43.827688],[-122.604882,43.827695],[-122.604961,43.827701],[-122.605042,43.827707],[-122.605122,43.827711],[-122.605204,43.827714],[-122.605285,43.827715],[-122.605367,43.827714],[-122.605448,43.827713],[-122.605527,43.827709],[-122.605604,43.827706],[-122.60568,43.827702],[-122.605756,43.827699],[-122.605831,43.827695],[-122.605907,43.827692],[-122.605983,43.827688],[-122.606058,43.827685],[-122.606134,43.827681],[-122.60621,43.827678],[-122.606285,43.827674],[-122.606361,43.827671],[-122.606437,43.827667],[-122.606512,43.827664],[-122.606588,43.82766],[-122.606664,43.827657],[-122.60674,43.827653],[-122.606817,43.827649],[-122.606893,43.827645],[-122.606969,43.827641],[-122.607045,43.827637],[-122.607121,43.827633],[-122.607197,43.827629],[-122.607271,43.827624],[-122.607347,43.82762],[-122.607423,43.827615],[-122.607499,43.82761],[-122.607575,43.827606],[-122.60765,43.827601],[-122.607726,43.827596],[-122.607802,43.827592],[-122.607815,43.827372],[-122.607816,43.827317],[-122.607796,43.827318],[-122.60772,43.827323],[-122.607644,43.827327],[-122.607569,43.827332],[-122.607493,43.827337],[-122.607417,43.827341],[-122.607342,43.827346],[-122.607266,43.82735],[-122.607193,43.827354],[-122.606966,43.827367],[-122.606891,43.82737],[-122.606815,43.827374],[-122.60674,43.827378],[-122.605529,43.827433],[-122.605455,43.827436],[-122.605381,43.827437],[-122.605307,43.827438],[-122.605233,43.827436],[-122.605159,43.827434],[-122.605087,43.82743],[-122.605012,43.827425],[-122.604937,43.827419],[-122.604863,43.827412],[-122.604787,43.827406],[-122.604713,43.827399],[-122.604637,43.827393],[-122.604564,43.827386],[-122.604494,43.827376],[-122.604424,43.827365],[-122.604351,43.827351],[-122.604281,43.827336],[-122.604212,43.827319],[-122.60414,43.8273],[-122.603999,43.827264],[-122.603926,43.827246],[-122.603855,43.827227],[-122.603783,43.827209],[-122.603641,43.827172],[-122.603568,43.827154],[-122.603498,43.827136],[-122.603427,43.827118],[-122.603354,43.827099],[-122.603283,43.827081],[-122.603211,43.827063],[-122.603069,43.827026],[-122.602997,43.827008],[-122.602926,43.82699],[-122.602855,43.826971],[-122.602782,43.826953],[-122.602641,43.826917],[-122.602568,43.826898],[-122.602497,43.82688],[-122.602425,43.826862],[-122.602283,43.826825],[-122.602211,43.826807],[-122.60214,43.826789],[-122.602069,43.82677],[-122.601997,43.826752],[-122.601926,43.826733],[-122.601853,43.826715],[-122.601777,43.826698],[-122.6017,43.826684],[-122.601622,43.826673],[-122.601544,43.826664],[-122.601465,43.826658],[-122.601388,43.826654],[-122.601312,43.82665],[-122.601238,43.826646],[-122.600934,43.826631],[-122.600859,43.826627],[-122.600787,43.826622],[-122.600713,43.826615],[-122.60064,43.826607],[-122.600568,43.826598],[-122.600495,43.826588],[-122.600423,43.826576],[-122.60035,43.826564],[-122.600279,43.82655],[-122.600134,43.826519],[-122.60006,43.826504],[-122.59977,43.826443],[-122.599697,43.826427],[-122.599552,43.826397],[-122.599478,43.826381],[-122.599406,43.826366],[-122.599336,43.826351],[-122.59927,43.826333],[-122.599204,43.826312],[-122.599138,43.826289],[-122.599075,43.826264],[-122.599013,43.826237],[-122.598954,43.826207],[-122.598895,43.826176],[-122.598838,43.826142],[-122.598777,43.826108],[-122.598718,43.826074],[-122.59866,43.82604],[-122.598481,43.825938],[-122.59848,43.825937],[-122.598423,43.825904],[-122.598422,43.825904],[-122.598302,43.825835],[-122.598244,43.825801],[-122.598184,43.825767],[-122.598124,43.825733],[-122.598066,43.825699],[-122.597886,43.825597],[-122.597828,43.825563],[-122.597769,43.825529],[-122.597713,43.825495],[-122.597659,43.825459],[-122.597605,43.825422],[-122.597552,43.825384],[-122.5975,43.825345],[-122.597448,43.825306],[-122.597398,43.825266],[-122.597348,43.825226],[-122.597299,43.825186],[-122.597206,43.825101],[-122.597157,43.825059],[-122.597111,43.825016],[-122.597063,43.824973],[-122.597014,43.82493],[-122.596921,43.824845],[-122.596873,43.824802],[-122.596824,43.824759],[-122.596778,43.824717],[-122.596731,43.824674],[-122.596684,43.824631],[-122.596635,43.824588],[-122.596589,43.824546],[-122.596544,43.824503],[-122.59645,43.824416],[-122.596405,43.824372],[-122.596357,43.824329],[-122.596311,43.824286],[-122.596266,43.824242],[-122.596218,43.824198],[-122.596172,43.824156],[-122.596128,43.824114],[-122.596086,43.82407],[-122.596047,43.824026],[-122.596011,43.82398],[-122.595976,43.823933],[-122.595943,43.823885],[-122.595911,43.823836],[-122.595879,43.823786],[-122.595845,43.823737],[-122.595813,43.823688],[-122.59578,43.823637],[-122.595744,43.823587],[-122.59571,43.823539],[-122.595673,43.823489],[-122.595635,43.823441],[-122.595597,43.823393],[-122.595559,43.823345],[-122.595519,43.823297],[-122.595479,43.82325],[-122.595437,43.823203],[-122.595396,43.823157],[-122.595353,43.82311],[-122.595307,43.823065],[-122.595264,43.82302],[-122.595217,43.822974],[-122.595166,43.82293],[-122.595113,43.822887],[-122.595055,43.822847],[-122.594996,43.822808],[-122.594933,43.822773],[-122.594873,43.82274],[-122.594811,43.822706],[-122.594752,43.822674],[-122.594694,43.822642],[-122.594643,43.822608],[-122.594597,43.822571],[-122.594554,43.822532],[-122.594518,43.82249],[-122.594486,43.822445],[-122.59446,43.822399],[-122.594441,43.822352],[-122.594428,43.822303],[-122.594421,43.822253],[-122.594419,43.822203],[-122.594447,43.821931],[-122.594451,43.821877],[-122.594457,43.821822],[-122.594461,43.821765],[-122.594461,43.821708],[-122.594459,43.821651],[-122.594453,43.821594],[-122.594433,43.821483],[-122.594411,43.821374],[-122.594401,43.82132],[-122.594378,43.821211],[-122.594369,43.821157],[-122.594346,43.821049],[-122.594337,43.820994],[-122.594314,43.820885],[-122.594305,43.820831],[-122.594282,43.820723],[-122.594273,43.820668],[-122.59425,43.82056],[-122.59424,43.820505],[-122.594227,43.82045],[-122.594204,43.820341],[-122.594191,43.820287],[-122.594168,43.820179],[-122.594155,43.820125],[-122.594132,43.820016],[-122.594119,43.819962],[-122.594096,43.819854],[-122.594083,43.8198],[-122.594072,43.819746],[-122.594059,43.819691],[-122.594036,43.819583],[-122.594023,43.819529],[-122.594,43.81942],[-122.593987,43.819366],[-122.593964,43.819258],[-122.593951,43.819204],[-122.593928,43.819095],[-122.593912,43.819037],[-122.593889,43.81898],[-122.593858,43.818924],[-122.593821,43.818871],[-122.593776,43.81882],[-122.593727,43.818773],[-122.593672,43.818728],[-122.59361,43.818688],[-122.593542,43.818652],[-122.593471,43.818622],[-122.593398,43.818596],[-122.593322,43.818574],[-122.593244,43.818557],[-122.593164,43.818544],[-122.593084,43.818535],[-122.592929,43.818527],[-122.592853,43.818523],[-122.592551,43.818506],[-122.592475,43.818503],[-122.592399,43.818498],[-122.592324,43.818495],[-122.592019,43.818486],[-122.591943,43.818485],[-122.591488,43.818472],[-122.591414,43.81847],[-122.591339,43.818468],[-122.591265,43.818466],[-122.591192,43.81846],[-122.591117,43.818454],[-122.591043,43.818447],[-122.590968,43.81844],[-122.590895,43.818432],[-122.590822,43.818423],[-122.590748,43.818413],[-122.590673,43.818403],[-122.590601,43.818393],[-122.590531,43.81838],[-122.59046,43.818366],[-122.590386,43.818351],[-122.590313,43.818336],[-122.590168,43.818306],[-122.590096,43.818291],[-122.590023,43.818276],[-122.589949,43.818261],[-122.589876,43.818245],[-122.589731,43.818216],[-122.58966,43.818201],[-122.589588,43.818185],[-122.589518,43.818168],[-122.589449,43.818149],[-122.58938,43.81813],[-122.589312,43.818109],[-122.589243,43.818087],[-122.589178,43.818064],[-122.589046,43.818013],[-122.588981,43.817987],[-122.588913,43.817961],[-122.588846,43.817935],[-122.588779,43.817909],[-122.588713,43.817883],[-122.588579,43.817831],[-122.588512,43.817805],[-122.588447,43.817779],[-122.588379,43.817753],[-122.588312,43.817727],[-122.588246,43.817702],[-122.588242,43.817887],[-122.588272,43.817898],[-122.588338,43.817924],[-122.588404,43.81795],[-122.588472,43.817976],[-122.588605,43.818028],[-122.58867,43.818054],[-122.588739,43.81808],[-122.588806,43.818106],[-122.588872,43.818132],[-122.588937,43.818158],[-122.589075,43.818211],[-122.589148,43.818237],[-122.589222,43.81826],[-122.589294,43.818282],[-122.589368,43.818303],[-122.589443,43.818323],[-122.589519,43.818341],[-122.589594,43.818358],[-122.589669,43.818374],[-122.589814,43.818404],[-122.589887,43.818419],[-122.589961,43.818434],[-122.590033,43.818449],[-122.590106,43.818464],[-122.590251,43.818494],[-122.590324,43.818509],[-122.590398,43.818524],[-122.590473,43.81854],[-122.590552,43.818553],[-122.590554,43.818554],[-122.590539,43.818608],[-122.590615,43.818619],[-122.590694,43.818629],[-122.590771,43.818639],[-122.590847,43.818648],[-122.590925,43.818657],[-122.591004,43.818665],[-122.59108,43.818672],[-122.591159,43.818679],[-122.591243,43.818685],[-122.591326,43.818687],[-122.591403,43.818689],[-122.591477,43.818692],[-122.591933,43.818704],[-122.592008,43.818706],[-122.592308,43.818714],[-122.592378,43.818717],[-122.592453,43.818721],[-122.592529,43.818725],[-122.592831,43.818742],[-122.592907,43.818746],[-122.593051,43.818753],[-122.593108,43.81876],[-122.593165,43.818769],[-122.593191,43.818775],[-122.593185,43.818801],[-122.593233,43.818814],[-122.593259,43.818822],[-122.593308,43.81884],[-122.593355,43.818859],[-122.593395,43.81888],[-122.593431,43.818904],[-122.593464,43.81893],[-122.593496,43.818961],[-122.593525,43.818993],[-122.593547,43.819026],[-122.593566,43.81906],[-122.59358,43.819096],[-122.593592,43.819138],[-122.593614,43.819244],[-122.593627,43.819298],[-122.59365,43.819406],[-122.593663,43.81946],[-122.593686,43.819569],[-122.593699,43.819623],[-122.593722,43.819731],[-122.593735,43.819786],[-122.593747,43.81984],[-122.59376,43.819894],[-122.593783,43.820002],[-122.593796,43.820056],[-122.593818,43.820165],[-122.593832,43.820219],[-122.593854,43.820327],[-122.593868,43.820381],[-122.59389,43.82049],[-122.593903,43.820542],[-122.593912,43.820593],[-122.593935,43.820702],[-122.593944,43.820757],[-122.593945,43.820759],[-122.593832,43.820771],[-122.593854,43.820877],[-122.593864,43.820931],[-122.593886,43.821039],[-122.593896,43.821094],[-122.593919,43.821202],[-122.593928,43.821257],[-122.593951,43.821365],[-122.59396,43.82142],[-122.593983,43.821528],[-122.594,43.821627],[-122.594004,43.821668],[-122.594006,43.821712],[-122.594006,43.821757],[-122.594003,43.821802],[-122.593997,43.821856],[-122.593993,43.821911],[-122.593964,43.822195],[-122.593967,43.822274],[-122.593977,43.822352],[-122.593999,43.82243],[-122.59403,43.822507],[-122.594073,43.822584],[-122.594124,43.822654],[-122.594181,43.82272],[-122.594249,43.822784],[-122.594322,43.822842],[-122.594403,43.822895],[-122.594476,43.822936],[-122.594538,43.82297],[-122.5946,43.823003],[-122.594657,43.823034],[-122.594704,43.823061],[-122.594744,43.823086],[-122.594784,43.823115],[-122.594823,43.823146],[-122.59486,43.823178],[-122.594895,43.823213],[-122.594938,43.823257],[-122.59498,43.823298],[-122.595015,43.823337],[-122.595056,43.823382],[-122.595095,43.823425],[-122.595131,43.823469],[-122.595168,43.823512],[-122.595203,43.823556],[-122.59524,43.823604],[-122.595275,43.823648],[-122.595307,43.823691],[-122.59534,43.823739],[-122.595373,43.823784],[-122.595401,43.823827],[-122.595435,43.82388],[-122.595469,43.823929],[-122.595499,43.823976],[-122.595533,43.824028],[-122.595572,43.824084],[-122.595613,43.82414],[-122.595659,43.824197],[-122.595709,43.824253],[-122.595759,43.824306],[-122.595811,43.824356],[-122.595861,43.824402],[-122.595905,43.824443],[-122.59595,43.824486],[-122.596,43.824532],[-122.596044,43.824573],[-122.596089,43.824616],[-122.596183,43.824703],[-122.596229,43.824747],[-122.596281,43.824795],[-122.59633,43.824838],[-122.596375,43.824879],[-122.596422,43.824922],[-122.596471,43.824967],[-122.59652,43.825009],[-122.596565,43.82505],[-122.596661,43.825138],[-122.59671,43.82518],[-122.596754,43.825221],[-122.596804,43.825266],[-122.596853,43.825309],[-122.596951,43.825398],[-122.597009,43.825446],[-122.597062,43.825488],[-122.597116,43.825531],[-122.597173,43.825574],[-122.59723,43.825616],[-122.597288,43.825658],[-122.597347,43.825699],[-122.597414,43.825743],[-122.597483,43.825785],[-122.597545,43.82582],[-122.597603,43.825854],[-122.597782,43.825956],[-122.597841,43.82599],[-122.597903,43.826026],[-122.59796,43.826058],[-122.598018,43.826093],[-122.598138,43.826161],[-122.598199,43.826196],[-122.598376,43.826297],[-122.598434,43.826331],[-122.598496,43.826367],[-122.598554,43.8264],[-122.598617,43.826437],[-122.598691,43.826476],[-122.598766,43.826513],[-122.598847,43.826549],[-122.598928,43.826582],[-122.599013,43.826611],[-122.599097,43.826638],[-122.59919,43.826663],[-122.599278,43.826682],[-122.599353,43.826698],[-122.599427,43.826713],[-122.599571,43.826744],[-122.599643,43.826759],[-122.599935,43.82682],[-122.600009,43.826835],[-122.600155,43.826866],[-122.600236,43.826882],[-122.60032,43.826897],[-122.600402,43.82691],[-122.600485,43.826922],[-122.600568,43.826932],[-122.600651,43.826942],[-122.600736,43.826949],[-122.600819,43.826955],[-122.600902,43.82696],[-122.601206,43.826975],[-122.601281,43.826979],[-122.601356,43.826982],[-122.601424,43.826986],[-122.601484,43.826991],[-122.601541,43.826997],[-122.6016,43.827006],[-122.601657,43.827016],[-122.601712,43.827028],[-122.601772,43.827043],[-122.601844,43.827062],[-122.601918,43.827081],[-122.601987,43.827099],[-122.602059,43.827118],[-122.602133,43.827136],[-122.602274,43.827172],[-122.602347,43.827191],[-122.602417,43.827209],[-122.60249,43.827227],[-122.602632,43.827264],[-122.602704,43.827282],[-122.602773,43.8273],[-122.602846,43.827319],[-122.602918,43.827337],[-122.60306,43.827373],[-122.603133,43.827392],[-122.603203,43.82741],[-122.603276,43.827428],[-122.603345,43.827446],[-122.603417,43.827465],[-122.60349,43.827483],[-122.603632,43.82752],[-122.603704,43.827538],[-122.603775,43.827556],[-122.603848,43.827574],[-122.603988,43.827611],[-122.604064,43.82763],[-122.604143,43.827649],[-122.604208,43.827663],[-122.604231,43.827616],[-122.604251,43.827621]]]]}},{"type":"Feature","properties":{"MAPTAXLOT":"2025000000200","MAPNUMBER":"20250000","TAXLOT":"200","ACCTNO":"0926566","MAPACRES":10468.13989637},"geometry":{"type":"MultiPolygon","coordinates":[[[[-122.554223,43.866714],[-122.559087,43.866745],[-122.568754,43.866837],[-122.578485,43.866795],[-122.588215,43.866753],[-122.607722,43.866469],[-122.607406,43.859099],[-122.607097,43.851762],[-122.607626,43.845552],[-122.607751,43.838444],[-122.597761,43.838154],[-122.597813,43.834591],[-122.592791,43.834413],[-122.59284,43.830783],[-122.592941,43.827185],[-122.593045,43.823584],[-122.588108,43.82351],[-122.587816,43.830654],[-122.587727,43.837821],[-122.58775,43.839721],[-122.577946,43.839748],[-122.568151,43.839772],[-122.568095,43.831914],[-122.568037,43.824052],[-122.568706,43.824032],[-122.568679,43.816857],[-122.568667,43.813264],[-122.568655,43.809668],[-122.558623,43.80967],[-122.553886,43.809806],[-122.549142,43.809943],[-122.549134,43.802857],[-122.549107,43.795779],[-122.544211,43.795721],[-122.539331,43.795662],[-122.534407,43.795635],[-122.529498,43.795609],[-122.529459,43.792039],[-122.52942,43.788467],[-122.529353,43.785573],[-122.529353,43.785573],[-122.529339,43.785569],[-122.528731,43.785393],[-122.528466,43.785322],[-122.528204,43.785246],[-122.527945,43.785166],[-122.527688,43.785081],[-122.527434,43.784993],[-122.527022,43.784992],[-122.526896,43.784941],[-122.52675,43.784868],[-122.526606,43.784792],[-122.526466,43.784712],[-122.52633,43.78463],[-122.526197,43.784544],[-122.525947,43.784373],[-122.5257,43.784199],[-122.525382,43.783985],[-122.525068,43.783767],[-122.52476,43.783545],[-122.524456,43.78332],[-122.524158,43.78309],[-122.523865,43.782858],[-122.523637,43.782667],[-122.523413,43.782475],[-122.523288,43.782357],[-122.523169,43.782237],[-122.523054,43.782115],[-122.522944,43.78199],[-122.52284,43.781863],[-122.52274,43.781734],[-122.522646,43.781603],[-122.522557,43.781469],[-122.519441,43.781464],[-122.514454,43.781448],[-122.509466,43.781431],[-122.508707,43.795686],[-122.509093,43.809893],[-122.508707,43.817091],[-122.50872,43.824205],[-122.508825,43.831292],[-122.513722,43.831611],[-122.513759,43.838954],[-122.508921,43.838567],[-122.50904,43.853046],[-122.518744,43.853043],[-122.528441,43.85304],[-122.528454,43.850183],[-122.538262,43.850092],[-122.538037,43.853613],[-122.529038,43.8536],[-122.528987,43.860274],[-122.528988,43.860833],[-122.528998,43.866622],[-122.539007,43.866652],[-122.549359,43.866684],[-122.547979,43.860859],[-122.553763,43.860178],[-122.554223,43.866714]],[[-122.533849,43.810407],[-122.53895,43.810457],[-122.549133,43.810567],[-122.549126,43.817488],[-122.549139,43.821534],[-122.549148,43.824298],[-122.548346,43.824314],[-122.54835,43.825179],[-122.543399,43.825091],[-122.53845,43.825001],[-122.528559,43.824817],[-122.52865,43.817584],[-122.528696,43.813971],[-122.528743,43.810357],[-122.533849,43.810407]]],[[[-122.528345,43.784994],[-122.528604,43.785069],[-122.528866,43.785139],[-122.529347,43.785278],[-122.529342,43.784995],[-122.529322,43.78148],[-122.528299,43.781478],[-122.524381,43.781472],[-122.523813,43.781471],[-122.523425,43.781471],[-122.523435,43.781485],[-122.523516,43.781599],[-122.523603,43.78171],[-122.523694,43.781819],[-122.523791,43.781926],[-122.523893,43.78203],[-122.524,43.782132],[-122.524213,43.782315],[-122.524429,43.782496],[-122.524432,43.782499],[-122.524719,43.782726],[-122.52501,43.78295],[-122.525307,43.78317],[-122.525608,43.783387],[-122.525914,43.7836],[-122.526225,43.78381],[-122.526465,43.783978],[-122.526708,43.784145],[-122.526711,43.784146],[-122.526852,43.784237],[-122.526997,43.784323],[-122.527147,43.784405],[-122.527301,43.784483],[-122.527554,43.78458],[-122.52781,43.784672],[-122.528069,43.78476],[-122.528331,43.784842],[-122.528596,43.784921],[-122.528864,43.784994],[-122.528345,43.784994]]]]}},{"type":"Feature","properties":{"MAPTAXLOT":"2025000001100","MAPNUMBER":"20250000","TAXLOT":"1100","ACCTNO":"0926665","MAPACRES":75.61157266},"geometry":{"type":"Polygon","coordinates":[[[-122.617946,43.78473],[-122.622829,43.784781],[-122.627709,43.784834],[-122.627664,43.781275],[-122.617825,43.781305],[-122.617825,43.781305],[-122.617946,43.78473]]]}},{"type":"Feature","properties":{"MAPTAXLOT":"2025000002300","MAPNUMBER":"20250000","TAXLOT":"2300","ACCTNO":"0926780","MAPACRES":3860.88798973},"geometry":{"type":"MultiPolygon","coordinates":[[[[-122.607974,43.80941],[-122.607915,43.816548],[-122.612939,43.816668],[-122.612929,43.820278],[-122.627854,43.820583],[-122.627854,43.820583],[-122.627895,43.809862],[-122.627854,43.802692],[-122.627844,43.795513],[-122.627799,43.791954],[-122.622978,43.791657],[-122.62291,43.788274],[-122.622829,43.784781],[-122.617946,43.78473],[-122.612999,43.784747],[-122.612906,43.78132],[-122.612906,43.78132],[-122.607986,43.781335],[-122.588298,43.781491],[-122.56855,43.781644],[-122.558833,43.781312],[-122.548817,43.781525],[-122.548836,43.788613],[-122.548984,43.792231],[-122.548998,43.792566],[-122.549599,43.79269],[-122.550171,43.792798],[-122.550509,43.792879],[-122.552056,43.79338],[-122.553288,43.793876],[-122.553636,43.793987],[-122.55419,43.794143],[-122.554862,43.794238],[-122.556052,43.794378],[-122.55627,43.794406],[-122.556486,43.794441],[-122.5567,43.79448],[-122.556912,43.794524],[-122.557123,43.794573],[-122.557331,43.794628],[-122.557536,43.794687],[-122.557739,43.794751],[-122.557938,43.794819],[-122.558135,43.794893],[-122.558328,43.794971],[-122.558517,43.795053],[-122.558703,43.79514],[-122.558884,43.795232],[-122.559061,43.795327],[-122.559234,43.795427],[-122.559403,43.795531],[-122.559566,43.795639],[-122.559725,43.79575],[-122.568293,43.795677],[-122.588175,43.795873],[-122.588267,43.803148],[-122.593208,43.80282],[-122.593231,43.806367],[-122.593254,43.809919],[-122.598164,43.80938],[-122.607974,43.80941]]],[[[-122.549107,43.795779],[-122.554221,43.795764],[-122.553983,43.795712],[-122.553743,43.795662],[-122.553502,43.795616],[-122.55326,43.795573],[-122.552394,43.795475],[-122.552149,43.795439],[-122.551905,43.795397],[-122.551663,43.79535],[-122.551423,43.795298],[-122.551186,43.795241],[-122.55095,43.795179],[-122.550718,43.795112],[-122.550488,43.795039],[-122.550261,43.794962],[-122.550038,43.79488],[-122.549818,43.794793],[-122.549602,43.794702],[-122.54939,43.794606],[-122.549063,43.794476],[-122.549107,43.795779]]],[[[-122.549041,43.793856],[-122.549796,43.794143],[-122.549989,43.79423],[-122.550185,43.794314],[-122.550384,43.794393],[-122.550587,43.794468],[-122.550793,43.794538],[-122.551001,43.794604],[-122.551212,43.794665],[-122.551425,43.794722],[-122.551641,43.794774],[-122.551858,43.794822],[-122.552078,43.794864],[-122.552299,43.794903],[-122.552521,43.794936],[-122.55342,43.795038],[-122.553672,43.795083],[-122.553923,43.79513],[-122.554173,43.795181],[-122.554421,43.795236],[-122.554668,43.795294],[-122.555297,43.795473],[-122.555461,43.795522],[-122.555622,43.795575],[-122.555782,43.795631],[-122.555939,43.79569],[-122.556094,43.795754],[-122.557658,43.795748],[-122.558239,43.795751],[-122.558816,43.795754],[-122.558998,43.795755],[-122.558835,43.795657],[-122.558668,43.795564],[-122.558496,43.795475],[-122.55832,43.79539],[-122.55814,43.79531],[-122.557957,43.795234],[-122.55777,43.795162],[-122.55758,43.795096],[-122.557387,43.795033],[-122.557192,43.794976],[-122.556993,43.794923],[-122.556793,43.794876],[-122.55659,43.794833],[-122.556385,43.794795],[-122.556179,43.794762],[-122.555971,43.794734],[-122.554773,43.794594],[-122.55405,43.794491],[-122.553445,43.794321],[-122.553066,43.794199],[-122.551832,43.793704],[-122.550326,43.793218],[-122.550026,43.793147],[-122.549786,43.793103],[-122.549469,43.793044],[-122.549012,43.792949],[-122.549041,43.793856]]]]}},{"type":"Feature","properties":{"MAPTAXLOT":"2025000002400","MAPNUMBER":"20250000","TAXLOT":"2400","ACCTNO":"0926806","MAPACRES":78.40734695},"geometry":{"type":"Polygon","coordinates":[[[-122.588267,43.803148],[-122.588345,43.810452],[-122.593254,43.809919],[-122.593231,43.806367],[-122.593208,43.80282],[-122.588267,43.803148]]]}},{"type":"Feature","properties":{"MAPTAXLOT":"2025000002500","MAPNUMBER":"20250000","TAXLOT":"2500","ACCTNO":"0926814","MAPACRES":74.91235212},"geometry":{"type":"Polygon","coordinates":[[[-122.62291,43.788274],[-122.622978,43.791657],[-122.627799,43.791954],[-122.627754,43.788394],[-122.627709,43.784834],[-122.622829,43.784781],[-122.62291,43.788274]]]}},{"type":"Feature","properties":{"MAPTAXLOT":"2025000002600","MAPNUMBER":"20250000","TAXLOT":"2600","ACCTNO":"0926822","MAPACRES":37.35552641},"geometry":{"type":"Polygon","coordinates":[[[-122.612999,43.784747],[-122.617946,43.78473],[-122.617825,43.781305],[-122.617825,43.781305],[-122.612906,43.78132],[-122.612906,43.78132],[-122.612999,43.784747]]]}},{"type":"Feature","properties":{"MAPTAXLOT":"2025180000033","MAPNUMBER":"20251800","TAXLOT":"33","ACCTNO":"000None","MAPACRES":559.80460557},"geometry":{"type":"MultiPolygon","coordinates":[[[[-122.618283,43.824988],[-122.619094,43.825139],[-122.619732,43.825299],[-122.620532,43.825581],[-122.621209,43.825979],[-122.621757,43.826364],[-122.622251,43.826691],[-122.622873,43.827456],[-122.623116,43.827962],[-122.623296,43.829117],[-122.62326,43.830033],[-122.623303,43.830397],[-122.623291,43.831313],[-122.623429,43.832242],[-122.623686,43.832924],[-122.623934,43.83336],[-122.624517,43.834286],[-122.625063,43.835036],[-122.625382,43.83554],[-122.625638,43.83642],[-122.625784,43.837107],[-122.625797,43.837487],[-122.625788,43.838292],[-122.625789,43.838464],[-122.626382,43.838461],[-122.627239,43.838456],[-122.627797,43.838453],[-122.627764,43.834874],[-122.627756,43.831314],[-122.62784,43.824157],[-122.627854,43.820583],[-122.627854,43.820583],[-122.612929,43.820278],[-122.612939,43.816668],[-122.607915,43.816548],[-122.602992,43.816506],[-122.602971,43.818313],[-122.60297,43.818357],[-122.602957,43.819527],[-122.602957,43.819548],[-122.60311,43.819623],[-122.60326,43.819701],[-122.603483,43.819831],[-122.603701,43.819965],[-122.603916,43.820102],[-122.604127,43.820242],[-122.604334,43.820385],[-122.604537,43.820531],[-122.604744,43.820678],[-122.604956,43.820821],[-122.605173,43.820961],[-122.605394,43.821097],[-122.60562,43.821229],[-122.605745,43.821303],[-122.605873,43.821374],[-122.606005,43.821442],[-122.60614,43.821506],[-122.606277,43.821567],[-122.606418,43.821624],[-122.606329,43.821742],[-122.606592,43.821815],[-122.606857,43.821884],[-122.607124,43.821949],[-122.607392,43.82201],[-122.607663,43.822066],[-122.607935,43.822118],[-122.607924,43.822605],[-122.607915,43.822982],[-122.608855,43.823189],[-122.608879,43.823183],[-122.609158,43.823204],[-122.609577,43.823348],[-122.609638,43.823368],[-122.609714,43.823378],[-122.610326,43.823452],[-122.610947,43.823575],[-122.612417,43.82385],[-122.614107,43.824178],[-122.615449,43.824442],[-122.615974,43.824599],[-122.616507,43.824756],[-122.616863,43.824836],[-122.617318,43.824908],[-122.617807,43.824897],[-122.618283,43.824988]]],[[[-122.607744,43.836696],[-122.61272,43.836714],[-122.612703,43.838495],[-122.617656,43.83854],[-122.618934,43.838524],[-122.618936,43.838513],[-122.618941,43.838406],[-122.618928,43.838094],[-122.618858,43.837789],[-122.618787,43.837573],[-122.618767,43.837519],[-122.61875,43.837465],[-122.618731,43.837412],[-122.618714,43.837358],[-122.618696,43.837306],[-122.618625,43.837098],[-122.618564,43.836948],[-122.618539,43.836904],[-122.618513,43.836857],[-122.618484,43.83681],[-122.618452,43.836761],[-122.618421,43.836713],[-122.61839,43.836668],[-122.618357,43.836623],[-122.618321,43.836577],[-122.618283,43.836529],[-122.618246,43.836481],[-122.618208,43.836434],[-122.61817,43.836386],[-122.618133,43.836338],[-122.618095,43.83629],[-122.618057,43.836242],[-122.61802,43.836194],[-122.617982,43.836147],[-122.617944,43.836099],[-122.617907,43.836051],[-122.617869,43.836003],[-122.617831,43.835955],[-122.617791,43.835903],[-122.617755,43.835853],[-122.617719,43.835803],[-122.617682,43.83575],[-122.617649,43.835698],[-122.617649,43.835698],[-122.617616,43.835646],[-122.617584,43.835594],[-122.617554,43.835543],[-122.617524,43.835492],[-122.617494,43.835442],[-122.617464,43.835391],[-122.617433,43.835341],[-122.617407,43.835296],[-122.61738,43.83526],[-122.61735,43.835226],[-122.617316,43.835196],[-122.61728,43.835168],[-122.61724,43.835144],[-122.617193,43.835121],[-122.617135,43.835097],[-122.617069,43.83507],[-122.617002,43.835042],[-122.61693,43.835011],[-122.616853,43.834973],[-122.616567,43.835231],[-122.616493,43.835187],[-122.616405,43.835132],[-122.616321,43.83507],[-122.616247,43.83501],[-122.616178,43.834948],[-122.616108,43.834878],[-122.61604,43.834797],[-122.615989,43.834723],[-122.61594,43.834648],[-122.615895,43.83456],[-122.615863,43.834476],[-122.615838,43.834398],[-122.615817,43.834313],[-122.615806,43.834235],[-122.616259,43.834202],[-122.616255,43.834142],[-122.616251,43.834087],[-122.616247,43.834032],[-122.616243,43.833977],[-122.616239,43.833922],[-122.616235,43.833865],[-122.616233,43.83381],[-122.61623,43.833757],[-122.616226,43.833702],[-122.616222,43.833647],[-122.616218,43.833592],[-122.616215,43.833537],[-122.616211,43.83348],[-122.616209,43.833427],[-122.616204,43.833385],[-122.616194,43.833343],[-122.61618,43.833298],[-122.616161,43.833251],[-122.616142,43.833207],[-122.616118,43.833163],[-122.616092,43.833119],[-122.616063,43.833078],[-122.616032,43.833039],[-122.615996,43.832999],[-122.615961,43.832962],[-122.615919,43.832926],[-122.615877,43.832891],[-122.615831,43.832857],[-122.615784,43.832825],[-122.615736,43.832796],[-122.615682,43.832767],[-122.615627,43.83274],[-122.615574,43.832715],[-122.615516,43.832692],[-122.615457,43.832671],[-122.615398,43.832652],[-122.615334,43.832634],[-122.615264,43.832615],[-122.615193,43.832596],[-122.615122,43.832576],[-122.615051,43.832557],[-122.61498,43.832538],[-122.61491,43.832518],[-122.614839,43.832499],[-122.614769,43.83248],[-122.614696,43.832461],[-122.614624,43.832441],[-122.614553,43.832422],[-122.614483,43.832403],[-122.614412,43.832383],[-122.614341,43.832364],[-122.61427,43.832345],[-122.614199,43.832325],[-122.614128,43.832306],[-122.614057,43.832287],[-122.613987,43.832268],[-122.613916,43.832248],[-122.613845,43.832229],[-122.613774,43.83221],[-122.613703,43.83219],[-122.613632,43.832171],[-122.613563,43.832152],[-122.613493,43.832134],[-122.613419,43.832115],[-122.613335,43.832091],[-122.613255,43.832062],[-122.613176,43.832031],[-122.613099,43.831996],[-122.613026,43.831956],[-122.612952,43.831909],[-122.612885,43.831856],[-122.612831,43.831804],[-122.612779,43.83175],[-122.612732,43.83169],[-122.612693,43.831631],[-122.612659,43.83157],[-122.612632,43.831507],[-122.61261,43.831444],[-122.612594,43.831379],[-122.612582,43.831315],[-122.612578,43.831247],[-122.61258,43.831186],[-122.612582,43.831133],[-122.612581,43.831079],[-122.612583,43.831022],[-122.612585,43.830969],[-122.612585,43.830914],[-122.612587,43.830857],[-122.612589,43.830802],[-122.612591,43.830749],[-122.612591,43.830694],[-122.612592,43.830637],[-122.612594,43.830584],[-122.612594,43.83053],[-122.612596,43.830477],[-122.612594,43.830426],[-122.612592,43.830371],[-122.61259,43.830318],[-122.612587,43.830268],[-122.612581,43.830215],[-122.612575,43.83016],[-122.61257,43.830106],[-122.612564,43.830053],[-122.612557,43.830002],[-122.612548,43.82995],[-122.612539,43.829898],[-122.612528,43.829845],[-122.612517,43.829793],[-122.612504,43.829741],[-122.612491,43.829689],[-122.612477,43.829638],[-122.612462,43.829586],[-122.612446,43.829534],[-122.612429,43.829483],[-122.612411,43.829432],[-122.612392,43.829379],[-122.612374,43.829328],[-122.612354,43.829279],[-122.612333,43.829229],[-122.61231,43.829176],[-122.612286,43.829122],[-122.612265,43.82907],[-122.612244,43.82902],[-122.612221,43.828967],[-122.612198,43.828915],[-122.612175,43.828863],[-122.612153,43.82881],[-122.612153,43.82881],[-122.61213,43.828758],[-122.612107,43.828706],[-122.612084,43.828653],[-122.612062,43.828603],[-122.61204,43.828555],[-122.612016,43.82851],[-122.611989,43.828464],[-122.611961,43.828418],[-122.611931,43.828375],[-122.611898,43.828331],[-122.611864,43.828288],[-122.611827,43.828244],[-122.611788,43.828201],[-122.61175,43.82816],[-122.611711,43.828121],[-122.611668,43.828082],[-122.611624,43.828044],[-122.611578,43.828008],[-122.611531,43.827972],[-122.611483,43.827938],[-122.611432,43.827906],[-122.611381,43.827875],[-122.611329,43.827846],[-122.611274,43.827819],[-122.611217,43.827792],[-122.611156,43.827765],[-122.611096,43.82774],[-122.611034,43.827717],[-122.610972,43.827694],[-122.610909,43.827673],[-122.610845,43.827652],[-122.610782,43.827634],[-122.610716,43.827616],[-122.610651,43.8276],[-122.610585,43.827586],[-122.610519,43.827573],[-122.61045,43.827561],[-122.610381,43.82755],[-122.610312,43.82754],[-122.610243,43.827532],[-122.610174,43.827525],[-122.610104,43.827519],[-122.610033,43.827514],[-122.609966,43.827511],[-122.609896,43.827509],[-122.609822,43.827508],[-122.609822,43.827508],[-122.609746,43.827507],[-122.60967,43.827506],[-122.60967,43.827506],[-122.609594,43.827506],[-122.609519,43.827505],[-122.609519,43.827505],[-122.609444,43.827504],[-122.609372,43.827504],[-122.6093,43.827505],[-122.609228,43.827506],[-122.609156,43.827509],[-122.609084,43.827512],[-122.609011,43.827517],[-122.608935,43.827521],[-122.60886,43.827526],[-122.608784,43.827531],[-122.608708,43.827535],[-122.608633,43.82754],[-122.608557,43.827545],[-122.608481,43.82755],[-122.608406,43.827554],[-122.608332,43.827559],[-122.608256,43.827564],[-122.60818,43.827568],[-122.608105,43.827573],[-122.608029,43.827578],[-122.607953,43.827582],[-122.607878,43.827587],[-122.607802,43.827592],[-122.607722,43.831435],[-122.607737,43.834944],[-122.607744,43.836696]]],[[[-122.613332,43.831842],[-122.613395,43.831867],[-122.613458,43.83189],[-122.613525,43.831909],[-122.613594,43.831926],[-122.613668,43.831946],[-122.61374,43.831965],[-122.61381,43.831985],[-122.613881,43.832004],[-122.613952,43.832023],[-122.614023,43.832043],[-122.614094,43.832062],[-122.614165,43.832081],[-122.614236,43.8321],[-122.614306,43.83212],[-122.614377,43.832139],[-122.614448,43.832158],[-122.614519,43.832177],[-122.61459,43.832197],[-122.614661,43.832216],[-122.614731,43.832235],[-122.614802,43.832255],[-122.614875,43.832274],[-122.614946,43.832293],[-122.615017,43.832312],[-122.615088,43.832332],[-122.615158,43.832351],[-122.615229,43.83237],[-122.6153,43.83239],[-122.615371,43.832409],[-122.615442,43.832428],[-122.615515,43.832449],[-122.615588,43.832472],[-122.615658,43.832498],[-122.615728,43.832525],[-122.615795,43.832556],[-122.615859,43.832588],[-122.615924,43.832623],[-122.615985,43.83266],[-122.616042,43.832699],[-122.616099,43.83274],[-122.616151,43.832783],[-122.616202,43.832828],[-122.616248,43.832875],[-122.616291,43.832923],[-122.616331,43.832974],[-122.616367,43.833026],[-122.616398,43.833078],[-122.616428,43.833132],[-122.616452,43.833187],[-122.616473,43.833242],[-122.616491,43.833299],[-122.616506,43.833357],[-122.616512,43.833416],[-122.616514,43.833472],[-122.616518,43.833526],[-122.616521,43.833581],[-122.616525,43.833636],[-122.616529,43.833691],[-122.616533,43.833746],[-122.616537,43.833802],[-122.616539,43.833857],[-122.616542,43.833911],[-122.616546,43.833966],[-122.61655,43.834021],[-122.616554,43.834076],[-122.616557,43.834131],[-122.616561,43.834185],[-122.616568,43.834236],[-122.616581,43.834287],[-122.616597,43.834338],[-122.616616,43.834387],[-122.616641,43.834434],[-122.616671,43.834482],[-122.616703,43.834528],[-122.616739,43.834571],[-122.616782,43.834613],[-122.616826,43.834654],[-122.616875,43.834693],[-122.616924,43.834729],[-122.616978,43.834763],[-122.617033,43.834795],[-122.617092,43.834824],[-122.617155,43.834851],[-122.61722,43.834878],[-122.617286,43.834906],[-122.617353,43.834934],[-122.617423,43.834967],[-122.617487,43.835006],[-122.617545,43.83505],[-122.617596,43.835097],[-122.617641,43.835147],[-122.61768,43.8352],[-122.617712,43.835252],[-122.617742,43.835303],[-122.617772,43.835353],[-122.617802,43.835404],[-122.617832,43.835455],[-122.617863,43.835505],[-122.617892,43.835555],[-122.617924,43.835604],[-122.617956,43.835653],[-122.617989,43.835701],[-122.618024,43.83575],[-122.618058,43.835798],[-122.618095,43.835845],[-122.618132,43.835893],[-122.61817,43.835941],[-122.618208,43.835989],[-122.618245,43.836036],[-122.618283,43.836084],[-122.618321,43.836132],[-122.618358,43.83618],[-122.618396,43.836228],[-122.618434,43.836275],[-122.618471,43.836323],[-122.618509,43.836371],[-122.618547,43.836419],[-122.618584,43.836467],[-122.618623,43.836516],[-122.618659,43.836565],[-122.618694,43.836616],[-122.618727,43.836666],[-122.618759,43.836716],[-122.618792,43.836768],[-122.618821,43.83682],[-122.61885,43.836874],[-122.618918,43.837039],[-122.61899,43.837251],[-122.619009,43.837305],[-122.619026,43.837358],[-122.619045,43.837412],[-122.619062,43.837465],[-122.619081,43.837518],[-122.619156,43.837743],[-122.619231,43.838071],[-122.619245,43.838404],[-122.61924,43.83852],[-122.619413,43.838518],[-122.619418,43.83849],[-122.619401,43.838033],[-122.619316,43.837527],[-122.619137,43.837127],[-122.618947,43.836649],[-122.618539,43.836171],[-122.618193,43.835724],[-122.617959,43.835324],[-122.617715,43.835017],[-122.617583,43.834889],[-122.617293,43.834769],[-122.617092,43.834631],[-122.61694,43.83436],[-122.616818,43.833675],[-122.616665,43.833164],[-122.61649,43.83289],[-122.616218,43.83265],[-122.615842,43.832439],[-122.615306,43.832233],[-122.614984,43.832071],[-122.614793,43.831993],[-122.614618,43.831947],[-122.61454,43.831851],[-122.614357,43.831778],[-122.614124,43.831788],[-122.613996,43.831802],[-122.613807,43.831762],[-122.613633,43.831733],[-122.613519,43.831718],[-122.613354,43.831733],[-122.613306,43.831646],[-122.613395,43.831612],[-122.613522,43.831588],[-122.613604,43.831559],[-122.613407,43.831525],[-122.613382,43.831438],[-122.61329,43.831407],[-122.61328,43.831337],[-122.613195,43.831273],[-122.613141,43.831013],[-122.613175,43.830718],[-122.613117,43.830354],[-122.613053,43.829649],[-122.613028,43.829143],[-122.612944,43.828895],[-122.612783,43.828398],[-122.612523,43.828071],[-122.612374,43.8279],[-122.612228,43.827816],[-122.612163,43.827687],[-122.611866,43.827585],[-122.611816,43.827472],[-122.611754,43.827413],[-122.611633,43.827399],[-122.611496,43.827348],[-122.611364,43.827236],[-122.611167,43.827127],[-122.610947,43.827078],[-122.610683,43.827083],[-122.610478,43.827033],[-122.610065,43.827036],[-122.609897,43.82699],[-122.609767,43.826912],[-122.609602,43.826942],[-122.609453,43.826983],[-122.609078,43.827007],[-122.6085,43.827057],[-122.60808,43.827098],[-122.607834,43.82712],[-122.607821,43.827122],[-122.607816,43.827317],[-122.607871,43.827314],[-122.607947,43.827309],[-122.608023,43.827305],[-122.608098,43.8273],[-122.608174,43.827296],[-122.60825,43.827291],[-122.608325,43.827286],[-122.608399,43.827282],[-122.608475,43.827277],[-122.60855,43.827273],[-122.608626,43.827268],[-122.608702,43.827264],[-122.608777,43.827259],[-122.608853,43.827255],[-122.608929,43.82725],[-122.609004,43.827245],[-122.609081,43.827241],[-122.609158,43.827238],[-122.609235,43.827235],[-122.609312,43.827233],[-122.609389,43.827233],[-122.609466,43.827233],[-122.609922,43.827239],[-122.61,43.827241],[-122.610076,43.827245],[-122.610154,43.827251],[-122.610232,43.827257],[-122.610308,43.827266],[-122.610384,43.827275],[-122.61046,43.827286],[-122.610536,43.827298],[-122.610613,43.827311],[-122.610687,43.827326],[-122.610762,43.827343],[-122.610835,43.827361],[-122.61091,43.827381],[-122.610981,43.827402],[-122.611051,43.827425],[-122.611122,43.827449],[-122.611191,43.827474],[-122.61126,43.827501],[-122.611327,43.827529],[-122.611395,43.827559],[-122.61146,43.82759],[-122.611525,43.827622],[-122.611587,43.827657],[-122.611647,43.827694],[-122.611706,43.827732],[-122.611762,43.827771],[-122.611816,43.827812],[-122.611869,43.827854],[-122.611919,43.827898],[-122.611968,43.827942],[-122.612015,43.827988],[-122.612057,43.828035],[-122.6121,43.828082],[-122.61214,43.828131],[-122.612179,43.828179],[-122.612216,43.828229],[-122.612251,43.82828],[-122.612282,43.828332],[-122.612313,43.828383],[-122.61234,43.828437],[-122.612366,43.82849],[-122.612389,43.828543],[-122.612479,43.828753],[-122.61257,43.828963],[-122.612591,43.829015],[-122.612659,43.829172],[-122.61268,43.829227],[-122.6127,43.82928],[-122.612738,43.829388],[-122.612772,43.829496],[-122.612803,43.829605],[-122.61283,43.829714],[-122.612853,43.829824],[-122.612872,43.829934],[-122.61288,43.82999],[-122.612903,43.83021],[-122.612906,43.830267],[-122.612912,43.830433],[-122.61291,43.830489],[-122.61291,43.830543],[-122.612907,43.830653],[-122.612907,43.830708],[-122.612901,43.830873],[-122.612901,43.830927],[-122.612897,43.831037],[-122.612897,43.831092],[-122.612894,43.8312],[-122.612889,43.831321],[-122.612894,43.831346],[-122.612906,43.831396],[-122.612924,43.831446],[-122.612945,43.831495],[-122.612972,43.831543],[-122.613001,43.831589],[-122.613036,43.831632],[-122.613077,43.831675],[-122.613119,43.831715],[-122.613164,43.831752],[-122.613217,43.831785],[-122.613273,43.831815],[-122.613332,43.831842]]]]}},{"type":"Feature","properties":{"MAPTAXLOT":"2025200000033","MAPNUMBER":"20252000","TAXLOT":"33","ACCTNO":"000None","MAPACRES":144.54505363},"geometry":{"type":"MultiPolygon","coordinates":[[[[-122.598907,43.818817],[-122.599985,43.81932],[-122.601058,43.819827],[-122.602128,43.820339],[-122.603194,43.820855],[-122.604256,43.821375],[-122.604459,43.821486],[-122.604667,43.821592],[-122.60488,43.821694],[-122.605095,43.821792],[-122.605315,43.821886],[-122.605538,43.821975],[-122.605765,43.822059],[-122.605994,43.822139],[-122.606227,43.822214],[-122.606462,43.822285],[-122.6067,43.82235],[-122.606941,43.822411],[-122.607184,43.822467],[-122.607429,43.822518],[-122.607675,43.822564],[-122.607924,43.822605],[-122.607935,43.822118],[-122.607663,43.822066],[-122.607392,43.82201],[-122.607124,43.821949],[-122.606857,43.821884],[-122.606592,43.821815],[-122.606329,43.821742],[-122.606418,43.821624],[-122.606277,43.821567],[-122.60614,43.821506],[-122.606005,43.821442],[-122.605873,43.821374],[-122.605745,43.821303],[-122.60562,43.821229],[-122.605394,43.821097],[-122.605173,43.820961],[-122.604956,43.820821],[-122.604744,43.820678],[-122.604537,43.820531],[-122.604334,43.820385],[-122.604127,43.820242],[-122.603916,43.820102],[-122.603701,43.819965],[-122.603483,43.819831],[-122.60326,43.819701],[-122.60311,43.819623],[-122.602957,43.819548],[-122.602956,43.819566],[-122.602188,43.819546],[-122.602181,43.819544],[-122.601601,43.819368],[-122.601212,43.819251],[-122.600745,43.81911],[-122.600716,43.819101],[-122.60143,43.818376],[-122.601468,43.818375],[-122.602153,43.818367],[-122.60297,43.818357],[-122.602971,43.818313],[-122.602992,43.816506],[-122.60303,43.81295],[-122.598116,43.812923],[-122.598068,43.816462],[-122.596544,43.81645],[-122.596372,43.816348],[-122.596195,43.816249],[-122.596014,43.816155],[-122.59583,43.816063],[-122.595642,43.815976],[-122.595451,43.815892],[-122.595298,43.816082],[-122.595111,43.816006],[-122.594922,43.815933],[-122.594729,43.815865],[-122.594535,43.8158],[-122.594315,43.815733],[-122.594093,43.815671],[-122.593869,43.815614],[-122.593642,43.815562],[-122.593413,43.815515],[-122.593182,43.815474],[-122.593182,43.815446],[-122.593187,43.815053],[-122.593212,43.81317],[-122.588309,43.813417],[-122.588291,43.814837],[-122.588081,43.815464],[-122.58843,43.815463],[-122.588779,43.815467],[-122.589129,43.815475],[-122.589478,43.815488],[-122.589826,43.815505],[-122.590175,43.815527],[-122.590522,43.815554],[-122.590757,43.81554],[-122.590992,43.815532],[-122.591228,43.81553],[-122.591463,43.815533],[-122.591699,43.815541],[-122.591934,43.815555],[-122.592168,43.815574],[-122.592401,43.815599],[-122.592633,43.815629],[-122.592863,43.815664],[-122.593092,43.815705],[-122.593319,43.815751],[-122.593544,43.815802],[-122.593766,43.815858],[-122.593986,43.81592],[-122.594203,43.815986],[-122.594417,43.816058],[-122.594627,43.816134],[-122.594834,43.816216],[-122.595038,43.816302],[-122.595237,43.816393],[-122.595433,43.816488],[-122.595624,43.816588],[-122.59581,43.816692],[-122.595992,43.8168],[-122.596169,43.816913],[-122.596708,43.817301],[-122.597251,43.817685],[-122.597798,43.818066],[-122.598351,43.818443],[-122.598907,43.818817]]],[[[-122.607213,43.823091],[-122.607494,43.823183],[-122.607839,43.823183],[-122.607911,43.823182],[-122.608119,43.823182],[-122.608663,43.823241],[-122.608855,43.823189],[-122.607915,43.822982],[-122.604806,43.822298],[-122.604581,43.822211],[-122.604359,43.822121],[-122.604026,43.821975],[-122.603696,43.821825],[-122.603368,43.821672],[-122.600045,43.820106],[-122.599722,43.819952],[-122.599401,43.819796],[-122.599084,43.819636],[-122.598865,43.819517],[-122.59865,43.819395],[-122.598439,43.81927],[-122.598233,43.819141],[-122.59803,43.819008],[-122.597751,43.818812],[-122.597475,43.818613],[-122.597203,43.818411],[-122.596726,43.818055],[-122.596859,43.817957],[-122.596667,43.817813],[-122.596472,43.817672],[-122.596274,43.817533],[-122.596071,43.817396],[-122.595866,43.817263],[-122.595692,43.81716],[-122.595513,43.817061],[-122.59533,43.816966],[-122.595143,43.816876],[-122.594952,43.816791],[-122.594758,43.816709],[-122.594559,43.816633],[-122.594357,43.816561],[-122.594152,43.816494],[-122.593945,43.816432],[-122.593734,43.816376],[-122.593521,43.816324],[-122.593306,43.816277],[-122.593089,43.816235],[-122.59287,43.816198],[-122.592649,43.816167],[-122.592428,43.816141],[-122.592153,43.816118],[-122.591878,43.816099],[-122.591602,43.816083],[-122.591327,43.816071],[-122.59105,43.816063],[-122.590102,43.816031],[-122.589718,43.816017],[-122.589335,43.816],[-122.588952,43.815978],[-122.588726,43.81596],[-122.588501,43.815939],[-122.588276,43.815914],[-122.58827,43.816379],[-122.588779,43.816613],[-122.589964,43.817177],[-122.590246,43.817269],[-122.590723,43.817374],[-122.591198,43.817419],[-122.591946,43.817327],[-122.59264,43.817178],[-122.593246,43.817101],[-122.593798,43.816982],[-122.593985,43.816951],[-122.594372,43.817052],[-122.594619,43.817232],[-122.594984,43.817345],[-122.595612,43.817665],[-122.59608,43.817928],[-122.596172,43.817996],[-122.596451,43.818013],[-122.596497,43.818246],[-122.596574,43.818283],[-122.596868,43.818321],[-122.597125,43.81856],[-122.59716,43.818701],[-122.59729,43.818769],[-122.597381,43.818778],[-122.597661,43.81905],[-122.597825,43.819221],[-122.597925,43.819279],[-122.598051,43.819244],[-122.598186,43.819215],[-122.598338,43.819368],[-122.59856,43.819472],[-122.598551,43.819641],[-122.59848,43.819767],[-122.598736,43.82017],[-122.599513,43.820867],[-122.599996,43.821342],[-122.600425,43.821774],[-122.600629,43.821938],[-122.600914,43.822101],[-122.601156,43.822363],[-122.60168,43.822495],[-122.602058,43.822564],[-122.602242,43.822642],[-122.602441,43.822741],[-122.602607,43.822766],[-122.602773,43.82279],[-122.602924,43.822803],[-122.602958,43.822694],[-122.603113,43.822609],[-122.603466,43.822597],[-122.603904,43.822665],[-122.604262,43.822778],[-122.604709,43.822933],[-122.605153,43.823092],[-122.605975,43.823186],[-122.606448,43.823166],[-122.606354,43.82307],[-122.606034,43.822946],[-122.606403,43.822961],[-122.606453,43.822895],[-122.606554,43.82299],[-122.606738,43.823079],[-122.606993,43.823052],[-122.607213,43.823091]]]]}},{"type":"Feature","properties":{"MAPTAXLOT":"2025200000066","MAPNUMBER":"20252000","TAXLOT":"66","ACCTNO":"000None","MAPACRES":48.75319563},"geometry":{"type":"Polygon","coordinates":[[[-122.59934,43.823689],[-122.599751,43.823696],[-122.607553,43.823816],[-122.607838,43.82382],[-122.607838,43.823409],[-122.607839,43.823183],[-122.607494,43.823183],[-122.607213,43.823091],[-122.606993,43.823052],[-122.606738,43.823079],[-122.606554,43.82299],[-122.606453,43.822895],[-122.606403,43.822961],[-122.606034,43.822946],[-122.606354,43.82307],[-122.606448,43.823166],[-122.605975,43.823186],[-122.605153,43.823092],[-122.604709,43.822933],[-122.604262,43.822778],[-122.603904,43.822665],[-122.603466,43.822597],[-122.603113,43.822609],[-122.602958,43.822694],[-122.602924,43.822803],[-122.602773,43.82279],[-122.602607,43.822766],[-122.602441,43.822741],[-122.602242,43.822642],[-122.602058,43.822564],[-122.60168,43.822495],[-122.601156,43.822363],[-122.600914,43.822101],[-122.600629,43.821938],[-122.600425,43.821774],[-122.599996,43.821342],[-122.599513,43.820867],[-122.598736,43.82017],[-122.59848,43.819767],[-122.598551,43.819641],[-122.59856,43.819472],[-122.598338,43.819368],[-122.598186,43.819215],[-122.598051,43.819244],[-122.597925,43.819279],[-122.597825,43.819221],[-122.597661,43.81905],[-122.597381,43.818778],[-122.59729,43.818769],[-122.59716,43.818701],[-122.597125,43.81856],[-122.596868,43.818321],[-122.596574,43.818283],[-122.596497,43.818246],[-122.596451,43.818013],[-122.596172,43.817996],[-122.59608,43.817928],[-122.595612,43.817665],[-122.594984,43.817345],[-122.594619,43.817232],[-122.594372,43.817052],[-122.593985,43.816951],[-122.593798,43.816982],[-122.593246,43.817101],[-122.59264,43.817178],[-122.591946,43.817327],[-122.591198,43.817419],[-122.590723,43.817374],[-122.590246,43.817269],[-122.589964,43.817177],[-122.588779,43.816613],[-122.58827,43.816379],[-122.588259,43.817163],[-122.588384,43.817235],[-122.589081,43.817635],[-122.589457,43.817851],[-122.589988,43.817966],[-122.590229,43.817983],[-122.590388,43.818007],[-122.590978,43.81811],[-122.591451,43.818096],[-122.591667,43.818053],[-122.591852,43.817974],[-122.5921,43.817969],[-122.592325,43.817938],[-122.593003,43.817979],[-122.593341,43.817978],[-122.593719,43.818042],[-122.59405,43.818081],[-122.594095,43.818085],[-122.594277,43.818131],[-122.595132,43.818473],[-122.595683,43.818746],[-122.595868,43.818873],[-122.596358,43.819119],[-122.596584,43.819348],[-122.596781,43.819606],[-122.596821,43.819893],[-122.596875,43.819924],[-122.596913,43.819924],[-122.597041,43.820073],[-122.597395,43.820534],[-122.597521,43.820684],[-122.597822,43.820895],[-122.598156,43.821199],[-122.598514,43.821524],[-122.598773,43.821818],[-122.59909,43.822252],[-122.599154,43.822381],[-122.59935,43.823185],[-122.59934,43.823689]]]}},{"type":"Feature","properties":{"MAPTAXLOT":"2025200000099","MAPNUMBER":"20252000","TAXLOT":"99","ACCTNO":"000None","MAPACRES":26.08788982},"geometry":{"type":"Polygon","coordinates":[[[-122.588276,43.815914],[-122.588501,43.815939],[-122.588726,43.81596],[-122.588952,43.815978],[-122.589335,43.816],[-122.589718,43.816017],[-122.590102,43.816031],[-122.59105,43.816063],[-122.591327,43.816071],[-122.591602,43.816083],[-122.591878,43.816099],[-122.592153,43.816118],[-122.592428,43.816141],[-122.592649,43.816167],[-122.59287,43.816198],[-122.593089,43.816235],[-122.593306,43.816277],[-122.593521,43.816324],[-122.593734,43.816376],[-122.593945,43.816432],[-122.594152,43.816494],[-122.594357,43.816561],[-122.594559,43.816633],[-122.594758,43.816709],[-122.594952,43.816791],[-122.595143,43.816876],[-122.59533,43.816966],[-122.595513,43.817061],[-122.595692,43.81716],[-122.595866,43.817263],[-122.596071,43.817396],[-122.596274,43.817533],[-122.596472,43.817672],[-122.596667,43.817813],[-122.596859,43.817957],[-122.596726,43.818055],[-122.597203,43.818411],[-122.597475,43.818613],[-122.597751,43.818812],[-122.59803,43.819008],[-122.598233,43.819141],[-122.598439,43.81927],[-122.59865,43.819395],[-122.598865,43.819517],[-122.599084,43.819636],[-122.599401,43.819796],[-122.599722,43.819952],[-122.600045,43.820106],[-122.603368,43.821672],[-122.603696,43.821825],[-122.604026,43.821975],[-122.604359,43.822121],[-122.604581,43.822211],[-122.604806,43.822298],[-122.607915,43.822982],[-122.607924,43.822605],[-122.607675,43.822564],[-122.607429,43.822518],[-122.607184,43.822467],[-122.606941,43.822411],[-122.6067,43.82235],[-122.606462,43.822285],[-122.606227,43.822214],[-122.605994,43.822139],[-122.605765,43.822059],[-122.605538,43.821975],[-122.605315,43.821886],[-122.605095,43.821792],[-122.60488,43.821694],[-122.604667,43.821592],[-122.604459,43.821486],[-122.604256,43.821375],[-122.603194,43.820855],[-122.602128,43.820339],[-122.601058,43.819827],[-122.599985,43.81932],[-122.598907,43.818817],[-122.598351,43.818443],[-122.597798,43.818066],[-122.597251,43.817685],[-122.596708,43.817301],[-122.596169,43.816913],[-122.595992,43.8168],[-122.59581,43.816692],[-122.595624,43.816588],[-122.595433,43.816488],[-122.595237,43.816393],[-122.595038,43.816302],[-122.594834,43.816216],[-122.594627,43.816134],[-122.594417,43.816058],[-122.594203,43.815986],[-122.593986,43.81592],[-122.593766,43.815858],[-122.593544,43.815802],[-122.593319,43.815751],[-122.593092,43.815705],[-122.592863,43.815664],[-122.592633,43.815629],[-122.592401,43.815599],[-122.592168,43.815574],[-122.591934,43.815555],[-122.591699,43.815541],[-122.591463,43.815533],[-122.591228,43.81553],[-122.590992,43.815532],[-122.590757,43.81554],[-122.590522,43.815554],[-122.590175,43.815527],[-122.589826,43.815505],[-122.589478,43.815488],[-122.589129,43.815475],[-122.588779,43.815467],[-122.58843,43.815463],[-122.588081,43.815464],[-122.588069,43.815508],[-122.588276,43.815914]]]}},{"type":"Feature","properties":{"MAPTAXLOT":"2025200000100","MAPNUMBER":"20252000","TAXLOT":"100","ACCTNO":"0926871","MAPACRES":38.85538342},"geometry":{"type":"Polygon","coordinates":[[[-122.588108,43.82351],[-122.593045,43.823584],[-122.593105,43.820005],[-122.588194,43.819946],[-122.588108,43.82351]]]}},{"type":"Feature","properties":{"MAPTAXLOT":"2025200000200","MAPNUMBER":"20252000","TAXLOT":"200","ACCTNO":"0926889","MAPACRES":1.39872533},"geometry":{"type":"Polygon","coordinates":[[[-122.600745,43.81911],[-122.601212,43.819251],[-122.601706,43.818749],[-122.602041,43.818922],[-122.602164,43.818797],[-122.602153,43.818367],[-122.601468,43.818375],[-122.600745,43.81911]]]}},{"type":"Feature","properties":{"MAPTAXLOT":"2025200000201","MAPNUMBER":"20252000","TAXLOT":"201","ACCTNO":"0926897","MAPACRES":0.06001904},"geometry":{"type":"Polygon","coordinates":[[[-122.600716,43.819101],[-122.600745,43.81911],[-122.601468,43.818375],[-122.60143,43.818376],[-122.600716,43.819101]]]}},{"type":"Feature","properties":{"MAPTAXLOT":"2025200000203","MAPNUMBER":"20252000","TAXLOT":"203","ACCTNO":"0926905","MAPACRES":0.52877892},"geometry":{"type":"Polygon","coordinates":[[[-122.601212,43.819251],[-122.601601,43.819368],[-122.602041,43.818922],[-122.601706,43.818749],[-122.601212,43.819251]]]}},{"type":"Feature","properties":{"MAPTAXLOT":"2025200000204","MAPNUMBER":"20252000","TAXLOT":"204","ACCTNO":"1140886","MAPACRES":0.4751702},"geometry":{"type":"Polygon","coordinates":[[[-122.602041,43.818922],[-122.601601,43.819368],[-122.602181,43.819544],[-122.602164,43.818797],[-122.602041,43.818922]]]}},{"type":"Feature","properties":{"MAPTAXLOT":"2025200000300","MAPNUMBER":"20252000","TAXLOT":"300","ACCTNO":"0926913","MAPACRES":2.09891351},"geometry":{"type":"Polygon","coordinates":[[[-122.602188,43.819546],[-122.602956,43.819566],[-122.602957,43.819548],[-122.602957,43.819527],[-122.60297,43.818357],[-122.602153,43.818367],[-122.602164,43.818797],[-122.602181,43.819544],[-122.602188,43.819546]]]}},{"type":"Feature","properties":{"MAPTAXLOT":"2025200000400","MAPNUMBER":"20252000","TAXLOT":"400","ACCTNO":"0926921","MAPACRES":186.2715352},"geometry":{"type":"Polygon","coordinates":[[[-122.602992,43.816506],[-122.607915,43.816548],[-122.607974,43.80941],[-122.598164,43.80938],[-122.593254,43.809919],[-122.588345,43.810452],[-122.588309,43.813417],[-122.593212,43.81317],[-122.598116,43.812923],[-122.60303,43.81295],[-122.602992,43.816506]]]}},{"type":"Feature","properties":{"MAPTAXLOT":"2025200000500","MAPNUMBER":"20252000","TAXLOT":"500","ACCTNO":"0926939","MAPACRES":30.92208471},"geometry":{"type":"Polygon","coordinates":[[[-122.596544,43.81645],[-122.598068,43.816462],[-122.598116,43.812923],[-122.593212,43.81317],[-122.593187,43.815053],[-122.594513,43.815036],[-122.594535,43.8158],[-122.594729,43.815865],[-122.594922,43.815933],[-122.595111,43.816006],[-122.595298,43.816082],[-122.595451,43.815892],[-122.595642,43.815976],[-122.59583,43.816063],[-122.596014,43.816155],[-122.596195,43.816249],[-122.596372,43.816348],[-122.596544,43.81645]]]}},{"type":"Feature","properties":{"MAPTAXLOT":"2025200000502","MAPNUMBER":"20252000","TAXLOT":"502","ACCTNO":"1003696","MAPACRES":1.69988916},"geometry":{"type":"Polygon","coordinates":[[[-122.593182,43.815446],[-122.593182,43.815474],[-122.593413,43.815515],[-122.593642,43.815562],[-122.593869,43.815614],[-122.594093,43.815671],[-122.594315,43.815733],[-122.594535,43.8158],[-122.594513,43.815036],[-122.593187,43.815053],[-122.593182,43.815446]]]}},{"type":"Feature","properties":{"MAPTAXLOT":"2115000000100","MAPNUMBER":"21150000","TAXLOT":"100","ACCTNO":"0944965","MAPACRES":620.96524764},"geometry":{"type":"Polygon","coordinates":[[[-122.647419,43.781194],[-122.647432,43.781194],[-122.647418,43.777671],[-122.647412,43.774075],[-122.647392,43.766896],[-122.64309,43.76694],[-122.627765,43.767097],[-122.627728,43.769111],[-122.627644,43.774188],[-122.627649,43.776335],[-122.627664,43.781272],[-122.627664,43.781275],[-122.637548,43.781235],[-122.647419,43.781194]]]}},{"type":"Feature","properties":{"MAPTAXLOT":"2115000000200","MAPNUMBER":"21150000","TAXLOT":"200","ACCTNO":"0944981","MAPACRES":19968.69982205},"geometry":{"type":"Polygon","coordinates":[[[-122.696737,43.780362],[-122.696748,43.780361],[-122.697288,43.780356],[-122.706612,43.780221],[-122.706624,43.780221],[-122.707143,43.780216],[-122.707156,43.780216],[-122.716573,43.780122],[-122.716582,43.780122],[-122.717082,43.780117],[-122.717092,43.780117],[-122.726534,43.780023],[-122.726541,43.780023],[-122.727021,43.780018],[-122.727028,43.780018],[-122.736482,43.779886],[-122.736485,43.779885],[-122.736962,43.779878],[-122.736965,43.779878],[-122.740858,43.779822],[-122.744754,43.779767],[-122.744749,43.776233],[-122.744749,43.776232],[-122.744745,43.772699],[-122.744745,43.772698],[-122.744745,43.772494],[-122.744745,43.772494],[-122.744741,43.769164],[-122.744741,43.769164],[-122.744737,43.76563],[-122.74473,43.76209],[-122.74473,43.76209],[-122.744723,43.75855],[-122.744723,43.758549],[-122.744716,43.755009],[-122.744716,43.755008],[-122.744709,43.751468],[-122.744752,43.744341],[-122.744718,43.737106],[-122.744718,43.737099],[-122.744717,43.736878],[-122.744702,43.733519],[-122.744686,43.729939],[-122.74467,43.726358],[-122.74467,43.726351],[-122.744654,43.722778],[-122.744642,43.721395],[-122.744642,43.721388],[-122.744624,43.719255],[-122.744595,43.715732],[-122.744565,43.712208],[-122.744502,43.708781],[-122.741478,43.708713],[-122.73648,43.708758],[-122.726478,43.708841],[-122.706531,43.709026],[-122.7065,43.694612],[-122.696657,43.694775],[-122.686824,43.694863],[-122.68663,43.694864],[-122.677013,43.694907],[-122.667087,43.694862],[-122.657143,43.694879],[-122.647199,43.694886],[-122.6373,43.694943],[-122.632638,43.694971],[-122.632637,43.694971],[-122.627534,43.695001],[-122.627413,43.695002],[-122.627421,43.696927],[-122.627421,43.696928],[-122.627432,43.702243],[-122.627518,43.702242],[-122.635832,43.702172],[-122.637367,43.702159],[-122.637433,43.709385],[-122.627635,43.709474],[-122.627586,43.709475],[-122.627586,43.709475],[-122.627593,43.711457],[-122.627594,43.716653],[-122.627557,43.718694],[-122.627451,43.723867],[-122.627446,43.725923],[-122.627436,43.731076],[-122.627448,43.733095],[-122.627499,43.738277],[-122.627504,43.740268],[-122.627529,43.74548],[-122.627538,43.747479],[-122.62754,43.747755],[-122.627578,43.752697],[-122.627578,43.752698],[-122.627613,43.754693],[-122.62772,43.759904],[-122.627728,43.7619],[-122.627765,43.767096],[-122.627765,43.767097],[-122.64309,43.76694],[-122.647392,43.766896],[-122.647412,43.774075],[-122.647418,43.777671],[-122.647432,43.781194],[-122.657338,43.781081],[-122.657451,43.78108],[-122.667245,43.780969],[-122.66747,43.780967],[-122.677104,43.780746],[-122.677501,43.780737],[-122.686862,43.78051],[-122.687433,43.780497],[-122.696737,43.780362]],[[-122.686957,43.73775],[-122.69184,43.737722],[-122.706584,43.737637],[-122.706583,43.744858],[-122.706583,43.744858],[-122.691837,43.744918],[-122.691839,43.74132],[-122.686918,43.741361],[-122.686919,43.737751],[-122.686957,43.73775]]]}},{"type":"Feature","properties":{"MAPTAXLOT":"2125000000800","MAPNUMBER":"21250000","TAXLOT":"800","ACCTNO":"0945129","MAPACRES":392.63697828},"geometry":{"type":"Polygon","coordinates":[[[-122.588298,43.781491],[-122.607986,43.781335],[-122.607979,43.777722],[-122.603064,43.77776],[-122.603065,43.774145],[-122.603067,43.770529],[-122.598166,43.770564],[-122.588366,43.77063],[-122.588345,43.774249],[-122.588322,43.77787],[-122.588298,43.781491]]]}},{"type":"Feature","properties":{"MAPTAXLOT":"2125000000900","MAPNUMBER":"21250000","TAXLOT":"900","ACCTNO":"0945137","MAPACRES":235.01072064},"geometry":{"type":"Polygon","coordinates":[[[-122.603064,43.77776],[-122.607979,43.777722],[-122.607977,43.776348],[-122.607973,43.774109],[-122.607966,43.770496],[-122.607964,43.769122],[-122.607962,43.76688],[-122.603068,43.766914],[-122.599316,43.766938],[-122.598175,43.766944],[-122.588389,43.767012],[-122.588366,43.77063],[-122.598166,43.770564],[-122.603067,43.770529],[-122.603065,43.774145],[-122.603064,43.77776]]]}},{"type":"Feature","properties":{"MAPTAXLOT":"2125000001000","MAPNUMBER":"21250000","TAXLOT":"1000","ACCTNO":"0945145","MAPACRES":530.45996754},"geometry":{"type":"Polygon","coordinates":[[[-122.617825,43.781305],[-122.627664,43.781275],[-122.627664,43.781272],[-122.627649,43.776335],[-122.627644,43.774188],[-122.627728,43.769111],[-122.619289,43.769116],[-122.617951,43.769116],[-122.609302,43.769122],[-122.607964,43.769122],[-122.607966,43.770496],[-122.607973,43.774109],[-122.607977,43.776348],[-122.607979,43.777722],[-122.607986,43.781335],[-122.612906,43.78132],[-122.617825,43.781305]]]}},{"type":"Feature","properties":{"MAPTAXLOT":"2125000001100","MAPNUMBER":"21250000","TAXLOT":"1100","ACCTNO":"0945152","MAPACRES":587.84026592},"geometry":{"type":"Polygon","coordinates":[[[-122.619289,43.769116],[-122.627728,43.769111],[-122.627765,43.767097],[-122.627765,43.767096],[-122.627728,43.7619],[-122.62772,43.759904],[-122.627613,43.754693],[-122.619242,43.754694],[-122.609253,43.754694],[-122.609302,43.769122],[-122.617951,43.769116],[-122.619289,43.769116]]]}},{"type":"Feature","properties":{"MAPTAXLOT":"2125000001200","MAPNUMBER":"21250000","TAXLOT":"1200","ACCTNO":"0945178","MAPACRES":574.27411549},"geometry":{"type":"Polygon","coordinates":[[[-122.607964,43.769122],[-122.609302,43.769122],[-122.609253,43.754694],[-122.589334,43.754674],[-122.588281,43.754673],[-122.588288,43.755904],[-122.588308,43.759372],[-122.58833,43.76191],[-122.588345,43.763192],[-122.588389,43.767012],[-122.598175,43.766944],[-122.599316,43.766938],[-122.603068,43.766914],[-122.607962,43.76688],[-122.607964,43.769122]]]}},{"type":"Feature","properties":{"MAPTAXLOT":"2125000002000","MAPNUMBER":"21250000","TAXLOT":"2000","ACCTNO":"0945285","MAPACRES":635.57303021},"geometry":{"type":"Polygon","coordinates":[[[-122.589334,43.754674],[-122.609253,43.754694],[-122.609145,43.740271],[-122.589262,43.74021],[-122.589334,43.754674]]]}},{"type":"Feature","properties":{"MAPTAXLOT":"2125000002100","MAPNUMBER":"21250000","TAXLOT":"2100","ACCTNO":"0945301","MAPACRES":585.14346235},"geometry":{"type":"Polygon","coordinates":[[[-122.619242,43.754694],[-122.627613,43.754693],[-122.627578,43.752698],[-122.627578,43.752697],[-122.62754,43.747755],[-122.627538,43.747479],[-122.627529,43.74548],[-122.627504,43.740268],[-122.619125,43.740269],[-122.609145,43.740271],[-122.609253,43.754694],[-122.619242,43.754694]]]}}]}