{"type":"FeatureCollection","features":[{"type":"Feature","properties":{"MAPTAXLOT":"1765000000100","MAPNUMBER":"17650000","TAXLOT":"100","ACCTNO":"1857380","MAPACRES":22585.03071489},"geometry":{"type":"Polygon","coordinates":[[[-122.020061,44.045749],[-122.020061,44.04937],[-122.020061,44.05299],[-122.020061,44.05661],[-122.020061,44.06023],[-122.020061,44.06385],[-122.020061,44.067471],[-122.020061,44.071091],[-122.020061,44.074711],[-122.020061,44.078331],[-122.020061,44.081952],[-122.020061,44.085572],[-122.020061,44.089192],[-122.020061,44.092812],[-122.020061,44.096433],[-122.020061,44.100053],[-122.020061,44.103673],[-122.020061,44.107293],[-122.020061,44.110913],[-122.020061,44.114534],[-122.020246,44.12691],[-122.030341,44.126923],[-122.040166,44.126857],[-122.0404,44.126855],[-122.060271,44.126914],[-122.060547,44.126915],[-122.080376,44.127011],[-122.080685,44.127013],[-122.100475,44.127053],[-122.100824,44.127054],[-122.12058,44.127096],[-122.120948,44.127097],[-122.131005,44.127118],[-122.136032,44.127123],[-122.141103,44.127128],[-122.141103,44.127128],[-122.141103,44.127038],[-122.141083,44.114533],[-122.141083,44.110913],[-122.141083,44.107293],[-122.141083,44.103673],[-122.141083,44.100052],[-122.141083,44.096432],[-122.141083,44.092812],[-122.141083,44.089192],[-122.141083,44.085572],[-122.141083,44.081951],[-122.141083,44.078331],[-122.141083,44.074711],[-122.141083,44.071091],[-122.141083,44.06747],[-122.141083,44.06385],[-122.141083,44.06023],[-122.141083,44.05661],[-122.141083,44.05299],[-122.141083,44.049369],[-122.141083,44.045749],[-122.141083,44.042129],[-122.135494,44.042129],[-122.130475,44.042129],[-122.125457,44.042129],[-122.120438,44.042129],[-122.115419,44.042129],[-122.1104,44.042129],[-122.105381,44.042129],[-122.100362,44.042129],[-122.095343,44.042129],[-122.090325,44.042129],[-122.085306,44.042129],[-122.080287,44.042129],[-122.075268,44.042129],[-122.070249,44.042129],[-122.06523,44.042129],[-122.060211,44.042129],[-122.055193,44.042129],[-122.050174,44.042129],[-122.045155,44.042129],[-122.040136,44.042129],[-122.035117,44.042129],[-122.030099,44.042129],[-122.02508,44.042129],[-122.020061,44.042128],[-122.020061,44.045749]]]}},{"type":"Feature","properties":{"MAPTAXLOT":"1865000000100","MAPNUMBER":"18650000","TAXLOT":"100","ACCTNO":"1857422","MAPACRES":23940.23749406},"geometry":{"type":"Polygon","coordinates":[[[-122.135494,44.042129],[-122.141083,44.042129],[-122.141083,44.039192],[-122.141083,44.035572],[-122.141083,44.031951],[-122.141083,44.028331],[-122.141083,44.024711],[-122.141083,44.021091],[-122.141083,44.01747],[-122.141083,44.01385],[-122.141083,44.01023],[-122.141083,44.006609],[-122.141083,44.002989],[-122.141083,43.999369],[-122.141083,43.995749],[-122.141083,43.992128],[-122.141083,43.988508],[-122.141083,43.984888],[-122.141083,43.981267],[-122.141083,43.977647],[-122.141083,43.974027],[-122.141083,43.970406],[-122.141083,43.966786],[-122.141083,43.963978],[-122.141083,43.963896],[-122.141083,43.963166],[-122.141083,43.962294],[-122.141083,43.962226],[-122.141083,43.959545],[-122.141083,43.955925],[-122.141083,43.952305],[-122.140264,43.952305],[-122.13532,43.952305],[-122.135252,43.952305],[-122.130241,43.952305],[-122.12523,43.952305],[-122.120287,43.952305],[-122.120218,43.952305],[-122.115207,43.952305],[-122.110196,43.952305],[-122.105184,43.952305],[-122.100241,43.952305],[-122.100173,43.952305],[-122.095162,43.952305],[-122.09015,43.952305],[-122.085139,43.952305],[-122.080196,43.952305],[-122.080128,43.952305],[-122.075116,43.952305],[-122.070105,43.952305],[-122.065094,43.952305],[-122.060151,43.952305],[-122.060011,43.952305],[-122.055,43.952305],[-122.049988,43.952305],[-122.044977,43.952305],[-122.040105,43.952305],[-122.039966,43.952305],[-122.034954,43.952305],[-122.029943,43.952305],[-122.024932,43.952305],[-122.02006,43.952305],[-122.02006,43.955925],[-122.02006,43.959546],[-122.020061,43.963166],[-122.020061,43.966786],[-122.02006,43.970407],[-122.02006,43.974027],[-122.02006,43.977647],[-122.020061,43.981267],[-122.020061,43.984888],[-122.02006,43.988508],[-122.020061,43.992128],[-122.020061,43.995749],[-122.020061,43.999369],[-122.020061,44.002989],[-122.020061,44.00661],[-122.020061,44.01023],[-122.020061,44.01385],[-122.020061,44.01747],[-122.020061,44.021091],[-122.020061,44.024711],[-122.020061,44.028331],[-122.020061,44.031951],[-122.020061,44.035572],[-122.020061,44.039192],[-122.020061,44.042128],[-122.02508,44.042129],[-122.030099,44.042129],[-122.035117,44.042129],[-122.040136,44.042129],[-122.045155,44.042129],[-122.050174,44.042129],[-122.055193,44.042129],[-122.060211,44.042129],[-122.06523,44.042129],[-122.070249,44.042129],[-122.075268,44.042129],[-122.080287,44.042129],[-122.085306,44.042129],[-122.090325,44.042129],[-122.095343,44.042129],[-122.100362,44.042129],[-122.105381,44.042129],[-122.1104,44.042129],[-122.115419,44.042129],[-122.120438,44.042129],[-122.125457,44.042129],[-122.130475,44.042129],[-122.135494,44.042129]]]}}]}