{"type":"FeatureCollection","features":[{"type":"Feature","properties":{"MAPTAXLOT":"1715000000400","MAPNUMBER":"17150000","TAXLOT":"400","ACCTNO":"0545473","MAPACRES":153.80103052},"geometry":{"type":"Polygon","coordinates":[[[-122.625534,44.096234],[-122.625567,44.09984],[-122.630456,44.09973],[-122.635346,44.09962],[-122.635279,44.092528],[-122.62554,44.092627],[-122.625501,44.092628],[-122.625534,44.096234]]]}},{"type":"Feature","properties":{"MAPTAXLOT":"1715000000500","MAPNUMBER":"17150000","TAXLOT":"500","ACCTNO":"0545481","MAPACRES":379.76353386},"geometry":{"type":"Polygon","coordinates":[[[-122.649958,44.09935],[-122.654794,44.099304],[-122.654848,44.092268],[-122.659785,44.092188],[-122.659937,44.085013],[-122.654903,44.08503],[-122.645177,44.085455],[-122.645154,44.092425],[-122.645122,44.099397],[-122.649958,44.09935]]]}},{"type":"Feature","properties":{"MAPTAXLOT":"1715000000501","MAPNUMBER":"17150000","TAXLOT":"501","ACCTNO":"0545499","MAPACRES":456.3077619},"geometry":{"type":"Polygon","coordinates":[[[-122.625457,44.089085],[-122.625501,44.092628],[-122.62554,44.092627],[-122.635279,44.092528],[-122.635346,44.09962],[-122.640234,44.099509],[-122.645122,44.099397],[-122.645154,44.092425],[-122.645177,44.085455],[-122.63521,44.08551],[-122.625414,44.085542],[-122.625457,44.089085]]]}},{"type":"Feature","properties":{"MAPTAXLOT":"1715000000600","MAPNUMBER":"17150000","TAXLOT":"600","ACCTNO":"0545507","MAPACRES":230.25980613},"geometry":{"type":"Polygon","coordinates":[[[-122.659635,44.099261],[-122.664477,44.099219],[-122.664718,44.092108],[-122.664844,44.088552],[-122.66497,44.084997],[-122.659937,44.085013],[-122.659785,44.092188],[-122.654848,44.092268],[-122.654794,44.099304],[-122.659635,44.099261]]]}},{"type":"Feature","properties":{"MAPTAXLOT":"1715000000606","MAPNUMBER":"17150000","TAXLOT":"606","ACCTNO":"0545564","MAPACRES":463.3489182},"geometry":{"type":"Polygon","coordinates":[[[-122.659937,44.085013],[-122.66497,44.084997],[-122.66495,44.077886],[-122.66493,44.070775],[-122.655121,44.070945],[-122.645313,44.071114],[-122.645245,44.078285],[-122.655011,44.078087],[-122.654903,44.08503],[-122.659937,44.085013]]]}},{"type":"Feature","properties":{"MAPTAXLOT":"1715000000607","MAPNUMBER":"17150000","TAXLOT":"607","ACCTNO":"0545572","MAPACRES":624.44022003},"geometry":{"type":"Polygon","coordinates":[[[-122.625468,44.074792],[-122.62545,44.078375],[-122.625432,44.081958],[-122.625414,44.085542],[-122.63521,44.08551],[-122.645177,44.085455],[-122.645245,44.078285],[-122.645313,44.071114],[-122.635398,44.07116],[-122.625487,44.071209],[-122.625468,44.074792]]]}},{"type":"Feature","properties":{"MAPTAXLOT":"1715000000608","MAPNUMBER":"17150000","TAXLOT":"608","ACCTNO":"0545580","MAPACRES":467.97055939},"geometry":{"type":"Polygon","coordinates":[[[-122.635398,44.07116],[-122.645313,44.071114],[-122.64534,44.063946],[-122.645368,44.056777],[-122.635485,44.056834],[-122.625597,44.056888],[-122.625569,44.060468],[-122.625542,44.064049],[-122.635441,44.063997],[-122.635398,44.07116]]]}},{"type":"Feature","properties":{"MAPTAXLOT":"1715000000609","MAPNUMBER":"17150000","TAXLOT":"609","ACCTNO":"0545598","MAPACRES":621.04973088},"geometry":{"type":"Polygon","coordinates":[[[-122.655121,44.070945],[-122.66493,44.070775],[-122.665062,44.063627],[-122.665191,44.056477],[-122.645368,44.056777],[-122.64534,44.063946],[-122.645313,44.071114],[-122.655121,44.070945]]]}},{"type":"Feature","properties":{"MAPTAXLOT":"1715000000618","MAPNUMBER":"17150000","TAXLOT":"618","ACCTNO":"0545689","MAPACRES":629.36055229},"geometry":{"type":"Polygon","coordinates":[[[-122.645368,44.056777],[-122.665191,44.056477],[-122.665074,44.049292],[-122.665036,44.045687],[-122.665,44.042117],[-122.660002,44.042197],[-122.655005,44.042277],[-122.650007,44.042357],[-122.647508,44.042397],[-122.645009,44.042437],[-122.645068,44.045973],[-122.64513,44.049581],[-122.645368,44.056777]]]}},{"type":"Feature","properties":{"MAPTAXLOT":"1715000000624","MAPNUMBER":"17150000","TAXLOT":"624","ACCTNO":"1411139","MAPACRES":151.18040504},"geometry":{"type":"Polygon","coordinates":[[[-122.645245,44.078285],[-122.645177,44.085455],[-122.654903,44.08503],[-122.655011,44.078087],[-122.645245,44.078285]]]}},{"type":"Feature","properties":{"MAPTAXLOT":"1715000001200","MAPNUMBER":"17150000","TAXLOT":"1200","ACCTNO":"0545747","MAPACRES":156.03396894},"geometry":{"type":"Polygon","coordinates":[[[-122.625487,44.071209],[-122.635398,44.07116],[-122.635441,44.063997],[-122.625542,44.064049],[-122.625514,44.067629],[-122.625487,44.071209]]]}},{"type":"Feature","properties":{"MAPTAXLOT":"1715000001300","MAPNUMBER":"17150000","TAXLOT":"1300","ACCTNO":"0545754","MAPACRES":620.30338496},"geometry":{"type":"Polygon","coordinates":[[[-122.625597,44.056888],[-122.635485,44.056834],[-122.645368,44.056777],[-122.64513,44.049581],[-122.645068,44.045973],[-122.645009,44.042437],[-122.640009,44.04254],[-122.635009,44.042643],[-122.635008,44.042643],[-122.630008,44.042746],[-122.630008,44.042746],[-122.625007,44.042849],[-122.625155,44.046359],[-122.625155,44.046359],[-122.625302,44.049869],[-122.625302,44.049869],[-122.625302,44.049869],[-122.62545,44.053378],[-122.625597,44.056888]]]}},{"type":"Feature","properties":{"MAPTAXLOT":"1715110001500","MAPNUMBER":"17151100","TAXLOT":"1500","ACCTNO":"0548170","MAPACRES":43.58782992},"geometry":{"type":"Polygon","coordinates":[[[-122.659695,44.103341],[-122.664579,44.103292],[-122.664563,44.102642],[-122.664477,44.099219],[-122.659635,44.099261],[-122.659685,44.102691],[-122.659695,44.103341]]]}},{"type":"Feature","properties":{"MAPTAXLOT":"1715110002000","MAPNUMBER":"17151100","TAXLOT":"2000","ACCTNO":"0548188","MAPACRES":109.81818395},"geometry":{"type":"Polygon","coordinates":[[[-122.649906,44.10622],[-122.654842,44.106163],[-122.654818,44.102739],[-122.654794,44.099304],[-122.649958,44.09935],[-122.645122,44.099397],[-122.645223,44.102835],[-122.649932,44.102788],[-122.649906,44.10622]]]}},{"type":"Feature","properties":{"MAPTAXLOT":"1715110002001","MAPNUMBER":"17151100","TAXLOT":"2001","ACCTNO":"1411642","MAPACRES":73.36571556},"geometry":{"type":"Polygon","coordinates":[[[-122.654842,44.106163],[-122.659735,44.106114],[-122.659719,44.105013],[-122.659708,44.104246],[-122.659695,44.103341],[-122.659685,44.102691],[-122.659635,44.099261],[-122.654794,44.099304],[-122.654818,44.102739],[-122.654842,44.106163]]]}},{"type":"Feature","properties":{"MAPTAXLOT":"1715120001200","MAPNUMBER":"17151200","TAXLOT":"1200","ACCTNO":"0548337","MAPACRES":190.87446186},"geometry":{"type":"Polygon","coordinates":[[[-122.635263,44.103153],[-122.635181,44.106686],[-122.640253,44.10648],[-122.645324,44.106273],[-122.645223,44.102835],[-122.645122,44.099397],[-122.640234,44.099509],[-122.635346,44.09962],[-122.630456,44.09973],[-122.630368,44.103309],[-122.635263,44.103153]]]}},{"type":"Feature","properties":{"MAPTAXLOT":"1715120001300","MAPNUMBER":"17151200","TAXLOT":"1300","ACCTNO":"0548345","MAPACRES":228.76957102},"geometry":{"type":"Polygon","coordinates":[[[-122.62538,44.107087],[-122.625292,44.110579],[-122.630197,44.110364],[-122.635103,44.110149],[-122.640094,44.109931],[-122.640253,44.10648],[-122.635181,44.106686],[-122.635263,44.103153],[-122.630368,44.103309],[-122.630456,44.09973],[-122.625567,44.09984],[-122.625473,44.103464],[-122.62538,44.107087]]]}},{"type":"Feature","properties":{"MAPTAXLOT":"1725000001200","MAPNUMBER":"17250000","TAXLOT":"1200","ACCTNO":"0551216","MAPACRES":192.90454236},"geometry":{"type":"Polygon","coordinates":[[[-122.61531,44.110252],[-122.625292,44.110579],[-122.62538,44.107087],[-122.625473,44.103464],[-122.625567,44.09984],[-122.620777,44.099774],[-122.620622,44.103296],[-122.615679,44.103124],[-122.615493,44.106721],[-122.61531,44.110252]]]}},{"type":"Feature","properties":{"MAPTAXLOT":"1725000001400","MAPNUMBER":"17250000","TAXLOT":"1400","ACCTNO":"0551232","MAPACRES":187.42968759},"geometry":{"type":"Polygon","coordinates":[[[-122.605772,44.10636],[-122.615493,44.106721],[-122.615679,44.103124],[-122.620622,44.103296],[-122.620777,44.099774],[-122.615861,44.099703],[-122.606388,44.099222],[-122.605772,44.10636]]]}},{"type":"Feature","properties":{"MAPTAXLOT":"1725000001600","MAPNUMBER":"17250000","TAXLOT":"1600","ACCTNO":"0551257","MAPACRES":530.11255148},"geometry":{"type":"Polygon","coordinates":[[[-122.585546,44.113453],[-122.595216,44.113532],[-122.59549,44.110033],[-122.605462,44.109929],[-122.605772,44.10636],[-122.606388,44.099222],[-122.596311,44.099592],[-122.586228,44.099959],[-122.585889,44.10671],[-122.585718,44.110083],[-122.585546,44.113453]]]}},{"type":"Feature","properties":{"MAPTAXLOT":"1725000003000","MAPNUMBER":"17250000","TAXLOT":"3000","ACCTNO":"0551398","MAPACRES":621.17194907},"geometry":{"type":"Polygon","coordinates":[[[-122.585753,44.085679],[-122.586228,44.099959],[-122.596311,44.099592],[-122.606388,44.099222],[-122.60557,44.085275],[-122.595657,44.085477],[-122.590705,44.085578],[-122.585753,44.085679]]]}},{"type":"Feature","properties":{"MAPTAXLOT":"1725000003100","MAPNUMBER":"17250000","TAXLOT":"3100","ACCTNO":"0551406","MAPACRES":609.09516183},"geometry":{"type":"Polygon","coordinates":[[[-122.606388,44.099222],[-122.615861,44.099703],[-122.620777,44.099774],[-122.625567,44.09984],[-122.625534,44.096234],[-122.625501,44.092628],[-122.625457,44.089085],[-122.625414,44.085542],[-122.620509,44.08548],[-122.615508,44.08542],[-122.60557,44.085275],[-122.606388,44.099222]]]}},{"type":"Feature","properties":{"MAPTAXLOT":"1725000003200","MAPNUMBER":"17250000","TAXLOT":"3200","ACCTNO":"0551414","MAPACRES":624.01808245},"geometry":{"type":"Polygon","coordinates":[[[-122.60557,44.085275],[-122.615508,44.08542],[-122.620509,44.08548],[-122.625414,44.085542],[-122.625432,44.081958],[-122.62545,44.078375],[-122.625468,44.074792],[-122.625487,44.071209],[-122.620314,44.071213],[-122.615315,44.071218],[-122.60536,44.071221],[-122.60557,44.085275]]]}},{"type":"Feature","properties":{"MAPTAXLOT":"1725000003300","MAPNUMBER":"17250000","TAXLOT":"3300","ACCTNO":"0551422","MAPACRES":501.80423942},"geometry":{"type":"Polygon","coordinates":[[[-122.590539,44.078475],[-122.590705,44.085578],[-122.595657,44.085477],[-122.60557,44.085275],[-122.60536,44.071221],[-122.595497,44.071307],[-122.585633,44.071392],[-122.585566,44.074973],[-122.590552,44.074912],[-122.590539,44.078475]]]}},{"type":"Feature","properties":{"MAPTAXLOT":"1725000003400","MAPNUMBER":"17250000","TAXLOT":"3400","ACCTNO":"0551430","MAPACRES":117.58505519},"geometry":{"type":"Polygon","coordinates":[[[-122.585499,44.078554],[-122.585753,44.085679],[-122.590705,44.085578],[-122.590539,44.078475],[-122.590552,44.074912],[-122.585566,44.074973],[-122.585499,44.078554]]]}},{"type":"Feature","properties":{"MAPTAXLOT":"1725000004300","MAPNUMBER":"17250000","TAXLOT":"4300","ACCTNO":"0551521","MAPACRES":612.26533855},"geometry":{"type":"Polygon","coordinates":[[[-122.595497,44.071307],[-122.60536,44.071221],[-122.605477,44.06418],[-122.605477,44.064179],[-122.605594,44.057137],[-122.585808,44.057297],[-122.585633,44.071392],[-122.595497,44.071307]]]}},{"type":"Feature","properties":{"MAPTAXLOT":"1725000004400","MAPNUMBER":"17250000","TAXLOT":"4400","ACCTNO":"0551539","MAPACRES":471.30296298},"geometry":{"type":"Polygon","coordinates":[[[-122.620314,44.071213],[-122.625487,44.071209],[-122.625514,44.067629],[-122.625542,44.064049],[-122.625569,44.060468],[-122.625597,44.056888],[-122.62055,44.056941],[-122.615596,44.05699],[-122.615509,44.064115],[-122.605477,44.06418],[-122.60536,44.071221],[-122.615315,44.071218],[-122.620314,44.071213]]]}},{"type":"Feature","properties":{"MAPTAXLOT":"1725000004500","MAPNUMBER":"17250000","TAXLOT":"4500","ACCTNO":"0551547","MAPACRES":156.07566902},"geometry":{"type":"Polygon","coordinates":[[[-122.605477,44.06418],[-122.615509,44.064115],[-122.615596,44.05699],[-122.605594,44.057137],[-122.605477,44.064179],[-122.605477,44.06418]]]}},{"type":"Feature","properties":{"MAPTAXLOT":"1725000004600","MAPNUMBER":"17250000","TAXLOT":"4600","ACCTNO":"0551554","MAPACRES":604.9506687},"geometry":{"type":"Polygon","coordinates":[[[-122.615596,44.05699],[-122.62055,44.056941],[-122.625597,44.056888],[-122.62545,44.053378],[-122.625302,44.049869],[-122.625302,44.049869],[-122.625302,44.049869],[-122.625155,44.046359],[-122.625155,44.046359],[-122.625007,44.042849],[-122.620673,44.042919],[-122.615765,44.043004],[-122.615253,44.043013],[-122.615252,44.043013],[-122.615247,44.043013],[-122.611108,44.043043],[-122.611107,44.043043],[-122.611106,44.043043],[-122.610519,44.043047],[-122.610517,44.043048],[-122.610515,44.043048],[-122.606451,44.043078],[-122.606451,44.043078],[-122.606451,44.043078],[-122.606451,44.043078],[-122.605783,44.043082],[-122.605594,44.057137],[-122.615596,44.05699]]]}},{"type":"Feature","properties":{"MAPTAXLOT":"1725000004700","MAPNUMBER":"17250000","TAXLOT":"4700","ACCTNO":"0551562","MAPACRES":608.08746269},"geometry":{"type":"Polygon","coordinates":[[[-122.585808,44.057297],[-122.605594,44.057137],[-122.605783,44.043082],[-122.601553,44.043133],[-122.601553,44.043133],[-122.601553,44.043133],[-122.600908,44.04314],[-122.596655,44.043191],[-122.596655,44.043191],[-122.596655,44.043191],[-122.596655,44.043191],[-122.596033,44.043199],[-122.591757,44.043221],[-122.591756,44.043221],[-122.591756,44.043221],[-122.591756,44.043221],[-122.591107,44.043225],[-122.586858,44.043248],[-122.586858,44.043248],[-122.586858,44.043248],[-122.58618,44.043251],[-122.585808,44.057297]]]}},{"type":"Feature","properties":{"MAPTAXLOT":"1815000000100","MAPNUMBER":"18150000","TAXLOT":"100","ACCTNO":"0808046","MAPACRES":363.05932946},"geometry":{"type":"Polygon","coordinates":[[[-122.624932,44.031635],[-122.624958,44.035247],[-122.624983,44.038859],[-122.625007,44.042849],[-122.630008,44.042746],[-122.629991,44.038896],[-122.629975,44.035285],[-122.629959,44.031674],[-122.629951,44.029869],[-122.634984,44.029909],[-122.63498,44.028106],[-122.640017,44.028148],[-122.640016,44.029949],[-122.645073,44.029989],[-122.64507,44.028189],[-122.645065,44.02459],[-122.640019,44.024545],[-122.634973,44.024501],[-122.629927,44.024456],[-122.624881,44.024411],[-122.624894,44.026217],[-122.624907,44.028023],[-122.624932,44.031635]]]}},{"type":"Feature","properties":{"MAPTAXLOT":"1815000000101","MAPNUMBER":"18150000","TAXLOT":"101","ACCTNO":"1140449","MAPACRES":361.33087855},"geometry":{"type":"Polygon","coordinates":[[[-122.630008,44.042746],[-122.630008,44.042746],[-122.635008,44.042643],[-122.635009,44.042643],[-122.640009,44.04254],[-122.640011,44.03897],[-122.640013,44.03536],[-122.645054,44.035398],[-122.645076,44.031788],[-122.645073,44.029989],[-122.640016,44.029949],[-122.640017,44.028148],[-122.63498,44.028106],[-122.634984,44.029909],[-122.629951,44.029869],[-122.629959,44.031674],[-122.629975,44.035285],[-122.629991,44.038896],[-122.630008,44.042746]]]}},{"type":"Feature","properties":{"MAPTAXLOT":"1815000000102","MAPNUMBER":"18150000","TAXLOT":"102","ACCTNO":"1140456","MAPACRES":78.55303702},"geometry":{"type":"Polygon","coordinates":[[[-122.640011,44.03897],[-122.640009,44.04254],[-122.645009,44.042437],[-122.645032,44.039007],[-122.645054,44.035398],[-122.640013,44.03536],[-122.640011,44.03897]]]}},{"type":"Feature","properties":{"MAPTAXLOT":"1815000000200","MAPNUMBER":"18150000","TAXLOT":"200","ACCTNO":"0808061","MAPACRES":640.0616419},"geometry":{"type":"Polygon","coordinates":[[[-122.660002,44.042197],[-122.665,44.042117],[-122.665023,44.039138],[-122.665052,44.035529],[-122.665067,44.033724],[-122.660061,44.033692],[-122.660073,44.031887],[-122.660085,44.030088],[-122.665096,44.03012],[-122.665111,44.028321],[-122.665141,44.024722],[-122.660122,44.024689],[-122.655103,44.024656],[-122.650084,44.024623],[-122.645065,44.02459],[-122.64507,44.028189],[-122.645073,44.029989],[-122.645076,44.031788],[-122.647564,44.031805],[-122.647545,44.035414],[-122.650037,44.035431],[-122.650021,44.03904],[-122.650007,44.042357],[-122.655005,44.042277],[-122.660002,44.042197]]]}},{"type":"Feature","properties":{"MAPTAXLOT":"1815000000201","MAPNUMBER":"18150000","TAXLOT":"201","ACCTNO":"1140480","MAPACRES":38.19036818},"geometry":{"type":"Polygon","coordinates":[[[-122.647508,44.042397],[-122.650007,44.042357],[-122.650021,44.03904],[-122.650037,44.035431],[-122.647545,44.035414],[-122.647526,44.039024],[-122.647508,44.042397]]]}},{"type":"Feature","properties":{"MAPTAXLOT":"1815000000202","MAPNUMBER":"18150000","TAXLOT":"202","ACCTNO":"1140498","MAPACRES":19.78225387},"geometry":{"type":"Polygon","coordinates":[[[-122.645054,44.035398],[-122.647545,44.035414],[-122.647564,44.031805],[-122.645076,44.031788],[-122.645054,44.035398]]]}},{"type":"Feature","properties":{"MAPTAXLOT":"1815000000204","MAPNUMBER":"18150000","TAXLOT":"204","ACCTNO":"1140514","MAPACRES":38.49139455},"geometry":{"type":"Polygon","coordinates":[[[-122.645009,44.042437],[-122.647508,44.042397],[-122.647526,44.039024],[-122.647545,44.035414],[-122.645054,44.035398],[-122.645032,44.039007],[-122.645009,44.042437]]]}},{"type":"Feature","properties":{"MAPTAXLOT":"1825000000500","MAPNUMBER":"18250000","TAXLOT":"500","ACCTNO":"0809549","MAPACRES":795.10702139},"geometry":{"type":"Polygon","coordinates":[[[-122.601553,44.043133],[-122.605783,44.043082],[-122.605778,44.039176],[-122.605774,44.035554],[-122.60577,44.031932],[-122.605763,44.024687],[-122.586167,44.024813],[-122.586173,44.032051],[-122.586175,44.035673],[-122.586178,44.039294],[-122.58618,44.043251],[-122.586858,44.043248],[-122.586858,44.043248],[-122.586858,44.043248],[-122.591107,44.043225],[-122.591756,44.043221],[-122.591756,44.043221],[-122.591756,44.043221],[-122.591757,44.043221],[-122.596033,44.043199],[-122.596655,44.043191],[-122.596655,44.043191],[-122.596655,44.043191],[-122.596655,44.043191],[-122.600908,44.04314],[-122.601553,44.043133],[-122.601553,44.043133],[-122.601553,44.043133]]]}},{"type":"Feature","properties":{"MAPTAXLOT":"1825000000600","MAPNUMBER":"18250000","TAXLOT":"600","ACCTNO":"0809556","MAPACRES":601.34352493},"geometry":{"type":"Polygon","coordinates":[[[-122.615765,44.043004],[-122.620673,44.042919],[-122.620519,44.026277],[-122.620503,44.024472],[-122.615697,44.024538],[-122.605763,44.024687],[-122.60577,44.031932],[-122.605774,44.035554],[-122.605778,44.039176],[-122.605783,44.043082],[-122.606451,44.043078],[-122.606451,44.043078],[-122.606451,44.043078],[-122.606451,44.043078],[-122.610515,44.043048],[-122.610517,44.043048],[-122.610519,44.043047],[-122.611106,44.043043],[-122.611107,44.043043],[-122.611108,44.043043],[-122.615247,44.043013],[-122.615252,44.043013],[-122.615253,44.043013],[-122.615765,44.043004]]]}},{"type":"Feature","properties":{"MAPTAXLOT":"1825000000700","MAPNUMBER":"18250000","TAXLOT":"700","ACCTNO":"0809564","MAPACRES":159.51421959},"geometry":{"type":"Polygon","coordinates":[[[-122.620673,44.042919],[-122.625007,44.042849],[-122.624983,44.038859],[-122.624958,44.035247],[-122.624932,44.031635],[-122.624907,44.028023],[-122.624894,44.026217],[-122.620519,44.026277],[-122.620673,44.042919]]]}}]}