{"type":"FeatureCollection","features":[{"type":"Feature","properties":{"MAPTAXLOT":"1785000000100","MAPNUMBER":"17850000","TAXLOT":"100","ACCTNO":"1857414","MAPACRES":9326.53456193},"geometry":{"type":"Polygon","coordinates":[[[-121.822488,44.138993],[-121.827995,44.138993],[-121.827995,44.135272],[-121.827995,44.131652],[-121.827995,44.128032],[-121.827995,44.124412],[-121.827995,44.120791],[-121.827995,44.117171],[-121.827994,44.113551],[-121.827994,44.109931],[-121.827994,44.106311],[-121.827994,44.10269],[-121.827994,44.09907],[-121.827994,44.09545],[-121.827992,44.080967],[-121.827991,44.066484],[-121.827641,44.052439],[-121.823035,44.052407],[-121.818014,44.052369],[-121.814825,44.052344],[-121.814736,44.052423],[-121.813848,44.052834],[-121.813214,44.052994],[-121.812389,44.053016],[-121.809631,44.052626],[-121.806562,44.052281],[-121.802953,44.052253],[-121.80283,44.052252],[-121.802432,44.052462],[-121.801988,44.052919],[-121.80205,44.053765],[-121.801763,44.055617],[-121.801413,44.056418],[-121.800715,44.056806],[-121.80046,44.057126],[-121.800079,44.058018],[-121.799983,44.058864],[-121.799601,44.059847],[-121.799188,44.060327],[-121.79849,44.060624],[-121.797316,44.060989],[-121.796427,44.061538],[-121.795569,44.062863],[-121.794456,44.065584],[-121.793882,44.067505],[-121.793564,44.068214],[-121.79277,44.069174],[-121.790293,44.071596],[-121.789435,44.072739],[-121.789369,44.074409],[-121.789051,44.074797],[-121.787622,44.076031],[-121.786987,44.07642],[-121.78559,44.076762],[-121.784701,44.077241],[-121.783589,44.078292],[-121.780796,44.079479],[-121.77997,44.079959],[-121.779334,44.080782],[-121.779396,44.082017],[-121.779173,44.082772],[-121.777775,44.084005],[-121.777234,44.084966],[-121.777074,44.085469],[-121.777232,44.086361],[-121.777135,44.087504],[-121.776943,44.088007],[-121.776403,44.088441],[-121.773863,44.089308],[-121.773165,44.089788],[-121.772528,44.090816],[-121.772015,44.093995],[-121.772299,44.094956],[-121.772073,44.09754],[-121.771817,44.098729],[-121.771371,44.099506],[-121.770768,44.100009],[-121.769084,44.100991],[-121.768829,44.101334],[-121.768953,44.103118],[-121.769365,44.103598],[-121.769491,44.104262],[-121.769203,44.105657],[-121.769202,44.106],[-121.769519,44.106617],[-121.77012,44.107373],[-121.770436,44.108494],[-121.770308,44.109226],[-121.770021,44.109934],[-121.768907,44.111603],[-121.768205,44.113821],[-121.768267,44.114713],[-121.769246,44.117618],[-121.769591,44.119745],[-121.769876,44.120478],[-121.771143,44.122286],[-121.771332,44.12288],[-121.771332,44.123269],[-121.77079,44.124618],[-121.770788,44.125396],[-121.771708,44.126289],[-121.771961,44.126883],[-121.771991,44.127387],[-121.771895,44.128141],[-121.771288,44.130153],[-121.771097,44.130565],[-121.772301,44.131892],[-121.772935,44.132945],[-121.772551,44.134317],[-121.772518,44.135072],[-121.772835,44.135507],[-121.773373,44.136651],[-121.772831,44.138388],[-121.772681,44.138993],[-121.777244,44.138993],[-121.782271,44.138993],[-121.787298,44.138993],[-121.792325,44.138993],[-121.797353,44.138993],[-121.80238,44.138993],[-121.807407,44.138993],[-121.812434,44.138993],[-121.817461,44.138993],[-121.822488,44.138993]]]}},{"type":"Feature","properties":{"MAPTAXLOT":"1885000000100","MAPNUMBER":"18850000","TAXLOT":"100","ACCTNO":"1857455","MAPACRES":351.8428899},"geometry":{"type":"MultiPolygon","coordinates":[[[[-121.828305,43.99651],[-121.827671,43.997059],[-121.827069,43.997768],[-121.826878,43.998431],[-121.826909,43.999117],[-121.826033,43.999819],[-121.826094,44.001699],[-121.825777,44.002637],[-121.825237,44.003597],[-121.824698,44.004123],[-121.824539,44.004901],[-121.824886,44.006662],[-121.824727,44.007714],[-121.824315,44.008331],[-121.823363,44.009131],[-121.822761,44.00984],[-121.822094,44.011281],[-121.822157,44.012539],[-121.822948,44.013683],[-121.823011,44.014003],[-121.822598,44.015695],[-121.82282,44.015947],[-121.823611,44.016473],[-121.824688,44.017389],[-121.825607,44.018647],[-121.825701,44.019974],[-121.825225,44.020431],[-121.824876,44.021163],[-121.824939,44.021734],[-121.825192,44.022329],[-121.825825,44.023084],[-121.827916,44.025144],[-121.828168,44.02647],[-121.827755,44.028346],[-121.828222,44.029569],[-121.82824,44.027202],[-121.828267,44.023598],[-121.828321,44.020018],[-121.828375,44.016438],[-121.828429,44.012858],[-121.828483,44.009279],[-121.828537,44.0057],[-121.828591,44.002122],[-121.828644,43.998543],[-121.828682,43.996021],[-121.828305,43.99651]]],[[[-121.815435,44.051806],[-121.814825,44.052344],[-121.818014,44.052369],[-121.823035,44.052407],[-121.827641,44.052439],[-121.82777,44.048833],[-121.827899,44.045227],[-121.827979,44.042997],[-121.827967,44.043006],[-121.82562,44.04424],[-121.823875,44.045635],[-121.821272,44.048332],[-121.820828,44.049155],[-121.820541,44.050528],[-121.820256,44.050985],[-121.819082,44.051419],[-121.818162,44.051464],[-121.816482,44.051052],[-121.815943,44.051143],[-121.815435,44.051806]]],[[[-121.802908,44.05221],[-121.80283,44.052252],[-121.802953,44.052253],[-121.806562,44.052281],[-121.805952,44.052212],[-121.803796,44.052051],[-121.802908,44.05221]]],[[[-121.82847,43.989123],[-121.82874,43.989174],[-121.828742,43.988879],[-121.82847,43.989123]]]]}}]}