{"type":"FeatureCollection","features":[{"type":"Feature","properties":{"MAPTAXLOT":"2445000000077","MAPNUMBER":"24450000","TAXLOT":"77","ACCTNO":"000None","MAPACRES":43.76990493},"geometry":{"type":"MultiPolygon","coordinates":[[[[-122.292859,43.511076],[-122.293243,43.5111],[-122.293659,43.511094],[-122.294097,43.511067],[-122.294479,43.511042],[-122.294944,43.511025],[-122.295439,43.510969],[-122.295921,43.510883],[-122.296133,43.510821],[-122.296468,43.51075],[-122.296697,43.510717],[-122.296955,43.510633],[-122.297244,43.510532],[-122.297668,43.510379],[-122.298049,43.510189],[-122.29835,43.510059],[-122.298726,43.509861],[-122.298916,43.509793],[-122.299161,43.509709],[-122.299345,43.509589],[-122.299598,43.509483],[-122.29993,43.509361],[-122.300126,43.509251],[-122.300366,43.509154],[-122.300563,43.509093],[-122.300713,43.509031],[-122.30092,43.508932],[-122.301164,43.508843],[-122.301384,43.508765],[-122.301515,43.508708],[-122.301723,43.508579],[-122.301959,43.508475],[-122.3024,43.508363],[-122.302872,43.508221],[-122.303365,43.508109],[-122.303792,43.508036],[-122.304195,43.508011],[-122.304724,43.507983],[-122.305308,43.507935],[-122.30575,43.507889],[-122.306232,43.507784],[-122.306591,43.50768],[-122.306922,43.507568],[-122.307191,43.507464],[-122.307442,43.507314],[-122.307772,43.50715],[-122.308074,43.506974],[-122.308471,43.506759],[-122.308804,43.506583],[-122.309108,43.506476],[-122.309477,43.506385],[-122.309724,43.506341],[-122.309939,43.506277],[-122.310232,43.506327],[-122.310471,43.506316],[-122.310527,43.506313],[-122.310772,43.506337],[-122.31111,43.50637],[-122.31139,43.506433],[-122.311925,43.506483],[-122.312444,43.506552],[-122.312875,43.506584],[-122.313308,43.506587],[-122.31373,43.506542],[-122.31422,43.506544],[-122.314706,43.506487],[-122.315262,43.506362],[-122.315699,43.506277],[-122.316082,43.506164],[-122.316544,43.506051],[-122.316887,43.505929],[-122.317292,43.505807],[-122.317742,43.505664],[-122.318096,43.505513],[-122.318437,43.505392],[-122.318817,43.505232],[-122.319185,43.505081],[-122.319517,43.504928],[-122.319743,43.504787],[-122.319879,43.504695],[-122.320008,43.504596],[-122.320217,43.504427],[-122.320418,43.504232],[-122.32056,43.503963],[-122.320689,43.503724],[-122.320734,43.503427],[-122.320783,43.503094],[-122.320848,43.502763],[-122.320961,43.502499],[-122.321176,43.502219],[-122.321376,43.502],[-122.321665,43.50177],[-122.322006,43.501578],[-122.32242,43.501419],[-122.32281,43.50126],[-122.323212,43.501129],[-122.323697,43.500977],[-122.324132,43.500845],[-122.324472,43.500724],[-122.324851,43.500602],[-122.325232,43.500471],[-122.325693,43.500318],[-122.326058,43.500168],[-122.326397,43.500057],[-122.326692,43.499954],[-122.326935,43.49982],[-122.327154,43.499675],[-122.327301,43.499491],[-122.327433,43.499308],[-122.327497,43.499114],[-122.327531,43.498896],[-122.327537,43.498653],[-122.327543,43.498395],[-122.327575,43.49817],[-122.327645,43.497973],[-122.327753,43.49776],[-122.327931,43.497587],[-122.328133,43.497488],[-122.328431,43.497419],[-122.328776,43.497395],[-122.329273,43.497387],[-122.32981,43.497417],[-122.330363,43.497475],[-122.33097,43.497551],[-122.331389,43.49763],[-122.331905,43.497775],[-122.332358,43.497902],[-122.332812,43.498039],[-122.333294,43.498167],[-122.333819,43.498304],[-122.334265,43.498376],[-122.334724,43.498427],[-122.335224,43.498429],[-122.335746,43.498382],[-122.336212,43.498316],[-122.336665,43.49823],[-122.337081,43.498116],[-122.337415,43.497982],[-122.337787,43.4978],[-122.338166,43.497561],[-122.338544,43.497333],[-122.339063,43.496987],[-122.339502,43.496702],[-122.33986,43.496497],[-122.340351,43.496289],[-122.340912,43.496069],[-122.341355,43.495899],[-122.341862,43.495728],[-122.342363,43.495575],[-122.342849,43.495383],[-122.343365,43.495192],[-122.343829,43.495001],[-122.344338,43.49482],[-122.344991,43.494579],[-122.345314,43.494479],[-122.345729,43.494368],[-122.346106,43.494295],[-122.346486,43.494232],[-122.346998,43.494147],[-122.347452,43.49409],[-122.347803,43.493986],[-122.348212,43.493833],[-122.34859,43.493688],[-122.348937,43.493503],[-122.349351,43.493227],[-122.349689,43.492941],[-122.350138,43.492584],[-122.350415,43.492362],[-122.350468,43.49232],[-122.350881,43.492062],[-122.351235,43.491898],[-122.351511,43.491829],[-122.351887,43.491774],[-122.352228,43.491746],[-122.352641,43.49175],[-122.353032,43.491839],[-122.353493,43.491903],[-122.354194,43.492018],[-122.354855,43.492084],[-122.355398,43.49219],[-122.356176,43.492319],[-122.356268,43.492333],[-122.356772,43.492409],[-122.357215,43.492461],[-122.357917,43.492498],[-122.358632,43.492582],[-122.359165,43.492632],[-122.359784,43.492666],[-122.360359,43.492709],[-122.360887,43.492738],[-122.361581,43.492824],[-122.362107,43.492816],[-122.362787,43.492766],[-122.363364,43.492678],[-122.363974,43.492492],[-122.364502,43.492319],[-122.364724,43.492231],[-122.364966,43.492135],[-122.365359,43.491926],[-122.365955,43.491648],[-122.36661,43.491367],[-122.367185,43.491068],[-122.367795,43.49077],[-122.368299,43.490552],[-122.368893,43.490352],[-122.369508,43.490208],[-122.369936,43.490087],[-122.370408,43.490023],[-122.370628,43.490031],[-122.370744,43.490035],[-122.371288,43.490056],[-122.371796,43.490099],[-122.372433,43.490096],[-122.373041,43.490138],[-122.373695,43.490127],[-122.374289,43.490081],[-122.375079,43.490072],[-122.375915,43.489995],[-122.376809,43.489959],[-122.377676,43.489943],[-122.37868,43.489955],[-122.379225,43.489966],[-122.379621,43.489982],[-122.380025,43.490016],[-122.380423,43.49007],[-122.380731,43.49008],[-122.380973,43.490116],[-122.381221,43.490174],[-122.381579,43.49025],[-122.381861,43.490333],[-122.382147,43.490409],[-122.382538,43.490539],[-122.382799,43.490634],[-122.383014,43.490715],[-122.383246,43.490779],[-122.383509,43.490874],[-122.383846,43.491004],[-122.384176,43.491129],[-122.384446,43.491228],[-122.384713,43.491337],[-122.384987,43.491443],[-122.385168,43.491507],[-122.385381,43.491584],[-122.385598,43.491645],[-122.385722,43.49167],[-122.385934,43.491701],[-122.386124,43.491727],[-122.386314,43.491743],[-122.386491,43.491757],[-122.386694,43.491759],[-122.386897,43.491781],[-122.387109,43.491809],[-122.38733,43.491837],[-122.387528,43.491847],[-122.387684,43.491848],[-122.387879,43.491841],[-122.388055,43.491811],[-122.3882,43.491769],[-122.38839,43.491701],[-122.388589,43.491614],[-122.388812,43.491522],[-122.389035,43.49142],[-122.389212,43.491344],[-122.389319,43.491289],[-122.389399,43.491241],[-122.389525,43.491198],[-122.389646,43.491135],[-122.389741,43.491071],[-122.389856,43.491037],[-122.389958,43.490998],[-122.390082,43.490965],[-122.390174,43.490931],[-122.390295,43.490919],[-122.390295,43.490812],[-122.390295,43.490808],[-122.390284,43.490809],[-122.390128,43.490825],[-122.390022,43.490864],[-122.389897,43.490898],[-122.389793,43.490938],[-122.389659,43.490977],[-122.38955,43.49105],[-122.389449,43.491103],[-122.389318,43.491147],[-122.389228,43.491202],[-122.38913,43.491252],[-122.388956,43.491327],[-122.388735,43.491428],[-122.388513,43.49152],[-122.388318,43.491604],[-122.388139,43.491668],[-122.38801,43.491706],[-122.387858,43.491732],[-122.387681,43.491738],[-122.387533,43.491737],[-122.387349,43.491728],[-122.387135,43.491701],[-122.386921,43.491672],[-122.386706,43.49165],[-122.386501,43.491647],[-122.38633,43.491634],[-122.386147,43.491619],[-122.385963,43.491594],[-122.385757,43.491563],[-122.385645,43.491541],[-122.385442,43.491483],[-122.385234,43.491409],[-122.385056,43.491346],[-122.384786,43.49124],[-122.384517,43.491131],[-122.384244,43.491031],[-122.383916,43.490907],[-122.383578,43.490777],[-122.383306,43.490679],[-122.383076,43.490615],[-122.382868,43.490536],[-122.382603,43.49044],[-122.382205,43.490307],[-122.381915,43.49023],[-122.381628,43.490146],[-122.381265,43.490069],[-122.381012,43.490009],[-122.380749,43.489971],[-122.380441,43.48996],[-122.380047,43.489907],[-122.379634,43.489872],[-122.379231,43.489857],[-122.378683,43.489846],[-122.377676,43.489833],[-122.376803,43.489849],[-122.375901,43.489886],[-122.375069,43.489962],[-122.37428,43.489971],[-122.373685,43.490017],[-122.373047,43.490028],[-122.37244,43.489986],[-122.371805,43.489989],[-122.3713,43.489946],[-122.370752,43.489926],[-122.370629,43.489921],[-122.370398,43.489913],[-122.369895,43.489981],[-122.369458,43.490105],[-122.368838,43.49025],[-122.368228,43.490455],[-122.367714,43.490677],[-122.367099,43.490977],[-122.366528,43.491275],[-122.365877,43.491554],[-122.365273,43.491835],[-122.364885,43.492043],[-122.364435,43.492221],[-122.36439,43.492235],[-122.363914,43.492392],[-122.363319,43.492572],[-122.362764,43.492657],[-122.362097,43.492706],[-122.361592,43.492714],[-122.360905,43.492629],[-122.360373,43.492599],[-122.359797,43.492557],[-122.359181,43.492522],[-122.358653,43.492473],[-122.357934,43.492388],[-122.357232,43.492352],[-122.357033,43.492329],[-122.356799,43.492302],[-122.356208,43.492211],[-122.355434,43.492084],[-122.354885,43.491976],[-122.35422,43.49191],[-122.353523,43.491796],[-122.353069,43.491732],[-122.352665,43.491641],[-122.352221,43.491636],[-122.351864,43.491665],[-122.351471,43.491723],[-122.351169,43.491798],[-122.35079,43.491974],[-122.350363,43.492241],[-122.35021,43.492363],[-122.350026,43.492509],[-122.349576,43.492868],[-122.349243,43.493151],[-122.348841,43.493418],[-122.34851,43.493594],[-122.348143,43.493736],[-122.34774,43.493886],[-122.34741,43.493984],[-122.346968,43.494039],[-122.346453,43.494125],[-122.34607,43.494189],[-122.345684,43.494263],[-122.345259,43.494377],[-122.344927,43.49448],[-122.344271,43.494722],[-122.343759,43.494904],[-122.343294,43.495095],[-122.342779,43.495286],[-122.342297,43.495476],[-122.341802,43.495628],[-122.341288,43.4958],[-122.340841,43.495972],[-122.340278,43.496193],[-122.339776,43.496406],[-122.339406,43.496617],[-122.338962,43.496905],[-122.338444,43.49725],[-122.338069,43.497477],[-122.337695,43.497712],[-122.337336,43.497888],[-122.337017,43.498016],[-122.336619,43.498126],[-122.336178,43.498209],[-122.335722,43.498273],[-122.335215,43.498319],[-122.334736,43.498317],[-122.334292,43.498268],[-122.333861,43.498199],[-122.333345,43.498064],[-122.332867,43.497937],[-122.332414,43.4978],[-122.331959,43.497672],[-122.331435,43.497525],[-122.331002,43.497444],[-122.330387,43.497367],[-122.329826,43.497308],[-122.329277,43.497277],[-122.328768,43.497286],[-122.328401,43.497311],[-122.328067,43.497388],[-122.327826,43.497507],[-122.327619,43.497707],[-122.327501,43.49794],[-122.327426,43.49815],[-122.327392,43.498388],[-122.327387,43.498651],[-122.327381,43.498889],[-122.327348,43.499095],[-122.327291,43.499269],[-122.327169,43.499438],[-122.327035,43.499605],[-122.326839,43.499736],[-122.326613,43.49986],[-122.326333,43.499958],[-122.32599,43.50007],[-122.325624,43.50022],[-122.325168,43.500371],[-122.324789,43.500502],[-122.324408,43.500624],[-122.324069,43.500745],[-122.323638,43.500876],[-122.323152,43.501029],[-122.322742,43.501162],[-122.322348,43.501323],[-122.321924,43.501485],[-122.321563,43.501689],[-122.321257,43.501932],[-122.321047,43.502162],[-122.320821,43.502455],[-122.320701,43.502738],[-122.320633,43.50308],[-122.320584,43.503415],[-122.320541,43.503697],[-122.320419,43.503924],[-122.320285,43.504179],[-122.320101,43.504357],[-122.319897,43.504521],[-122.319773,43.504617],[-122.319643,43.504705],[-122.319427,43.50484],[-122.319107,43.504987],[-122.318743,43.505136],[-122.318366,43.505296],[-122.318025,43.505417],[-122.317674,43.505566],[-122.317233,43.505706],[-122.316825,43.505829],[-122.316487,43.505949],[-122.316029,43.506061],[-122.315651,43.506173],[-122.31522,43.506256],[-122.314672,43.506379],[-122.314209,43.506434],[-122.31372,43.506432],[-122.313298,43.506477],[-122.312884,43.506474],[-122.312466,43.506443],[-122.311949,43.506374],[-122.311422,43.506325],[-122.311143,43.506262],[-122.310792,43.506228],[-122.310532,43.506203],[-122.310477,43.506205],[-122.310245,43.506217],[-122.309927,43.506162],[-122.309677,43.506236],[-122.309435,43.50628],[-122.30905,43.506374],[-122.308726,43.506489],[-122.308381,43.50667],[-122.307982,43.506887],[-122.307682,43.507062],[-122.307352,43.507226],[-122.307107,43.507373],[-122.306855,43.50747],[-122.306531,43.50758],[-122.306182,43.50768],[-122.305717,43.507782],[-122.305289,43.507826],[-122.304711,43.507874],[-122.304183,43.507901],[-122.303768,43.507927],[-122.303325,43.508003],[-122.30282,43.508118],[-122.302347,43.508261],[-122.301895,43.508375],[-122.301635,43.50849],[-122.301427,43.508618],[-122.301312,43.508668],[-122.301098,43.508745],[-122.300845,43.508837],[-122.300634,43.508937],[-122.300496,43.508995],[-122.3003,43.509055],[-122.300043,43.509159],[-122.299849,43.509267],[-122.299526,43.509386],[-122.299256,43.5095],[-122.299077,43.509617],[-122.29885,43.509694],[-122.298648,43.509767],[-122.298267,43.509967],[-122.297968,43.510096],[-122.297592,43.510284],[-122.297178,43.510433],[-122.296891,43.510534],[-122.296651,43.510612],[-122.296432,43.510643],[-122.296084,43.510718],[-122.295875,43.510778],[-122.29541,43.510861],[-122.294929,43.510916],[-122.294469,43.510933],[-122.294084,43.510958],[-122.293651,43.510984],[-122.293247,43.51099],[-122.292888,43.510968],[-122.292536,43.510888],[-122.291967,43.510773],[-122.291428,43.510601],[-122.291082,43.510453],[-122.290729,43.510323],[-122.290679,43.510305],[-122.290162,43.510103],[-122.289748,43.509899],[-122.289484,43.509775],[-122.289073,43.50953],[-122.288695,43.509299],[-122.288381,43.509057],[-122.287963,43.50877],[-122.287549,43.508486],[-122.287063,43.508095],[-122.286788,43.507893],[-122.286335,43.507568],[-122.285722,43.507165],[-122.285168,43.506754],[-122.284721,43.506448],[-122.284264,43.506139],[-122.283879,43.505831],[-122.283301,43.50539],[-122.282788,43.505053],[-122.282058,43.504563],[-122.281436,43.504176],[-122.280796,43.503805],[-122.280142,43.503373],[-122.279345,43.502849],[-122.278615,43.502359],[-122.277996,43.501946],[-122.277011,43.501458],[-122.275894,43.500924],[-122.275427,43.500749],[-122.275022,43.500533],[-122.274645,43.500413],[-122.274113,43.500182],[-122.27307,43.499727],[-122.272224,43.499297],[-122.271564,43.499025],[-122.271297,43.498915],[-122.271233,43.498888],[-122.271195,43.498871],[-122.271194,43.498998],[-122.271222,43.49901],[-122.271254,43.499023],[-122.272143,43.49939],[-122.272988,43.499819],[-122.274036,43.500276],[-122.274576,43.50051],[-122.274947,43.500629],[-122.275348,43.500843],[-122.275818,43.501019],[-122.276927,43.501549],[-122.277902,43.502032],[-122.278512,43.50244],[-122.279243,43.50293],[-122.280041,43.503454],[-122.280698,43.503888],[-122.28134,43.504261],[-122.281958,43.504645],[-122.282686,43.505134],[-122.283196,43.505469],[-122.283769,43.505906],[-122.284157,43.506217],[-122.284618,43.506529],[-122.285063,43.506833],[-122.285617,43.507245],[-122.286232,43.507648],[-122.286682,43.507971],[-122.286954,43.50817],[-122.287441,43.508563],[-122.28786,43.50885],[-122.288275,43.509135],[-122.288591,43.509379],[-122.288977,43.509614],[-122.289396,43.509863],[-122.289665,43.50999],[-122.290083,43.510197],[-122.29061,43.510402],[-122.290724,43.510445],[-122.29101,43.51055],[-122.29136,43.510699],[-122.291916,43.510877],[-122.292493,43.510994],[-122.292859,43.511076]]],[[[-122.366942,43.452819],[-122.366966,43.453235],[-122.367025,43.453367],[-122.36703,43.453511],[-122.367047,43.453909],[-122.367048,43.454298],[-122.367067,43.454899],[-122.367063,43.455503],[-122.367048,43.456117],[-122.367052,43.456609],[-122.367068,43.457117],[-122.367076,43.457559],[-122.367072,43.457993],[-122.367075,43.458448],[-122.367103,43.459373],[-122.367163,43.459635],[-122.36724,43.459788],[-122.367304,43.460043],[-122.367464,43.460347],[-122.367598,43.460691],[-122.367845,43.461079],[-122.368063,43.461503],[-122.368202,43.461857],[-122.368328,43.46214],[-122.368429,43.462357],[-122.368532,43.46262],[-122.368812,43.463188],[-122.369033,43.463696],[-122.36923,43.464146],[-122.36934,43.464463],[-122.369415,43.464739],[-122.369469,43.465066],[-122.369516,43.465322],[-122.369588,43.465623],[-122.369725,43.465864],[-122.369874,43.466154],[-122.370058,43.466456],[-122.370298,43.466731],[-122.370503,43.466955],[-122.370812,43.467186],[-122.371195,43.467547],[-122.37147,43.467814],[-122.371775,43.468149],[-122.372115,43.468517],[-122.37238,43.468801],[-122.3726,43.469042],[-122.372836,43.469286],[-122.373114,43.469564],[-122.373483,43.469876],[-122.37402,43.47029],[-122.374408,43.470612],[-122.374662,43.470821],[-122.374925,43.471008],[-122.375152,43.471174],[-122.375363,43.471337],[-122.375706,43.471599],[-122.375918,43.471764],[-122.375951,43.47179],[-122.376149,43.471947],[-122.376231,43.472121],[-122.376396,43.472297],[-122.376552,43.472483],[-122.37657,43.472537],[-122.376702,43.472738],[-122.376772,43.472843],[-122.376784,43.47322],[-122.376794,43.473375],[-122.37681,43.47352],[-122.376857,43.473687],[-122.37697,43.473826],[-122.37709,43.47391],[-122.377316,43.474063],[-122.377521,43.474222],[-122.377744,43.474385],[-122.377924,43.474514],[-122.378102,43.474686],[-122.378265,43.474811],[-122.37838,43.474949],[-122.378552,43.475118],[-122.378669,43.475251],[-122.378843,43.475392],[-122.37891,43.475509],[-122.378987,43.475666],[-122.379047,43.475785],[-122.379136,43.475915],[-122.379239,43.476072],[-122.379267,43.476138],[-122.379295,43.47633],[-122.379394,43.476522],[-122.379493,43.476664],[-122.379596,43.476845],[-122.379787,43.47701],[-122.379895,43.477159],[-122.380031,43.477339],[-122.380248,43.477531],[-122.380424,43.477665],[-122.380664,43.477907],[-122.380843,43.478078],[-122.380939,43.478258],[-122.380977,43.478431],[-122.38109,43.478682],[-122.381099,43.47898],[-122.381167,43.479105],[-122.381228,43.479281],[-122.381318,43.479477],[-122.381404,43.47964],[-122.381621,43.479863],[-122.381811,43.480075],[-122.381952,43.480222],[-122.382175,43.480409],[-122.382335,43.480567],[-122.382608,43.480859],[-122.38269,43.481003],[-122.382894,43.481249],[-122.383009,43.481408],[-122.38315,43.481611],[-122.383332,43.481809],[-122.383478,43.481963],[-122.383683,43.482131],[-122.383844,43.48223],[-122.384044,43.482307],[-122.384165,43.482402],[-122.384303,43.482498],[-122.384553,43.482669],[-122.384767,43.482825],[-122.384918,43.482969],[-122.385029,43.483107],[-122.385062,43.483177],[-122.38508,43.483251],[-122.385101,43.483331],[-122.385133,43.483372],[-122.385138,43.483512],[-122.385231,43.483779],[-122.385298,43.483988],[-122.385341,43.484138],[-122.385357,43.48429],[-122.385378,43.484447],[-122.385377,43.484587],[-122.385382,43.484738],[-122.385415,43.484847],[-122.385461,43.484925],[-122.385473,43.484947],[-122.38558,43.48504],[-122.385774,43.485151],[-122.385877,43.485231],[-122.386032,43.485318],[-122.386124,43.485382],[-122.386212,43.485462],[-122.386304,43.485566],[-122.386403,43.485663],[-122.38649,43.485748],[-122.386579,43.485826],[-122.386673,43.485891],[-122.386781,43.485931],[-122.386983,43.485974],[-122.387179,43.486008],[-122.38737,43.486025],[-122.387534,43.48605],[-122.38771,43.486083],[-122.387823,43.486112],[-122.388014,43.486176],[-122.388185,43.48626],[-122.38854,43.48644],[-122.388768,43.486575],[-122.389198,43.486794],[-122.38939,43.486864],[-122.389525,43.486929],[-122.389614,43.486947],[-122.389707,43.486994],[-122.389891,43.487098],[-122.390028,43.487153],[-122.390153,43.487217],[-122.390266,43.487292],[-122.390304,43.487318],[-122.390304,43.487312],[-122.390304,43.487212],[-122.390304,43.487206],[-122.390224,43.487153],[-122.390088,43.487083],[-122.389953,43.487029],[-122.389774,43.486928],[-122.389663,43.486872],[-122.389573,43.486853],[-122.389447,43.486792],[-122.389256,43.486723],[-122.388836,43.486509],[-122.388608,43.486375],[-122.388249,43.486193],[-122.38807,43.486104],[-122.387866,43.486036],[-122.387743,43.486004],[-122.38756,43.48597],[-122.387388,43.485944],[-122.387199,43.485927],[-122.387012,43.485894],[-122.386822,43.485854],[-122.386739,43.485823],[-122.386662,43.48577],[-122.386579,43.485697],[-122.386493,43.485614],[-122.386396,43.485519],[-122.386304,43.485414],[-122.386208,43.485327],[-122.386106,43.485256],[-122.385954,43.48517],[-122.385851,43.48509],[-122.385659,43.48498],[-122.385596,43.484925],[-122.385571,43.484904],[-122.385523,43.484821],[-122.385495,43.484728],[-122.38549,43.484586],[-122.385491,43.484443],[-122.38547,43.484283],[-122.385453,43.484127],[-122.385409,43.48397],[-122.385341,43.483759],[-122.38525,43.483501],[-122.385246,43.483349],[-122.385208,43.483302],[-122.385191,43.483236],[-122.385171,43.483156],[-122.385132,43.483073],[-122.385012,43.482923],[-122.384852,43.482771],[-122.384632,43.48261],[-122.384381,43.482439],[-122.384246,43.482345],[-122.384114,43.482241],[-122.383908,43.482162],[-122.383762,43.482072],[-122.383567,43.481912],[-122.383425,43.481763],[-122.383248,43.481569],[-122.38311,43.48137],[-122.382992,43.481208],[-122.382791,43.480965],[-122.382708,43.48082],[-122.382427,43.480519],[-122.382264,43.480358],[-122.382041,43.480171],[-122.381905,43.480029],[-122.381714,43.479817],[-122.381505,43.479601],[-122.381425,43.479449],[-122.381336,43.479258],[-122.381274,43.47908],[-122.381212,43.478963],[-122.381203,43.478668],[-122.381088,43.478411],[-122.381049,43.478236],[-122.380943,43.478038],[-122.380755,43.477858],[-122.380511,43.477612],[-122.380333,43.477476],[-122.380125,43.477293],[-122.379994,43.47712],[-122.379881,43.476964],[-122.379694,43.476802],[-122.379596,43.476629],[-122.379497,43.476489],[-122.379406,43.476311],[-122.379378,43.476122],[-122.379345,43.476043],[-122.379238,43.475879],[-122.379151,43.475752],[-122.379093,43.475637],[-122.379015,43.47548],[-122.37894,43.475347],[-122.37876,43.475201],[-122.378645,43.475071],[-122.378473,43.474903],[-122.378356,43.474761],[-122.378188,43.474632],[-122.378009,43.47446],[-122.377824,43.474327],[-122.377602,43.474165],[-122.377396,43.474005],[-122.377167,43.47385],[-122.377059,43.473774],[-122.376964,43.473657],[-122.376922,43.473509],[-122.376907,43.47337],[-122.376897,43.473217],[-122.376885,43.472823],[-122.376803,43.472702],[-122.376677,43.47251],[-122.376658,43.472451],[-122.376491,43.472252],[-122.376333,43.472084],[-122.376248,43.471904],[-122.376034,43.471734],[-122.375921,43.471646],[-122.375788,43.471543],[-122.375445,43.47128],[-122.375234,43.471117],[-122.375005,43.47095],[-122.374744,43.470764],[-122.374493,43.470558],[-122.374104,43.470235],[-122.373567,43.469821],[-122.373203,43.469513],[-122.372928,43.469238],[-122.372693,43.468995],[-122.372474,43.468755],[-122.372209,43.468471],[-122.371869,43.468103],[-122.371562,43.467766],[-122.371285,43.467498],[-122.370898,43.467132],[-122.370591,43.466903],[-122.370392,43.466686],[-122.370158,43.466417],[-122.369978,43.466123],[-122.36983,43.465834],[-122.369697,43.4656],[-122.369628,43.46531],[-122.369581,43.465056],[-122.369526,43.464727],[-122.36945,43.464445],[-122.369339,43.464124],[-122.369141,43.463671],[-122.368919,43.463162],[-122.36864,43.462595],[-122.368537,43.462333],[-122.368435,43.462114],[-122.36831,43.461833],[-122.36817,43.461477],[-122.367949,43.461047],[-122.367704,43.460663],[-122.367572,43.460321],[-122.367413,43.460021],[-122.36735,43.459766],[-122.367273,43.459614],[-122.367216,43.459365],[-122.367188,43.458447],[-122.367185,43.457993],[-122.367189,43.457558],[-122.367181,43.457115],[-122.367165,43.456608],[-122.367161,43.456118],[-122.367176,43.455504],[-122.36718,43.454898],[-122.367161,43.454297],[-122.36716,43.453907],[-122.367143,43.453509],[-122.367138,43.453353],[-122.367078,43.45322],[-122.367055,43.452816],[-122.366942,43.452819]]]]}},{"type":"Feature","properties":{"MAPTAXLOT":"2445000000500","MAPNUMBER":"24450000","TAXLOT":"500","ACCTNO":"0976439","MAPACRES":13511.15099431},"geometry":{"type":"MultiPolygon","coordinates":[[[[-122.360329,43.485147],[-122.37066,43.484927],[-122.370633,43.487276],[-122.370632,43.487454],[-122.370632,43.487752],[-122.370632,43.487868],[-122.370632,43.488543],[-122.370629,43.489921],[-122.370752,43.489926],[-122.3713,43.489946],[-122.371805,43.489989],[-122.37244,43.489986],[-122.373047,43.490028],[-122.373685,43.490017],[-122.37428,43.489971],[-122.375069,43.489962],[-122.375901,43.489886],[-122.376803,43.489849],[-122.377676,43.489833],[-122.378683,43.489846],[-122.379231,43.489857],[-122.379634,43.489872],[-122.380047,43.489907],[-122.380441,43.48996],[-122.380749,43.489971],[-122.381012,43.490009],[-122.381265,43.490069],[-122.381628,43.490146],[-122.381915,43.49023],[-122.382205,43.490307],[-122.382603,43.49044],[-122.382868,43.490536],[-122.383076,43.490615],[-122.383306,43.490679],[-122.383578,43.490777],[-122.383916,43.490907],[-122.384244,43.491031],[-122.384517,43.491131],[-122.384786,43.49124],[-122.385056,43.491346],[-122.385234,43.491409],[-122.385442,43.491483],[-122.385645,43.491541],[-122.385757,43.491563],[-122.385963,43.491594],[-122.386147,43.491619],[-122.38633,43.491634],[-122.386501,43.491647],[-122.386706,43.49165],[-122.386921,43.491672],[-122.387135,43.491701],[-122.387349,43.491728],[-122.387533,43.491737],[-122.387681,43.491738],[-122.387858,43.491732],[-122.38801,43.491706],[-122.388139,43.491668],[-122.388318,43.491604],[-122.388513,43.49152],[-122.388735,43.491428],[-122.388956,43.491327],[-122.38913,43.491252],[-122.389228,43.491202],[-122.389318,43.491147],[-122.389449,43.491103],[-122.38955,43.49105],[-122.389659,43.490977],[-122.389793,43.490938],[-122.389897,43.490898],[-122.390022,43.490864],[-122.390128,43.490825],[-122.390284,43.490809],[-122.390295,43.490808],[-122.390297,43.490029],[-122.390298,43.489818],[-122.390298,43.489714],[-122.390298,43.489645],[-122.390298,43.489575],[-122.390298,43.48943],[-122.390298,43.489429],[-122.390299,43.488485],[-122.390301,43.488072],[-122.390304,43.487318],[-122.390266,43.487292],[-122.390153,43.487217],[-122.390028,43.487153],[-122.389891,43.487098],[-122.389707,43.486994],[-122.389614,43.486947],[-122.389525,43.486929],[-122.38939,43.486864],[-122.389198,43.486794],[-122.388768,43.486575],[-122.38854,43.48644],[-122.388185,43.48626],[-122.388014,43.486176],[-122.387823,43.486112],[-122.38771,43.486083],[-122.387534,43.48605],[-122.38737,43.486025],[-122.387179,43.486008],[-122.386983,43.485974],[-122.386781,43.485931],[-122.386673,43.485891],[-122.386579,43.485826],[-122.38649,43.485748],[-122.386403,43.485663],[-122.386304,43.485566],[-122.386212,43.485462],[-122.386124,43.485382],[-122.386032,43.485318],[-122.385877,43.485231],[-122.385774,43.485151],[-122.38558,43.48504],[-122.385473,43.484947],[-122.385461,43.484925],[-122.385365,43.484925],[-122.380463,43.484926],[-122.375562,43.484927],[-122.375918,43.471764],[-122.375706,43.471599],[-122.375363,43.471337],[-122.375152,43.471174],[-122.374925,43.471008],[-122.374662,43.470821],[-122.374408,43.470612],[-122.37402,43.47029],[-122.373483,43.469876],[-122.373114,43.469564],[-122.372836,43.469286],[-122.3726,43.469042],[-122.37238,43.468801],[-122.372115,43.468517],[-122.371775,43.468149],[-122.37147,43.467814],[-122.371195,43.467547],[-122.370812,43.467186],[-122.370503,43.466955],[-122.370298,43.466731],[-122.370058,43.466456],[-122.369874,43.466154],[-122.369725,43.465864],[-122.369588,43.465623],[-122.369516,43.465322],[-122.369469,43.465066],[-122.369415,43.464739],[-122.36934,43.464463],[-122.36923,43.464146],[-122.369033,43.463696],[-122.368812,43.463188],[-122.368532,43.46262],[-122.368429,43.462357],[-122.368328,43.46214],[-122.368202,43.461857],[-122.368063,43.461503],[-122.367845,43.461079],[-122.367598,43.460691],[-122.367464,43.460347],[-122.367304,43.460043],[-122.36724,43.459788],[-122.367163,43.459635],[-122.367103,43.459373],[-122.367075,43.458448],[-122.367072,43.457993],[-122.367076,43.457559],[-122.367068,43.457117],[-122.367052,43.456609],[-122.367048,43.456117],[-122.367063,43.455503],[-122.367067,43.454899],[-122.367048,43.454298],[-122.367047,43.453909],[-122.36703,43.453511],[-122.367025,43.453367],[-122.366966,43.453235],[-122.366942,43.452819],[-122.367055,43.452816],[-122.367078,43.45322],[-122.367138,43.453353],[-122.367143,43.453509],[-122.36716,43.453907],[-122.367161,43.454297],[-122.36718,43.454898],[-122.367176,43.455504],[-122.367161,43.456118],[-122.367165,43.456608],[-122.367181,43.457115],[-122.367189,43.457558],[-122.367185,43.457993],[-122.367188,43.458447],[-122.367216,43.459365],[-122.367273,43.459614],[-122.36735,43.459766],[-122.367413,43.460021],[-122.367572,43.460321],[-122.367704,43.460663],[-122.367949,43.461047],[-122.36817,43.461477],[-122.36831,43.461833],[-122.368435,43.462114],[-122.368537,43.462333],[-122.36864,43.462595],[-122.368919,43.463162],[-122.369141,43.463671],[-122.369339,43.464124],[-122.36945,43.464445],[-122.369526,43.464727],[-122.369581,43.465056],[-122.369628,43.46531],[-122.369697,43.4656],[-122.36983,43.465834],[-122.369978,43.466123],[-122.370158,43.466417],[-122.370392,43.466686],[-122.370591,43.466903],[-122.370898,43.467132],[-122.371285,43.467498],[-122.371562,43.467766],[-122.371869,43.468103],[-122.372209,43.468471],[-122.372474,43.468755],[-122.372693,43.468995],[-122.372928,43.469238],[-122.373203,43.469513],[-122.373567,43.469821],[-122.374104,43.470235],[-122.374493,43.470558],[-122.374744,43.470764],[-122.375005,43.47095],[-122.375234,43.471117],[-122.375445,43.47128],[-122.375788,43.471543],[-122.375921,43.471646],[-122.375943,43.470814],[-122.380717,43.470789],[-122.385491,43.470765],[-122.390338,43.47074],[-122.390338,43.470251],[-122.390348,43.46712],[-122.390348,43.466631],[-122.390357,43.463499],[-122.390357,43.46301],[-122.390367,43.459879],[-122.390367,43.45939],[-122.390376,43.456258],[-122.390384,43.45577],[-122.390434,43.452634],[-122.390442,43.452149],[-122.390492,43.44901],[-122.390499,43.448529],[-122.390551,43.445384],[-122.390551,43.444908],[-122.390554,43.441275],[-122.370712,43.441624],[-122.370112,43.441624],[-122.365143,43.441624],[-122.360174,43.441624],[-122.355205,43.441624],[-122.351577,43.441624],[-122.350236,43.441624],[-122.345267,43.441624],[-122.340298,43.441624],[-122.335329,43.441624],[-122.330596,43.441624],[-122.33036,43.441624],[-122.325392,43.441624],[-122.320423,43.441624],[-122.315454,43.441624],[-122.310998,43.441624],[-122.310485,43.441624],[-122.305516,43.441624],[-122.300547,43.441624],[-122.295578,43.441624],[-122.291125,43.441624],[-122.290609,43.441624],[-122.271183,43.441624],[-122.271182,43.443984],[-122.271182,43.444686],[-122.271181,43.447609],[-122.271181,43.448306],[-122.271179,43.451234],[-122.271179,43.451927],[-122.271178,43.454859],[-122.271178,43.455548],[-122.27118,43.458475],[-122.27118,43.459168],[-122.271181,43.462091],[-122.271181,43.462788],[-122.271183,43.465706],[-122.271183,43.466408],[-122.271185,43.469322],[-122.271185,43.470028],[-122.271195,43.472936],[-122.271196,43.473644],[-122.271206,43.476549],[-122.271207,43.47726],[-122.271217,43.480163],[-122.271218,43.480876],[-122.271229,43.483777],[-122.27123,43.484491],[-122.271222,43.487366],[-122.271219,43.488114],[-122.27622,43.488141],[-122.276244,43.484479],[-122.281259,43.484468],[-122.281218,43.488168],[-122.291124,43.488221],[-122.291102,43.491914],[-122.291105,43.499197],[-122.300862,43.49924],[-122.310714,43.499283],[-122.310698,43.500318],[-122.310696,43.500458],[-122.310691,43.501076],[-122.310646,43.50287],[-122.310477,43.506205],[-122.310532,43.506203],[-122.310792,43.506228],[-122.311143,43.506262],[-122.311422,43.506325],[-122.311949,43.506374],[-122.312466,43.506443],[-122.312884,43.506474],[-122.313298,43.506477],[-122.31372,43.506432],[-122.314209,43.506434],[-122.314672,43.506379],[-122.31522,43.506256],[-122.315651,43.506173],[-122.316029,43.506061],[-122.316487,43.505949],[-122.316825,43.505829],[-122.317233,43.505706],[-122.317674,43.505566],[-122.318025,43.505417],[-122.318366,43.505296],[-122.318743,43.505136],[-122.319107,43.504987],[-122.319427,43.50484],[-122.319643,43.504705],[-122.319773,43.504617],[-122.319897,43.504521],[-122.320101,43.504357],[-122.320285,43.504179],[-122.320419,43.503924],[-122.320541,43.503697],[-122.320584,43.503415],[-122.320633,43.50308],[-122.320701,43.502738],[-122.320821,43.502455],[-122.321047,43.502162],[-122.321257,43.501932],[-122.321563,43.501689],[-122.321924,43.501485],[-122.322348,43.501323],[-122.322742,43.501162],[-122.323152,43.501029],[-122.323638,43.500876],[-122.324069,43.500745],[-122.324408,43.500624],[-122.324789,43.500502],[-122.325168,43.500371],[-122.325624,43.50022],[-122.32599,43.50007],[-122.326333,43.499958],[-122.326613,43.49986],[-122.326839,43.499736],[-122.327035,43.499605],[-122.327169,43.499438],[-122.327291,43.499269],[-122.327348,43.499095],[-122.327381,43.498889],[-122.327387,43.498651],[-122.327392,43.498388],[-122.327426,43.49815],[-122.327501,43.49794],[-122.327619,43.497707],[-122.327826,43.497507],[-122.328067,43.497388],[-122.328401,43.497311],[-122.328768,43.497286],[-122.329277,43.497277],[-122.329826,43.497308],[-122.330387,43.497367],[-122.331002,43.497444],[-122.331435,43.497525],[-122.331959,43.497672],[-122.332414,43.4978],[-122.332867,43.497937],[-122.333345,43.498064],[-122.333861,43.498199],[-122.334292,43.498268],[-122.334736,43.498317],[-122.335215,43.498319],[-122.335722,43.498273],[-122.336178,43.498209],[-122.336619,43.498126],[-122.337017,43.498016],[-122.337336,43.497888],[-122.337695,43.497712],[-122.338069,43.497477],[-122.338444,43.49725],[-122.338962,43.496905],[-122.339406,43.496617],[-122.339776,43.496406],[-122.340278,43.496193],[-122.340841,43.495972],[-122.341288,43.4958],[-122.341802,43.495628],[-122.342297,43.495476],[-122.342779,43.495286],[-122.343294,43.495095],[-122.343759,43.494904],[-122.344271,43.494722],[-122.344927,43.49448],[-122.345259,43.494377],[-122.345684,43.494263],[-122.34607,43.494189],[-122.346453,43.494125],[-122.346968,43.494039],[-122.34741,43.493984],[-122.34774,43.493886],[-122.348143,43.493736],[-122.34851,43.493594],[-122.348841,43.493418],[-122.349243,43.493151],[-122.349576,43.492868],[-122.350026,43.492509],[-122.35021,43.492363],[-122.350197,43.490288],[-122.350196,43.489838],[-122.350191,43.489058],[-122.350181,43.48851],[-122.350101,43.485364],[-122.340397,43.485295],[-122.330524,43.485265],[-122.330507,43.481687],[-122.330507,43.48168],[-122.33049,43.478109],[-122.33049,43.478095],[-122.330479,43.47451],[-122.330479,43.474502],[-122.330468,43.470894],[-122.335319,43.470918],[-122.335444,43.470919],[-122.34017,43.470942],[-122.340421,43.470952],[-122.345391,43.47115],[-122.345833,43.471167],[-122.351496,43.471392],[-122.350101,43.485364],[-122.360329,43.485147]],[[-122.335296,43.491848],[-122.335311,43.491605],[-122.33528,43.491318],[-122.335287,43.491109],[-122.335335,43.49104],[-122.335472,43.491017],[-122.335518,43.491105],[-122.335746,43.491161],[-122.33628,43.491241],[-122.336822,43.491348],[-122.337456,43.491465],[-122.337763,43.491588],[-122.338157,43.491791],[-122.338591,43.491845],[-122.338969,43.491784],[-122.339316,43.491717],[-122.339644,43.491629],[-122.339895,43.491724],[-122.340388,43.491794],[-122.340389,43.491794],[-122.340434,43.495707],[-122.330532,43.495612],[-122.330511,43.493338],[-122.33051,43.493193],[-122.330511,43.492839],[-122.330739,43.492768],[-122.331329,43.492703],[-122.331877,43.492755],[-122.33241,43.492651],[-122.33252,43.492702],[-122.332811,43.492745],[-122.332959,43.492848],[-122.333099,43.492956],[-122.333174,43.493039],[-122.333319,43.493037],[-122.333661,43.492987],[-122.333939,43.492894],[-122.334136,43.492545],[-122.334326,43.492347],[-122.334547,43.492248],[-122.334834,43.492175],[-122.335159,43.492104],[-122.335296,43.491848]],[[-122.315592,43.45603],[-122.315586,43.459648],[-122.320592,43.459673],[-122.320566,43.466911],[-122.330498,43.466916],[-122.330498,43.466941],[-122.33047,43.470549],[-122.320554,43.470554],[-122.310584,43.470545],[-122.310621,43.463265],[-122.310578,43.455978],[-122.315592,43.45603]]],[[[-122.340511,43.499112],[-122.350346,43.499188],[-122.360656,43.499256],[-122.370591,43.499367],[-122.380447,43.499382],[-122.385337,43.499365],[-122.390258,43.499349],[-122.39026,43.498874],[-122.390274,43.495725],[-122.390291,43.492102],[-122.390294,43.491245],[-122.390295,43.490928],[-122.390295,43.490919],[-122.390174,43.490931],[-122.390082,43.490965],[-122.389958,43.490998],[-122.389856,43.491037],[-122.389741,43.491071],[-122.389646,43.491135],[-122.389525,43.491198],[-122.389399,43.491241],[-122.389319,43.491289],[-122.389212,43.491344],[-122.389035,43.49142],[-122.388812,43.491522],[-122.388589,43.491614],[-122.38839,43.491701],[-122.3882,43.491769],[-122.388055,43.491811],[-122.387879,43.491841],[-122.387684,43.491848],[-122.387528,43.491847],[-122.38733,43.491837],[-122.387109,43.491809],[-122.386897,43.491781],[-122.386694,43.491759],[-122.386491,43.491757],[-122.386314,43.491743],[-122.386124,43.491727],[-122.385934,43.491701],[-122.385722,43.49167],[-122.385598,43.491645],[-122.385381,43.491584],[-122.385168,43.491507],[-122.384987,43.491443],[-122.384713,43.491337],[-122.384446,43.491228],[-122.384176,43.491129],[-122.383846,43.491004],[-122.383509,43.490874],[-122.383246,43.490779],[-122.383014,43.490715],[-122.382799,43.490634],[-122.382538,43.490539],[-122.382147,43.490409],[-122.381861,43.490333],[-122.381579,43.49025],[-122.381221,43.490174],[-122.380973,43.490116],[-122.380731,43.49008],[-122.380423,43.49007],[-122.380025,43.490016],[-122.379621,43.489982],[-122.379225,43.489966],[-122.37868,43.489955],[-122.377676,43.489943],[-122.376809,43.489959],[-122.375915,43.489995],[-122.375079,43.490072],[-122.374289,43.490081],[-122.373695,43.490127],[-122.373041,43.490138],[-122.372433,43.490096],[-122.371796,43.490099],[-122.371288,43.490056],[-122.370744,43.490035],[-122.370628,43.490031],[-122.370624,43.492156],[-122.364724,43.492231],[-122.364502,43.492319],[-122.363974,43.492492],[-122.363364,43.492678],[-122.362787,43.492766],[-122.362107,43.492816],[-122.361581,43.492824],[-122.360887,43.492738],[-122.360359,43.492709],[-122.359784,43.492666],[-122.359165,43.492632],[-122.358632,43.492582],[-122.357917,43.492498],[-122.357215,43.492461],[-122.356772,43.492409],[-122.356268,43.492333],[-122.350415,43.492362],[-122.350138,43.492584],[-122.349689,43.492941],[-122.349351,43.493227],[-122.348937,43.493503],[-122.34859,43.493688],[-122.348212,43.493833],[-122.347803,43.493986],[-122.347452,43.49409],[-122.346998,43.494147],[-122.346486,43.494232],[-122.346106,43.494295],[-122.345729,43.494368],[-122.345314,43.494479],[-122.344991,43.494579],[-122.344338,43.49482],[-122.343829,43.495001],[-122.343365,43.495192],[-122.342849,43.495383],[-122.342363,43.495575],[-122.341862,43.495728],[-122.341355,43.495899],[-122.340912,43.496069],[-122.340351,43.496289],[-122.33986,43.496497],[-122.339502,43.496702],[-122.339063,43.496987],[-122.338544,43.497333],[-122.338166,43.497561],[-122.337787,43.4978],[-122.337415,43.497982],[-122.337081,43.498116],[-122.336665,43.49823],[-122.336212,43.498316],[-122.335746,43.498382],[-122.335224,43.498429],[-122.334724,43.498427],[-122.334265,43.498376],[-122.333819,43.498304],[-122.333294,43.498167],[-122.332812,43.498039],[-122.332358,43.497902],[-122.331905,43.497775],[-122.331389,43.49763],[-122.33097,43.497551],[-122.330363,43.497475],[-122.32981,43.497417],[-122.329273,43.497387],[-122.328776,43.497395],[-122.328431,43.497419],[-122.328133,43.497488],[-122.327931,43.497587],[-122.327753,43.49776],[-122.327645,43.497973],[-122.327575,43.49817],[-122.327543,43.498395],[-122.327537,43.498653],[-122.327531,43.498896],[-122.327497,43.499114],[-122.327433,43.499308],[-122.327301,43.499491],[-122.327154,43.499675],[-122.326935,43.49982],[-122.326692,43.499954],[-122.326397,43.500057],[-122.326058,43.500168],[-122.325693,43.500318],[-122.325232,43.500471],[-122.324851,43.500602],[-122.324472,43.500724],[-122.324132,43.500845],[-122.323697,43.500977],[-122.323212,43.501129],[-122.32281,43.50126],[-122.32242,43.501419],[-122.322006,43.501578],[-122.321665,43.50177],[-122.321376,43.502],[-122.321176,43.502219],[-122.320961,43.502499],[-122.320848,43.502763],[-122.320783,43.503094],[-122.320734,43.503427],[-122.320689,43.503724],[-122.32056,43.503963],[-122.320418,43.504232],[-122.320217,43.504427],[-122.320008,43.504596],[-122.319879,43.504695],[-122.319743,43.504787],[-122.319517,43.504928],[-122.319185,43.505081],[-122.318817,43.505232],[-122.318437,43.505392],[-122.318096,43.505513],[-122.317742,43.505664],[-122.317292,43.505807],[-122.316887,43.505929],[-122.316544,43.506051],[-122.316082,43.506164],[-122.315699,43.506277],[-122.315262,43.506362],[-122.314706,43.506487],[-122.31422,43.506544],[-122.31373,43.506542],[-122.313308,43.506587],[-122.312875,43.506584],[-122.312444,43.506552],[-122.311925,43.506483],[-122.31139,43.506433],[-122.31111,43.50637],[-122.310772,43.506337],[-122.310527,43.506313],[-122.310471,43.506316],[-122.310467,43.506397],[-122.309751,43.513269],[-122.330429,43.513514],[-122.330545,43.502723],[-122.335531,43.502731],[-122.335548,43.49912],[-122.340511,43.499112]]],[[[-122.386304,43.485414],[-122.386396,43.485519],[-122.386493,43.485614],[-122.386579,43.485697],[-122.386662,43.48577],[-122.386739,43.485823],[-122.386822,43.485854],[-122.387012,43.485894],[-122.387199,43.485927],[-122.387388,43.485944],[-122.38756,43.48597],[-122.387743,43.486004],[-122.387866,43.486036],[-122.38807,43.486104],[-122.388249,43.486193],[-122.388608,43.486375],[-122.388836,43.486509],[-122.389256,43.486723],[-122.389447,43.486792],[-122.389573,43.486853],[-122.389663,43.486872],[-122.389774,43.486928],[-122.389953,43.487029],[-122.390088,43.487083],[-122.390224,43.487153],[-122.390304,43.487206],[-122.390313,43.484925],[-122.385596,43.484925],[-122.385659,43.48498],[-122.385851,43.48509],[-122.385954,43.48517],[-122.386106,43.485256],[-122.386208,43.485327],[-122.386304,43.485414]]],[[[-122.360373,43.492599],[-122.360905,43.492629],[-122.361592,43.492714],[-122.362097,43.492706],[-122.362764,43.492657],[-122.363319,43.492572],[-122.363914,43.492392],[-122.36439,43.492235],[-122.357033,43.492329],[-122.357232,43.492352],[-122.357934,43.492388],[-122.358653,43.492473],[-122.359181,43.492522],[-122.359797,43.492557],[-122.360373,43.492599]]]]}},{"type":"Feature","properties":{"MAPTAXLOT":"2455000000100","MAPNUMBER":"24550000","TAXLOT":"100","ACCTNO":"0976595","MAPACRES":20905.07208391},"geometry":{"type":"Polygon","coordinates":[[[-122.191184,43.527399],[-122.196166,43.527409],[-122.201149,43.527419],[-122.206131,43.527429],[-122.211114,43.52744],[-122.216098,43.527449],[-122.221083,43.527458],[-122.226068,43.527468],[-122.231052,43.527477],[-122.236041,43.527487],[-122.241029,43.527497],[-122.246018,43.527507],[-122.251006,43.527517],[-122.255999,43.527517],[-122.260992,43.527517],[-122.265984,43.527517],[-122.271007,43.527545],[-122.271086,43.523899],[-122.271087,43.523874],[-122.271168,43.520252],[-122.271168,43.520219],[-122.271119,43.516837],[-122.271116,43.516644],[-122.27107,43.513422],[-122.271075,43.513003],[-122.265812,43.512891],[-122.260853,43.512896],[-122.260784,43.501961],[-122.255829,43.501963],[-122.255802,43.498303],[-122.260761,43.498289],[-122.265727,43.498282],[-122.2712,43.498135],[-122.271207,43.496914],[-122.271201,43.496715],[-122.271198,43.496623],[-122.2712,43.495374],[-122.271202,43.494546],[-122.271207,43.491735],[-122.27121,43.490956],[-122.271219,43.488114],[-122.271222,43.487366],[-122.27123,43.484491],[-122.271229,43.483777],[-122.271218,43.480876],[-122.271217,43.480163],[-122.271207,43.47726],[-122.271206,43.476549],[-122.271196,43.473644],[-122.271195,43.472936],[-122.271185,43.470028],[-122.271185,43.469322],[-122.271183,43.466408],[-122.271183,43.465706],[-122.271181,43.462788],[-122.271181,43.462091],[-122.27118,43.459168],[-122.27118,43.458475],[-122.271178,43.455548],[-122.271178,43.454859],[-122.271179,43.451927],[-122.271179,43.451234],[-122.271181,43.448306],[-122.271181,43.447609],[-122.271182,43.444686],[-122.271182,43.443984],[-122.271183,43.441624],[-122.271183,43.44107],[-122.271183,43.440364],[-122.265596,43.440364],[-122.260624,43.440363],[-122.250676,43.440358],[-122.230751,43.44033],[-122.21084,43.440308],[-122.190935,43.440285],[-122.190967,43.45477],[-122.181001,43.454765],[-122.180993,43.451142],[-122.180985,43.447519],[-122.180977,43.443896],[-122.175994,43.443891],[-122.175986,43.440267],[-122.171003,43.44026],[-122.151037,43.440224],[-122.151033,43.443366],[-122.151035,43.444176],[-122.151692,43.44457],[-122.15229,43.445897],[-122.153169,43.44672],[-122.153044,43.447704],[-122.152699,43.448093],[-122.152385,43.448299],[-122.151317,43.448528],[-122.151045,43.448556],[-122.151049,43.450662],[-122.151058,43.454308],[-122.151059,43.454752],[-122.151061,43.457953],[-122.151074,43.46158],[-122.151075,43.462015],[-122.151084,43.465206],[-122.151097,43.468832],[-122.151099,43.469267],[-122.151104,43.472457],[-122.151116,43.476094],[-122.151117,43.476519],[-122.151126,43.479731],[-122.151138,43.483367],[-122.151139,43.483769],[-122.151145,43.487004],[-122.151163,43.49063],[-122.151165,43.491023],[-122.151178,43.494256],[-122.151197,43.497882],[-122.151199,43.49828],[-122.151209,43.501509],[-122.151227,43.50514],[-122.151229,43.505542],[-122.151242,43.508772],[-122.15126,43.512403],[-122.151262,43.512807],[-122.151276,43.516033],[-122.151302,43.520074],[-122.151319,43.523305],[-122.15132,43.523707],[-122.151331,43.526451],[-122.151334,43.527344],[-122.156315,43.527353],[-122.161295,43.527362],[-122.166276,43.527371],[-122.171256,43.52738],[-122.176238,43.527385],[-122.18122,43.527389],[-122.186202,43.527394],[-122.191184,43.527399]],[[-122.210847,43.454791],[-122.210882,43.462034],[-122.200931,43.462029],[-122.200919,43.458405],[-122.195946,43.458401],[-122.195937,43.454776],[-122.210847,43.454791]],[[-122.235818,43.483818],[-122.240808,43.483813],[-122.245799,43.483809],[-122.25079,43.483804],[-122.250803,43.487432],[-122.250817,43.49106],[-122.25083,43.494688],[-122.250843,43.498316],[-122.245852,43.498324],[-122.240861,43.498332],[-122.23587,43.49834],[-122.230879,43.498347],[-122.230866,43.494716],[-122.230853,43.491085],[-122.23084,43.487453],[-122.230827,43.483822],[-122.22586,43.483817],[-122.220893,43.483813],[-122.215926,43.483808],[-122.210959,43.483803],[-122.21097,43.491069],[-122.196038,43.491046],[-122.196011,43.483785],[-122.200994,43.483791],[-122.205976,43.483797],[-122.210959,43.483803],[-122.210938,43.47654],[-122.215905,43.476546],[-122.215895,43.472916],[-122.220863,43.472923],[-122.22583,43.472929],[-122.225821,43.4693],[-122.230789,43.469307],[-122.230827,43.483822],[-122.235818,43.483818]]]}}]}