{"type":"FeatureCollection","features":[{"type":"Feature","properties":{"MAPTAXLOT":"1925000002500","MAPNUMBER":"19250000","TAXLOT":"2500","ACCTNO":"0876555","MAPACRES":641.373136},"geometry":{"type":"Polygon","coordinates":[[[-122.509052,43.895514],[-122.529145,43.895553],[-122.529116,43.881091],[-122.509004,43.881051],[-122.509052,43.895514]]]}},{"type":"Feature","properties":{"MAPTAXLOT":"1925000003600","MAPNUMBER":"19250000","TAXLOT":"3600","ACCTNO":"0876662","MAPACRES":640.22957423},"geometry":{"type":"Polygon","coordinates":[[[-122.509004,43.881051],[-122.529116,43.881091],[-122.528998,43.866622],[-122.508973,43.866605],[-122.509004,43.881051]]]}},{"type":"Feature","properties":{"MAPTAXLOT":"1935000002100","MAPNUMBER":"19350000","TAXLOT":"2100","ACCTNO":"0876886","MAPACRES":637.68492365},"geometry":{"type":"Polygon","coordinates":[[[-122.449038,43.895629],[-122.468999,43.89558],[-122.468909,43.88111],[-122.448941,43.881143],[-122.449038,43.895629]]]}},{"type":"Feature","properties":{"MAPTAXLOT":"1935000002200","MAPNUMBER":"19350000","TAXLOT":"2200","ACCTNO":"0876894","MAPACRES":640.5603581},"geometry":{"type":"Polygon","coordinates":[[[-122.468999,43.89558],[-122.489039,43.895576],[-122.488989,43.881099],[-122.468909,43.88111],[-122.468999,43.89558]]]}},{"type":"Feature","properties":{"MAPTAXLOT":"1935000002300","MAPNUMBER":"19350000","TAXLOT":"2300","ACCTNO":"0876902","MAPACRES":638.83100117},"geometry":{"type":"Polygon","coordinates":[[[-122.504064,43.895531],[-122.509052,43.895514],[-122.509004,43.881051],[-122.504004,43.881067],[-122.498999,43.881082],[-122.488989,43.881099],[-122.489039,43.895576],[-122.499056,43.895549],[-122.504064,43.895531]]]}},{"type":"Feature","properties":{"MAPTAXLOT":"1935000002400","MAPNUMBER":"19350000","TAXLOT":"2400","ACCTNO":"0876910","MAPACRES":639.36968635},"geometry":{"type":"Polygon","coordinates":[[[-122.488989,43.881099],[-122.498999,43.881082],[-122.504004,43.881067],[-122.509004,43.881051],[-122.508973,43.866605],[-122.500106,43.866606],[-122.499627,43.866606],[-122.49896,43.866606],[-122.490092,43.866607],[-122.488946,43.866608],[-122.488989,43.881099]]]}},{"type":"Feature","properties":{"MAPTAXLOT":"1935000002500","MAPNUMBER":"19350000","TAXLOT":"2500","ACCTNO":"0876928","MAPACRES":640.26116422},"geometry":{"type":"Polygon","coordinates":[[[-122.468909,43.88111],[-122.488989,43.881099],[-122.488946,43.866608],[-122.480126,43.866619],[-122.47893,43.866619],[-122.478929,43.866619],[-122.478929,43.866619],[-122.470209,43.866631],[-122.468963,43.866631],[-122.468909,43.88111]]]}},{"type":"Feature","properties":{"MAPTAXLOT":"1935000002600","MAPNUMBER":"19350000","TAXLOT":"2600","ACCTNO":"0876936","MAPACRES":638.91959214},"geometry":{"type":"Polygon","coordinates":[[[-122.448941,43.881143],[-122.468909,43.88111],[-122.468963,43.866631],[-122.460215,43.866649],[-122.458946,43.866649],[-122.450221,43.866667],[-122.448929,43.866667],[-122.448929,43.866667],[-122.448941,43.881143]]]}},{"type":"Feature","properties":{"MAPTAXLOT":"2025000000100","MAPNUMBER":"20250000","TAXLOT":"100","ACCTNO":"0926541","MAPACRES":598.26913438},"geometry":{"type":"Polygon","coordinates":[[[-122.508973,43.866605],[-122.528998,43.866622],[-122.528988,43.860833],[-122.528987,43.860274],[-122.529038,43.8536],[-122.528441,43.8536],[-122.528441,43.85304],[-122.518744,43.853043],[-122.50904,43.853046],[-122.509006,43.859826],[-122.508973,43.866605]]]}},{"type":"Feature","properties":{"MAPTAXLOT":"2025000000200","MAPNUMBER":"20250000","TAXLOT":"200","ACCTNO":"0926566","MAPACRES":10468.13989637},"geometry":{"type":"MultiPolygon","coordinates":[[[[-122.554223,43.866714],[-122.559087,43.866745],[-122.568754,43.866837],[-122.578485,43.866795],[-122.588215,43.866753],[-122.607722,43.866469],[-122.607406,43.859099],[-122.607097,43.851762],[-122.607626,43.845552],[-122.607751,43.838444],[-122.597761,43.838154],[-122.597813,43.834591],[-122.592791,43.834413],[-122.59284,43.830783],[-122.592941,43.827185],[-122.593045,43.823584],[-122.588108,43.82351],[-122.587816,43.830654],[-122.587727,43.837821],[-122.58775,43.839721],[-122.577946,43.839748],[-122.568151,43.839772],[-122.568095,43.831914],[-122.568037,43.824052],[-122.568706,43.824032],[-122.568679,43.816857],[-122.568667,43.813264],[-122.568655,43.809668],[-122.558623,43.80967],[-122.553886,43.809806],[-122.549142,43.809943],[-122.549134,43.802857],[-122.549107,43.795779],[-122.544211,43.795721],[-122.539331,43.795662],[-122.534407,43.795635],[-122.529498,43.795609],[-122.529459,43.792039],[-122.52942,43.788467],[-122.529353,43.785573],[-122.529353,43.785573],[-122.529339,43.785569],[-122.528731,43.785393],[-122.528466,43.785322],[-122.528204,43.785246],[-122.527945,43.785166],[-122.527688,43.785081],[-122.527434,43.784993],[-122.527022,43.784992],[-122.526896,43.784941],[-122.52675,43.784868],[-122.526606,43.784792],[-122.526466,43.784712],[-122.52633,43.78463],[-122.526197,43.784544],[-122.525947,43.784373],[-122.5257,43.784199],[-122.525382,43.783985],[-122.525068,43.783767],[-122.52476,43.783545],[-122.524456,43.78332],[-122.524158,43.78309],[-122.523865,43.782858],[-122.523637,43.782667],[-122.523413,43.782475],[-122.523288,43.782357],[-122.523169,43.782237],[-122.523054,43.782115],[-122.522944,43.78199],[-122.52284,43.781863],[-122.52274,43.781734],[-122.522646,43.781603],[-122.522557,43.781469],[-122.519441,43.781464],[-122.514454,43.781448],[-122.509466,43.781431],[-122.508707,43.795686],[-122.509093,43.809893],[-122.508707,43.817091],[-122.50872,43.824205],[-122.508825,43.831292],[-122.513722,43.831611],[-122.513759,43.838954],[-122.508921,43.838567],[-122.50904,43.853046],[-122.518744,43.853043],[-122.528441,43.85304],[-122.528454,43.850183],[-122.538262,43.850092],[-122.538037,43.853613],[-122.529038,43.8536],[-122.528987,43.860274],[-122.528988,43.860833],[-122.528998,43.866622],[-122.539007,43.866652],[-122.549359,43.866684],[-122.547979,43.860859],[-122.553763,43.860178],[-122.554223,43.866714]],[[-122.533849,43.810407],[-122.53895,43.810457],[-122.549133,43.810567],[-122.549126,43.817488],[-122.549139,43.821534],[-122.549148,43.824298],[-122.548346,43.824314],[-122.54835,43.825179],[-122.543399,43.825091],[-122.53845,43.825001],[-122.528559,43.824817],[-122.52865,43.817584],[-122.528696,43.813971],[-122.528743,43.810357],[-122.533849,43.810407]]],[[[-122.528345,43.784994],[-122.528604,43.785069],[-122.528866,43.785139],[-122.529347,43.785278],[-122.529342,43.784995],[-122.529322,43.78148],[-122.528299,43.781478],[-122.524381,43.781472],[-122.523813,43.781471],[-122.523425,43.781471],[-122.523435,43.781485],[-122.523516,43.781599],[-122.523603,43.78171],[-122.523694,43.781819],[-122.523791,43.781926],[-122.523893,43.78203],[-122.524,43.782132],[-122.524213,43.782315],[-122.524429,43.782496],[-122.524432,43.782499],[-122.524719,43.782726],[-122.52501,43.78295],[-122.525307,43.78317],[-122.525608,43.783387],[-122.525914,43.7836],[-122.526225,43.78381],[-122.526465,43.783978],[-122.526708,43.784145],[-122.526711,43.784146],[-122.526852,43.784237],[-122.526997,43.784323],[-122.527147,43.784405],[-122.527301,43.784483],[-122.527554,43.78458],[-122.52781,43.784672],[-122.528069,43.78476],[-122.528331,43.784842],[-122.528596,43.784921],[-122.528864,43.784994],[-122.528345,43.784994]]]]}},{"type":"Feature","properties":{"MAPTAXLOT":"2025000000500","MAPNUMBER":"20250000","TAXLOT":"500","ACCTNO":"0926608","MAPACRES":78.49155664},"geometry":{"type":"Polygon","coordinates":[[[-122.508921,43.838567],[-122.513759,43.838954],[-122.513722,43.831611],[-122.508825,43.831292],[-122.508921,43.838567]]]}},{"type":"Feature","properties":{"MAPTAXLOT":"2035000000100","MAPNUMBER":"20350000","TAXLOT":"100","ACCTNO":"0927010","MAPACRES":15415.6086663},"geometry":{"type":"MultiPolygon","coordinates":[[[[-122.490036,43.838677],[-122.500023,43.838596],[-122.50502,43.838577],[-122.508921,43.838567],[-122.508825,43.831292],[-122.50872,43.824205],[-122.508707,43.817091],[-122.509093,43.809893],[-122.508707,43.795686],[-122.509466,43.781431],[-122.504648,43.781459],[-122.49983,43.781488],[-122.495024,43.781516],[-122.490218,43.781544],[-122.485422,43.781574],[-122.480626,43.781604],[-122.475828,43.781633],[-122.47103,43.781663],[-122.470454,43.788487],[-122.463104,43.788483],[-122.460464,43.788481],[-122.46075,43.781703],[-122.456211,43.781716],[-122.455604,43.781718],[-122.455514,43.781718],[-122.45551,43.781868],[-122.455329,43.788502],[-122.452373,43.788518],[-122.452363,43.788518],[-122.450193,43.788531],[-122.450188,43.788913],[-122.450143,43.792353],[-122.450104,43.79529],[-122.450101,43.795793],[-122.445243,43.795913],[-122.440386,43.796031],[-122.435391,43.797012],[-122.43537,43.799678],[-122.430393,43.799769],[-122.430393,43.799801],[-122.430378,43.803322],[-122.430377,43.803327],[-122.430371,43.806113],[-122.430369,43.806599],[-122.43036,43.81057],[-122.431754,43.810552],[-122.431754,43.810823],[-122.425088,43.810784],[-122.424605,43.810781],[-122.421763,43.810765],[-122.411772,43.810707],[-122.391715,43.810716],[-122.391701,43.825197],[-122.391794,43.83968],[-122.391866,43.854168],[-122.391887,43.86141],[-122.391892,43.865031],[-122.391894,43.866713],[-122.39875,43.866707],[-122.401876,43.866705],[-122.40689,43.866701],[-122.407085,43.866701],[-122.408785,43.866699],[-122.411858,43.866696],[-122.41882,43.866683],[-122.419868,43.866682],[-122.421885,43.866681],[-122.428822,43.866667],[-122.431911,43.866665],[-122.4389,43.866666],[-122.440777,43.866666],[-122.441927,43.866666],[-122.446082,43.866666],[-122.448929,43.866667],[-122.450221,43.866667],[-122.458946,43.866649],[-122.460215,43.866649],[-122.468963,43.866631],[-122.470209,43.866631],[-122.470209,43.864069],[-122.47021,43.860449],[-122.470223,43.853207],[-122.450161,43.853243],[-122.450132,43.849624],[-122.460161,43.849603],[-122.460069,43.838728],[-122.470086,43.838721],[-122.470032,43.824232],[-122.460046,43.824222],[-122.460064,43.809738],[-122.469628,43.809742],[-122.470055,43.809745],[-122.470039,43.816992],[-122.470032,43.824232],[-122.480032,43.824218],[-122.485032,43.824218],[-122.489462,43.824219],[-122.48946,43.820284],[-122.499007,43.820465],[-122.498952,43.824243],[-122.490033,43.824219],[-122.490034,43.831448],[-122.490036,43.838677]]],[[[-122.490036,43.838677],[-122.470086,43.838721],[-122.470188,43.849586],[-122.470223,43.853207],[-122.490151,43.853143],[-122.490036,43.838677]]]]}},{"type":"Feature","properties":{"MAPTAXLOT":"2035000000200","MAPNUMBER":"20350000","TAXLOT":"200","ACCTNO":"0927028","MAPACRES":590.58635737},"geometry":{"type":"Polygon","coordinates":[[[-122.488946,43.866608],[-122.490092,43.866607],[-122.4901,43.864011],[-122.490113,43.860389],[-122.490151,43.853143],[-122.470223,43.853207],[-122.47021,43.860449],[-122.470209,43.864069],[-122.470209,43.866631],[-122.478929,43.866619],[-122.478929,43.866619],[-122.47893,43.866619],[-122.480126,43.866619],[-122.488946,43.866608]]]}},{"type":"Feature","properties":{"MAPTAXLOT":"2035000000300","MAPNUMBER":"20350000","TAXLOT":"300","ACCTNO":"0927036","MAPACRES":563.75406935},"geometry":{"type":"Polygon","coordinates":[[[-122.490113,43.860389],[-122.4901,43.864011],[-122.490092,43.866607],[-122.49896,43.866606],[-122.499627,43.866606],[-122.500106,43.866606],[-122.508973,43.866605],[-122.509006,43.859826],[-122.50904,43.853046],[-122.505176,43.853055],[-122.500169,43.853071],[-122.490151,43.853143],[-122.490113,43.860389]]]}},{"type":"Feature","properties":{"MAPTAXLOT":"2035000000400","MAPNUMBER":"20350000","TAXLOT":"400","ACCTNO":"0927044","MAPACRES":603.53593093},"geometry":{"type":"Polygon","coordinates":[[[-122.505176,43.853055],[-122.50904,43.853046],[-122.508921,43.838567],[-122.50502,43.838577],[-122.500023,43.838596],[-122.490036,43.838677],[-122.490151,43.853143],[-122.500169,43.853071],[-122.505176,43.853055]]]}},{"type":"Feature","properties":{"MAPTAXLOT":"2035000000500","MAPNUMBER":"20350000","TAXLOT":"500","ACCTNO":"0927051","MAPACRES":400.89029339},"geometry":{"type":"Polygon","coordinates":[[[-122.450161,43.853243],[-122.470223,43.853207],[-122.470188,43.849586],[-122.470086,43.838721],[-122.460069,43.838728],[-122.460161,43.849603],[-122.450132,43.849624],[-122.450161,43.853243]]]}},{"type":"Feature","properties":{"MAPTAXLOT":"2035000000600","MAPNUMBER":"20350000","TAXLOT":"600","ACCTNO":"0927069","MAPACRES":638.5672719},"geometry":{"type":"Polygon","coordinates":[[[-122.470086,43.838721],[-122.490036,43.838677],[-122.490034,43.831448],[-122.490033,43.824219],[-122.489462,43.824219],[-122.485032,43.824218],[-122.480032,43.824218],[-122.470032,43.824232],[-122.470086,43.838721]]]}},{"type":"Feature","properties":{"MAPTAXLOT":"2035000000700","MAPNUMBER":"20350000","TAXLOT":"700","ACCTNO":"0927077","MAPACRES":81.05304006},"geometry":{"type":"Polygon","coordinates":[[[-122.490033,43.824219],[-122.498952,43.824243],[-122.499007,43.820465],[-122.48946,43.820284],[-122.489462,43.824219],[-122.490033,43.824219]]]}},{"type":"Feature","properties":{"MAPTAXLOT":"2035000000800","MAPNUMBER":"20350000","TAXLOT":"800","ACCTNO":"0927085","MAPACRES":319.52680875},"geometry":{"type":"Polygon","coordinates":[[[-122.460046,43.824222],[-122.470032,43.824232],[-122.470039,43.816992],[-122.470055,43.809745],[-122.469628,43.809742],[-122.460064,43.809738],[-122.460046,43.824222]]]}}]}