{"type":"FeatureCollection","features":[{"type":"Feature","properties":{"MAPTAXLOT":"2115000000200","MAPNUMBER":"21150000","TAXLOT":"200","ACCTNO":"0944981","MAPACRES":19968.69982205},"geometry":{"type":"Polygon","coordinates":[[[-122.696737,43.780362],[-122.696748,43.780361],[-122.697288,43.780356],[-122.706612,43.780221],[-122.706624,43.780221],[-122.707143,43.780216],[-122.707156,43.780216],[-122.716573,43.780122],[-122.716582,43.780122],[-122.717082,43.780117],[-122.717092,43.780117],[-122.726534,43.780023],[-122.726541,43.780023],[-122.727021,43.780018],[-122.727028,43.780018],[-122.736482,43.779886],[-122.736485,43.779885],[-122.736962,43.779878],[-122.736965,43.779878],[-122.740858,43.779822],[-122.744754,43.779767],[-122.744749,43.776233],[-122.744749,43.776232],[-122.744745,43.772699],[-122.744745,43.772698],[-122.744745,43.772494],[-122.744745,43.772494],[-122.744741,43.769164],[-122.744741,43.769164],[-122.744737,43.76563],[-122.74473,43.76209],[-122.74473,43.76209],[-122.744723,43.75855],[-122.744723,43.758549],[-122.744716,43.755009],[-122.744716,43.755008],[-122.744709,43.751468],[-122.744752,43.744341],[-122.744718,43.737106],[-122.744718,43.737099],[-122.744717,43.736878],[-122.744702,43.733519],[-122.744686,43.729939],[-122.74467,43.726358],[-122.74467,43.726351],[-122.744654,43.722778],[-122.744642,43.721395],[-122.744642,43.721388],[-122.744624,43.719255],[-122.744595,43.715732],[-122.744565,43.712208],[-122.744502,43.708781],[-122.741478,43.708713],[-122.73648,43.708758],[-122.726478,43.708841],[-122.706531,43.709026],[-122.7065,43.694612],[-122.696657,43.694775],[-122.686824,43.694863],[-122.68663,43.694864],[-122.677013,43.694907],[-122.667087,43.694862],[-122.657143,43.694879],[-122.647199,43.694886],[-122.6373,43.694943],[-122.632638,43.694971],[-122.632637,43.694971],[-122.627534,43.695001],[-122.627413,43.695002],[-122.627421,43.696927],[-122.627421,43.696928],[-122.627432,43.702243],[-122.627518,43.702242],[-122.635832,43.702172],[-122.637367,43.702159],[-122.637433,43.709385],[-122.627635,43.709474],[-122.627586,43.709475],[-122.627586,43.709475],[-122.627593,43.711457],[-122.627594,43.716653],[-122.627557,43.718694],[-122.627451,43.723867],[-122.627446,43.725923],[-122.627436,43.731076],[-122.627448,43.733095],[-122.627499,43.738277],[-122.627504,43.740268],[-122.627529,43.74548],[-122.627538,43.747479],[-122.62754,43.747755],[-122.627578,43.752697],[-122.627578,43.752698],[-122.627613,43.754693],[-122.62772,43.759904],[-122.627728,43.7619],[-122.627765,43.767096],[-122.627765,43.767097],[-122.64309,43.76694],[-122.647392,43.766896],[-122.647412,43.774075],[-122.647418,43.777671],[-122.647432,43.781194],[-122.657338,43.781081],[-122.657451,43.78108],[-122.667245,43.780969],[-122.66747,43.780967],[-122.677104,43.780746],[-122.677501,43.780737],[-122.686862,43.78051],[-122.687433,43.780497],[-122.696737,43.780362]],[[-122.686957,43.73775],[-122.69184,43.737722],[-122.706584,43.737637],[-122.706583,43.744858],[-122.706583,43.744858],[-122.691837,43.744918],[-122.691839,43.74132],[-122.686918,43.741361],[-122.686919,43.737751],[-122.686957,43.73775]]]}},{"type":"Feature","properties":{"MAPTAXLOT":"2115000000700","MAPNUMBER":"21150000","TAXLOT":"700","ACCTNO":"0945038","MAPACRES":158.20985417},"geometry":{"type":"Polygon","coordinates":[[[-122.627586,43.709475],[-122.627635,43.709474],[-122.637433,43.709385],[-122.637367,43.702159],[-122.635832,43.702172],[-122.627518,43.702242],[-122.627432,43.702243],[-122.627477,43.704191],[-122.627586,43.709475]]]}},{"type":"Feature","properties":{"MAPTAXLOT":"2125000002000","MAPNUMBER":"21250000","TAXLOT":"2000","ACCTNO":"0945285","MAPACRES":635.57303021},"geometry":{"type":"Polygon","coordinates":[[[-122.589334,43.754674],[-122.609253,43.754694],[-122.609145,43.740271],[-122.589262,43.74021],[-122.589334,43.754674]]]}},{"type":"Feature","properties":{"MAPTAXLOT":"2125000002100","MAPNUMBER":"21250000","TAXLOT":"2100","ACCTNO":"0945301","MAPACRES":585.14346235},"geometry":{"type":"Polygon","coordinates":[[[-122.619242,43.754694],[-122.627613,43.754693],[-122.627578,43.752698],[-122.627578,43.752697],[-122.62754,43.747755],[-122.627538,43.747479],[-122.627529,43.74548],[-122.627504,43.740268],[-122.619125,43.740269],[-122.609145,43.740271],[-122.609253,43.754694],[-122.619242,43.754694]]]}},{"type":"Feature","properties":{"MAPTAXLOT":"2125000002200","MAPNUMBER":"21250000","TAXLOT":"2200","ACCTNO":"0945319","MAPACRES":584.59841792},"geometry":{"type":"Polygon","coordinates":[[[-122.619125,43.740269],[-122.627504,43.740268],[-122.627499,43.738277],[-122.627448,43.733095],[-122.627436,43.731076],[-122.627446,43.725923],[-122.618972,43.72589],[-122.609025,43.725844],[-122.609145,43.740271],[-122.619125,43.740269]]]}},{"type":"Feature","properties":{"MAPTAXLOT":"2125000002300","MAPNUMBER":"21250000","TAXLOT":"2300","ACCTNO":"0945327","MAPACRES":633.64587974},"geometry":{"type":"Polygon","coordinates":[[[-122.589262,43.74021],[-122.609145,43.740271],[-122.609025,43.725844],[-122.589221,43.72576],[-122.589262,43.74021]]]}},{"type":"Feature","properties":{"MAPTAXLOT":"2125000003300","MAPNUMBER":"21250000","TAXLOT":"3300","ACCTNO":"0945426","MAPACRES":635.08124008},"geometry":{"type":"Polygon","coordinates":[[[-122.589221,43.72576],[-122.609025,43.725844],[-122.609084,43.711376],[-122.589186,43.711304],[-122.589221,43.72576]]]}},{"type":"Feature","properties":{"MAPTAXLOT":"2125000003400","MAPNUMBER":"21250000","TAXLOT":"3400","ACCTNO":"0945434","MAPACRES":591.4815236},"geometry":{"type":"Polygon","coordinates":[[[-122.618972,43.72589],[-122.627446,43.725923],[-122.627451,43.723867],[-122.627557,43.718694],[-122.627594,43.716653],[-122.627593,43.711457],[-122.619056,43.711427],[-122.609084,43.711376],[-122.609025,43.725844],[-122.618972,43.72589]]]}},{"type":"Feature","properties":{"MAPTAXLOT":"2125000003500","MAPNUMBER":"21250000","TAXLOT":"3500","ACCTNO":"0945442","MAPACRES":590.47414572},"geometry":{"type":"Polygon","coordinates":[[[-122.619056,43.711427],[-122.627593,43.711457],[-122.627586,43.709475],[-122.627586,43.709475],[-122.627477,43.704191],[-122.627432,43.702243],[-122.627421,43.696928],[-122.619113,43.696912],[-122.609117,43.696889],[-122.609084,43.711376],[-122.619056,43.711427]]]}},{"type":"Feature","properties":{"MAPTAXLOT":"2125000003600","MAPNUMBER":"21250000","TAXLOT":"3600","ACCTNO":"0945459","MAPACRES":638.52964772},"geometry":{"type":"Polygon","coordinates":[[[-122.589186,43.711304],[-122.609084,43.711376],[-122.609117,43.696889],[-122.589168,43.696823],[-122.589186,43.711304]]]}},{"type":"Feature","properties":{"MAPTAXLOT":"2215000000100","MAPNUMBER":"22150000","TAXLOT":"100","ACCTNO":"0971612","MAPACRES":586.6889673},"geometry":{"type":"Polygon","coordinates":[[[-122.657143,43.694879],[-122.667087,43.694862],[-122.667088,43.694848],[-122.667102,43.692441],[-122.667122,43.688819],[-122.667149,43.681575],[-122.64729,43.681569],[-122.647192,43.681569],[-122.6472,43.688811],[-122.6472,43.692432],[-122.647199,43.694871],[-122.647199,43.694886],[-122.657143,43.694879]]]}},{"type":"Feature","properties":{"MAPTAXLOT":"2215000000200","MAPNUMBER":"22150000","TAXLOT":"200","ACCTNO":"0971620","MAPACRES":583.25963065},"geometry":{"type":"Polygon","coordinates":[[[-122.6373,43.694943],[-122.647199,43.694886],[-122.647199,43.694871],[-122.6472,43.692432],[-122.6472,43.688811],[-122.647192,43.681569],[-122.62749,43.68156],[-122.627385,43.68156],[-122.627419,43.684127],[-122.627419,43.684145],[-122.627568,43.688775],[-122.627611,43.69136],[-122.627413,43.695002],[-122.627534,43.695001],[-122.632637,43.694971],[-122.632638,43.694971],[-122.6373,43.694943]]]}},{"type":"Feature","properties":{"MAPTAXLOT":"2215000000700","MAPNUMBER":"22150000","TAXLOT":"700","ACCTNO":"0971695","MAPACRES":639.32589848},"geometry":{"type":"Polygon","coordinates":[[[-122.647192,43.681569],[-122.64729,43.681569],[-122.667149,43.681575],[-122.667149,43.68156],[-122.666988,43.667089],[-122.647168,43.667079],[-122.647079,43.667079],[-122.647191,43.681549],[-122.647192,43.681569]]]}},{"type":"Feature","properties":{"MAPTAXLOT":"2215000000800","MAPNUMBER":"22150000","TAXLOT":"800","ACCTNO":"0971703","MAPACRES":635.07471174},"geometry":{"type":"Polygon","coordinates":[[[-122.627385,43.68156],[-122.62749,43.68156],[-122.647192,43.681569],[-122.647191,43.681549],[-122.647079,43.667079],[-122.627341,43.66711],[-122.627241,43.66711],[-122.627259,43.669591],[-122.627259,43.669632],[-122.627316,43.674336],[-122.627329,43.676889],[-122.627385,43.68156]]]}},{"type":"Feature","properties":{"MAPTAXLOT":"2225000000500","MAPNUMBER":"22250000","TAXLOT":"500","ACCTNO":"0971950","MAPACRES":558.31591896},"geometry":{"type":"Polygon","coordinates":[[[-122.589168,43.696823],[-122.609117,43.696889],[-122.609116,43.696867],[-122.609101,43.695019],[-122.609071,43.691396],[-122.609009,43.684149],[-122.589179,43.684234],[-122.589117,43.684234],[-122.58915,43.691476],[-122.589163,43.695097],[-122.589168,43.696797],[-122.589168,43.696823]]]}},{"type":"Feature","properties":{"MAPTAXLOT":"2225000000600","MAPNUMBER":"22250000","TAXLOT":"600","ACCTNO":"0971968","MAPACRES":520.95755625},"geometry":{"type":"Polygon","coordinates":[[[-122.619113,43.696912],[-122.627421,43.696928],[-122.627421,43.696927],[-122.627413,43.695002],[-122.627611,43.69136],[-122.627568,43.688775],[-122.627419,43.684145],[-122.624007,43.684145],[-122.619011,43.684146],[-122.609095,43.684149],[-122.609009,43.684149],[-122.609071,43.691396],[-122.609101,43.695019],[-122.609116,43.696867],[-122.609117,43.696889],[-122.619113,43.696912]]]}},{"type":"Feature","properties":{"MAPTAXLOT":"2225000000700","MAPNUMBER":"22250000","TAXLOT":"700","ACCTNO":"0971976","MAPACRES":591.64550838},"geometry":{"type":"Polygon","coordinates":[[[-122.624007,43.684145],[-122.627419,43.684145],[-122.627419,43.684127],[-122.627385,43.68156],[-122.627329,43.676889],[-122.627316,43.674336],[-122.627259,43.669632],[-122.623765,43.669633],[-122.618781,43.669637],[-122.608939,43.66965],[-122.608819,43.66965],[-122.609009,43.684124],[-122.609009,43.684149],[-122.609095,43.684149],[-122.619011,43.684146],[-122.624007,43.684145]]]}},{"type":"Feature","properties":{"MAPTAXLOT":"2225000000800","MAPNUMBER":"22250000","TAXLOT":"800","ACCTNO":"0971984","MAPACRES":638.07970167},"geometry":{"type":"Polygon","coordinates":[[[-122.589117,43.684234],[-122.589179,43.684234],[-122.609009,43.684149],[-122.609009,43.684124],[-122.608819,43.66965],[-122.589025,43.669741],[-122.588944,43.669741],[-122.589116,43.684203],[-122.589117,43.684234]]]}}]}