{"type":"FeatureCollection","features":[{"type":"Feature","properties":{"MAPTAXLOT":"2315000001800","MAPNUMBER":"23150000","TAXLOT":"1800","ACCTNO":"0975043","MAPACRES":6121.97748926},"geometry":{"type":"Polygon","coordinates":[[[-122.642698,43.568397],[-122.642729,43.568397],[-122.662549,43.56843],[-122.662549,43.568361],[-122.662545,43.561205],[-122.662577,43.561205],[-122.672523,43.561213],[-122.672523,43.561151],[-122.672523,43.557599],[-122.672556,43.557599],[-122.682506,43.557607],[-122.682506,43.557555],[-122.68251,43.553992],[-122.682543,43.553992],[-122.687499,43.554012],[-122.687499,43.553963],[-122.687464,43.539554],[-122.687454,43.535936],[-122.687514,43.535936],[-122.702456,43.535976],[-122.702456,43.535936],[-122.702417,43.532355],[-122.702396,43.528733],[-122.702462,43.528733],[-122.707376,43.528763],[-122.707376,43.528725],[-122.707344,43.524139],[-122.703565,43.524262],[-122.702364,43.524273],[-122.693734,43.524327],[-122.692402,43.524337],[-122.683939,43.524382],[-122.683938,43.524382],[-122.682442,43.524386],[-122.673531,43.524402],[-122.672507,43.524405],[-122.663125,43.524422],[-122.662573,43.524429],[-122.65332,43.524542],[-122.652641,43.524551],[-122.643027,43.524683],[-122.642712,43.524687],[-122.632984,43.524809],[-122.632798,43.524813],[-122.622925,43.525002],[-122.622885,43.525002],[-122.622896,43.527485],[-122.622884,43.532241],[-122.622881,43.534722],[-122.622869,43.539479],[-122.622866,43.54196],[-122.622853,43.546718],[-122.62285,43.549199],[-122.622836,43.553956],[-122.62283,43.556282],[-122.62283,43.556438],[-122.622825,43.561196],[-122.622823,43.563678],[-122.622818,43.568437],[-122.622844,43.568437],[-122.642698,43.568397]],[[-122.643277,43.562385],[-122.645581,43.565781],[-122.645629,43.565852],[-122.643596,43.566578],[-122.641245,43.563111],[-122.6412,43.563127],[-122.64028,43.559073],[-122.640333,43.559054],[-122.642403,43.558314],[-122.643322,43.562368],[-122.643277,43.562385]]]}},{"type":"Feature","properties":{"MAPTAXLOT":"2325000001100","MAPNUMBER":"23250000","TAXLOT":"1100","ACCTNO":"0975563","MAPACRES":11524.77959864},"geometry":{"type":"Polygon","coordinates":[[[-122.5682,43.585486],[-122.568218,43.585486],[-122.588081,43.585448],[-122.588081,43.585266],[-122.5881,43.572796],[-122.587777,43.573084],[-122.583395,43.570499],[-122.583545,43.570364],[-122.584825,43.569221],[-122.584688,43.56914],[-122.584266,43.568891],[-122.584416,43.568757],[-122.585697,43.567613],[-122.58688,43.568311],[-122.58689,43.56818],[-122.588107,43.568238],[-122.588107,43.568031],[-122.588126,43.556496],[-122.588142,43.542006],[-122.588158,43.542006],[-122.608035,43.541992],[-122.608004,43.553638],[-122.608003,43.553816],[-122.610227,43.553524],[-122.610551,43.554945],[-122.61059,43.555112],[-122.609577,43.555238],[-122.609277,43.555276],[-122.611979,43.556611],[-122.612116,43.556499],[-122.613444,43.555404],[-122.615079,43.556466],[-122.615351,43.556465],[-122.617966,43.556456],[-122.62283,43.556438],[-122.62283,43.556282],[-122.622836,43.553956],[-122.62285,43.549199],[-122.622853,43.546718],[-122.622866,43.54196],[-122.622869,43.539479],[-122.622881,43.534722],[-122.622884,43.532241],[-122.622896,43.527485],[-122.618003,43.527489],[-122.613039,43.527494],[-122.608075,43.527498],[-122.60311,43.527503],[-122.598144,43.527508],[-122.593179,43.527513],[-122.588214,43.527518],[-122.583248,43.527514],[-122.578282,43.52751],[-122.57332,43.527506],[-122.573316,43.527506],[-122.56835,43.527502],[-122.563383,43.527508],[-122.558415,43.527513],[-122.553448,43.527519],[-122.54848,43.527525],[-122.543514,43.527529],[-122.538548,43.527534],[-122.533582,43.527539],[-122.528616,43.527544],[-122.523655,43.52754],[-122.518695,43.527535],[-122.513734,43.527531],[-122.508853,43.527527],[-122.508774,43.527527],[-122.508695,43.531892],[-122.508645,43.534644],[-122.508642,43.534793],[-122.50854,43.541698],[-122.508614,43.548882],[-122.508745,43.555476],[-122.508755,43.555986],[-122.508755,43.555992],[-122.508886,43.563092],[-122.508889,43.563182],[-122.508798,43.570199],[-122.508837,43.577344],[-122.508837,43.577415],[-122.508889,43.584225],[-122.508896,43.584225],[-122.518694,43.584224],[-122.528132,43.584172],[-122.528137,43.585404],[-122.538149,43.585416],[-122.548161,43.585428],[-122.548161,43.585114],[-122.548158,43.581807],[-122.548162,43.581807],[-122.568195,43.581863],[-122.5682,43.585247],[-122.5682,43.585486]]]}},{"type":"Feature","properties":{"MAPTAXLOT":"2415000000100","MAPNUMBER":"24150000","TAXLOT":"100","ACCTNO":"0976199","MAPACRES":22876.50301499},"geometry":{"type":"Polygon","coordinates":[[[-122.702364,43.524273],[-122.703565,43.524262],[-122.707344,43.524139],[-122.70741,43.524137],[-122.712324,43.523976],[-122.713395,43.523937],[-122.722282,43.52372],[-122.72233,43.523719],[-122.723184,43.523695],[-122.732252,43.523638],[-122.732703,43.523633],[-122.74189,43.523487],[-122.741939,43.519929],[-122.741988,43.516371],[-122.742038,43.512814],[-122.742087,43.509256],[-122.742086,43.505682],[-122.742085,43.502109],[-122.742085,43.498535],[-122.742084,43.494961],[-122.742067,43.491375],[-122.742049,43.487789],[-122.742032,43.484203],[-122.742014,43.480617],[-122.741981,43.477018],[-122.741948,43.473419],[-122.741915,43.469821],[-122.741882,43.466222],[-122.741811,43.462617],[-122.74174,43.459011],[-122.741669,43.455406],[-122.741599,43.451801],[-122.74158,43.448191],[-122.741561,43.444581],[-122.741543,43.440971],[-122.741524,43.437361],[-122.738329,43.437364],[-122.733334,43.437373],[-122.723297,43.437406],[-122.703158,43.437555],[-122.683058,43.437725],[-122.662927,43.437915],[-122.642875,43.438117],[-122.622852,43.438301],[-122.622829,43.440105],[-122.622783,43.44373],[-122.622763,43.445378],[-122.622758,43.447355],[-122.62275,43.45098],[-122.622746,43.452781],[-122.622741,43.454605],[-122.622736,43.458232],[-122.622732,43.460108],[-122.622723,43.461857],[-122.622707,43.465483],[-122.622698,43.467274],[-122.622702,43.46911],[-122.622709,43.472737],[-122.622713,43.474459],[-122.622764,43.476362],[-122.62286,43.479989],[-122.622902,43.481521],[-122.622904,43.483617],[-122.622903,43.487243],[-122.622905,43.488658],[-122.622918,43.490868],[-122.622936,43.494494],[-122.622945,43.495927],[-122.622953,43.498119],[-122.622968,43.501744],[-122.622975,43.503155],[-122.622955,43.505367],[-122.622921,43.508991],[-122.622909,43.510424],[-122.62291,43.512615],[-122.622909,43.516239],[-122.622911,43.517708],[-122.622904,43.519861],[-122.622889,43.523485],[-122.622885,43.525002],[-122.622925,43.525002],[-122.632798,43.524813],[-122.632984,43.524809],[-122.642712,43.524687],[-122.643027,43.524683],[-122.652641,43.524551],[-122.65332,43.524542],[-122.662573,43.524429],[-122.663125,43.524422],[-122.672507,43.524405],[-122.673531,43.524402],[-122.682442,43.524386],[-122.683938,43.524382],[-122.683939,43.524382],[-122.692402,43.524337],[-122.693734,43.524327],[-122.702364,43.524273]]]}},{"type":"Feature","properties":{"MAPTAXLOT":"2425000000100","MAPNUMBER":"24250000","TAXLOT":"100","ACCTNO":"0976207","MAPACRES":22100.89018319},"geometry":{"type":"Polygon","coordinates":[[[-122.618003,43.527489],[-122.622896,43.527485],[-122.622885,43.525002],[-122.622889,43.523485],[-122.622904,43.519861],[-122.622911,43.517708],[-122.622909,43.516239],[-122.62291,43.512615],[-122.622909,43.510424],[-122.622921,43.508991],[-122.622955,43.505367],[-122.622975,43.503155],[-122.622968,43.501744],[-122.622953,43.498119],[-122.622945,43.495927],[-122.622936,43.494494],[-122.622918,43.490868],[-122.622905,43.488658],[-122.622903,43.487243],[-122.622904,43.483617],[-122.622902,43.481521],[-122.62286,43.479989],[-122.622764,43.476362],[-122.622713,43.474459],[-122.622709,43.472737],[-122.622702,43.46911],[-122.622698,43.467274],[-122.622707,43.465483],[-122.622723,43.461857],[-122.622732,43.460108],[-122.622736,43.458232],[-122.622741,43.454605],[-122.622746,43.452781],[-122.62275,43.45098],[-122.622758,43.447355],[-122.622763,43.445378],[-122.622783,43.44373],[-122.622829,43.440105],[-122.618281,43.44011],[-122.608331,43.440135],[-122.588402,43.440219],[-122.56847,43.440305],[-122.548539,43.440351],[-122.528613,43.440401],[-122.508694,43.440457],[-122.508693,43.441499],[-122.508693,43.447705],[-122.508693,43.448746],[-122.508693,43.454953],[-122.508692,43.455994],[-122.508678,43.462203],[-122.508678,43.463245],[-122.508665,43.469453],[-122.508663,43.470495],[-122.508671,43.476707],[-122.508671,43.477749],[-122.508678,43.483721],[-122.508678,43.483961],[-122.508741,43.491096],[-122.508741,43.491216],[-122.508806,43.498471],[-122.508811,43.505716],[-122.508812,43.505845],[-122.508863,43.509454],[-122.508912,43.512962],[-122.508912,43.513063],[-122.508771,43.520223],[-122.50877,43.520308],[-122.508774,43.527527],[-122.508853,43.527527],[-122.513734,43.527531],[-122.518695,43.527535],[-122.523655,43.52754],[-122.528616,43.527544],[-122.533582,43.527539],[-122.538548,43.527534],[-122.543514,43.527529],[-122.54848,43.527525],[-122.553448,43.527519],[-122.558415,43.527513],[-122.563383,43.527508],[-122.56835,43.527502],[-122.573316,43.527506],[-122.57332,43.527506],[-122.578282,43.52751],[-122.583248,43.527514],[-122.588214,43.527518],[-122.593179,43.527513],[-122.598144,43.527508],[-122.60311,43.527503],[-122.608075,43.527498],[-122.613039,43.527494],[-122.618003,43.527489]]]}}]}