{"type":"FeatureCollection","features":[{"type":"Feature","properties":{"MAPTAXLOT":"1506000000500","MAPNUMBER":"15060000","TAXLOT":"500","ACCTNO":"0021467","MAPACRES":318.00334354},"geometry":{"type":"Polygon","coordinates":[[[-123.411767,44.280905],[-123.431721,44.280842],[-123.431644,44.277169],[-123.431567,44.273496],[-123.421645,44.273586],[-123.416685,44.273629],[-123.411724,44.273672],[-123.411735,44.275482],[-123.411745,44.277289],[-123.411767,44.280905]]]}},{"type":"Feature","properties":{"MAPTAXLOT":"1506000000600","MAPNUMBER":"15060000","TAXLOT":"600","ACCTNO":"0021475","MAPACRES":240.36879379},"geometry":{"type":"Polygon","coordinates":[[[-123.356257,44.27895],[-123.371432,44.279195],[-123.371414,44.273793],[-123.361344,44.27358],[-123.35127,44.273445],[-123.351235,44.277061],[-123.351217,44.278868],[-123.351217,44.278869],[-123.356257,44.27895]]]}},{"type":"Feature","properties":{"MAPTAXLOT":"1506000000700","MAPNUMBER":"15060000","TAXLOT":"700","ACCTNO":"0021483","MAPACRES":121.74912033},"geometry":{"type":"Polygon","coordinates":[[[-123.361259,44.283669],[-123.371435,44.283701],[-123.371438,44.280996],[-123.371432,44.279195],[-123.356257,44.27895],[-123.35624,44.280756],[-123.361282,44.280836],[-123.361259,44.283669]]]}},{"type":"Feature","properties":{"MAPTAXLOT":"1506000000800","MAPNUMBER":"15060000","TAXLOT":"800","ACCTNO":"0021491","MAPACRES":31.67790464},"geometry":{"type":"Polygon","coordinates":[[[-123.356214,44.283653],[-123.361259,44.283669],[-123.361282,44.280836],[-123.35624,44.280756],[-123.356214,44.283653]]]}},{"type":"Feature","properties":{"MAPTAXLOT":"1506000001000","MAPNUMBER":"15060000","TAXLOT":"1000","ACCTNO":"0021517","MAPACRES":534.82321545},"geometry":{"type":"Polygon","coordinates":[[[-123.35124,44.269972],[-123.35127,44.273445],[-123.361344,44.27358],[-123.371414,44.273793],[-123.371403,44.266508],[-123.371418,44.259268],[-123.361321,44.259256],[-123.358345,44.259252],[-123.356272,44.25925],[-123.35629,44.266474],[-123.356305,44.268238],[-123.351224,44.268236],[-123.35124,44.269972]]]}},{"type":"Feature","properties":{"MAPTAXLOT":"1506000001300","MAPNUMBER":"15060000","TAXLOT":"1300","ACCTNO":"0021541","MAPACRES":319.00092513},"geometry":{"type":"Polygon","coordinates":[[[-123.421645,44.273586],[-123.431567,44.273496],[-123.431726,44.262491],[-123.426727,44.262574],[-123.426686,44.26623],[-123.41171,44.266396],[-123.411717,44.270034],[-123.416699,44.269985],[-123.416685,44.273629],[-123.421645,44.273586]]]}},{"type":"Feature","properties":{"MAPTAXLOT":"1506000001400","MAPNUMBER":"15060000","TAXLOT":"1400","ACCTNO":"0021558","MAPACRES":278.80554947},"geometry":{"type":"Polygon","coordinates":[[[-123.41171,44.266396],[-123.426686,44.26623],[-123.426727,44.262574],[-123.431726,44.262491],[-123.431779,44.258823],[-123.41173,44.259203],[-123.41171,44.266396]]]}},{"type":"Feature","properties":{"MAPTAXLOT":"1506000002300","MAPNUMBER":"15060000","TAXLOT":"2300","ACCTNO":"0021640","MAPACRES":638.14322697},"geometry":{"type":"Polygon","coordinates":[[[-123.41173,44.259203],[-123.431779,44.258823],[-123.431815,44.244369],[-123.421829,44.244473],[-123.411842,44.244575],[-123.41173,44.259203]]]}},{"type":"Feature","properties":{"MAPTAXLOT":"1506000002400","MAPNUMBER":"15060000","TAXLOT":"2400","ACCTNO":"0021657","MAPACRES":646.6975446},"geometry":{"type":"Polygon","coordinates":[[[-123.40176,44.244642],[-123.411842,44.244575],[-123.411971,44.229862],[-123.401831,44.230073],[-123.391691,44.230286],[-123.391657,44.237546],[-123.391667,44.241127],[-123.391678,44.244708],[-123.40176,44.244642]]]}},{"type":"Feature","properties":{"MAPTAXLOT":"1506000002500","MAPNUMBER":"15060000","TAXLOT":"2500","ACCTNO":"0021665","MAPACRES":320.8190325},"geometry":{"type":"Polygon","coordinates":[[[-123.411842,44.244575],[-123.421829,44.244473],[-123.421855,44.240794],[-123.421932,44.229859],[-123.411971,44.229862],[-123.411842,44.244575]]]}},{"type":"Feature","properties":{"MAPTAXLOT":"1506000002600","MAPNUMBER":"15060000","TAXLOT":"2600","ACCTNO":"0021673","MAPACRES":79.83519556},"geometry":{"type":"Polygon","coordinates":[[[-123.421829,44.244473],[-123.431815,44.244369],[-123.431892,44.240777],[-123.421855,44.240794],[-123.421829,44.244473]]]}},{"type":"Feature","properties":{"MAPTAXLOT":"1506000002700","MAPNUMBER":"15060000","TAXLOT":"2700","ACCTNO":"0021681","MAPACRES":240.90340716},"geometry":{"type":"Polygon","coordinates":[[[-123.421855,44.240794],[-123.431892,44.240777],[-123.431968,44.237184],[-123.432122,44.229998],[-123.421932,44.229859],[-123.421855,44.240794]]]}},{"type":"Feature","properties":{"MAPTAXLOT":"1506100000077","MAPNUMBER":"15061000","TAXLOT":"77","ACCTNO":"000None","MAPACRES":3.46443303},"geometry":{"type":"Polygon","coordinates":[[[-123.392993,44.28089],[-123.393178,44.280887],[-123.393118,44.280499],[-123.393086,44.280341],[-123.393068,44.280236],[-123.393059,44.280161],[-123.393068,44.280084],[-123.393112,44.279986],[-123.393184,44.279869],[-123.393257,44.279768],[-123.39333,44.279668],[-123.393637,44.279284],[-123.393734,44.279162],[-123.39382,44.279037],[-123.394268,44.278297],[-123.39457,44.277785],[-123.394598,44.277749],[-123.394658,44.277682],[-123.39471,44.277631],[-123.39477,44.277583],[-123.394919,44.277485],[-123.395027,44.277391],[-123.395135,44.277262],[-123.395335,44.277024],[-123.395464,44.276865],[-123.395504,44.276811],[-123.395548,44.276742],[-123.395569,44.276695],[-123.395587,44.276633],[-123.395599,44.276585],[-123.395611,44.276546],[-123.395647,44.276474],[-123.395678,44.276429],[-123.395735,44.276374],[-123.395804,44.276324],[-123.395864,44.276289],[-123.395938,44.276249],[-123.396067,44.276188],[-123.396159,44.276154],[-123.396287,44.27612],[-123.396552,44.276065],[-123.396714,44.275986],[-123.396882,44.275819],[-123.396969,44.275609],[-123.396949,44.275369],[-123.396873,44.275105],[-123.396846,44.274917],[-123.396886,44.274691],[-123.39717,44.273976],[-123.397319,44.273745],[-123.397414,44.273656],[-123.39739,44.273656],[-123.397198,44.273656],[-123.397174,44.273656],[-123.397154,44.273674],[-123.39699,44.273928],[-123.396698,44.274663],[-123.396653,44.274915],[-123.396684,44.275126],[-123.39676,44.275387],[-123.396777,44.275593],[-123.396708,44.275757],[-123.396579,44.275886],[-123.396471,44.275939],[-123.396227,44.275989],[-123.396082,44.276028],[-123.395971,44.276069],[-123.395828,44.276136],[-123.395745,44.276182],[-123.395676,44.276222],[-123.39559,44.276284],[-123.395516,44.276357],[-123.395471,44.276419],[-123.395428,44.276508],[-123.395412,44.276557],[-123.3954,44.276606],[-123.395384,44.27666],[-123.39537,44.276693],[-123.395334,44.27675],[-123.395297,44.276798],[-123.395171,44.276954],[-123.394971,44.277192],[-123.394871,44.277312],[-123.394781,44.27739],[-123.394634,44.277486],[-123.394562,44.277544],[-123.3945,44.277604],[-123.394435,44.277678],[-123.394398,44.277724],[-123.394093,44.278243],[-123.393647,44.278979],[-123.393566,44.279097],[-123.393472,44.279216],[-123.393163,44.279602],[-123.393088,44.279704],[-123.393012,44.279809],[-123.392933,44.279937],[-123.39288,44.280057],[-123.392867,44.28016],[-123.392878,44.28025],[-123.392897,44.28036],[-123.392929,44.280519],[-123.392993,44.280888],[-123.392993,44.28089]]]}},{"type":"Feature","properties":{"MAPTAXLOT":"1506100000100","MAPNUMBER":"15061000","TAXLOT":"100","ACCTNO":"0021814","MAPACRES":155.76014379},"geometry":{"type":"MultiPolygon","coordinates":[[[[-123.397319,44.273745],[-123.39717,44.273976],[-123.396886,44.274691],[-123.396846,44.274917],[-123.396873,44.275105],[-123.396949,44.275369],[-123.396969,44.275609],[-123.396882,44.275819],[-123.396714,44.275986],[-123.396552,44.276065],[-123.396287,44.27612],[-123.396159,44.276154],[-123.396067,44.276188],[-123.395938,44.276249],[-123.395864,44.276289],[-123.395804,44.276324],[-123.395735,44.276374],[-123.395678,44.276429],[-123.395647,44.276474],[-123.395611,44.276546],[-123.395599,44.276585],[-123.395587,44.276633],[-123.395569,44.276695],[-123.395548,44.276742],[-123.395504,44.276811],[-123.395464,44.276865],[-123.395335,44.277024],[-123.395135,44.277262],[-123.395027,44.277391],[-123.394919,44.277485],[-123.39477,44.277583],[-123.39471,44.277631],[-123.394658,44.277682],[-123.394598,44.277749],[-123.39457,44.277785],[-123.394268,44.278297],[-123.39382,44.279037],[-123.393734,44.279162],[-123.393637,44.279284],[-123.39333,44.279668],[-123.393257,44.279768],[-123.393184,44.279869],[-123.393112,44.279986],[-123.393068,44.280084],[-123.393059,44.280161],[-123.393068,44.280236],[-123.393086,44.280341],[-123.393118,44.280499],[-123.393178,44.280887],[-123.397067,44.280889],[-123.401691,44.280891],[-123.401684,44.277279],[-123.401681,44.275477],[-123.401678,44.273667],[-123.397414,44.273656],[-123.397319,44.273745]]],[[[-123.391645,44.280888],[-123.392993,44.28089],[-123.392993,44.280888],[-123.392929,44.280519],[-123.392897,44.28036],[-123.392878,44.28025],[-123.392867,44.28016],[-123.39288,44.280057],[-123.392933,44.279937],[-123.393012,44.279809],[-123.393088,44.279704],[-123.393163,44.279602],[-123.393472,44.279216],[-123.393566,44.279097],[-123.393647,44.278979],[-123.394093,44.278243],[-123.394398,44.277724],[-123.394435,44.277678],[-123.3945,44.277604],[-123.394562,44.277544],[-123.394634,44.277486],[-123.394781,44.27739],[-123.394871,44.277312],[-123.394971,44.277192],[-123.395171,44.276954],[-123.395297,44.276798],[-123.395334,44.27675],[-123.39537,44.276693],[-123.395384,44.27666],[-123.3954,44.276606],[-123.395412,44.276557],[-123.395428,44.276508],[-123.395471,44.276419],[-123.395516,44.276357],[-123.39559,44.276284],[-123.395676,44.276222],[-123.395745,44.276182],[-123.395828,44.276136],[-123.395971,44.276069],[-123.396082,44.276028],[-123.396227,44.275989],[-123.396471,44.275939],[-123.396579,44.275886],[-123.396708,44.275757],[-123.396777,44.275593],[-123.39676,44.275387],[-123.396684,44.275126],[-123.396653,44.274915],[-123.396698,44.274663],[-123.39699,44.273928],[-123.397154,44.273674],[-123.397174,44.273656],[-123.396662,44.273654],[-123.391646,44.273642],[-123.391645,44.280888]]]]}},{"type":"Feature","properties":{"MAPTAXLOT":"1506100000200","MAPNUMBER":"15061000","TAXLOT":"200","ACCTNO":"0021822","MAPACRES":79.77686235},"geometry":{"type":"Polygon","coordinates":[[[-123.401691,44.280891],[-123.411767,44.280905],[-123.411745,44.277289],[-123.401684,44.277279],[-123.401691,44.280891]]]}},{"type":"Feature","properties":{"MAPTAXLOT":"1506100000300","MAPNUMBER":"15061000","TAXLOT":"300","ACCTNO":"0021830","MAPACRES":39.77809578},"geometry":{"type":"Polygon","coordinates":[[[-123.401684,44.277279],[-123.411745,44.277289],[-123.411735,44.275482],[-123.411722,44.275482],[-123.401681,44.275477],[-123.401684,44.277279]]]}},{"type":"Feature","properties":{"MAPTAXLOT":"1506100000400","MAPNUMBER":"15061000","TAXLOT":"400","ACCTNO":"0021848","MAPACRES":159.59848797},"geometry":{"type":"Polygon","coordinates":[[[-123.401681,44.275477],[-123.411722,44.275482],[-123.411735,44.275482],[-123.411724,44.273672],[-123.416685,44.273629],[-123.416699,44.269985],[-123.411717,44.270034],[-123.401683,44.270034],[-123.401678,44.273667],[-123.401681,44.275477]]]}},{"type":"Feature","properties":{"MAPTAXLOT":"1506110000100","MAPNUMBER":"15061100","TAXLOT":"100","ACCTNO":"0021855","MAPACRES":160.24955138},"geometry":{"type":"Polygon","coordinates":[[[-123.371438,44.280996],[-123.381521,44.280944],[-123.381556,44.273692],[-123.371414,44.273793],[-123.371432,44.279195],[-123.371438,44.280996]]]}},{"type":"Feature","properties":{"MAPTAXLOT":"1506110000200","MAPNUMBER":"15061100","TAXLOT":"200","ACCTNO":"0021863","MAPACRES":160.62746318},"geometry":{"type":"Polygon","coordinates":[[[-123.381521,44.280944],[-123.391645,44.280888],[-123.391646,44.273642],[-123.381556,44.273692],[-123.381521,44.280944]]]}},{"type":"Feature","properties":{"MAPTAXLOT":"1506140000077","MAPNUMBER":"15061400","TAXLOT":"77","ACCTNO":"000None","MAPACRES":3.58681183},"geometry":{"type":"MultiPolygon","coordinates":[[[[-123.381552,44.253634],[-123.382012,44.253758],[-123.382472,44.254007],[-123.38264,44.254144],[-123.38309,44.254445],[-123.383628,44.25458],[-123.384019,44.254643],[-123.384352,44.254713],[-123.384379,44.254719],[-123.384426,44.254732],[-123.384481,44.254743],[-123.384528,44.254753],[-123.384573,44.254762],[-123.38461,44.254767],[-123.384652,44.254777],[-123.384695,44.254787],[-123.384741,44.254798],[-123.384786,44.254809],[-123.384825,44.25482],[-123.384862,44.254831],[-123.384897,44.254843],[-123.384936,44.254858],[-123.384974,44.254875],[-123.385013,44.254898],[-123.385055,44.254921],[-123.385087,44.254941],[-123.385122,44.254966],[-123.385159,44.254995],[-123.385185,44.255017],[-123.385203,44.255042],[-123.385224,44.255068],[-123.385237,44.255079],[-123.385255,44.255098],[-123.385262,44.255105],[-123.385269,44.255114],[-123.385281,44.25513],[-123.38529,44.255144],[-123.385299,44.255161],[-123.385307,44.255176],[-123.385312,44.255192],[-123.38532,44.255214],[-123.385324,44.255235],[-123.385329,44.255261],[-123.385332,44.255279],[-123.385334,44.255294],[-123.385336,44.255317],[-123.385336,44.255337],[-123.385337,44.25536],[-123.385337,44.255381],[-123.385335,44.255399],[-123.385324,44.25543],[-123.385328,44.255535],[-123.385348,44.255621],[-123.385389,44.255732],[-123.385467,44.255888],[-123.385523,44.256001],[-123.385641,44.256195],[-123.385826,44.256483],[-123.385965,44.256723],[-123.386045,44.256982],[-123.38607,44.257115],[-123.386105,44.257299],[-123.386184,44.257506],[-123.386237,44.25764],[-123.386292,44.257792],[-123.386334,44.257946],[-123.386489,44.257945],[-123.386486,44.257933],[-123.386441,44.257768],[-123.386385,44.257611],[-123.386331,44.257477],[-123.386255,44.257277],[-123.386221,44.2571],[-123.386195,44.256963],[-123.386112,44.25669],[-123.385966,44.256438],[-123.38578,44.25615],[-123.385665,44.25596],[-123.385611,44.255851],[-123.385535,44.255699],[-123.385497,44.255598],[-123.385481,44.255524],[-123.385478,44.255442],[-123.385487,44.255417],[-123.38549,44.255385],[-123.38549,44.255358],[-123.385489,44.255335],[-123.385489,44.255313],[-123.385486,44.255287],[-123.385484,44.255268],[-123.38548,44.255246],[-123.385475,44.255221],[-123.38547,44.255192],[-123.38546,44.255167],[-123.385455,44.255147],[-123.385442,44.255121],[-123.38543,44.2551],[-123.385417,44.25508],[-123.385403,44.255062],[-123.385393,44.255049],[-123.385381,44.255035],[-123.385376,44.25503],[-123.385376,44.255029],[-123.385351,44.255006],[-123.385337,44.254989],[-123.385313,44.254956],[-123.385275,44.254923],[-123.385232,44.25489],[-123.38519,44.254859],[-123.38515,44.254836],[-123.385109,44.254813],[-123.385063,44.254786],[-123.385012,44.254763],[-123.384965,44.254745],[-123.384925,44.254731],[-123.384882,44.254718],[-123.384838,44.254706],[-123.384791,44.254694],[-123.384743,44.254682],[-123.384698,44.254672],[-123.384648,44.254661],[-123.384608,44.254655],[-123.384569,44.254647],[-123.384524,44.254638],[-123.384474,44.254627],[-123.384428,44.254615],[-123.384396,44.254608],[-123.384058,44.254536],[-123.383669,44.254474],[-123.38317,44.254349],[-123.382749,44.254067],[-123.382576,44.253926],[-123.382086,44.253661],[-123.381552,44.253517],[-123.381552,44.253634]]],[[[-123.387118,44.259371],[-123.387426,44.259466],[-123.387533,44.259484],[-123.387795,44.259544],[-123.388001,44.259658],[-123.388244,44.259854],[-123.388391,44.259966],[-123.388546,44.260071],[-123.388807,44.260239],[-123.389036,44.260384],[-123.38925,44.260547],[-123.38935,44.260643],[-123.389581,44.260863],[-123.389909,44.261023],[-123.390448,44.261252],[-123.390758,44.261384],[-123.391063,44.261521],[-123.3915,44.26181],[-123.391669,44.262215],[-123.391662,44.261817],[-123.391634,44.26175],[-123.391156,44.261434],[-123.390837,44.26129],[-123.390526,44.261157],[-123.38999,44.26093],[-123.389687,44.260782],[-123.389472,44.260577],[-123.389367,44.260477],[-123.389142,44.260305],[-123.388908,44.260157],[-123.388649,44.259991],[-123.3885,44.259889],[-123.388357,44.259779],[-123.388105,44.259577],[-123.387867,44.259446],[-123.387574,44.259379],[-123.387474,44.259361],[-123.387198,44.259277],[-123.387048,44.259186],[-123.386812,44.259187],[-123.387118,44.259371]]]]}},{"type":"Feature","properties":{"MAPTAXLOT":"1506140000100","MAPNUMBER":"15061400","TAXLOT":"100","ACCTNO":"0021871","MAPACRES":371.04257589},"geometry":{"type":"MultiPolygon","coordinates":[[[[-123.38154,44.259209],[-123.381556,44.273692],[-123.391646,44.273642],[-123.39165,44.270034],[-123.391654,44.266426],[-123.39166,44.263109],[-123.391627,44.262942],[-123.391631,44.262752],[-123.391655,44.262493],[-123.391669,44.262215],[-123.3915,44.26181],[-123.391063,44.261521],[-123.390758,44.261384],[-123.390448,44.261252],[-123.389909,44.261023],[-123.389581,44.260863],[-123.38935,44.260643],[-123.38925,44.260547],[-123.389036,44.260384],[-123.388807,44.260239],[-123.388546,44.260071],[-123.388391,44.259966],[-123.388244,44.259854],[-123.388001,44.259658],[-123.387795,44.259544],[-123.387533,44.259484],[-123.387426,44.259466],[-123.387118,44.259371],[-123.386812,44.259187],[-123.386604,44.259188],[-123.38161,44.259208],[-123.381612,44.257965],[-123.386334,44.257946],[-123.386292,44.257792],[-123.386237,44.25764],[-123.386184,44.257506],[-123.386105,44.257299],[-123.38607,44.257115],[-123.386045,44.256982],[-123.385965,44.256723],[-123.385826,44.256483],[-123.385641,44.256195],[-123.385523,44.256001],[-123.385467,44.255888],[-123.385389,44.255732],[-123.385348,44.255621],[-123.385328,44.255535],[-123.385324,44.25543],[-123.385335,44.255399],[-123.385337,44.255381],[-123.385337,44.25536],[-123.385336,44.255337],[-123.385336,44.255317],[-123.385334,44.255294],[-123.385332,44.255279],[-123.385329,44.255261],[-123.385324,44.255235],[-123.38532,44.255214],[-123.385312,44.255192],[-123.385307,44.255176],[-123.385299,44.255161],[-123.38529,44.255144],[-123.385281,44.25513],[-123.385269,44.255114],[-123.385262,44.255105],[-123.385255,44.255098],[-123.385237,44.255079],[-123.385224,44.255068],[-123.385203,44.255042],[-123.385185,44.255017],[-123.385159,44.254995],[-123.385122,44.254966],[-123.385087,44.254941],[-123.385055,44.254921],[-123.385013,44.254898],[-123.384974,44.254875],[-123.384936,44.254858],[-123.384897,44.254843],[-123.384862,44.254831],[-123.384825,44.25482],[-123.384786,44.254809],[-123.384741,44.254798],[-123.384695,44.254787],[-123.384652,44.254777],[-123.38461,44.254767],[-123.384573,44.254762],[-123.384528,44.254753],[-123.384481,44.254743],[-123.384426,44.254732],[-123.384379,44.254719],[-123.384352,44.254713],[-123.384019,44.254643],[-123.383628,44.25458],[-123.38309,44.254445],[-123.38264,44.254144],[-123.382472,44.254007],[-123.382012,44.253758],[-123.381552,44.253634],[-123.38154,44.259209]]],[[[-123.381552,44.253517],[-123.382086,44.253661],[-123.382576,44.253926],[-123.382749,44.254067],[-123.38317,44.254349],[-123.383669,44.254474],[-123.384058,44.254536],[-123.384396,44.254608],[-123.384428,44.254615],[-123.384474,44.254627],[-123.384524,44.254638],[-123.384569,44.254647],[-123.384608,44.254655],[-123.384648,44.254661],[-123.384698,44.254672],[-123.384743,44.254682],[-123.384791,44.254694],[-123.384838,44.254706],[-123.384882,44.254718],[-123.384925,44.254731],[-123.384965,44.254745],[-123.385012,44.254763],[-123.385063,44.254786],[-123.385109,44.254813],[-123.38515,44.254836],[-123.38519,44.254859],[-123.385232,44.25489],[-123.385275,44.254923],[-123.385313,44.254956],[-123.385337,44.254989],[-123.385351,44.255006],[-123.385376,44.255029],[-123.385376,44.25503],[-123.385381,44.255035],[-123.385393,44.255049],[-123.385403,44.255062],[-123.385417,44.25508],[-123.38543,44.2551],[-123.385442,44.255121],[-123.385455,44.255147],[-123.38546,44.255167],[-123.38547,44.255192],[-123.385475,44.255221],[-123.38548,44.255246],[-123.385484,44.255268],[-123.385486,44.255287],[-123.385489,44.255313],[-123.385489,44.255335],[-123.38549,44.255358],[-123.38549,44.255385],[-123.385487,44.255417],[-123.385478,44.255442],[-123.385481,44.255524],[-123.385497,44.255598],[-123.385535,44.255699],[-123.385611,44.255851],[-123.385665,44.25596],[-123.38578,44.25615],[-123.385966,44.256438],[-123.386112,44.25669],[-123.386195,44.256963],[-123.386221,44.2571],[-123.386255,44.257277],[-123.386331,44.257477],[-123.386385,44.257611],[-123.386441,44.257768],[-123.386486,44.257933],[-123.386489,44.257945],[-123.386605,44.257945],[-123.386614,44.251961],[-123.381555,44.251984],[-123.381552,44.253517]]]]}},{"type":"Feature","properties":{"MAPTAXLOT":"1506140000101","MAPNUMBER":"15061400","TAXLOT":"101","ACCTNO":"0021889","MAPACRES":322.4330654},"geometry":{"type":"Polygon","coordinates":[[[-123.371414,44.273793],[-123.381556,44.273692],[-123.38154,44.259209],[-123.374481,44.25925],[-123.371418,44.259268],[-123.371403,44.266508],[-123.371414,44.273793]]]}},{"type":"Feature","properties":{"MAPTAXLOT":"1506140000102","MAPNUMBER":"15061400","TAXLOT":"102","ACCTNO":"1223757","MAPACRES":12.81515915},"geometry":{"type":"Polygon","coordinates":[[[-123.387048,44.259186],[-123.387198,44.259277],[-123.387474,44.259361],[-123.387574,44.259379],[-123.387867,44.259446],[-123.388105,44.259577],[-123.388357,44.259779],[-123.3885,44.259889],[-123.388649,44.259991],[-123.388908,44.260157],[-123.389142,44.260305],[-123.389367,44.260477],[-123.389472,44.260577],[-123.389687,44.260782],[-123.38999,44.26093],[-123.390526,44.261157],[-123.390837,44.26129],[-123.391156,44.261434],[-123.391634,44.26175],[-123.391662,44.261817],[-123.391667,44.259168],[-123.387048,44.259186]]]}},{"type":"Feature","properties":{"MAPTAXLOT":"1506150000077","MAPNUMBER":"15061500","TAXLOT":"77","ACCTNO":"000None","MAPACRES":5.6598782},"geometry":{"type":"Polygon","coordinates":[[[-123.397174,44.273656],[-123.397198,44.273656],[-123.39739,44.273656],[-123.397414,44.273656],[-123.397528,44.27355],[-123.398055,44.273042],[-123.398174,44.272915],[-123.398262,44.272764],[-123.398324,44.27263],[-123.398383,44.272501],[-123.398464,44.272385],[-123.398592,44.27223],[-123.398786,44.27199],[-123.398882,44.271809],[-123.399234,44.270937],[-123.399276,44.270742],[-123.399121,44.270448],[-123.398876,44.270235],[-123.398306,44.270034],[-123.398287,44.270027],[-123.398262,44.270021],[-123.397691,44.269882],[-123.397691,44.269882],[-123.397629,44.269866],[-123.39691,44.269697],[-123.396596,44.269595],[-123.396343,44.269471],[-123.395386,44.268934],[-123.39531,44.268885],[-123.395222,44.268815],[-123.395148,44.268752],[-123.394855,44.268412],[-123.394739,44.268082],[-123.394667,44.26784],[-123.39458,44.267593],[-123.394529,44.267354],[-123.394468,44.267086],[-123.394264,44.266422],[-123.394263,44.266419],[-123.394239,44.26634],[-123.394219,44.26634],[-123.394168,44.266191],[-123.394103,44.266052],[-123.393905,44.265599],[-123.393746,44.265357],[-123.393693,44.265219],[-123.393707,44.265082],[-123.393739,44.264975],[-123.393764,44.264835],[-123.393736,44.264701],[-123.393659,44.264481],[-123.393514,44.26431],[-123.393347,44.264176],[-123.393066,44.263988],[-123.392964,44.26392],[-123.392533,44.263777],[-123.392417,44.263763],[-123.39227,44.26374],[-123.392151,44.263695],[-123.392028,44.263559],[-123.391962,44.263487],[-123.391875,44.263308],[-123.391821,44.263144],[-123.39178,44.262935],[-123.391783,44.262757],[-123.391808,44.262499],[-123.391822,44.2622],[-123.391662,44.261817],[-123.391669,44.262215],[-123.391655,44.262493],[-123.391631,44.262752],[-123.391627,44.262942],[-123.39166,44.263109],[-123.391671,44.263164],[-123.391729,44.263339],[-123.391824,44.263535],[-123.392045,44.263778],[-123.392217,44.263844],[-123.392388,44.263871],[-123.392487,44.263883],[-123.392878,44.264012],[-123.393238,44.264253],[-123.393391,44.264375],[-123.393517,44.264524],[-123.393586,44.264722],[-123.39361,44.264836],[-123.393588,44.264956],[-123.393556,44.265066],[-123.393539,44.26523],[-123.393602,44.265395],[-123.393762,44.265639],[-123.393958,44.266085],[-123.394021,44.266222],[-123.394062,44.26634],[-123.394043,44.26634],[-123.394053,44.266373],[-123.394068,44.266422],[-123.394069,44.266425],[-123.394281,44.267112],[-123.394341,44.267375],[-123.394393,44.26762],[-123.394481,44.267871],[-123.394553,44.268113],[-123.394678,44.268467],[-123.394993,44.268833],[-123.395079,44.268905],[-123.395175,44.268982],[-123.395263,44.269039],[-123.39623,44.269582],[-123.396503,44.269715],[-123.396841,44.269825],[-123.397568,44.269996],[-123.397629,44.270011],[-123.39763,44.270011],[-123.397723,44.270034],[-123.397776,44.270047],[-123.398213,44.270154],[-123.398755,44.270345],[-123.398954,44.270518],[-123.399079,44.270757],[-123.399048,44.270907],[-123.398701,44.271765],[-123.398613,44.271931],[-123.398428,44.272161],[-123.398296,44.272319],[-123.398206,44.272448],[-123.398142,44.272587],[-123.398083,44.272716],[-123.398005,44.272849],[-123.397899,44.272962],[-123.397376,44.273467],[-123.397183,44.273647],[-123.397174,44.273656]]]}},{"type":"Feature","properties":{"MAPTAXLOT":"1506150000100","MAPNUMBER":"15061500","TAXLOT":"100","ACCTNO":"0021897","MAPACRES":39.75441839},"geometry":{"type":"Polygon","coordinates":[[[-123.391646,44.273642],[-123.396662,44.273654],[-123.396667,44.270034],[-123.39165,44.270034],[-123.391646,44.273642]]]}},{"type":"Feature","properties":{"MAPTAXLOT":"1506150000200","MAPNUMBER":"15061500","TAXLOT":"200","ACCTNO":"0021905","MAPACRES":38.03635797},"geometry":{"type":"MultiPolygon","coordinates":[[[[-123.398876,44.270235],[-123.399121,44.270448],[-123.399276,44.270742],[-123.399234,44.270937],[-123.398882,44.271809],[-123.398786,44.27199],[-123.398592,44.27223],[-123.398464,44.272385],[-123.398383,44.272501],[-123.398324,44.27263],[-123.398262,44.272764],[-123.398174,44.272915],[-123.398055,44.273042],[-123.397528,44.27355],[-123.397414,44.273656],[-123.401678,44.273667],[-123.401683,44.270034],[-123.398306,44.270034],[-123.398876,44.270235]]],[[[-123.396662,44.273654],[-123.397174,44.273656],[-123.397183,44.273647],[-123.397376,44.273467],[-123.397899,44.272962],[-123.398005,44.272849],[-123.398083,44.272716],[-123.398142,44.272587],[-123.398206,44.272448],[-123.398296,44.272319],[-123.398428,44.272161],[-123.398613,44.271931],[-123.398701,44.271765],[-123.399048,44.270907],[-123.399079,44.270757],[-123.398954,44.270518],[-123.398755,44.270345],[-123.398213,44.270154],[-123.397776,44.270047],[-123.397723,44.270034],[-123.396667,44.270034],[-123.396662,44.273654]]]]}},{"type":"Feature","properties":{"MAPTAXLOT":"1506150000300","MAPNUMBER":"15061500","TAXLOT":"300","ACCTNO":"0021913","MAPACRES":238.3290019},"geometry":{"type":"Polygon","coordinates":[[[-123.401683,44.270034],[-123.411717,44.270034],[-123.41171,44.266396],[-123.41173,44.259203],[-123.401699,44.259186],[-123.401688,44.266411],[-123.401683,44.270034]]]}},{"type":"Feature","properties":{"MAPTAXLOT":"1506150000400","MAPNUMBER":"15061500","TAXLOT":"400","ACCTNO":"0021921","MAPACRES":152.48491502},"geometry":{"type":"MultiPolygon","coordinates":[[[[-123.393736,44.264701],[-123.393764,44.264835],[-123.393739,44.264975],[-123.393707,44.265082],[-123.393693,44.265219],[-123.393746,44.265357],[-123.393905,44.265599],[-123.394103,44.266052],[-123.394168,44.266191],[-123.394219,44.26634],[-123.394239,44.26634],[-123.394263,44.266419],[-123.394264,44.266422],[-123.401688,44.266411],[-123.401699,44.259186],[-123.391667,44.259168],[-123.391662,44.261817],[-123.391822,44.2622],[-123.391808,44.262499],[-123.391783,44.262757],[-123.39178,44.262935],[-123.391821,44.263144],[-123.391875,44.263308],[-123.391962,44.263487],[-123.392028,44.263559],[-123.392064,44.263547],[-123.392244,44.263454],[-123.392428,44.26342],[-123.392591,44.263401],[-123.392691,44.263354],[-123.392729,44.263279],[-123.392826,44.263159],[-123.392949,44.263156],[-123.393173,44.263121],[-123.393316,44.263103],[-123.393464,44.263187],[-123.393669,44.263182],[-123.393755,44.263254],[-123.393839,44.263296],[-123.393918,44.263362],[-123.394049,44.263394],[-123.394193,44.263405],[-123.394299,44.263462],[-123.394465,44.263502],[-123.394674,44.263585],[-123.3948,44.263626],[-123.395126,44.263608],[-123.395116,44.264053],[-123.39479,44.264275],[-123.394512,44.264474],[-123.394353,44.264581],[-123.39421,44.264614],[-123.394085,44.264573],[-123.393892,44.264401],[-123.393719,44.264228],[-123.393487,44.264101],[-123.393279,44.264033],[-123.393066,44.263988],[-123.393347,44.264176],[-123.393514,44.26431],[-123.393659,44.264481],[-123.393736,44.264701]]],[[[-123.391654,44.266426],[-123.394068,44.266422],[-123.394053,44.266373],[-123.394043,44.26634],[-123.394062,44.26634],[-123.394021,44.266222],[-123.393958,44.266085],[-123.393762,44.265639],[-123.393602,44.265395],[-123.393539,44.26523],[-123.393556,44.265066],[-123.393588,44.264956],[-123.39361,44.264836],[-123.393586,44.264722],[-123.393517,44.264524],[-123.393391,44.264375],[-123.393238,44.264253],[-123.392878,44.264012],[-123.392487,44.263883],[-123.392388,44.263871],[-123.392217,44.263844],[-123.392045,44.263778],[-123.391824,44.263535],[-123.391729,44.263339],[-123.391671,44.263164],[-123.39166,44.263109],[-123.391654,44.266426]]]]}},{"type":"Feature","properties":{"MAPTAXLOT":"1506150000401","MAPNUMBER":"15061500","TAXLOT":"401","ACCTNO":"1293073","MAPACRES":5.13396073},"geometry":{"type":"Polygon","coordinates":[[[-123.393066,44.263988],[-123.393279,44.264033],[-123.393487,44.264101],[-123.393719,44.264228],[-123.393892,44.264401],[-123.394085,44.264573],[-123.39421,44.264614],[-123.394353,44.264581],[-123.394512,44.264474],[-123.39479,44.264275],[-123.395116,44.264053],[-123.395126,44.263608],[-123.3948,44.263626],[-123.394674,44.263585],[-123.394465,44.263502],[-123.394299,44.263462],[-123.394193,44.263405],[-123.394049,44.263394],[-123.393918,44.263362],[-123.393839,44.263296],[-123.393755,44.263254],[-123.393669,44.263182],[-123.393464,44.263187],[-123.393316,44.263103],[-123.393173,44.263121],[-123.392949,44.263156],[-123.392826,44.263159],[-123.392729,44.263279],[-123.392691,44.263354],[-123.392591,44.263401],[-123.392428,44.26342],[-123.392244,44.263454],[-123.392064,44.263547],[-123.392028,44.263559],[-123.392151,44.263695],[-123.39227,44.26374],[-123.392417,44.263763],[-123.392533,44.263777],[-123.392964,44.26392],[-123.393066,44.263988]]]}},{"type":"Feature","properties":{"MAPTAXLOT":"1506150000500","MAPNUMBER":"15061500","TAXLOT":"500","ACCTNO":"0021947","MAPACRES":77.46693934},"geometry":{"type":"MultiPolygon","coordinates":[[[[-123.394468,44.267086],[-123.394529,44.267354],[-123.39458,44.267593],[-123.394667,44.26784],[-123.394739,44.268082],[-123.394855,44.268412],[-123.395148,44.268752],[-123.395222,44.268815],[-123.39531,44.268885],[-123.395386,44.268934],[-123.396343,44.269471],[-123.396596,44.269595],[-123.39691,44.269697],[-123.397629,44.269866],[-123.397691,44.269882],[-123.397691,44.269882],[-123.398262,44.270021],[-123.398287,44.270027],[-123.398306,44.270034],[-123.401683,44.270034],[-123.401688,44.266411],[-123.394264,44.266422],[-123.394468,44.267086]]],[[[-123.39165,44.270034],[-123.396667,44.270034],[-123.397723,44.270034],[-123.39763,44.270011],[-123.397629,44.270011],[-123.397568,44.269996],[-123.396841,44.269825],[-123.396503,44.269715],[-123.39623,44.269582],[-123.395263,44.269039],[-123.395175,44.268982],[-123.395079,44.268905],[-123.394993,44.268833],[-123.394678,44.268467],[-123.394553,44.268113],[-123.394481,44.267871],[-123.394393,44.26762],[-123.394341,44.267375],[-123.394281,44.267112],[-123.394069,44.266425],[-123.394068,44.266422],[-123.391654,44.266426],[-123.39165,44.270034]]]]}},{"type":"Feature","properties":{"MAPTAXLOT":"1506220000100","MAPNUMBER":"15062200","TAXLOT":"100","ACCTNO":"0021954","MAPACRES":79.80882637},"geometry":{"type":"Polygon","coordinates":[[[-123.391667,44.259168],[-123.401699,44.259186],[-123.401714,44.25555],[-123.396692,44.255551],[-123.39167,44.255553],[-123.391667,44.259168]]]}},{"type":"Feature","properties":{"MAPTAXLOT":"1506220000200","MAPNUMBER":"15062200","TAXLOT":"200","ACCTNO":"0021962","MAPACRES":521.88333782},"geometry":{"type":"Polygon","coordinates":[[[-123.401699,44.259186],[-123.41173,44.259203],[-123.411842,44.244575],[-123.40176,44.244642],[-123.391678,44.244708],[-123.391673,44.251938],[-123.396701,44.251926],[-123.396692,44.255551],[-123.401714,44.25555],[-123.401699,44.259186]]]}},{"type":"Feature","properties":{"MAPTAXLOT":"1506220000300","MAPNUMBER":"15062200","TAXLOT":"300","ACCTNO":"0021970","MAPACRES":39.89915743},"geometry":{"type":"Polygon","coordinates":[[[-123.39167,44.255553],[-123.396692,44.255551],[-123.396701,44.251926],[-123.391673,44.251938],[-123.39167,44.255553]]]}},{"type":"Feature","properties":{"MAPTAXLOT":"1506230000077","MAPNUMBER":"15062300","TAXLOT":"77","ACCTNO":"000None","MAPACRES":6.42403726},"geometry":{"type":"MultiPolygon","coordinates":[[[[-123.378695,44.252987],[-123.37902,44.25306],[-123.379021,44.25306],[-123.379977,44.253277],[-123.380336,44.253358],[-123.380679,44.253433],[-123.38103,44.253509],[-123.381414,44.253597],[-123.381552,44.253634],[-123.381552,44.253517],[-123.381464,44.253493],[-123.381075,44.253404],[-123.380723,44.253328],[-123.380381,44.253254],[-123.380023,44.253172],[-123.379134,44.25297],[-123.379143,44.252923],[-123.379151,44.25286],[-123.379158,44.252785],[-123.379155,44.252438],[-123.379153,44.251924],[-123.379153,44.251671],[-123.379151,44.251348],[-123.379151,44.251016],[-123.379146,44.250485],[-123.379143,44.250267],[-123.37914,44.250187],[-123.379137,44.250116],[-123.379121,44.249949],[-123.379098,44.249795],[-123.379065,44.24964],[-123.379032,44.249509],[-123.379032,44.249509],[-123.379018,44.249456],[-123.378984,44.249362],[-123.378942,44.249235],[-123.378891,44.249111],[-123.378818,44.248976],[-123.37874,44.248861],[-123.378653,44.248743],[-123.378563,44.248635],[-123.378488,44.248538],[-123.378434,44.248443],[-123.378408,44.248356],[-123.378401,44.248285],[-123.378399,44.248147],[-123.378408,44.24805],[-123.378422,44.247959],[-123.378445,44.247864],[-123.378475,44.24777],[-123.378513,44.247677],[-123.378555,44.247585],[-123.378615,44.247475],[-123.378617,44.247472],[-123.378714,44.247291],[-123.378764,44.247211],[-123.378834,44.247117],[-123.378924,44.247003],[-123.379136,44.246759],[-123.379233,44.246644],[-123.379293,44.246574],[-123.379317,44.246545],[-123.379384,44.246457],[-123.379429,44.246398],[-123.379765,44.245902],[-123.379858,44.24577],[-123.379944,44.24566],[-123.380044,44.245544],[-123.380149,44.245426],[-123.380343,44.245213],[-123.380457,44.245072],[-123.380579,44.24489],[-123.380656,44.244761],[-123.38049,44.244762],[-123.38044,44.244844],[-123.380322,44.245021],[-123.380213,44.245155],[-123.380021,44.245366],[-123.379914,44.245485],[-123.379812,44.245604],[-123.379723,44.245719],[-123.379628,44.245853],[-123.379294,44.246348],[-123.379185,44.24649],[-123.379103,44.246587],[-123.379006,44.246702],[-123.378793,44.246946],[-123.3787,44.247064],[-123.378627,44.247163],[-123.378584,44.247231],[-123.378573,44.247248],[-123.378541,44.247308],[-123.378475,44.247432],[-123.378447,44.247482],[-123.378411,44.247548],[-123.378367,44.247644],[-123.378327,44.247743],[-123.378295,44.247842],[-123.378271,44.247944],[-123.378256,44.24804],[-123.378247,44.248144],[-123.378249,44.248289],[-123.378257,44.248371],[-123.37826,44.248382],[-123.378288,44.248476],[-123.37835,44.248585],[-123.37843,44.248689],[-123.37852,44.248797],[-123.378603,44.24891],[-123.378678,44.24902],[-123.378746,44.249147],[-123.378795,44.249263],[-123.378835,44.249388],[-123.378869,44.24948],[-123.378914,44.249659],[-123.378947,44.249809],[-123.378969,44.249958],[-123.378985,44.250121],[-123.378987,44.250187],[-123.37899,44.250269],[-123.378993,44.250486],[-123.378999,44.251016],[-123.378998,44.251348],[-123.379,44.251671],[-123.379,44.251924],[-123.379003,44.252439],[-123.379006,44.252781],[-123.378999,44.252851],[-123.378991,44.25291],[-123.378986,44.252937],[-123.378741,44.252883],[-123.378352,44.252793],[-123.377948,44.252704],[-123.377616,44.252631],[-123.377297,44.25256],[-123.376919,44.252477],[-123.376525,44.252386],[-123.376496,44.25238],[-123.376155,44.252301],[-123.375786,44.252217],[-123.375421,44.252135],[-123.375032,44.252048],[-123.374567,44.251968],[-123.374069,44.251927],[-123.373481,44.251893],[-123.373014,44.251867],[-123.372602,44.251834],[-123.372204,44.251802],[-123.371772,44.251746],[-123.37143,44.251694],[-123.370967,44.251626],[-123.370521,44.251556],[-123.370002,44.251448],[-123.369509,44.251301],[-123.369272,44.251218],[-123.369232,44.251326],[-123.369446,44.251401],[-123.369952,44.251552],[-123.370484,44.251663],[-123.370935,44.251733],[-123.371399,44.251801],[-123.371743,44.251854],[-123.372182,44.251911],[-123.372585,44.251943],[-123.373,44.251976],[-123.373469,44.252002],[-123.374055,44.252036],[-123.3745,44.252072],[-123.37454,44.252076],[-123.374991,44.252153],[-123.375376,44.252239],[-123.37574,44.252322],[-123.376109,44.252405],[-123.376478,44.252491],[-123.376874,44.252582],[-123.377252,44.252665],[-123.377571,44.252736],[-123.377903,44.252809],[-123.378306,44.252897],[-123.378695,44.252987]]],[[[-123.386336,44.257951],[-123.386387,44.258221],[-123.386453,44.258535],[-123.386577,44.258932],[-123.386604,44.258965],[-123.386771,44.259162],[-123.386812,44.259187],[-123.387048,44.259186],[-123.386888,44.25909],[-123.38672,44.258891],[-123.386605,44.25852],[-123.386603,44.258514],[-123.386538,44.258206],[-123.386489,44.257945],[-123.386334,44.257946],[-123.386336,44.257951]]]]}},{"type":"Feature","properties":{"MAPTAXLOT":"1506230000100","MAPNUMBER":"15062300","TAXLOT":"100","ACCTNO":"0021988","MAPACRES":211.81283264},"geometry":{"type":"Polygon","coordinates":[[[-123.371418,44.259268],[-123.374481,44.25925],[-123.3745,44.252072],[-123.374055,44.252036],[-123.373469,44.252002],[-123.373,44.251976],[-123.372585,44.251943],[-123.372182,44.251911],[-123.371743,44.251854],[-123.371399,44.251801],[-123.370935,44.251733],[-123.370484,44.251663],[-123.369952,44.251552],[-123.369446,44.251401],[-123.369232,44.251326],[-123.369234,44.25202],[-123.361326,44.251983],[-123.361326,44.251999],[-123.361321,44.259256],[-123.371418,44.259268]]]}},{"type":"Feature","properties":{"MAPTAXLOT":"1506230000200","MAPNUMBER":"15062300","TAXLOT":"200","ACCTNO":"1293081","MAPACRES":98.92956558},"geometry":{"type":"Polygon","coordinates":[[[-123.374481,44.25925],[-123.38154,44.259209],[-123.381552,44.253634],[-123.381414,44.253597],[-123.38103,44.253509],[-123.380679,44.253433],[-123.380336,44.253358],[-123.379977,44.253277],[-123.379021,44.25306],[-123.37902,44.25306],[-123.378695,44.252987],[-123.378306,44.252897],[-123.377903,44.252809],[-123.377571,44.252736],[-123.377252,44.252665],[-123.376874,44.252582],[-123.376478,44.252491],[-123.376109,44.252405],[-123.37574,44.252322],[-123.375376,44.252239],[-123.374991,44.252153],[-123.37454,44.252076],[-123.3745,44.252072],[-123.374481,44.25925]]]}},{"type":"Feature","properties":{"MAPTAXLOT":"1506230000300","MAPNUMBER":"15062300","TAXLOT":"300","ACCTNO":"0022002","MAPACRES":13.34095411},"geometry":{"type":"MultiPolygon","coordinates":[[[[-123.38161,44.259208],[-123.386604,44.259188],[-123.386604,44.258965],[-123.386577,44.258932],[-123.386453,44.258535],[-123.386387,44.258221],[-123.386336,44.257951],[-123.386334,44.257946],[-123.381612,44.257965],[-123.38161,44.259208]]],[[[-123.386538,44.258206],[-123.386603,44.258514],[-123.386605,44.25852],[-123.386605,44.257945],[-123.386489,44.257945],[-123.386538,44.258206]]]]}},{"type":"Feature","properties":{"MAPTAXLOT":"1506230000500","MAPNUMBER":"15062300","TAXLOT":"500","ACCTNO":"1293107","MAPACRES":80.06742932},"geometry":{"type":"MultiPolygon","coordinates":[[[[-123.386605,44.257945],[-123.386605,44.25852],[-123.38672,44.258891],[-123.386888,44.25909],[-123.387048,44.259186],[-123.391667,44.259168],[-123.39167,44.255553],[-123.391673,44.251938],[-123.386614,44.251961],[-123.386605,44.257945]]],[[[-123.386604,44.259188],[-123.386812,44.259187],[-123.386771,44.259162],[-123.386604,44.258965],[-123.386604,44.259188]]]]}},{"type":"Feature","properties":{"MAPTAXLOT":"1506230000600","MAPNUMBER":"15062300","TAXLOT":"600","ACCTNO":"0022028","MAPACRES":160.31489593},"geometry":{"type":"Polygon","coordinates":[[[-123.386614,44.251961],[-123.391673,44.251938],[-123.391678,44.244708],[-123.384719,44.244743],[-123.381571,44.244758],[-123.381567,44.24645],[-123.381567,44.246568],[-123.381565,44.247462],[-123.381563,44.248367],[-123.381559,44.250176],[-123.381555,44.251984],[-123.386614,44.251961]]]}},{"type":"Feature","properties":{"MAPTAXLOT":"1506230000700","MAPNUMBER":"15062300","TAXLOT":"700","ACCTNO":"1293115","MAPACRES":29.68912954},"geometry":{"type":"MultiPolygon","coordinates":[[[[-123.379143,44.250267],[-123.379146,44.250485],[-123.379151,44.251016],[-123.379151,44.251348],[-123.379153,44.251671],[-123.379153,44.251924],[-123.379155,44.252438],[-123.379158,44.252785],[-123.379151,44.25286],[-123.379143,44.252923],[-123.379134,44.25297],[-123.380023,44.253172],[-123.380381,44.253254],[-123.380723,44.253328],[-123.381075,44.253404],[-123.381464,44.253493],[-123.381552,44.253517],[-123.381555,44.251984],[-123.381559,44.250176],[-123.37914,44.250187],[-123.379143,44.250267]]],[[[-123.376496,44.252007],[-123.376496,44.25238],[-123.376525,44.252386],[-123.376919,44.252477],[-123.377297,44.25256],[-123.377616,44.252631],[-123.377948,44.252704],[-123.378352,44.252793],[-123.378741,44.252883],[-123.378986,44.252937],[-123.378991,44.25291],[-123.378999,44.252851],[-123.379006,44.252781],[-123.379003,44.252439],[-123.379,44.251924],[-123.379,44.251671],[-123.378998,44.251348],[-123.378999,44.251016],[-123.378993,44.250486],[-123.37899,44.250269],[-123.378987,44.250187],[-123.376501,44.250198],[-123.376496,44.252007]]]]}},{"type":"Feature","properties":{"MAPTAXLOT":"1506230000800","MAPNUMBER":"15062300","TAXLOT":"800","ACCTNO":"1293123","MAPACRES":9.93089003},"geometry":{"type":"Polygon","coordinates":[[[-123.37914,44.250187],[-123.381559,44.250176],[-123.381563,44.248367],[-123.379034,44.248379],[-123.379032,44.249509],[-123.379032,44.249509],[-123.379065,44.24964],[-123.379098,44.249795],[-123.379121,44.249949],[-123.379137,44.250116],[-123.37914,44.250187]]]}},{"type":"Feature","properties":{"MAPTAXLOT":"1506230000900","MAPNUMBER":"15062300","TAXLOT":"900","ACCTNO":"0022051","MAPACRES":10.00163763},"geometry":{"type":"Polygon","coordinates":[[[-123.376501,44.250198],[-123.378987,44.250187],[-123.378985,44.250121],[-123.378969,44.249958],[-123.378947,44.249809],[-123.378914,44.249659],[-123.378869,44.24948],[-123.378835,44.249388],[-123.378795,44.249263],[-123.378746,44.249147],[-123.378678,44.24902],[-123.378603,44.24891],[-123.37852,44.248797],[-123.37843,44.248689],[-123.37835,44.248585],[-123.378288,44.248476],[-123.37826,44.248382],[-123.378257,44.248382],[-123.377047,44.248387],[-123.377155,44.247485],[-123.376507,44.247486],[-123.376505,44.24839],[-123.376501,44.250198]]]}},{"type":"Feature","properties":{"MAPTAXLOT":"1506230001000","MAPNUMBER":"15062300","TAXLOT":"1000","ACCTNO":"0022069","MAPACRES":39.41209642},"geometry":{"type":"Polygon","coordinates":[[[-123.369272,44.251218],[-123.369509,44.251301],[-123.370002,44.251448],[-123.370521,44.251556],[-123.370967,44.251626],[-123.37143,44.251694],[-123.371772,44.251746],[-123.372204,44.251802],[-123.372602,44.251834],[-123.373014,44.251867],[-123.373481,44.251893],[-123.374069,44.251927],[-123.374567,44.251968],[-123.375032,44.252048],[-123.375421,44.252135],[-123.375786,44.252217],[-123.376155,44.252301],[-123.376496,44.25238],[-123.376496,44.252007],[-123.376501,44.250198],[-123.376505,44.24839],[-123.3744,44.248399],[-123.373838,44.248657],[-123.371446,44.248685],[-123.37144,44.251216],[-123.371436,44.251216],[-123.369272,44.251218]]]}},{"type":"Feature","properties":{"MAPTAXLOT":"1506230001100","MAPNUMBER":"15062300","TAXLOT":"1100","ACCTNO":"0022077","MAPACRES":42.62723921},"geometry":{"type":"Polygon","coordinates":[[[-123.371446,44.248685],[-123.373838,44.248657],[-123.3744,44.248399],[-123.376505,44.24839],[-123.376507,44.247486],[-123.377155,44.247485],[-123.378356,44.247482],[-123.378447,44.247482],[-123.378475,44.247432],[-123.378541,44.247308],[-123.378573,44.247248],[-123.378584,44.247231],[-123.376508,44.247298],[-123.376514,44.244775],[-123.371457,44.244792],[-123.371446,44.248685]]]}},{"type":"Feature","properties":{"MAPTAXLOT":"1506230001200","MAPNUMBER":"15062300","TAXLOT":"1200","ACCTNO":"0022085","MAPACRES":2.37054826},"geometry":{"type":"Polygon","coordinates":[[[-123.377155,44.247485],[-123.377047,44.248387],[-123.378257,44.248382],[-123.37826,44.248382],[-123.378257,44.248371],[-123.378249,44.248289],[-123.378247,44.248144],[-123.378256,44.24804],[-123.378271,44.247944],[-123.378295,44.247842],[-123.378327,44.247743],[-123.378367,44.247644],[-123.378411,44.247548],[-123.378447,44.247482],[-123.378356,44.247482],[-123.377155,44.247485]]]}},{"type":"Feature","properties":{"MAPTAXLOT":"1506230001201","MAPNUMBER":"15062300","TAXLOT":"1201","ACCTNO":"1293131","MAPACRES":6.84104169},"geometry":{"type":"Polygon","coordinates":[[[-123.378615,44.247475],[-123.378555,44.247585],[-123.378513,44.247677],[-123.378475,44.24777],[-123.378445,44.247864],[-123.378422,44.247959],[-123.378408,44.24805],[-123.378399,44.248147],[-123.378401,44.248285],[-123.378408,44.248356],[-123.378434,44.248443],[-123.378488,44.248538],[-123.378563,44.248635],[-123.378653,44.248743],[-123.37874,44.248861],[-123.378818,44.248976],[-123.378891,44.249111],[-123.378942,44.249235],[-123.378984,44.249362],[-123.379018,44.249456],[-123.379032,44.249509],[-123.379034,44.248379],[-123.381563,44.248367],[-123.381565,44.247462],[-123.381555,44.247462],[-123.378615,44.247475]]]}},{"type":"Feature","properties":{"MAPTAXLOT":"1506230001301","MAPNUMBER":"15062300","TAXLOT":"1301","ACCTNO":"1292562","MAPACRES":5.77168822},"geometry":{"type":"Polygon","coordinates":[[[-123.379384,44.246457],[-123.381567,44.24645],[-123.381571,44.244758],[-123.380656,44.244761],[-123.380579,44.24489],[-123.380457,44.245072],[-123.380343,44.245213],[-123.380149,44.245426],[-123.380044,44.245544],[-123.379944,44.24566],[-123.379858,44.24577],[-123.379765,44.245902],[-123.379429,44.246398],[-123.379384,44.246457]]]}},{"type":"Feature","properties":{"MAPTAXLOT":"1506230001302","MAPNUMBER":"15062300","TAXLOT":"1302","ACCTNO":"1519089","MAPACRES":16.50391395},"geometry":{"type":"Polygon","coordinates":[[[-123.376508,44.247298],[-123.378584,44.247231],[-123.378627,44.247163],[-123.3787,44.247064],[-123.378793,44.246946],[-123.379006,44.246702],[-123.379103,44.246587],[-123.379185,44.24649],[-123.379294,44.246348],[-123.379628,44.245853],[-123.379723,44.245719],[-123.379812,44.245604],[-123.379914,44.245485],[-123.380021,44.245366],[-123.380213,44.245155],[-123.380322,44.245021],[-123.38044,44.244844],[-123.38049,44.244762],[-123.376514,44.244775],[-123.376508,44.247298]]]}},{"type":"Feature","properties":{"MAPTAXLOT":"1506230001303","MAPNUMBER":"15062300","TAXLOT":"1303","ACCTNO":"1876943","MAPACRES":5.76963187},"geometry":{"type":"Polygon","coordinates":[[[-123.379317,44.246545],[-123.379293,44.246574],[-123.379233,44.246644],[-123.379136,44.246759],[-123.378924,44.247003],[-123.378834,44.247117],[-123.378764,44.247211],[-123.378714,44.247291],[-123.378617,44.247472],[-123.378615,44.247475],[-123.381555,44.247462],[-123.381565,44.247462],[-123.381567,44.246568],[-123.381567,44.24645],[-123.379384,44.246457],[-123.379317,44.246545]]]}},{"type":"Feature","properties":{"MAPTAXLOT":"1506240000077","MAPNUMBER":"15062400","TAXLOT":"77","ACCTNO":"000None","MAPACRES":5.85079289},"geometry":{"type":"Polygon","coordinates":[[[-123.356227,44.248181],[-123.356227,44.24817],[-123.35666,44.24836],[-123.357065,44.248518],[-123.357399,44.248661],[-123.357741,44.24881],[-123.358082,44.24891],[-123.35857,44.24906],[-123.358964,44.249164],[-123.359369,44.249227],[-123.359749,44.249254],[-123.360287,44.249284],[-123.360827,44.249251],[-123.361083,44.249218],[-123.361436,44.249164],[-123.362093,44.249069],[-123.362359,44.249031],[-123.362787,44.248988],[-123.363014,44.24905],[-123.363153,44.249131],[-123.36332,44.249229],[-123.363534,44.249321],[-123.363869,44.249443],[-123.364234,44.249574],[-123.364598,44.249701],[-123.364968,44.249832],[-123.365341,44.249964],[-123.365692,44.250086],[-123.366026,44.250203],[-123.3665,44.250371],[-123.366863,44.2505],[-123.36722,44.250626],[-123.367567,44.250749],[-123.367924,44.250873],[-123.368264,44.250991],[-123.368625,44.251114],[-123.369232,44.251326],[-123.369272,44.251218],[-123.368691,44.251015],[-123.36833,44.250892],[-123.367991,44.250774],[-123.367634,44.25065],[-123.367287,44.250528],[-123.366931,44.250402],[-123.366568,44.250272],[-123.366093,44.250105],[-123.365759,44.249987],[-123.365408,44.249865],[-123.365036,44.249734],[-123.364711,44.249619],[-123.364728,44.249594],[-123.364682,44.249578],[-123.364319,44.249451],[-123.363954,44.24932],[-123.363626,44.2492],[-123.36343,44.249116],[-123.363273,44.249025],[-123.36311,44.248929],[-123.362809,44.248848],[-123.362327,44.248896],[-123.362056,44.248934],[-123.361397,44.24903],[-123.361046,44.249084],[-123.360802,44.249115],[-123.360287,44.249146],[-123.359766,44.249117],[-123.359398,44.249091],[-123.359017,44.249032],[-123.358641,44.248932],[-123.358156,44.248784],[-123.357827,44.248687],[-123.357497,44.248543],[-123.357159,44.248399],[-123.356755,44.248241],[-123.356326,44.248053],[-123.356225,44.24801],[-123.355068,44.247568],[-123.355068,44.247568],[-123.355042,44.247558],[-123.354844,44.247476],[-123.354643,44.247398],[-123.354438,44.247324],[-123.35423,44.247255],[-123.35402,44.247191],[-123.351468,44.246438],[-123.351429,44.246425],[-123.351393,44.246408],[-123.351353,44.246385],[-123.351318,44.246358],[-123.351288,44.246328],[-123.351264,44.246295],[-123.351247,44.246261],[-123.351246,44.24626],[-123.351246,44.24626],[-123.351246,44.246258],[-123.351245,44.246258],[-123.351245,44.246257],[-123.351245,44.246257],[-123.351244,44.246255],[-123.351244,44.246254],[-123.351244,44.246253],[-123.351241,44.246246],[-123.351233,44.246211],[-123.351232,44.246175],[-123.351113,44.246411],[-123.351113,44.246412],[-123.351114,44.246413],[-123.351116,44.246415],[-123.351116,44.246415],[-123.351117,44.246415],[-123.351117,44.246416],[-123.351117,44.246416],[-123.351118,44.246417],[-123.351118,44.246417],[-123.351119,44.246418],[-123.351119,44.246419],[-123.35112,44.246419],[-123.35112,44.24642],[-123.351121,44.246421],[-123.351122,44.246421],[-123.351123,44.246422],[-123.351123,44.246423],[-123.351124,44.246423],[-123.351124,44.246424],[-123.351124,44.246424],[-123.351126,44.246425],[-123.351126,44.246426],[-123.351127,44.246427],[-123.351127,44.246427],[-123.351129,44.246428],[-123.35113,44.246429],[-123.35113,44.24643],[-123.351131,44.246431],[-123.351132,44.246432],[-123.351132,44.246432],[-123.351134,44.246433],[-123.351135,44.246435],[-123.351136,44.246435],[-123.351136,44.246436],[-123.351137,44.246437],[-123.351138,44.246437],[-123.351139,44.246439],[-123.35114,44.246439],[-123.351141,44.24644],[-123.351154,44.246452],[-123.351155,44.246453],[-123.351155,44.246453],[-123.351156,44.246454],[-123.351157,44.246455],[-123.351158,44.246456],[-123.351159,44.246457],[-123.351159,44.246457],[-123.35116,44.246458],[-123.351161,44.246459],[-123.351162,44.246459],[-123.351163,44.24646],[-123.351163,44.24646],[-123.351164,44.246461],[-123.351165,44.246461],[-123.351166,44.246463],[-123.351167,44.246464],[-123.351168,44.246464],[-123.351169,44.246465],[-123.35117,44.246466],[-123.35117,44.246466],[-123.351172,44.246467],[-123.351172,44.246468],[-123.351173,44.246468],[-123.351174,44.246469],[-123.351174,44.24647],[-123.351176,44.24647],[-123.351176,44.246471],[-123.351177,44.246471],[-123.351177,44.246472],[-123.351179,44.246473],[-123.35118,44.246474],[-123.35118,44.246474],[-123.351182,44.246475],[-123.351198,44.246487],[-123.351199,44.246488],[-123.3512,44.246489],[-123.3512,44.246489],[-123.351202,44.24649],[-123.351203,44.24649],[-123.351203,44.246491],[-123.351205,44.246492],[-123.351205,44.246492],[-123.351207,44.246493],[-123.351207,44.246493],[-123.351208,44.246494],[-123.35121,44.246495],[-123.351212,44.246497],[-123.351212,44.246497],[-123.351214,44.246498],[-123.351214,44.246498],[-123.351216,44.246499],[-123.351216,44.246499],[-123.351217,44.2465],[-123.351246,44.246518],[-123.351247,44.246518],[-123.351247,44.246518],[-123.351248,44.246519],[-123.351248,44.246519],[-123.35125,44.24652],[-123.35125,44.24652],[-123.351251,44.246521],[-123.351254,44.246522],[-123.351255,44.246523],[-123.351256,44.246523],[-123.351257,44.246524],[-123.351257,44.246524],[-123.351257,44.246524],[-123.35126,44.246525],[-123.35126,44.246525],[-123.35126,44.246525],[-123.35126,44.246525],[-123.351262,44.246526],[-123.351262,44.246527],[-123.351263,44.246527],[-123.351263,44.246527],[-123.351264,44.246528],[-123.351266,44.246528],[-123.351266,44.246528],[-123.351267,44.246529],[-123.351268,44.246529],[-123.351268,44.246529],[-123.351268,44.24653],[-123.35127,44.246531],[-123.35127,44.246531],[-123.35127,44.246531],[-123.35127,44.246531],[-123.35127,44.246531],[-123.351272,44.246532],[-123.351273,44.246532],[-123.351273,44.246532],[-123.351274,44.246533],[-123.351275,44.246533],[-123.351276,44.246534],[-123.351277,44.246534],[-123.351277,44.246534],[-123.351278,44.246535],[-123.351279,44.246535],[-123.35128,44.246535],[-123.351281,44.246536],[-123.351281,44.246536],[-123.351283,44.246537],[-123.351285,44.246538],[-123.351285,44.246538],[-123.351286,44.246538],[-123.351287,44.246539],[-123.351288,44.24654],[-123.351289,44.24654],[-123.35129,44.24654],[-123.351291,44.246541],[-123.351292,44.246541],[-123.351293,44.246542],[-123.351294,44.246542],[-123.351295,44.246542],[-123.351296,44.246543],[-123.351297,44.246543],[-123.351297,44.246544],[-123.351297,44.246544],[-123.351299,44.246545],[-123.3513,44.246545],[-123.351302,44.246546],[-123.351302,44.246546],[-123.351303,44.246546],[-123.351305,44.246547],[-123.351305,44.246547],[-123.351308,44.246548],[-123.351308,44.246549],[-123.351309,44.246549],[-123.35131,44.24655],[-123.351311,44.24655],[-123.351313,44.246551],[-123.351314,44.246551],[-123.351314,44.246551],[-123.351316,44.246552],[-123.351317,44.246552],[-123.351319,44.246553],[-123.351319,44.246553],[-123.351321,44.246554],[-123.351322,44.246554],[-123.351323,44.246555],[-123.351324,44.246555],[-123.351324,44.246555],[-123.351326,44.246556],[-123.351326,44.246556],[-123.351328,44.246557],[-123.351328,44.246557],[-123.351329,44.246557],[-123.35133,44.246558],[-123.351331,44.246558],[-123.351333,44.246559],[-123.351333,44.246559],[-123.351334,44.246559],[-123.351334,44.246559],[-123.351337,44.24656],[-123.351337,44.24656],[-123.351339,44.246561],[-123.35134,44.246561],[-123.35134,44.246562],[-123.351342,44.246562],[-123.351343,44.246563],[-123.351345,44.246563],[-123.351357,44.246568],[-123.351388,44.246578],[-123.352289,44.246843],[-123.35394,44.24733],[-123.354146,44.247393],[-123.354349,44.247461],[-123.354549,44.247533],[-123.354746,44.247609],[-123.354939,44.247689],[-123.355995,44.248093],[-123.356112,44.248137],[-123.356227,44.248181]]]}},{"type":"Feature","properties":{"MAPTAXLOT":"1506240000102","MAPNUMBER":"15062400","TAXLOT":"102","ACCTNO":"1418274","MAPACRES":65.84213006},"geometry":{"type":"Polygon","coordinates":[[[-123.358345,44.259252],[-123.361321,44.259256],[-123.361326,44.251999],[-123.361326,44.251983],[-123.361312,44.251983],[-123.356272,44.251983],[-123.356227,44.248182],[-123.356227,44.248181],[-123.356112,44.248137],[-123.356157,44.25196],[-123.356162,44.251978],[-123.358345,44.259252]]]}},{"type":"Feature","properties":{"MAPTAXLOT":"1506240000200","MAPNUMBER":"15062400","TAXLOT":"200","ACCTNO":"1293164","MAPACRES":68.61261653},"geometry":{"type":"Polygon","coordinates":[[[-123.361326,44.251983],[-123.369234,44.25202],[-123.369232,44.251326],[-123.368625,44.251114],[-123.368264,44.250991],[-123.367924,44.250873],[-123.367567,44.250749],[-123.36722,44.250626],[-123.366863,44.2505],[-123.3665,44.250371],[-123.366026,44.250203],[-123.365692,44.250086],[-123.365341,44.249964],[-123.364968,44.249832],[-123.364598,44.249701],[-123.364234,44.249574],[-123.363869,44.249443],[-123.363534,44.249321],[-123.36332,44.249229],[-123.363153,44.249131],[-123.363014,44.24905],[-123.362787,44.248988],[-123.362359,44.249031],[-123.362093,44.249069],[-123.361436,44.249164],[-123.361083,44.249218],[-123.360827,44.249251],[-123.360287,44.249284],[-123.359749,44.249254],[-123.359369,44.249227],[-123.358964,44.249164],[-123.35857,44.24906],[-123.358082,44.24891],[-123.357741,44.24881],[-123.357399,44.248661],[-123.357065,44.248518],[-123.35666,44.24836],[-123.356227,44.24817],[-123.356227,44.248181],[-123.356227,44.248182],[-123.356272,44.251983],[-123.361312,44.251983],[-123.361326,44.251983]]]}},{"type":"Feature","properties":{"MAPTAXLOT":"1506240000300","MAPNUMBER":"15062400","TAXLOT":"300","ACCTNO":"1293172","MAPACRES":191.00335949},"geometry":{"type":"Polygon","coordinates":[[[-123.369272,44.251218],[-123.371436,44.251216],[-123.37144,44.251216],[-123.371446,44.248685],[-123.371457,44.244792],[-123.361331,44.244758],[-123.356268,44.24474],[-123.35266,44.244728],[-123.351301,44.244723],[-123.351301,44.244725],[-123.351239,44.246021],[-123.351232,44.246175],[-123.351233,44.246211],[-123.351241,44.246246],[-123.351244,44.246253],[-123.351244,44.246254],[-123.351244,44.246255],[-123.351245,44.246257],[-123.351245,44.246257],[-123.351245,44.246258],[-123.351246,44.246258],[-123.351246,44.24626],[-123.351246,44.24626],[-123.351247,44.246261],[-123.351264,44.246295],[-123.351288,44.246328],[-123.351318,44.246358],[-123.351353,44.246385],[-123.351393,44.246408],[-123.351429,44.246425],[-123.351468,44.246438],[-123.35402,44.247191],[-123.35423,44.247255],[-123.354438,44.247324],[-123.354643,44.247398],[-123.354844,44.247476],[-123.355042,44.247558],[-123.355068,44.247568],[-123.355068,44.247568],[-123.356225,44.24801],[-123.356326,44.248053],[-123.356755,44.248241],[-123.357159,44.248399],[-123.357497,44.248543],[-123.357827,44.248687],[-123.358156,44.248784],[-123.358641,44.248932],[-123.359017,44.249032],[-123.359398,44.249091],[-123.359766,44.249117],[-123.360287,44.249146],[-123.360802,44.249115],[-123.361046,44.249084],[-123.361397,44.24903],[-123.362056,44.248934],[-123.362327,44.248896],[-123.362809,44.248848],[-123.36311,44.248929],[-123.363273,44.249025],[-123.36343,44.249116],[-123.363626,44.2492],[-123.363954,44.24932],[-123.364319,44.249451],[-123.364682,44.249578],[-123.364728,44.249594],[-123.364711,44.249619],[-123.365036,44.249734],[-123.365408,44.249865],[-123.365759,44.249987],[-123.366093,44.250105],[-123.366568,44.250272],[-123.366931,44.250402],[-123.367287,44.250528],[-123.367634,44.25065],[-123.367991,44.250774],[-123.36833,44.250892],[-123.368691,44.251015],[-123.369272,44.251218]]]}},{"type":"Feature","properties":{"MAPTAXLOT":"1506250000301","MAPNUMBER":"15062500","TAXLOT":"301","ACCTNO":"1342243","MAPACRES":115.39530714},"geometry":{"type":"Polygon","coordinates":[[[-123.35266,44.244728],[-123.356268,44.24474],[-123.361331,44.244758],[-123.361334,44.241173],[-123.361338,44.237587],[-123.356275,44.2376],[-123.356272,44.24117],[-123.354463,44.241187],[-123.352465,44.241204],[-123.351196,44.241215],[-123.351198,44.24202],[-123.351202,44.243478],[-123.351717,44.243492],[-123.35215,44.243675],[-123.352466,44.243901],[-123.352595,44.244135],[-123.352687,44.244361],[-123.352661,44.244715],[-123.35266,44.244728]]]}},{"type":"Feature","properties":{"MAPTAXLOT":"1506250000400","MAPNUMBER":"15062500","TAXLOT":"400","ACCTNO":"0022168","MAPACRES":79.97839069},"geometry":{"type":"Polygon","coordinates":[[[-123.361331,44.244758],[-123.371457,44.244792],[-123.371461,44.241176],[-123.361334,44.241173],[-123.361331,44.244758]]]}},{"type":"Feature","properties":{"MAPTAXLOT":"1506250000502","MAPNUMBER":"15062500","TAXLOT":"502","ACCTNO":"1818598","MAPACRES":108.22593532},"geometry":{"type":"Polygon","coordinates":[[[-123.361334,44.241173],[-123.371461,44.241176],[-123.371466,44.237561],[-123.371468,44.235768],[-123.371441,44.235763],[-123.370813,44.235637],[-123.368484,44.235736],[-123.367089,44.236029],[-123.365373,44.235958],[-123.364705,44.236076],[-123.364413,44.236579],[-123.364738,44.236865],[-123.364805,44.236924],[-123.364331,44.237448],[-123.363762,44.237356],[-123.361338,44.237121],[-123.361338,44.237587],[-123.361334,44.241173]]]}},{"type":"Feature","properties":{"MAPTAXLOT":"1506260000077","MAPNUMBER":"15062600","TAXLOT":"77","ACCTNO":"000None","MAPACRES":1.50069532},"geometry":{"type":"Polygon","coordinates":[[[-123.38049,44.244762],[-123.380656,44.244761],[-123.380675,44.24473],[-123.38078,44.244548],[-123.380974,44.244187],[-123.381043,44.244062],[-123.381111,44.243948],[-123.381164,44.24386],[-123.381236,44.243759],[-123.381315,44.243656],[-123.381406,44.24355],[-123.381496,44.24344],[-123.381583,44.243339],[-123.381659,44.243256],[-123.381736,44.243183],[-123.381823,44.243106],[-123.381925,44.243023],[-123.382018,44.242953],[-123.382133,44.242884],[-123.382263,44.242816],[-123.382419,44.242745],[-123.382569,44.24267],[-123.3827,44.242602],[-123.382832,44.242524],[-123.382946,44.242456],[-123.383065,44.24239],[-123.383166,44.242344],[-123.38326,44.242318],[-123.383399,44.242305],[-123.383572,44.242309],[-123.383732,44.242321],[-123.383884,44.242343],[-123.384183,44.242391],[-123.384313,44.242409],[-123.384429,44.242404],[-123.384542,44.242363],[-123.384619,44.242297],[-123.384677,44.242213],[-123.384709,44.242108],[-123.38471,44.242028],[-123.384558,44.242027],[-123.384557,44.242095],[-123.384532,44.242176],[-123.384491,44.242236],[-123.384445,44.242275],[-123.384387,44.242296],[-123.384322,44.242299],[-123.384214,44.242284],[-123.383916,44.242236],[-123.383755,44.242213],[-123.383582,44.2422],[-123.383392,44.242195],[-123.383223,44.242211],[-123.383097,44.242245],[-123.382977,44.242301],[-123.382851,44.242371],[-123.382735,44.242439],[-123.382607,44.242515],[-123.382481,44.24258],[-123.382334,44.242654],[-123.382178,44.242725],[-123.382039,44.242797],[-123.381914,44.242873],[-123.381813,44.242948],[-123.381706,44.243035],[-123.381615,44.243115],[-123.381534,44.243193],[-123.381455,44.24328],[-123.381365,44.243383],[-123.381275,44.243493],[-123.381183,44.243601],[-123.381101,44.243707],[-123.381026,44.243813],[-123.380971,44.243904],[-123.380902,44.24402],[-123.380832,44.244146],[-123.380638,44.244508],[-123.380535,44.244687],[-123.38049,44.244762]]]}},{"type":"Feature","properties":{"MAPTAXLOT":"1506260000100","MAPNUMBER":"15062600","TAXLOT":"100","ACCTNO":"0022192","MAPACRES":160.19194405},"geometry":{"type":"Polygon","coordinates":[[[-123.371457,44.244792],[-123.376514,44.244775],[-123.376517,44.241164],[-123.381573,44.241152],[-123.381575,44.237554],[-123.37652,44.237557],[-123.376523,44.233938],[-123.37147,44.233945],[-123.371468,44.23575],[-123.371468,44.235768],[-123.371466,44.237561],[-123.371461,44.241176],[-123.371457,44.244792]]]}},{"type":"Feature","properties":{"MAPTAXLOT":"1506260000200","MAPNUMBER":"15062600","TAXLOT":"200","ACCTNO":"0022200","MAPACRES":63.39683193},"geometry":{"type":"Polygon","coordinates":[[[-123.381571,44.244758],[-123.384719,44.244743],[-123.38472,44.241153],[-123.38472,44.241144],[-123.381573,44.241152],[-123.376517,44.241164],[-123.376514,44.244775],[-123.38049,44.244762],[-123.380535,44.244687],[-123.380638,44.244508],[-123.380832,44.244146],[-123.380902,44.24402],[-123.380971,44.243904],[-123.381026,44.243813],[-123.381101,44.243707],[-123.381183,44.243601],[-123.381275,44.243493],[-123.381365,44.243383],[-123.381455,44.24328],[-123.381534,44.243193],[-123.381615,44.243115],[-123.381706,44.243035],[-123.381813,44.242948],[-123.381914,44.242873],[-123.382039,44.242797],[-123.382178,44.242725],[-123.382334,44.242654],[-123.382481,44.24258],[-123.382607,44.242515],[-123.382735,44.242439],[-123.382851,44.242371],[-123.382977,44.242301],[-123.383097,44.242245],[-123.383223,44.242211],[-123.383392,44.242195],[-123.383582,44.2422],[-123.383755,44.242213],[-123.383916,44.242236],[-123.384214,44.242284],[-123.384322,44.242299],[-123.384387,44.242296],[-123.384445,44.242275],[-123.384491,44.242236],[-123.384532,44.242176],[-123.384557,44.242095],[-123.384558,44.242027],[-123.38471,44.242028],[-123.384709,44.242108],[-123.384677,44.242213],[-123.384619,44.242297],[-123.384542,44.242363],[-123.384429,44.242404],[-123.384313,44.242409],[-123.384183,44.242391],[-123.383884,44.242343],[-123.383732,44.242321],[-123.383572,44.242309],[-123.383399,44.242305],[-123.38326,44.242318],[-123.383166,44.242344],[-123.383065,44.24239],[-123.382946,44.242456],[-123.382832,44.242524],[-123.3827,44.242602],[-123.382569,44.24267],[-123.382419,44.242745],[-123.382263,44.242816],[-123.382133,44.242884],[-123.382018,44.242953],[-123.381925,44.243023],[-123.381823,44.243106],[-123.381736,44.243183],[-123.381659,44.243256],[-123.381583,44.243339],[-123.381496,44.24344],[-123.381406,44.24355],[-123.381315,44.243656],[-123.381236,44.243759],[-123.381164,44.24386],[-123.381111,44.243948],[-123.381043,44.244062],[-123.380974,44.244187],[-123.38078,44.244548],[-123.380675,44.24473],[-123.380656,44.244761],[-123.381571,44.244758]]]}},{"type":"Feature","properties":{"MAPTAXLOT":"1506260000300","MAPNUMBER":"15062600","TAXLOT":"300","ACCTNO":"1293248","MAPACRES":94.33933247},"geometry":{"type":"Polygon","coordinates":[[[-123.384719,44.244743],[-123.391678,44.244708],[-123.391667,44.241127],[-123.391657,44.237546],[-123.38663,44.23755],[-123.386627,44.241139],[-123.38472,44.241144],[-123.38472,44.241153],[-123.384719,44.244743]]]}},{"type":"Feature","properties":{"MAPTAXLOT":"1506260000400","MAPNUMBER":"15062600","TAXLOT":"400","ACCTNO":"0022226","MAPACRES":320.92711562},"geometry":{"type":"Polygon","coordinates":[[[-123.38472,44.241144],[-123.386627,44.241139],[-123.38663,44.23755],[-123.391657,44.237546],[-123.391691,44.230286],[-123.381579,44.230307],[-123.376527,44.230318],[-123.371475,44.230329],[-123.37147,44.233945],[-123.376523,44.233938],[-123.37652,44.237557],[-123.381575,44.237554],[-123.381573,44.241152],[-123.38472,44.241144]]]}}]}