{"type":"FeatureCollection","features":[{"type":"Feature","properties":{"MAPTAXLOT":"1565000000077","MAPNUMBER":"15650000","TAXLOT":"77","ACCTNO":"000None","MAPACRES":73.33785559},"geometry":{"type":"MultiPolygon","coordinates":[[[[-122.041971,44.248794],[-122.041736,44.248891],[-122.041577,44.248978],[-122.04146,44.249042],[-122.041291,44.249191],[-122.041196,44.249278],[-122.041177,44.249379],[-122.041072,44.249481],[-122.040935,44.249607],[-122.040829,44.249701],[-122.040768,44.249849],[-122.04073,44.250028],[-122.040766,44.250159],[-122.040769,44.250291],[-122.040827,44.250453],[-122.040819,44.25057],[-122.040866,44.250701],[-122.040955,44.250831],[-122.040969,44.250955],[-122.041048,44.251078],[-122.041129,44.251287],[-122.041133,44.251457],[-122.041127,44.251651],[-122.041076,44.251752],[-122.041005,44.251916],[-122.040986,44.252017],[-122.040871,44.252166],[-122.040778,44.252346],[-122.040707,44.252502],[-122.040656,44.252634],[-122.040606,44.252759],[-122.040555,44.252899],[-122.040472,44.253009],[-122.040422,44.253188],[-122.040394,44.253335],[-122.040354,44.253483],[-122.040294,44.253647],[-122.040275,44.25374],[-122.040266,44.253841],[-122.040557,44.253841],[-122.040592,44.253746],[-122.040619,44.253698],[-122.040645,44.253631],[-122.040671,44.253563],[-122.040707,44.253502],[-122.040714,44.253402],[-122.04073,44.253321],[-122.040747,44.253253],[-122.040746,44.253186],[-122.040772,44.253105],[-122.040798,44.253051],[-122.040843,44.252977],[-122.040888,44.252896],[-122.040914,44.252828],[-122.04096,44.252781],[-122.040948,44.252707],[-122.040937,44.25264],[-122.040963,44.252566],[-122.041,44.252531],[-122.041017,44.252478],[-122.04108,44.252389],[-122.041098,44.252342],[-122.041105,44.252241],[-122.041178,44.252173],[-122.041194,44.252099],[-122.041221,44.252025],[-122.041248,44.251991],[-122.041301,44.25189],[-122.041355,44.251815],[-122.04139,44.251707],[-122.041378,44.251606],[-122.041357,44.251506],[-122.041335,44.251406],[-122.041297,44.251346],[-122.041295,44.251279],[-122.041283,44.251191],[-122.041263,44.251111],[-122.041223,44.251038],[-122.041193,44.250944],[-122.041191,44.250864],[-122.041161,44.250797],[-122.041131,44.25073],[-122.041121,44.250676],[-122.041109,44.250569],[-122.041097,44.250482],[-122.041076,44.250408],[-122.041093,44.250328],[-122.041156,44.250246],[-122.041164,44.250179],[-122.041143,44.250092],[-122.041141,44.250011],[-122.041148,44.24991],[-122.041155,44.249837],[-122.041189,44.249715],[-122.041224,44.249621],[-122.041287,44.249526],[-122.041332,44.249458],[-122.041405,44.24939],[-122.041469,44.249322],[-122.041551,44.24924],[-122.041606,44.249193],[-122.04166,44.249111],[-122.04178,44.249056],[-122.0419,44.249007],[-122.042002,44.248966],[-122.042094,44.248938],[-122.042168,44.248903],[-122.042252,44.248882],[-122.042363,44.248833],[-122.042418,44.248792],[-122.042502,44.248784],[-122.042587,44.248817],[-122.042707,44.248788],[-122.0428,44.248754],[-122.042949,44.248752],[-122.043051,44.24873],[-122.043135,44.248716],[-122.043228,44.248681],[-122.043264,44.24864],[-122.043338,44.248612],[-122.043459,44.24859],[-122.043562,44.248616],[-122.043684,44.248608],[-122.043776,44.248566],[-122.043849,44.248491],[-122.043903,44.248437],[-122.044005,44.248382],[-122.044135,44.248346],[-122.044272,44.248244],[-122.044354,44.248169],[-122.044428,44.248128],[-122.044539,44.248066],[-122.044584,44.248011],[-122.044629,44.247944],[-122.044711,44.247875],[-122.044775,44.247807],[-122.04482,44.247746],[-122.044838,44.247706],[-122.044911,44.247658],[-122.044938,44.247611],[-122.045011,44.247556],[-122.045066,44.247488],[-122.045082,44.247407],[-122.045127,44.247346],[-122.045182,44.247292],[-122.045246,44.247237],[-122.045291,44.247163],[-122.045345,44.247088],[-122.045399,44.247],[-122.045415,44.246919],[-122.045451,44.246852],[-122.045448,44.246744],[-122.04553,44.246649],[-122.045593,44.246574],[-122.045656,44.246466],[-122.045701,44.246385],[-122.045746,44.246324],[-122.045763,44.24625],[-122.045818,44.246209],[-122.045853,44.246141],[-122.045889,44.246074],[-122.045906,44.24602],[-122.045923,44.245952],[-122.045969,44.245911],[-122.046023,44.245837],[-122.046095,44.245715],[-122.04612,44.245614],[-122.046165,44.245566],[-122.04622,44.245498],[-122.04633,44.24543],[-122.046385,44.245369],[-122.046457,44.245287],[-122.046493,44.245233],[-122.046558,44.245218],[-122.046613,44.245157],[-122.046649,44.245103],[-122.046704,44.245069],[-122.046749,44.245021],[-122.046794,44.24494],[-122.046811,44.244879],[-122.046866,44.244832],[-122.046976,44.24477],[-122.047012,44.244709],[-122.047067,44.244648],[-122.047112,44.244593],[-122.047157,44.244532],[-122.047231,44.244498],[-122.047295,44.24445],[-122.047369,44.244395],[-122.047422,44.244307],[-122.047439,44.244246],[-122.047484,44.244179],[-122.04754,44.244151],[-122.047622,44.244096],[-122.047706,44.244062],[-122.047797,44.244],[-122.047842,44.243932],[-122.047924,44.243824],[-122.047978,44.243769],[-122.048043,44.243735],[-122.048145,44.243707],[-122.0482,44.243659],[-122.048273,44.243591],[-122.048374,44.243536],[-122.048475,44.243467],[-122.048586,44.243412],[-122.048677,44.243337],[-122.048797,44.243288],[-122.048898,44.24322],[-122.048982,44.243198],[-122.049074,44.243143],[-122.049213,44.243088],[-122.049305,44.243053],[-122.049388,44.243005],[-122.049519,44.24301],[-122.049649,44.242981],[-122.049769,44.242919],[-122.049834,44.242898],[-122.049926,44.242864],[-122.05,44.242842],[-122.050112,44.242841],[-122.050214,44.242813],[-122.050298,44.242785],[-122.050372,44.242777],[-122.050418,44.242729],[-122.05053,44.242721],[-122.050652,44.242746],[-122.050735,44.242698],[-122.050828,44.242684],[-122.050921,44.242662],[-122.050985,44.242608],[-122.051078,44.2426],[-122.051209,44.242605],[-122.051284,44.242624],[-122.051386,44.242589],[-122.051535,44.24258],[-122.051628,44.242566],[-122.051712,44.242578],[-122.051843,44.242576],[-122.051945,44.242555],[-122.052038,44.242526],[-122.052142,44.242552],[-122.052235,44.242571],[-122.052375,44.242542],[-122.052486,44.2425],[-122.052589,44.242506],[-122.052719,44.242491],[-122.052841,44.242516],[-122.052982,44.242521],[-122.053111,44.242485],[-122.05328,44.242503],[-122.05342,44.242481],[-122.053597,44.242465],[-122.053755,44.242443],[-122.053866,44.242408],[-122.054024,44.242393],[-122.054154,44.242344],[-122.054312,44.242315],[-122.054414,44.24228],[-122.054497,44.242239],[-122.054609,44.242244],[-122.054749,44.242215],[-122.054841,44.24218],[-122.054914,44.242099],[-122.055016,44.242064],[-122.055108,44.242036],[-122.055229,44.242014],[-122.055339,44.241932],[-122.055422,44.241897],[-122.055543,44.241862],[-122.055654,44.241813],[-122.055736,44.241738],[-122.055838,44.241704],[-122.055985,44.241621],[-122.056085,44.241532],[-122.056187,44.241477],[-122.056288,44.241422],[-122.056371,44.241367],[-122.056509,44.241298],[-122.05661,44.24123],[-122.056729,44.241141],[-122.056794,44.2411],[-122.056858,44.241052],[-122.056951,44.241031],[-122.057099,44.240975],[-122.057172,44.240934],[-122.057265,44.240899],[-122.057394,44.240823],[-122.057532,44.240761],[-122.057597,44.240726],[-122.057669,44.240652],[-122.057695,44.240571],[-122.057723,44.240537],[-122.057806,44.240495],[-122.057823,44.240441],[-122.057896,44.24038],[-122.057941,44.240305],[-122.057977,44.240244],[-122.058031,44.24019],[-122.058141,44.240115],[-122.058213,44.240013],[-122.058257,44.239898],[-122.058329,44.239776],[-122.058382,44.239682],[-122.058436,44.239587],[-122.058546,44.239512],[-122.058628,44.239437],[-122.058692,44.239369],[-122.058746,44.239307],[-122.05881,44.239246],[-122.058893,44.239191],[-122.058975,44.23913],[-122.059058,44.239062],[-122.059186,44.238966],[-122.059277,44.238897],[-122.059323,44.238836],[-122.059405,44.238768],[-122.059413,44.238708],[-122.059411,44.238627],[-122.0594,44.238567],[-122.059407,44.238499],[-122.059406,44.238439],[-122.059413,44.238352],[-122.05941,44.238251],[-122.059417,44.23817],[-122.059441,44.238049],[-122.059506,44.237868],[-122.059488,44.237738],[-122.05947,44.237568],[-122.059452,44.237418],[-122.059408,44.237319],[-122.059337,44.23727],[-122.059293,44.2372],[-122.059305,44.23711],[-122.059401,44.237038],[-122.059384,44.236949],[-122.05941,44.236868],[-122.059393,44.236738],[-122.059417,44.236618],[-122.059414,44.236498],[-122.059439,44.236377],[-122.059395,44.236298],[-122.059337,44.236218],[-122.059293,44.236119],[-122.059291,44.236019],[-122.059287,44.235899],[-122.059285,44.235799],[-122.059253,44.235639],[-122.059223,44.235559],[-122.059192,44.235459],[-122.05908,44.235421],[-122.059037,44.235371],[-122.058993,44.235292],[-122.058949,44.235182],[-122.058946,44.235082],[-122.058874,44.234973],[-122.058816,44.234884],[-122.058798,44.234764],[-122.058727,44.234705],[-122.058627,44.234606],[-122.0585,44.234538],[-122.058443,44.234478],[-122.058398,44.234349],[-122.05834,44.234259],[-122.058227,44.234201],[-122.058085,44.234113],[-122.057943,44.234004],[-122.057829,44.233876],[-122.057687,44.233767],[-122.057544,44.233629],[-122.057528,44.233549],[-122.057345,44.233472],[-122.05723,44.233363],[-122.057143,44.233224],[-122.057,44.233086],[-122.056942,44.232976],[-122.056911,44.232847],[-122.05685,44.232657],[-122.056874,44.232507],[-122.05687,44.232367],[-122.056979,44.232255],[-122.057102,44.232173],[-122.057281,44.232091],[-122.057445,44.231979],[-122.057611,44.231906],[-122.057817,44.231823],[-122.058011,44.231761],[-122.058174,44.231628],[-122.058409,44.231535],[-122.058573,44.231423],[-122.058709,44.231321],[-122.05879,44.23121],[-122.058968,44.231097],[-122.059105,44.231015],[-122.059215,44.230954],[-122.05931,44.230862],[-122.059378,44.230781],[-122.059472,44.23065],[-122.059525,44.230549],[-122.059535,44.230419],[-122.059588,44.230288],[-122.059653,44.230127],[-122.059747,44.229985],[-122.059812,44.229824],[-122.059893,44.229693],[-122.059972,44.229552],[-122.060024,44.229401],[-122.060134,44.229319],[-122.060187,44.229249],[-122.060213,44.229148],[-122.060307,44.229017],[-122.060374,44.228916],[-122.060455,44.228814],[-122.060494,44.228724],[-122.06049,44.228584],[-122.060544,44.228503],[-122.060597,44.228412],[-122.060636,44.228291],[-122.060675,44.228181],[-122.060714,44.22807],[-122.060767,44.227969],[-122.060833,44.227848],[-122.060872,44.227728],[-122.060869,44.227607],[-122.060893,44.227477],[-122.060918,44.227347],[-122.060915,44.227246],[-122.060912,44.227126],[-122.06091,44.227036],[-122.060921,44.226926],[-122.060918,44.226816],[-122.060929,44.226706],[-122.060898,44.226596],[-122.06084,44.226476],[-122.060726,44.226378],[-122.060654,44.226319],[-122.060569,44.22625],[-122.060497,44.226141],[-122.06041,44.226022],[-122.06031,44.225933],[-122.060212,44.225884],[-122.060168,44.225825],[-122.060082,44.225736],[-122.05994,44.225628],[-122.059882,44.225518],[-122.059836,44.225379],[-122.059861,44.225238],[-122.059871,44.225108],[-122.05984,44.224958],[-122.059849,44.224768],[-122.059831,44.224648],[-122.0598,44.224498],[-122.059783,44.224378],[-122.059765,44.224248],[-122.059734,44.224098],[-122.059703,44.223989],[-122.059672,44.223869],[-122.059613,44.22375],[-122.05957,44.22368],[-122.059525,44.223561],[-122.05948,44.223431],[-122.059421,44.223332],[-122.05935,44.223243],[-122.059319,44.223143],[-122.059261,44.223033],[-122.05927,44.222873],[-122.059224,44.222694],[-122.059179,44.222564],[-122.059148,44.222444],[-122.059145,44.222314],[-122.059141,44.222164],[-122.059095,44.222014],[-122.059092,44.221894],[-122.059102,44.221744],[-122.059084,44.221574],[-122.059051,44.221384],[-122.059033,44.221234],[-122.059042,44.221054],[-122.059039,44.220914],[-122.059077,44.220763],[-122.059073,44.220623],[-122.05904,44.220443],[-122.059034,44.220213],[-122.059046,44.220113],[-122.059015,44.220013],[-122.059027,44.219913],[-122.059024,44.219793],[-122.059063,44.219712],[-122.059033,44.219632],[-122.059003,44.219533],[-122.059014,44.219422],[-122.059039,44.219302],[-122.059036,44.219202],[-122.059006,44.219102],[-122.059003,44.218992],[-122.059,44.218872],[-122.059025,44.218761],[-122.059007,44.218622],[-122.059019,44.218541],[-122.059029,44.218381],[-122.058998,44.218251],[-122.058967,44.218141],[-122.058923,44.218072],[-122.058892,44.217952],[-122.058887,44.217762],[-122.058842,44.217613],[-122.05881,44.217463],[-122.058738,44.217374],[-122.058706,44.217214],[-122.058688,44.217044],[-122.058657,44.216944],[-122.058613,44.216835],[-122.058555,44.216755],[-122.05847,44.216676],[-122.058413,44.216647],[-122.0583,44.216568],[-122.058227,44.216459],[-122.058086,44.216381],[-122.057959,44.216323],[-122.057777,44.216265],[-122.057609,44.216227],[-122.057482,44.216169],[-122.057328,44.216121],[-122.057103,44.216044],[-122.056907,44.216016],[-122.056768,44.216018],[-122.05663,44.21606],[-122.056436,44.216113],[-122.056283,44.216085],[-122.056143,44.216057],[-122.056002,44.216009],[-122.055916,44.21592],[-122.05572,44.215852],[-122.055524,44.215815],[-122.055286,44.215758],[-122.055047,44.215681],[-122.054879,44.215653],[-122.05467,44.215626],[-122.054462,44.215659],[-122.054252,44.215641],[-122.054045,44.215674],[-122.053864,44.215707],[-122.05367,44.215719],[-122.05353,44.215691],[-122.053418,44.215673],[-122.053291,44.215624],[-122.053081,44.215567],[-122.052955,44.215549],[-122.0528,44.215471],[-122.052688,44.215432],[-122.052589,44.215383],[-122.052366,44.215346],[-122.052239,44.215308],[-122.052071,44.21527],[-122.051931,44.215242],[-122.05175,44.215214],[-122.051582,44.215176],[-122.051442,44.215168],[-122.051274,44.21512],[-122.051119,44.215062],[-122.050937,44.215015],[-122.050726,44.214938],[-122.050641,44.214889],[-122.050514,44.21481],[-122.050359,44.214722],[-122.050218,44.214644],[-122.050145,44.214535],[-122.050017,44.214436],[-122.049863,44.214378],[-122.049778,44.214339],[-122.049679,44.214261],[-122.049606,44.214141],[-122.049449,44.213973],[-122.049362,44.213854],[-122.04926,44.213685],[-122.049145,44.213527],[-122.049059,44.213428],[-122.04893,44.213309],[-122.048873,44.21325],[-122.048786,44.213101],[-122.048657,44.212963],[-122.048543,44.212854],[-122.048485,44.212775],[-122.048398,44.212626],[-122.048296,44.212477],[-122.04814,44.212369],[-122.048055,44.21231],[-122.047982,44.212161],[-122.047923,44.212021],[-122.04785,44.211882],[-122.04772,44.211734],[-122.04762,44.211605],[-122.047531,44.211406],[-122.047415,44.211227],[-122.047312,44.211018],[-122.047182,44.21083],[-122.047122,44.210656],[-122.046732,44.210671],[-122.046921,44.210978],[-122.047111,44.211247],[-122.047335,44.211578],[-122.047681,44.212038],[-122.047906,44.212384],[-122.04805,44.212568],[-122.048261,44.21279],[-122.048461,44.213028],[-122.048661,44.213273],[-122.048872,44.213496],[-122.049038,44.213664],[-122.049216,44.213879],[-122.049361,44.214063],[-122.049505,44.214231],[-122.04966,44.214384],[-122.049826,44.21453],[-122.050013,44.214674],[-122.05009,44.214759],[-122.050221,44.214827],[-122.050342,44.214918],[-122.050495,44.215001],[-122.050713,44.21506],[-122.050854,44.215097],[-122.051018,44.21518],[-122.051093,44.215172],[-122.05119,44.215178],[-122.05132,44.215223],[-122.051451,44.215268],[-122.051517,44.215306],[-122.05157,44.215289],[-122.051689,44.215303],[-122.051809,44.215364],[-122.05195,44.215401],[-122.052081,44.215438],[-122.052157,44.215483],[-122.052223,44.215521],[-122.052288,44.215528],[-122.052363,44.215535],[-122.052429,44.21558],[-122.052516,44.21561],[-122.052788,44.215707],[-122.052962,44.215759],[-122.053125,44.215788],[-122.053212,44.215833],[-122.053364,44.21587],[-122.053451,44.2159],[-122.053613,44.215898],[-122.053689,44.215936],[-122.053808,44.21595],[-122.054043,44.215884],[-122.054151,44.21586],[-122.054322,44.215826],[-122.054561,44.215885],[-122.054778,44.215929],[-122.054984,44.215973],[-122.055125,44.216041],[-122.055354,44.216115],[-122.0557,44.216157],[-122.055992,44.216192],[-122.056197,44.216212],[-122.056435,44.21624],[-122.056727,44.216259],[-122.05702,44.216341],[-122.057237,44.216392],[-122.057538,44.216388],[-122.057723,44.21644],[-122.057844,44.216516],[-122.058007,44.216583],[-122.058062,44.216629],[-122.058118,44.216698],[-122.058196,44.216806],[-122.058253,44.216906],[-122.058331,44.217006],[-122.058366,44.217137],[-122.058402,44.217276],[-122.058448,44.217384],[-122.058451,44.217492],[-122.058499,44.217678],[-122.058577,44.217778],[-122.058558,44.217879],[-122.058594,44.218033],[-122.058607,44.218111],[-122.058566,44.218173],[-122.0586,44.218235],[-122.058656,44.218319],[-122.058691,44.21842],[-122.058671,44.218497],[-122.058697,44.218652],[-122.058753,44.218752],[-122.058745,44.218845],[-122.058736,44.218923],[-122.058738,44.219],[-122.058731,44.219156],[-122.058735,44.219287],[-122.058738,44.219396],[-122.058741,44.219528],[-122.058733,44.219644],[-122.058737,44.219807],[-122.058697,44.219924],[-122.05869,44.220048],[-122.058715,44.220195],[-122.058708,44.220334],[-122.0587,44.220459],[-122.058671,44.220591],[-122.058696,44.220699],[-122.058699,44.220839],[-122.058723,44.2209],[-122.058682,44.220994],[-122.058717,44.221086],[-122.058763,44.221202],[-122.058754,44.22128],[-122.058746,44.221404],[-122.058802,44.221488],[-122.058793,44.221558],[-122.058797,44.221682],[-122.058811,44.221829],[-122.058814,44.221922],[-122.058828,44.222054],[-122.058884,44.222139],[-122.058908,44.222224],[-122.058921,44.222316],[-122.058924,44.222417],[-122.058937,44.222502],[-122.058949,44.222564],[-122.058952,44.222688],[-122.058966,44.222797],[-122.059012,44.222904],[-122.059047,44.223036],[-122.059104,44.223151],[-122.059162,44.223298],[-122.05923,44.223444],[-122.059309,44.223567],[-122.059378,44.223737],[-122.059425,44.223876],[-122.05946,44.223968],[-122.059495,44.224084],[-122.059509,44.224193],[-122.0595,44.224286],[-122.059503,44.224402],[-122.059474,44.224519],[-122.059488,44.224627],[-122.059513,44.224782],[-122.059559,44.224897],[-122.059574,44.225037],[-122.059599,44.225192],[-122.059603,44.225347],[-122.059628,44.225478],[-122.059643,44.225617],[-122.059635,44.225757],[-122.059681,44.225865],[-122.059772,44.226042],[-122.059906,44.226211],[-122.059984,44.226311],[-122.060108,44.226526],[-122.060274,44.226679],[-122.060385,44.226809],[-122.060474,44.226932],[-122.060542,44.227047],[-122.060621,44.227163],[-122.060689,44.227309],[-122.060693,44.227449],[-122.060643,44.22762],[-122.060647,44.227767],[-122.060598,44.227938],[-122.060527,44.228141],[-122.060434,44.228266],[-122.06035,44.228384],[-122.060246,44.228501],[-122.060152,44.228642],[-122.060058,44.228744],[-122.059953,44.228854],[-122.059849,44.228995],[-122.059745,44.229159],[-122.059653,44.229347],[-122.059487,44.229589],[-122.059385,44.229823],[-122.059316,44.230064],[-122.059297,44.230196],[-122.059204,44.230353],[-122.059078,44.230478],[-122.058931,44.230605],[-122.05875,44.230715],[-122.058623,44.230818],[-122.058519,44.230959],[-122.058436,44.231092],[-122.058288,44.231171],[-122.058225,44.231257],[-122.058119,44.231344],[-122.057981,44.231416],[-122.057779,44.231504],[-122.057554,44.231592],[-122.057492,44.231678],[-122.057343,44.23175],[-122.057204,44.231806],[-122.057098,44.231885],[-122.056928,44.231973],[-122.056813,44.232106],[-122.056761,44.232169],[-122.056656,44.232286],[-122.056539,44.232373],[-122.056488,44.232459],[-122.056436,44.232537],[-122.056406,44.232646],[-122.056367,44.23281],[-122.056414,44.232941],[-122.056525,44.233087],[-122.056615,44.233217],[-122.05678,44.233355],[-122.056837,44.233455],[-122.056926,44.233547],[-122.057023,44.233576],[-122.057175,44.233613],[-122.057274,44.233689],[-122.057373,44.233765],[-122.057484,44.233857],[-122.057626,44.233956],[-122.057714,44.234017],[-122.057781,44.234117],[-122.05787,44.234208],[-122.057916,44.234301],[-122.058036,44.234361],[-122.058113,44.234446],[-122.058224,44.234545],[-122.058336,44.234698],[-122.058425,44.234814],[-122.058523,44.234866],[-122.058591,44.234966],[-122.058691,44.235081],[-122.058726,44.235189],[-122.058815,44.235312],[-122.058873,44.235451],[-122.058931,44.235598],[-122.059011,44.23579],[-122.059038,44.236007],[-122.059053,44.236154],[-122.059111,44.236324],[-122.059149,44.236525],[-122.059163,44.23668],[-122.059179,44.23685],[-122.059214,44.236982],[-122.059162,44.237052],[-122.05911,44.237115],[-122.059135,44.237246],[-122.059171,44.237385],[-122.059174,44.237517],[-122.059223,44.237741],[-122.059195,44.237881],[-122.059199,44.238052],[-122.059148,44.238177],[-122.059172,44.238254],[-122.059132,44.238378],[-122.059211,44.238501],[-122.059225,44.238625],[-122.059229,44.238788],[-122.059122,44.238844],[-122.058974,44.238946],[-122.058868,44.239018],[-122.058708,44.239097],[-122.058624,44.239184],[-122.058508,44.239263],[-122.058413,44.239357],[-122.058266,44.239506],[-122.05811,44.239733],[-122.057995,44.239851],[-122.057818,44.240102],[-122.05765,44.240282],[-122.057439,44.240456],[-122.057258,44.240574],[-122.057046,44.240686],[-122.056886,44.240773],[-122.056737,44.240868],[-122.05661,44.240924],[-122.056418,44.241035],[-122.056279,44.241091],[-122.056143,44.241217],[-122.055972,44.241312],[-122.055813,44.2414],[-122.055589,44.241511],[-122.055409,44.241622],[-122.055088,44.241743],[-122.054919,44.241854],[-122.054727,44.241934],[-122.054545,44.241983],[-122.054308,44.242025],[-122.054115,44.242043],[-122.053868,44.242085],[-122.053599,44.242112],[-122.05332,44.24217],[-122.053115,44.24218],[-122.052912,44.242237],[-122.052653,44.242248],[-122.052394,44.242244],[-122.052103,44.242248],[-122.051899,44.242266],[-122.051555,44.24231],[-122.051211,44.242345],[-122.051017,44.242386],[-122.050814,44.242451],[-122.050599,44.242477],[-122.050395,44.242488],[-122.050299,44.242559],[-122.05015,44.242615],[-122.049988,44.242625],[-122.049795,44.242643],[-122.04958,44.2427],[-122.049335,44.242789],[-122.049078,44.242893],[-122.048886,44.242981],[-122.048834,44.243051],[-122.048684,44.243092],[-122.048524,44.243141],[-122.048418,44.24322],[-122.048323,44.243283],[-122.048185,44.24337],[-122.048036,44.24345],[-122.047887,44.243537],[-122.047739,44.24364],[-122.047558,44.243743],[-122.047433,44.2439],[-122.047275,44.244072],[-122.047127,44.244198],[-122.04699,44.244324],[-122.046928,44.244418],[-122.046845,44.244559],[-122.04674,44.244669],[-122.046625,44.244786],[-122.046499,44.244912],[-122.046394,44.245038],[-122.046289,44.245132],[-122.046237,44.245226],[-122.04611,44.245313],[-122.046015,44.245407],[-122.045911,44.24554],[-122.045849,44.245657],[-122.045755,44.245783],[-122.045672,44.2459],[-122.045567,44.246018],[-122.045462,44.246135],[-122.045411,44.246245],[-122.045361,44.246377],[-122.045299,44.24651],[-122.045259,44.246619],[-122.045197,44.24672],[-122.045179,44.246883],[-122.045118,44.247008],[-122.045001,44.247087],[-122.044982,44.247165],[-122.044973,44.247258],[-122.0449,44.247337],[-122.044816,44.247423],[-122.044699,44.247487],[-122.044658,44.247565],[-122.044596,44.247666],[-122.04448,44.247777],[-122.044374,44.247871],[-122.044215,44.247958],[-122.044077,44.248053],[-122.043951,44.248179],[-122.043876,44.248211],[-122.043748,44.248282],[-122.043621,44.248354],[-122.043492,44.248379],[-122.043256,44.248428],[-122.043075,44.248516],[-122.042839,44.248581],[-122.042668,44.248615],[-122.042517,44.248648],[-122.042377,44.248642],[-122.042238,44.248682],[-122.042099,44.248738],[-122.041971,44.248794]]],[[[-122.046518,44.210673],[-122.046227,44.210677],[-122.046268,44.210729],[-122.046387,44.21088],[-122.046802,44.211435],[-122.047061,44.211796],[-122.047304,44.212173],[-122.047742,44.212741],[-122.048104,44.21317],[-122.048417,44.213501],[-122.048793,44.213928],[-122.04913,44.214332],[-122.049472,44.214687],[-122.049813,44.214972],[-122.050058,44.215159],[-122.050422,44.215388],[-122.050705,44.21555],[-122.051125,44.215752],[-122.05149,44.21594],[-122.051804,44.216114],[-122.05286,44.216653],[-122.056434,44.218472],[-122.056711,44.218619],[-122.05692,44.218763],[-122.057096,44.218875],[-122.057244,44.218992],[-122.057373,44.219123],[-122.057503,44.219261],[-122.057602,44.219393],[-122.057778,44.219633],[-122.057949,44.219895],[-122.058028,44.220081],[-122.058084,44.220216],[-122.058149,44.220412],[-122.058175,44.220557],[-122.058202,44.220697],[-122.058261,44.220996],[-122.058504,44.222379],[-122.058567,44.222772],[-122.05861,44.222937],[-122.058669,44.223148],[-122.058756,44.223475],[-122.058807,44.223672],[-122.059034,44.224354],[-122.059133,44.22476],[-122.059185,44.225014],[-122.05924,44.2253],[-122.059277,44.225564],[-122.059317,44.22591],[-122.059362,44.226183],[-122.059425,44.226628],[-122.05949,44.227061],[-122.059536,44.227399],[-122.059521,44.22771],[-122.059514,44.228017],[-122.059508,44.228213],[-122.059456,44.228397],[-122.059392,44.228576],[-122.059313,44.228749],[-122.059244,44.228883],[-122.059173,44.228988],[-122.059072,44.229124],[-122.058952,44.229264],[-122.058827,44.229426],[-122.05865,44.229613],[-122.058462,44.22981],[-122.056699,44.231595],[-122.056273,44.232057],[-122.056079,44.232247],[-122.055917,44.232457],[-122.055718,44.232728],[-122.055588,44.232973],[-122.055484,44.233223],[-122.055373,44.233472],[-122.055279,44.233744],[-122.055229,44.234009],[-122.055196,44.234244],[-122.055186,44.234459],[-122.055172,44.234791],[-122.055216,44.236059],[-122.055268,44.237208],[-122.055287,44.237486],[-122.055302,44.237763],[-122.055309,44.238034],[-122.055307,44.238253],[-122.055297,44.238441],[-122.055286,44.238607],[-122.055247,44.238791],[-122.055212,44.238948],[-122.055162,44.239089],[-122.055096,44.239216],[-122.055048,44.23934],[-122.054973,44.239446],[-122.054891,44.239552],[-122.05477,44.239717],[-122.05467,44.239858],[-122.054517,44.240021],[-122.054381,44.24016],[-122.054194,44.240301],[-122.053943,44.240481],[-122.0537,44.240647],[-122.053461,44.240744],[-122.0527,44.241077],[-122.051176,44.24167],[-122.050138,44.242086],[-122.049296,44.242432],[-122.048942,44.242583],[-122.04849,44.242784],[-122.048121,44.24294],[-122.047794,44.243091],[-122.047436,44.243265],[-122.047062,44.243475],[-122.04671,44.243693],[-122.046333,44.243922],[-122.045351,44.244601],[-122.044811,44.244975],[-122.044392,44.245248],[-122.043949,44.245561],[-122.043531,44.245845],[-122.041612,44.247164],[-122.041017,44.247602],[-122.040886,44.247698],[-122.040562,44.247998],[-122.040394,44.248162],[-122.040196,44.248351],[-122.040034,44.248528],[-122.039882,44.248688],[-122.03971,44.248896],[-122.039592,44.249019],[-122.039471,44.249201],[-122.039276,44.2495],[-122.039116,44.249748],[-122.038981,44.250053],[-122.038877,44.250303],[-122.038796,44.250542],[-122.038695,44.250874],[-122.038623,44.251131],[-122.038575,44.251438],[-122.038532,44.251726],[-122.038508,44.252061],[-122.038508,44.252356],[-122.038491,44.252588],[-122.038474,44.252845],[-122.038488,44.253023],[-122.038529,44.253378],[-122.038588,44.253618],[-122.038654,44.253841],[-122.038966,44.253841],[-122.038959,44.253818],[-122.038958,44.253813],[-122.038887,44.253576],[-122.038832,44.25335],[-122.038793,44.253008],[-122.03878,44.252844],[-122.038796,44.252598],[-122.038813,44.252362],[-122.038813,44.252066],[-122.038836,44.251743],[-122.038878,44.251462],[-122.038925,44.251165],[-122.038994,44.250919],[-122.039093,44.250591],[-122.039172,44.25036],[-122.039273,44.250117],[-122.039401,44.249828],[-122.039553,44.249593],[-122.039747,44.249295],[-122.039858,44.249129],[-122.039967,44.249015],[-122.040139,44.248806],[-122.040288,44.24865],[-122.040445,44.248477],[-122.040639,44.248293],[-122.040806,44.24813],[-122.041116,44.247843],[-122.041235,44.247756],[-122.041827,44.24732],[-122.043741,44.246004],[-122.04416,44.245719],[-122.044602,44.245408],[-122.04502,44.245135],[-122.045563,44.244759],[-122.046538,44.244085],[-122.046909,44.243859],[-122.047256,44.243644],[-122.047616,44.243443],[-122.047962,44.243274],[-122.048281,44.243127],[-122.048647,44.242972],[-122.0491,44.24277],[-122.049449,44.242622],[-122.050288,44.242277],[-122.051323,44.241863],[-122.052852,44.241267],[-122.053616,44.240933],[-122.053883,44.240824],[-122.054156,44.240638],[-122.054412,44.240454],[-122.054618,44.2403],[-122.054768,44.240145],[-122.054934,44.23997],[-122.055041,44.239818],[-122.055159,44.239657],[-122.055243,44.239549],[-122.055334,44.239419],[-122.055386,44.239285],[-122.055454,44.239154],[-122.055511,44.238992],[-122.055548,44.238825],[-122.05559,44.238629],[-122.055602,44.23845],[-122.055612,44.238258],[-122.055614,44.238032],[-122.055607,44.237757],[-122.055592,44.237477],[-122.055573,44.237199],[-122.055521,44.236053],[-122.055477,44.234792],[-122.055491,44.234466],[-122.055501,44.234258],[-122.055532,44.234035],[-122.055579,44.233786],[-122.055667,44.233532],[-122.055776,44.233288],[-122.055877,44.233044],[-122.055997,44.232818],[-122.056185,44.232561],[-122.056337,44.232365],[-122.056523,44.232182],[-122.056951,44.231719],[-122.058712,44.229935],[-122.058903,44.229737],[-122.059087,44.229541],[-122.059216,44.229375],[-122.059337,44.229234],[-122.059445,44.229088],[-122.059525,44.228969],[-122.059602,44.228822],[-122.059685,44.228637],[-122.059753,44.228446],[-122.059813,44.228238],[-122.059819,44.228022],[-122.059826,44.227716],[-122.059841,44.227391],[-122.059793,44.227039],[-122.059728,44.226605],[-122.059665,44.226159],[-122.05962,44.225888],[-122.059581,44.225544],[-122.059543,44.225274],[-122.059487,44.224983],[-122.059435,44.224725],[-122.059333,44.224309],[-122.059105,44.223626],[-122.059055,44.223435],[-122.058968,44.223106],[-122.05891,44.222895],[-122.058869,44.222739],[-122.058807,44.222353],[-122.058563,44.220967],[-122.058504,44.220667],[-122.058478,44.220528],[-122.05845,44.220373],[-122.058379,44.220159],[-122.058321,44.220017],[-122.058234,44.219815],[-122.058051,44.219536],[-122.057871,44.21929],[-122.057764,44.219147],[-122.057624,44.218998],[-122.057482,44.218854],[-122.057311,44.218719],[-122.057127,44.218602],[-122.056908,44.218451],[-122.056613,44.218294],[-122.053036,44.216474],[-122.051986,44.215938],[-122.051672,44.215764],[-122.051299,44.215572],[-122.050885,44.215373],[-122.050618,44.215219],[-122.050269,44.215001],[-122.05004,44.214826],[-122.049714,44.214552],[-122.049386,44.214213],[-122.049053,44.213813],[-122.048672,44.213381],[-122.048361,44.213051],[-122.048006,44.212631],[-122.047576,44.212074],[-122.047335,44.2117],[-122.047072,44.211333],[-122.046654,44.210773],[-122.046574,44.210673],[-122.046574,44.210673],[-122.046518,44.210673]]]]}},{"type":"Feature","properties":{"MAPTAXLOT":"1565000000100","MAPNUMBER":"15650000","TAXLOT":"100","ACCTNO":"0027498","MAPACRES":11140.92115861},"geometry":{"type":"MultiPolygon","coordinates":[[[[-122.042363,44.248833],[-122.042252,44.248882],[-122.042168,44.248903],[-122.042094,44.248938],[-122.042002,44.248966],[-122.0419,44.249007],[-122.04178,44.249056],[-122.04166,44.249111],[-122.041606,44.249193],[-122.041551,44.24924],[-122.041469,44.249322],[-122.041405,44.24939],[-122.041332,44.249458],[-122.041287,44.249526],[-122.041224,44.249621],[-122.041189,44.249715],[-122.041155,44.249837],[-122.041148,44.24991],[-122.041141,44.250011],[-122.041143,44.250092],[-122.041164,44.250179],[-122.041156,44.250246],[-122.041093,44.250328],[-122.041076,44.250408],[-122.041097,44.250482],[-122.041109,44.250569],[-122.041121,44.250676],[-122.041131,44.25073],[-122.041161,44.250797],[-122.041191,44.250864],[-122.041193,44.250944],[-122.041223,44.251038],[-122.041263,44.251111],[-122.041283,44.251191],[-122.041295,44.251279],[-122.041297,44.251346],[-122.041335,44.251406],[-122.041357,44.251506],[-122.041378,44.251606],[-122.04139,44.251707],[-122.041355,44.251815],[-122.041301,44.25189],[-122.041248,44.251991],[-122.041221,44.252025],[-122.041194,44.252099],[-122.041178,44.252173],[-122.041105,44.252241],[-122.041098,44.252342],[-122.04108,44.252389],[-122.041017,44.252478],[-122.041,44.252531],[-122.040963,44.252566],[-122.040937,44.25264],[-122.040948,44.252707],[-122.04096,44.252781],[-122.040914,44.252828],[-122.040888,44.252896],[-122.040843,44.252977],[-122.040798,44.253051],[-122.040772,44.253105],[-122.040746,44.253186],[-122.040747,44.253253],[-122.04073,44.253321],[-122.040714,44.253402],[-122.040707,44.253502],[-122.040671,44.253563],[-122.040645,44.253631],[-122.040619,44.253698],[-122.040592,44.253746],[-122.040557,44.253841],[-122.049281,44.25384],[-122.069428,44.25384],[-122.089575,44.25384],[-122.109723,44.25384],[-122.12987,44.25384],[-122.14498,44.25384],[-122.14673,44.25384],[-122.14673,44.25022],[-122.14673,44.2466],[-122.14673,44.24298],[-122.14673,44.239359],[-122.14673,44.235739],[-122.14673,44.232119],[-122.14673,44.228499],[-122.14673,44.224879],[-122.14673,44.210395],[-122.139848,44.210275],[-122.135048,44.210281],[-122.130014,44.210288],[-122.129797,44.210288],[-122.119947,44.210313],[-122.099815,44.210321],[-122.079677,44.210235],[-122.074193,44.210241],[-122.069397,44.210246],[-122.068708,44.210247],[-122.064362,44.210251],[-122.063675,44.210252],[-122.058641,44.210257],[-122.049311,44.210575],[-122.049266,44.210576],[-122.047484,44.210642],[-122.047179,44.210654],[-122.047157,44.210655],[-122.047122,44.210656],[-122.047182,44.21083],[-122.047312,44.211018],[-122.047415,44.211227],[-122.047531,44.211406],[-122.04762,44.211605],[-122.04772,44.211734],[-122.04785,44.211882],[-122.047923,44.212021],[-122.047982,44.212161],[-122.048055,44.21231],[-122.04814,44.212369],[-122.048296,44.212477],[-122.048398,44.212626],[-122.048485,44.212775],[-122.048543,44.212854],[-122.048657,44.212963],[-122.048786,44.213101],[-122.048873,44.21325],[-122.04893,44.213309],[-122.049059,44.213428],[-122.049145,44.213527],[-122.04926,44.213685],[-122.049362,44.213854],[-122.049449,44.213973],[-122.049606,44.214141],[-122.049679,44.214261],[-122.049778,44.214339],[-122.049863,44.214378],[-122.050017,44.214436],[-122.050145,44.214535],[-122.050218,44.214644],[-122.050359,44.214722],[-122.050514,44.21481],[-122.050641,44.214889],[-122.050726,44.214938],[-122.050937,44.215015],[-122.051119,44.215062],[-122.051274,44.21512],[-122.051442,44.215168],[-122.051582,44.215176],[-122.05175,44.215214],[-122.051931,44.215242],[-122.052071,44.21527],[-122.052239,44.215308],[-122.052366,44.215346],[-122.052589,44.215383],[-122.052688,44.215432],[-122.0528,44.215471],[-122.052955,44.215549],[-122.053081,44.215567],[-122.053291,44.215624],[-122.053418,44.215673],[-122.05353,44.215691],[-122.05367,44.215719],[-122.053864,44.215707],[-122.054045,44.215674],[-122.054252,44.215641],[-122.054462,44.215659],[-122.05467,44.215626],[-122.054879,44.215653],[-122.055047,44.215681],[-122.055286,44.215758],[-122.055524,44.215815],[-122.05572,44.215852],[-122.055916,44.21592],[-122.056002,44.216009],[-122.056143,44.216057],[-122.056283,44.216085],[-122.056436,44.216113],[-122.05663,44.21606],[-122.056768,44.216018],[-122.056907,44.216016],[-122.057103,44.216044],[-122.057328,44.216121],[-122.057482,44.216169],[-122.057609,44.216227],[-122.057777,44.216265],[-122.057959,44.216323],[-122.058086,44.216381],[-122.058227,44.216459],[-122.0583,44.216568],[-122.058413,44.216647],[-122.05847,44.216676],[-122.058555,44.216755],[-122.058613,44.216835],[-122.058657,44.216944],[-122.058688,44.217044],[-122.058706,44.217214],[-122.058738,44.217374],[-122.05881,44.217463],[-122.058842,44.217613],[-122.058887,44.217762],[-122.058892,44.217952],[-122.058923,44.218072],[-122.058967,44.218141],[-122.058998,44.218251],[-122.059029,44.218381],[-122.059019,44.218541],[-122.059007,44.218622],[-122.059025,44.218761],[-122.059,44.218872],[-122.059003,44.218992],[-122.059006,44.219102],[-122.059036,44.219202],[-122.059039,44.219302],[-122.059014,44.219422],[-122.059003,44.219533],[-122.059033,44.219632],[-122.059063,44.219712],[-122.059024,44.219793],[-122.059027,44.219913],[-122.059015,44.220013],[-122.059046,44.220113],[-122.059034,44.220213],[-122.05904,44.220443],[-122.059073,44.220623],[-122.059077,44.220763],[-122.059039,44.220914],[-122.059042,44.221054],[-122.059033,44.221234],[-122.059051,44.221384],[-122.059084,44.221574],[-122.059102,44.221744],[-122.059092,44.221894],[-122.059095,44.222014],[-122.059141,44.222164],[-122.059145,44.222314],[-122.059148,44.222444],[-122.059179,44.222564],[-122.059224,44.222694],[-122.05927,44.222873],[-122.059261,44.223033],[-122.059319,44.223143],[-122.05935,44.223243],[-122.059421,44.223332],[-122.05948,44.223431],[-122.059525,44.223561],[-122.05957,44.22368],[-122.059613,44.22375],[-122.059672,44.223869],[-122.059703,44.223989],[-122.059734,44.224098],[-122.059765,44.224248],[-122.059783,44.224378],[-122.0598,44.224498],[-122.059831,44.224648],[-122.059849,44.224768],[-122.05984,44.224958],[-122.059871,44.225108],[-122.059861,44.225238],[-122.059836,44.225379],[-122.059882,44.225518],[-122.05994,44.225628],[-122.060082,44.225736],[-122.060168,44.225825],[-122.060212,44.225884],[-122.06031,44.225933],[-122.06041,44.226022],[-122.060497,44.226141],[-122.060569,44.22625],[-122.060654,44.226319],[-122.060726,44.226378],[-122.06084,44.226476],[-122.060898,44.226596],[-122.060929,44.226706],[-122.060918,44.226816],[-122.060921,44.226926],[-122.06091,44.227036],[-122.060912,44.227126],[-122.060915,44.227246],[-122.060918,44.227347],[-122.060893,44.227477],[-122.060869,44.227607],[-122.060872,44.227728],[-122.060833,44.227848],[-122.060767,44.227969],[-122.060714,44.22807],[-122.060675,44.228181],[-122.060636,44.228291],[-122.060597,44.228412],[-122.060544,44.228503],[-122.06049,44.228584],[-122.060494,44.228724],[-122.060455,44.228814],[-122.060374,44.228916],[-122.060307,44.229017],[-122.060213,44.229148],[-122.060187,44.229249],[-122.060134,44.229319],[-122.060024,44.229401],[-122.059972,44.229552],[-122.059893,44.229693],[-122.059812,44.229824],[-122.059747,44.229985],[-122.059653,44.230127],[-122.059588,44.230288],[-122.059535,44.230419],[-122.059525,44.230549],[-122.059472,44.23065],[-122.059378,44.230781],[-122.05931,44.230862],[-122.059215,44.230954],[-122.059105,44.231015],[-122.058968,44.231097],[-122.05879,44.23121],[-122.058709,44.231321],[-122.058573,44.231423],[-122.058409,44.231535],[-122.058174,44.231628],[-122.058011,44.231761],[-122.057817,44.231823],[-122.057611,44.231906],[-122.057445,44.231979],[-122.057281,44.232091],[-122.057102,44.232173],[-122.056979,44.232255],[-122.05687,44.232367],[-122.056874,44.232507],[-122.05685,44.232657],[-122.056911,44.232847],[-122.056942,44.232976],[-122.057,44.233086],[-122.057143,44.233224],[-122.05723,44.233363],[-122.057345,44.233472],[-122.057528,44.233549],[-122.057544,44.233629],[-122.057687,44.233767],[-122.057829,44.233876],[-122.057943,44.234004],[-122.058085,44.234113],[-122.058227,44.234201],[-122.05834,44.234259],[-122.058398,44.234349],[-122.058443,44.234478],[-122.0585,44.234538],[-122.058627,44.234606],[-122.058727,44.234705],[-122.058798,44.234764],[-122.058816,44.234884],[-122.058874,44.234973],[-122.058946,44.235082],[-122.058949,44.235182],[-122.058993,44.235292],[-122.059037,44.235371],[-122.05908,44.235421],[-122.059192,44.235459],[-122.059223,44.235559],[-122.059253,44.235639],[-122.059285,44.235799],[-122.059287,44.235899],[-122.059291,44.236019],[-122.059293,44.236119],[-122.059337,44.236218],[-122.059395,44.236298],[-122.059439,44.236377],[-122.059414,44.236498],[-122.059417,44.236618],[-122.059393,44.236738],[-122.05941,44.236868],[-122.059384,44.236949],[-122.059401,44.237038],[-122.059305,44.23711],[-122.059293,44.2372],[-122.059337,44.23727],[-122.059408,44.237319],[-122.059452,44.237418],[-122.05947,44.237568],[-122.059488,44.237738],[-122.059506,44.237868],[-122.059441,44.238049],[-122.059417,44.23817],[-122.05941,44.238251],[-122.059413,44.238352],[-122.059406,44.238439],[-122.059407,44.238499],[-122.0594,44.238567],[-122.059411,44.238627],[-122.059413,44.238708],[-122.059405,44.238768],[-122.059323,44.238836],[-122.059277,44.238897],[-122.059186,44.238966],[-122.059058,44.239062],[-122.058975,44.23913],[-122.058893,44.239191],[-122.05881,44.239246],[-122.058746,44.239307],[-122.058692,44.239369],[-122.058628,44.239437],[-122.058546,44.239512],[-122.058436,44.239587],[-122.058382,44.239682],[-122.058329,44.239776],[-122.058257,44.239898],[-122.058213,44.240013],[-122.058141,44.240115],[-122.058031,44.24019],[-122.057977,44.240244],[-122.057941,44.240305],[-122.057896,44.24038],[-122.057823,44.240441],[-122.057806,44.240495],[-122.057723,44.240537],[-122.057695,44.240571],[-122.057669,44.240652],[-122.057597,44.240726],[-122.057532,44.240761],[-122.057394,44.240823],[-122.057265,44.240899],[-122.057172,44.240934],[-122.057099,44.240975],[-122.056951,44.241031],[-122.056858,44.241052],[-122.056794,44.2411],[-122.056729,44.241141],[-122.05661,44.24123],[-122.056509,44.241298],[-122.056371,44.241367],[-122.056288,44.241422],[-122.056187,44.241477],[-122.056085,44.241532],[-122.055985,44.241621],[-122.055838,44.241704],[-122.055736,44.241738],[-122.055654,44.241813],[-122.055543,44.241862],[-122.055422,44.241897],[-122.055339,44.241932],[-122.055229,44.242014],[-122.055108,44.242036],[-122.055016,44.242064],[-122.054914,44.242099],[-122.054841,44.24218],[-122.054749,44.242215],[-122.054609,44.242244],[-122.054497,44.242239],[-122.054414,44.24228],[-122.054312,44.242315],[-122.054154,44.242344],[-122.054024,44.242393],[-122.053866,44.242408],[-122.053755,44.242443],[-122.053597,44.242465],[-122.05342,44.242481],[-122.05328,44.242503],[-122.053111,44.242485],[-122.052982,44.242521],[-122.052841,44.242516],[-122.052719,44.242491],[-122.052589,44.242506],[-122.052486,44.2425],[-122.052375,44.242542],[-122.052235,44.242571],[-122.052142,44.242552],[-122.052038,44.242526],[-122.051945,44.242555],[-122.051843,44.242576],[-122.051712,44.242578],[-122.051628,44.242566],[-122.051535,44.24258],[-122.051386,44.242589],[-122.051284,44.242624],[-122.051209,44.242605],[-122.051078,44.2426],[-122.050985,44.242608],[-122.050921,44.242662],[-122.050828,44.242684],[-122.050735,44.242698],[-122.050652,44.242746],[-122.05053,44.242721],[-122.050418,44.242729],[-122.050372,44.242777],[-122.050298,44.242785],[-122.050214,44.242813],[-122.050112,44.242841],[-122.05,44.242842],[-122.049926,44.242864],[-122.049834,44.242898],[-122.049769,44.242919],[-122.049649,44.242981],[-122.049519,44.24301],[-122.049388,44.243005],[-122.049305,44.243053],[-122.049213,44.243088],[-122.049074,44.243143],[-122.048982,44.243198],[-122.048898,44.24322],[-122.048797,44.243288],[-122.048677,44.243337],[-122.048586,44.243412],[-122.048475,44.243467],[-122.048374,44.243536],[-122.048273,44.243591],[-122.0482,44.243659],[-122.048145,44.243707],[-122.048043,44.243735],[-122.047978,44.243769],[-122.047924,44.243824],[-122.047842,44.243932],[-122.047797,44.244],[-122.047706,44.244062],[-122.047622,44.244096],[-122.04754,44.244151],[-122.047484,44.244179],[-122.047439,44.244246],[-122.047422,44.244307],[-122.047369,44.244395],[-122.047295,44.24445],[-122.047231,44.244498],[-122.047157,44.244532],[-122.047112,44.244593],[-122.047067,44.244648],[-122.047012,44.244709],[-122.046976,44.24477],[-122.046866,44.244832],[-122.046811,44.244879],[-122.046794,44.24494],[-122.046749,44.245021],[-122.046704,44.245069],[-122.046649,44.245103],[-122.046613,44.245157],[-122.046558,44.245218],[-122.046493,44.245233],[-122.046457,44.245287],[-122.046385,44.245369],[-122.04633,44.24543],[-122.04622,44.245498],[-122.046165,44.245566],[-122.04612,44.245614],[-122.046095,44.245715],[-122.046023,44.245837],[-122.045969,44.245911],[-122.045923,44.245952],[-122.045906,44.24602],[-122.045889,44.246074],[-122.045853,44.246141],[-122.045818,44.246209],[-122.045763,44.24625],[-122.045746,44.246324],[-122.045701,44.246385],[-122.045656,44.246466],[-122.045593,44.246574],[-122.04553,44.246649],[-122.045448,44.246744],[-122.045451,44.246852],[-122.045415,44.246919],[-122.045399,44.247],[-122.045345,44.247088],[-122.045291,44.247163],[-122.045246,44.247237],[-122.045182,44.247292],[-122.045127,44.247346],[-122.045082,44.247407],[-122.045066,44.247488],[-122.045011,44.247556],[-122.044938,44.247611],[-122.044911,44.247658],[-122.044838,44.247706],[-122.04482,44.247746],[-122.044775,44.247807],[-122.044711,44.247875],[-122.044629,44.247944],[-122.044584,44.248011],[-122.044539,44.248066],[-122.044428,44.248128],[-122.044354,44.248169],[-122.044272,44.248244],[-122.044135,44.248346],[-122.044005,44.248382],[-122.043903,44.248437],[-122.043849,44.248491],[-122.043776,44.248566],[-122.043684,44.248608],[-122.043562,44.248616],[-122.043459,44.24859],[-122.043338,44.248612],[-122.043264,44.24864],[-122.043228,44.248681],[-122.043135,44.248716],[-122.043051,44.24873],[-122.042949,44.248752],[-122.0428,44.248754],[-122.042707,44.248788],[-122.042587,44.248817],[-122.042502,44.248784],[-122.042418,44.248792],[-122.042363,44.248833]]],[[[-122.029133,44.224879],[-122.029134,44.233429],[-122.029134,44.23705],[-122.029134,44.23936],[-122.029134,44.24067],[-122.029134,44.24429],[-122.029134,44.24791],[-122.029134,44.253841],[-122.034171,44.25384],[-122.038654,44.253841],[-122.038588,44.253618],[-122.038529,44.253378],[-122.038488,44.253023],[-122.038474,44.252845],[-122.038491,44.252588],[-122.038508,44.252356],[-122.038508,44.252061],[-122.038532,44.251726],[-122.038575,44.251438],[-122.038623,44.251131],[-122.038695,44.250874],[-122.038796,44.250542],[-122.038877,44.250303],[-122.038981,44.250053],[-122.039116,44.249748],[-122.039276,44.2495],[-122.039471,44.249201],[-122.039592,44.249019],[-122.03971,44.248896],[-122.039882,44.248688],[-122.040034,44.248528],[-122.040196,44.248351],[-122.040394,44.248162],[-122.040562,44.247998],[-122.040886,44.247698],[-122.041017,44.247602],[-122.041612,44.247164],[-122.043531,44.245845],[-122.043949,44.245561],[-122.044392,44.245248],[-122.044811,44.244975],[-122.045351,44.244601],[-122.046333,44.243922],[-122.04671,44.243693],[-122.047062,44.243475],[-122.047436,44.243265],[-122.047794,44.243091],[-122.048121,44.24294],[-122.04849,44.242784],[-122.048942,44.242583],[-122.049296,44.242432],[-122.050138,44.242086],[-122.051176,44.24167],[-122.0527,44.241077],[-122.053461,44.240744],[-122.0537,44.240647],[-122.053943,44.240481],[-122.054194,44.240301],[-122.054381,44.24016],[-122.054517,44.240021],[-122.05467,44.239858],[-122.05477,44.239717],[-122.054891,44.239552],[-122.054973,44.239446],[-122.055048,44.23934],[-122.055096,44.239216],[-122.055162,44.239089],[-122.055212,44.238948],[-122.055247,44.238791],[-122.055286,44.238607],[-122.055297,44.238441],[-122.055307,44.238253],[-122.055309,44.238034],[-122.055302,44.237763],[-122.055287,44.237486],[-122.055268,44.237208],[-122.055216,44.236059],[-122.055172,44.234791],[-122.055186,44.234459],[-122.055196,44.234244],[-122.055229,44.234009],[-122.055279,44.233744],[-122.055373,44.233472],[-122.055484,44.233223],[-122.055588,44.232973],[-122.055718,44.232728],[-122.055917,44.232457],[-122.056079,44.232247],[-122.056273,44.232057],[-122.056699,44.231595],[-122.058462,44.22981],[-122.05865,44.229613],[-122.058827,44.229426],[-122.058952,44.229264],[-122.059072,44.229124],[-122.059173,44.228988],[-122.059244,44.228883],[-122.059313,44.228749],[-122.059392,44.228576],[-122.059456,44.228397],[-122.059508,44.228213],[-122.059514,44.228017],[-122.059521,44.22771],[-122.059536,44.227399],[-122.05949,44.227061],[-122.059425,44.226628],[-122.059362,44.226183],[-122.059317,44.22591],[-122.059277,44.225564],[-122.05924,44.2253],[-122.059185,44.225014],[-122.059133,44.22476],[-122.059034,44.224354],[-122.058807,44.223672],[-122.058756,44.223475],[-122.058669,44.223148],[-122.05861,44.222937],[-122.058567,44.222772],[-122.058504,44.222379],[-122.058261,44.220996],[-122.058202,44.220697],[-122.058175,44.220557],[-122.058149,44.220412],[-122.058084,44.220216],[-122.058028,44.220081],[-122.057949,44.219895],[-122.057778,44.219633],[-122.057602,44.219393],[-122.057503,44.219261],[-122.057373,44.219123],[-122.057244,44.218992],[-122.057096,44.218875],[-122.05692,44.218763],[-122.056711,44.218619],[-122.056434,44.218472],[-122.05286,44.216653],[-122.051804,44.216114],[-122.05149,44.21594],[-122.051125,44.215752],[-122.050705,44.21555],[-122.050422,44.215388],[-122.050058,44.215159],[-122.049813,44.214972],[-122.049472,44.214687],[-122.04913,44.214332],[-122.048793,44.213928],[-122.048417,44.213501],[-122.048104,44.21317],[-122.047742,44.212741],[-122.047304,44.212173],[-122.047061,44.211796],[-122.046802,44.211435],[-122.046387,44.21088],[-122.046268,44.210729],[-122.046227,44.210677],[-122.045679,44.210685],[-122.039827,44.210765],[-122.029133,44.210791],[-122.029133,44.210792],[-122.029133,44.224879]]],[[[-122.040139,44.248806],[-122.039967,44.249015],[-122.039858,44.249129],[-122.039747,44.249295],[-122.039553,44.249593],[-122.039401,44.249828],[-122.039273,44.250117],[-122.039172,44.25036],[-122.039093,44.250591],[-122.038994,44.250919],[-122.038925,44.251165],[-122.038878,44.251462],[-122.038836,44.251743],[-122.038813,44.252066],[-122.038813,44.252362],[-122.038796,44.252598],[-122.03878,44.252844],[-122.038793,44.253008],[-122.038832,44.25335],[-122.038887,44.253576],[-122.038958,44.253813],[-122.038959,44.253818],[-122.038966,44.253841],[-122.040266,44.253841],[-122.040275,44.25374],[-122.040294,44.253647],[-122.040354,44.253483],[-122.040394,44.253335],[-122.040422,44.253188],[-122.040472,44.253009],[-122.040555,44.252899],[-122.040606,44.252759],[-122.040656,44.252634],[-122.040707,44.252502],[-122.040778,44.252346],[-122.040871,44.252166],[-122.040986,44.252017],[-122.041005,44.251916],[-122.041076,44.251752],[-122.041127,44.251651],[-122.041133,44.251457],[-122.041129,44.251287],[-122.041048,44.251078],[-122.040969,44.250955],[-122.040955,44.250831],[-122.040866,44.250701],[-122.040819,44.25057],[-122.040827,44.250453],[-122.040769,44.250291],[-122.040766,44.250159],[-122.04073,44.250028],[-122.040768,44.249849],[-122.040829,44.249701],[-122.040935,44.249607],[-122.041072,44.249481],[-122.041177,44.249379],[-122.041196,44.249278],[-122.041291,44.249191],[-122.04146,44.249042],[-122.041577,44.248978],[-122.041736,44.248891],[-122.041971,44.248794],[-122.042099,44.248738],[-122.042238,44.248682],[-122.042377,44.248642],[-122.042517,44.248648],[-122.042668,44.248615],[-122.042839,44.248581],[-122.043075,44.248516],[-122.043256,44.248428],[-122.043492,44.248379],[-122.043621,44.248354],[-122.043748,44.248282],[-122.043876,44.248211],[-122.043951,44.248179],[-122.044077,44.248053],[-122.044215,44.247958],[-122.044374,44.247871],[-122.04448,44.247777],[-122.044596,44.247666],[-122.044658,44.247565],[-122.044699,44.247487],[-122.044816,44.247423],[-122.0449,44.247337],[-122.044973,44.247258],[-122.044982,44.247165],[-122.045001,44.247087],[-122.045118,44.247008],[-122.045179,44.246883],[-122.045197,44.24672],[-122.045259,44.246619],[-122.045299,44.24651],[-122.045361,44.246377],[-122.045411,44.246245],[-122.045462,44.246135],[-122.045567,44.246018],[-122.045672,44.2459],[-122.045755,44.245783],[-122.045849,44.245657],[-122.045911,44.24554],[-122.046015,44.245407],[-122.04611,44.245313],[-122.046237,44.245226],[-122.046289,44.245132],[-122.046394,44.245038],[-122.046499,44.244912],[-122.046625,44.244786],[-122.04674,44.244669],[-122.046845,44.244559],[-122.046928,44.244418],[-122.04699,44.244324],[-122.047127,44.244198],[-122.047275,44.244072],[-122.047433,44.2439],[-122.047558,44.243743],[-122.047739,44.24364],[-122.047887,44.243537],[-122.048036,44.24345],[-122.048185,44.24337],[-122.048323,44.243283],[-122.048418,44.24322],[-122.048524,44.243141],[-122.048684,44.243092],[-122.048834,44.243051],[-122.048886,44.242981],[-122.049078,44.242893],[-122.049335,44.242789],[-122.04958,44.2427],[-122.049795,44.242643],[-122.049988,44.242625],[-122.05015,44.242615],[-122.050299,44.242559],[-122.050395,44.242488],[-122.050599,44.242477],[-122.050814,44.242451],[-122.051017,44.242386],[-122.051211,44.242345],[-122.051555,44.24231],[-122.051899,44.242266],[-122.052103,44.242248],[-122.052394,44.242244],[-122.052653,44.242248],[-122.052912,44.242237],[-122.053115,44.24218],[-122.05332,44.24217],[-122.053599,44.242112],[-122.053868,44.242085],[-122.054115,44.242043],[-122.054308,44.242025],[-122.054545,44.241983],[-122.054727,44.241934],[-122.054919,44.241854],[-122.055088,44.241743],[-122.055409,44.241622],[-122.055589,44.241511],[-122.055813,44.2414],[-122.055972,44.241312],[-122.056143,44.241217],[-122.056279,44.241091],[-122.056418,44.241035],[-122.05661,44.240924],[-122.056737,44.240868],[-122.056886,44.240773],[-122.057046,44.240686],[-122.057258,44.240574],[-122.057439,44.240456],[-122.05765,44.240282],[-122.057818,44.240102],[-122.057995,44.239851],[-122.05811,44.239733],[-122.058266,44.239506],[-122.058413,44.239357],[-122.058508,44.239263],[-122.058624,44.239184],[-122.058708,44.239097],[-122.058868,44.239018],[-122.058974,44.238946],[-122.059122,44.238844],[-122.059229,44.238788],[-122.059225,44.238625],[-122.059211,44.238501],[-122.059132,44.238378],[-122.059172,44.238254],[-122.059148,44.238177],[-122.059199,44.238052],[-122.059195,44.237881],[-122.059223,44.237741],[-122.059174,44.237517],[-122.059171,44.237385],[-122.059135,44.237246],[-122.05911,44.237115],[-122.059162,44.237052],[-122.059214,44.236982],[-122.059179,44.23685],[-122.059163,44.23668],[-122.059149,44.236525],[-122.059111,44.236324],[-122.059053,44.236154],[-122.059038,44.236007],[-122.059011,44.23579],[-122.058931,44.235598],[-122.058873,44.235451],[-122.058815,44.235312],[-122.058726,44.235189],[-122.058691,44.235081],[-122.058591,44.234966],[-122.058523,44.234866],[-122.058425,44.234814],[-122.058336,44.234698],[-122.058224,44.234545],[-122.058113,44.234446],[-122.058036,44.234361],[-122.057916,44.234301],[-122.05787,44.234208],[-122.057781,44.234117],[-122.057714,44.234017],[-122.057626,44.233956],[-122.057484,44.233857],[-122.057373,44.233765],[-122.057274,44.233689],[-122.057175,44.233613],[-122.057023,44.233576],[-122.056926,44.233547],[-122.056837,44.233455],[-122.05678,44.233355],[-122.056615,44.233217],[-122.056525,44.233087],[-122.056414,44.232941],[-122.056367,44.23281],[-122.056406,44.232646],[-122.056436,44.232537],[-122.056488,44.232459],[-122.056539,44.232373],[-122.056656,44.232286],[-122.056761,44.232169],[-122.056813,44.232106],[-122.056928,44.231973],[-122.057098,44.231885],[-122.057204,44.231806],[-122.057343,44.23175],[-122.057492,44.231678],[-122.057554,44.231592],[-122.057779,44.231504],[-122.057981,44.231416],[-122.058119,44.231344],[-122.058225,44.231257],[-122.058288,44.231171],[-122.058436,44.231092],[-122.058519,44.230959],[-122.058623,44.230818],[-122.05875,44.230715],[-122.058931,44.230605],[-122.059078,44.230478],[-122.059204,44.230353],[-122.059297,44.230196],[-122.059316,44.230064],[-122.059385,44.229823],[-122.059487,44.229589],[-122.059653,44.229347],[-122.059745,44.229159],[-122.059849,44.228995],[-122.059953,44.228854],[-122.060058,44.228744],[-122.060152,44.228642],[-122.060246,44.228501],[-122.06035,44.228384],[-122.060434,44.228266],[-122.060527,44.228141],[-122.060598,44.227938],[-122.060647,44.227767],[-122.060643,44.22762],[-122.060693,44.227449],[-122.060689,44.227309],[-122.060621,44.227163],[-122.060542,44.227047],[-122.060474,44.226932],[-122.060385,44.226809],[-122.060274,44.226679],[-122.060108,44.226526],[-122.059984,44.226311],[-122.059906,44.226211],[-122.059772,44.226042],[-122.059681,44.225865],[-122.059635,44.225757],[-122.059643,44.225617],[-122.059628,44.225478],[-122.059603,44.225347],[-122.059599,44.225192],[-122.059574,44.225037],[-122.059559,44.224897],[-122.059513,44.224782],[-122.059488,44.224627],[-122.059474,44.224519],[-122.059503,44.224402],[-122.0595,44.224286],[-122.059509,44.224193],[-122.059495,44.224084],[-122.05946,44.223968],[-122.059425,44.223876],[-122.059378,44.223737],[-122.059309,44.223567],[-122.05923,44.223444],[-122.059162,44.223298],[-122.059104,44.223151],[-122.059047,44.223036],[-122.059012,44.222904],[-122.058966,44.222797],[-122.058952,44.222688],[-122.058949,44.222564],[-122.058937,44.222502],[-122.058924,44.222417],[-122.058921,44.222316],[-122.058908,44.222224],[-122.058884,44.222139],[-122.058828,44.222054],[-122.058814,44.221922],[-122.058811,44.221829],[-122.058797,44.221682],[-122.058793,44.221558],[-122.058802,44.221488],[-122.058746,44.221404],[-122.058754,44.22128],[-122.058763,44.221202],[-122.058717,44.221086],[-122.058682,44.220994],[-122.058723,44.2209],[-122.058699,44.220839],[-122.058696,44.220699],[-122.058671,44.220591],[-122.0587,44.220459],[-122.058708,44.220334],[-122.058715,44.220195],[-122.05869,44.220048],[-122.058697,44.219924],[-122.058737,44.219807],[-122.058733,44.219644],[-122.058741,44.219528],[-122.058738,44.219396],[-122.058735,44.219287],[-122.058731,44.219156],[-122.058738,44.219],[-122.058736,44.218923],[-122.058745,44.218845],[-122.058753,44.218752],[-122.058697,44.218652],[-122.058671,44.218497],[-122.058691,44.21842],[-122.058656,44.218319],[-122.0586,44.218235],[-122.058566,44.218173],[-122.058607,44.218111],[-122.058594,44.218033],[-122.058558,44.217879],[-122.058577,44.217778],[-122.058499,44.217678],[-122.058451,44.217492],[-122.058448,44.217384],[-122.058402,44.217276],[-122.058366,44.217137],[-122.058331,44.217006],[-122.058253,44.216906],[-122.058196,44.216806],[-122.058118,44.216698],[-122.058062,44.216629],[-122.058007,44.216583],[-122.057844,44.216516],[-122.057723,44.21644],[-122.057538,44.216388],[-122.057237,44.216392],[-122.05702,44.216341],[-122.056727,44.216259],[-122.056435,44.21624],[-122.056197,44.216212],[-122.055992,44.216192],[-122.0557,44.216157],[-122.055354,44.216115],[-122.055125,44.216041],[-122.054984,44.215973],[-122.054778,44.215929],[-122.054561,44.215885],[-122.054322,44.215826],[-122.054151,44.21586],[-122.054043,44.215884],[-122.053808,44.21595],[-122.053689,44.215936],[-122.053613,44.215898],[-122.053451,44.2159],[-122.053364,44.21587],[-122.053212,44.215833],[-122.053125,44.215788],[-122.052962,44.215759],[-122.052788,44.215707],[-122.052516,44.21561],[-122.052429,44.21558],[-122.052363,44.215535],[-122.052288,44.215528],[-122.052223,44.215521],[-122.052157,44.215483],[-122.052081,44.215438],[-122.05195,44.215401],[-122.051809,44.215364],[-122.051689,44.215303],[-122.05157,44.215289],[-122.051517,44.215306],[-122.051451,44.215268],[-122.05132,44.215223],[-122.05119,44.215178],[-122.051093,44.215172],[-122.051018,44.21518],[-122.050854,44.215097],[-122.050713,44.21506],[-122.050495,44.215001],[-122.050342,44.214918],[-122.050221,44.214827],[-122.05009,44.214759],[-122.050013,44.214674],[-122.049826,44.21453],[-122.04966,44.214384],[-122.049505,44.214231],[-122.049361,44.214063],[-122.049216,44.213879],[-122.049038,44.213664],[-122.048872,44.213496],[-122.048661,44.213273],[-122.048461,44.213028],[-122.048261,44.21279],[-122.04805,44.212568],[-122.047906,44.212384],[-122.047681,44.212038],[-122.047335,44.211578],[-122.047111,44.211247],[-122.046921,44.210978],[-122.046732,44.210671],[-122.046574,44.210673],[-122.046574,44.210673],[-122.046654,44.210773],[-122.047072,44.211333],[-122.047335,44.2117],[-122.047576,44.212074],[-122.048006,44.212631],[-122.048361,44.213051],[-122.048672,44.213381],[-122.049053,44.213813],[-122.049386,44.214213],[-122.049714,44.214552],[-122.05004,44.214826],[-122.050269,44.215001],[-122.050618,44.215219],[-122.050885,44.215373],[-122.051299,44.215572],[-122.051672,44.215764],[-122.051986,44.215938],[-122.053036,44.216474],[-122.056613,44.218294],[-122.056908,44.218451],[-122.057127,44.218602],[-122.057311,44.218719],[-122.057482,44.218854],[-122.057624,44.218998],[-122.057764,44.219147],[-122.057871,44.21929],[-122.058051,44.219536],[-122.058234,44.219815],[-122.058321,44.220017],[-122.058379,44.220159],[-122.05845,44.220373],[-122.058478,44.220528],[-122.058504,44.220667],[-122.058563,44.220967],[-122.058807,44.222353],[-122.058869,44.222739],[-122.05891,44.222895],[-122.058968,44.223106],[-122.059055,44.223435],[-122.059105,44.223626],[-122.059333,44.224309],[-122.059435,44.224725],[-122.059487,44.224983],[-122.059543,44.225274],[-122.059581,44.225544],[-122.05962,44.225888],[-122.059665,44.226159],[-122.059728,44.226605],[-122.059793,44.227039],[-122.059841,44.227391],[-122.059826,44.227716],[-122.059819,44.228022],[-122.059813,44.228238],[-122.059753,44.228446],[-122.059685,44.228637],[-122.059602,44.228822],[-122.059525,44.228969],[-122.059445,44.229088],[-122.059337,44.229234],[-122.059216,44.229375],[-122.059087,44.229541],[-122.058903,44.229737],[-122.058712,44.229935],[-122.056951,44.231719],[-122.056523,44.232182],[-122.056337,44.232365],[-122.056185,44.232561],[-122.055997,44.232818],[-122.055877,44.233044],[-122.055776,44.233288],[-122.055667,44.233532],[-122.055579,44.233786],[-122.055532,44.234035],[-122.055501,44.234258],[-122.055491,44.234466],[-122.055477,44.234792],[-122.055521,44.236053],[-122.055573,44.237199],[-122.055592,44.237477],[-122.055607,44.237757],[-122.055614,44.238032],[-122.055612,44.238258],[-122.055602,44.23845],[-122.05559,44.238629],[-122.055548,44.238825],[-122.055511,44.238992],[-122.055454,44.239154],[-122.055386,44.239285],[-122.055334,44.239419],[-122.055243,44.239549],[-122.055159,44.239657],[-122.055041,44.239818],[-122.054934,44.23997],[-122.054768,44.240145],[-122.054618,44.2403],[-122.054412,44.240454],[-122.054156,44.240638],[-122.053883,44.240824],[-122.053616,44.240933],[-122.052852,44.241267],[-122.051323,44.241863],[-122.050288,44.242277],[-122.049449,44.242622],[-122.0491,44.24277],[-122.048647,44.242972],[-122.048281,44.243127],[-122.047962,44.243274],[-122.047616,44.243443],[-122.047256,44.243644],[-122.046909,44.243859],[-122.046538,44.244085],[-122.045563,44.244759],[-122.04502,44.245135],[-122.044602,44.245408],[-122.04416,44.245719],[-122.043741,44.246004],[-122.041827,44.24732],[-122.041235,44.247756],[-122.041116,44.247843],[-122.040806,44.24813],[-122.040639,44.248293],[-122.040445,44.248477],[-122.040288,44.24865],[-122.040139,44.248806]]]]}}]}