{"type":"FeatureCollection","features":[{"type":"Feature","properties":{"MAPTAXLOT":"1515000000066","MAPNUMBER":"15150000","TAXLOT":"66","ACCTNO":"000None","MAPACRES":6.01027989},"geometry":{"type":"Polygon","coordinates":[[[-122.623683,44.247962],[-122.623928,44.248112],[-122.624157,44.24817],[-122.624568,44.24814],[-122.625068,44.248029],[-122.625496,44.247805],[-122.625875,44.247555],[-122.626184,44.24743],[-122.626352,44.24733],[-122.626503,44.247239],[-122.62661,44.247144],[-122.626607,44.247043],[-122.626524,44.246969],[-122.626308,44.246938],[-122.626031,44.246943],[-122.625638,44.246941],[-122.625245,44.24694],[-122.624819,44.246899],[-122.624412,44.246862],[-122.624066,44.24682],[-122.623894,44.246823],[-122.623683,44.24682],[-122.623683,44.246821],[-122.623683,44.247962]]]}},{"type":"Feature","properties":{"MAPTAXLOT":"1515000000500","MAPNUMBER":"15150000","TAXLOT":"500","ACCTNO":"0026664","MAPACRES":425.71023601},"geometry":{"type":"Polygon","coordinates":[[[-122.656537,44.269823],[-122.659601,44.270894],[-122.661131,44.270272],[-122.66356,44.270113],[-122.663719,44.257938],[-122.645797,44.257977],[-122.645773,44.258032],[-122.644527,44.259631],[-122.644196,44.261021],[-122.646334,44.263533],[-122.646908,44.265084],[-122.646562,44.266523],[-122.651774,44.266961],[-122.652739,44.268887],[-122.654186,44.268559],[-122.655383,44.269596],[-122.656537,44.269823]]]}},{"type":"Feature","properties":{"MAPTAXLOT":"1515000002000","MAPNUMBER":"15150000","TAXLOT":"2000","ACCTNO":"0026839","MAPACRES":615.1201119},"geometry":{"type":"Polygon","coordinates":[[[-122.645797,44.257977],[-122.663719,44.257938],[-122.663933,44.243176],[-122.643902,44.24341],[-122.643768,44.252009],[-122.647137,44.25496],[-122.645797,44.257977]]]}},{"type":"Feature","properties":{"MAPTAXLOT":"1515000002100","MAPNUMBER":"15150000","TAXLOT":"2100","ACCTNO":"0026847","MAPACRES":271.03149939},"geometry":{"type":"Polygon","coordinates":[[[-122.641727,44.249643],[-122.641711,44.251615],[-122.643444,44.251726],[-122.643768,44.252009],[-122.643902,44.24341],[-122.633739,44.243368],[-122.623682,44.243536],[-122.623682,44.243537],[-122.623683,44.24682],[-122.623894,44.246823],[-122.624066,44.24682],[-122.624412,44.246862],[-122.624819,44.246899],[-122.625245,44.24694],[-122.625638,44.246941],[-122.626031,44.246943],[-122.626308,44.246938],[-122.626524,44.246969],[-122.626607,44.247043],[-122.62661,44.247144],[-122.626503,44.247239],[-122.626352,44.24733],[-122.626184,44.24743],[-122.625875,44.247555],[-122.625496,44.247805],[-122.625068,44.248029],[-122.624568,44.24814],[-122.624157,44.24817],[-122.623928,44.248112],[-122.623683,44.247962],[-122.623683,44.247962],[-122.623684,44.250085],[-122.625736,44.250066],[-122.62745,44.249408],[-122.63008,44.249363],[-122.632912,44.249095],[-122.634125,44.249096],[-122.635342,44.249385],[-122.637755,44.249552],[-122.639845,44.24914],[-122.641727,44.249643]]]}},{"type":"Feature","properties":{"MAPTAXLOT":"1515000002500","MAPNUMBER":"15150000","TAXLOT":"2500","ACCTNO":"0026870","MAPACRES":428.18377774},"geometry":{"type":"Polygon","coordinates":[[[-122.633739,44.243368],[-122.643902,44.24341],[-122.644045,44.236406],[-122.644042,44.229172],[-122.638977,44.229118],[-122.637032,44.229097],[-122.636987,44.236346],[-122.636224,44.236339],[-122.633821,44.236319],[-122.623656,44.236221],[-122.623656,44.236222],[-122.623682,44.243536],[-122.633739,44.243368]]]}},{"type":"Feature","properties":{"MAPTAXLOT":"1515000002600","MAPNUMBER":"15150000","TAXLOT":"2600","ACCTNO":"0026888","MAPACRES":630.57178654},"geometry":{"type":"Polygon","coordinates":[[[-122.643902,44.24341],[-122.663933,44.243176],[-122.664177,44.228731],[-122.654109,44.228952],[-122.644042,44.229172],[-122.644045,44.236406],[-122.643902,44.24341]]]}},{"type":"Feature","properties":{"MAPTAXLOT":"1525000000066","MAPNUMBER":"15250000","TAXLOT":"66","ACCTNO":"000None","MAPACRES":1.02891959},"geometry":{"type":"Polygon","coordinates":[[[-122.623683,44.246821],[-122.623594,44.246849],[-122.623479,44.246923],[-122.623353,44.247022],[-122.623134,44.247136],[-122.623009,44.247264],[-122.623006,44.247357],[-122.623021,44.247437],[-122.623117,44.247499],[-122.623191,44.247599],[-122.623301,44.247702],[-122.623463,44.247809],[-122.623608,44.247912],[-122.623683,44.247962],[-122.623683,44.247962],[-122.623683,44.246821]]]}},{"type":"Feature","properties":{"MAPTAXLOT":"1525000000100","MAPNUMBER":"15250000","TAXLOT":"100","ACCTNO":"0027076","MAPACRES":19.23490373},"geometry":{"type":"MultiPolygon","coordinates":[[[[-122.60384,44.24399],[-122.606767,44.244568],[-122.608838,44.245335],[-122.608841,44.243309],[-122.60384,44.243266],[-122.60384,44.24399]]],[[[-122.614043,44.247215],[-122.615038,44.247217],[-122.617209,44.2475],[-122.618843,44.248314],[-122.618856,44.247075],[-122.613816,44.247017],[-122.612391,44.247001],[-122.614043,44.247215]]]]}},{"type":"Feature","properties":{"MAPTAXLOT":"1525000000200","MAPNUMBER":"15250000","TAXLOT":"200","ACCTNO":"0027084","MAPACRES":134.18435729},"geometry":{"type":"Polygon","coordinates":[[[-122.608838,44.245335],[-122.6094,44.245544],[-122.612224,44.24698],[-122.612391,44.247001],[-122.613816,44.247017],[-122.618856,44.247075],[-122.618843,44.248314],[-122.619807,44.248795],[-122.621141,44.249165],[-122.623183,44.250079],[-122.623616,44.250086],[-122.623684,44.250085],[-122.623683,44.247962],[-122.623608,44.247912],[-122.623463,44.247809],[-122.623301,44.247702],[-122.623191,44.247599],[-122.623117,44.247499],[-122.623021,44.247437],[-122.623006,44.247357],[-122.623009,44.247264],[-122.623134,44.247136],[-122.623353,44.247022],[-122.623479,44.246923],[-122.623594,44.246849],[-122.623683,44.246821],[-122.623683,44.24682],[-122.623682,44.243537],[-122.623682,44.243537],[-122.618892,44.243447],[-122.613828,44.243355],[-122.608841,44.243309],[-122.608838,44.245335]]]}},{"type":"Feature","properties":{"MAPTAXLOT":"1525000000700","MAPNUMBER":"15250000","TAXLOT":"700","ACCTNO":"0027134","MAPACRES":610.4545711},"geometry":{"type":"Polygon","coordinates":[[[-122.595554,44.244379],[-122.596824,44.244558],[-122.597929,44.244247],[-122.601654,44.244262],[-122.60384,44.24399],[-122.60384,44.243266],[-122.60381,44.228873],[-122.59377,44.22891],[-122.583687,44.228851],[-122.58366,44.238497],[-122.586565,44.23971],[-122.589081,44.241128],[-122.589395,44.241746],[-122.592936,44.243227],[-122.593366,44.244374],[-122.595554,44.244379]]]}},{"type":"Feature","properties":{"MAPTAXLOT":"1525000000800","MAPNUMBER":"15250000","TAXLOT":"800","ACCTNO":"0027142","MAPACRES":631.62841583},"geometry":{"type":"Polygon","coordinates":[[[-122.608841,44.243309],[-122.613828,44.243355],[-122.618892,44.243447],[-122.623682,44.243537],[-122.623682,44.243537],[-122.623682,44.243536],[-122.623656,44.236222],[-122.623656,44.236221],[-122.623634,44.228908],[-122.613773,44.228839],[-122.612309,44.228828],[-122.608059,44.228844],[-122.60381,44.228873],[-122.60384,44.243266],[-122.608841,44.243309]]]}}]}