{"type":"FeatureCollection","features":[{"type":"Feature","properties":{"MAPTAXLOT":"2356000000200","MAPNUMBER":"23560000","TAXLOT":"200","ACCTNO":"1857471","MAPACRES":9042.53385174},"geometry":{"type":"MultiPolygon","coordinates":[[[[-122.143843,43.604883],[-122.144195,43.604933],[-122.144486,43.604986],[-122.144831,43.605096],[-122.145089,43.605204],[-122.145341,43.605327],[-122.145638,43.605496],[-122.145931,43.605756],[-122.146169,43.606014],[-122.146377,43.606353],[-122.146522,43.606635],[-122.146677,43.606908],[-122.146914,43.607208],[-122.147174,43.607479],[-122.147466,43.607727],[-122.147835,43.607952],[-122.148159,43.60823],[-122.148454,43.608488],[-122.148697,43.608769],[-122.148879,43.609108],[-122.149052,43.609461],[-122.150333,43.612534],[-122.150366,43.612614],[-122.152084,43.612616],[-122.151042,43.601778],[-122.151042,43.59926],[-122.151042,43.598158],[-122.151042,43.594537],[-122.151042,43.590916],[-122.151042,43.587295],[-122.151042,43.584776],[-122.151042,43.583675],[-122.151042,43.580054],[-122.151043,43.576433],[-122.151043,43.572813],[-122.151043,43.570294],[-122.151043,43.569192],[-122.151043,43.565572],[-122.151043,43.561951],[-122.151043,43.55833],[-122.151043,43.555812],[-122.151043,43.55471],[-122.151043,43.551089],[-122.151043,43.547468],[-122.151043,43.543848],[-122.151043,43.541329],[-122.151043,43.540227],[-122.151043,43.536606],[-122.151043,43.532985],[-122.151043,43.529598],[-122.145989,43.529598],[-122.141013,43.529598],[-122.140388,43.529598],[-122.140264,43.529698],[-122.14017,43.530224],[-122.140673,43.531276],[-122.140862,43.532054],[-122.141491,43.533678],[-122.142718,43.535874],[-122.14275,43.536537],[-122.142436,43.538344],[-122.142247,43.539053],[-122.141902,43.539465],[-122.138381,43.542851],[-122.13574,43.54507],[-122.13552,43.545528],[-122.135143,43.546969],[-122.134829,43.548753],[-122.134955,43.549234],[-122.13486,43.549645],[-122.134483,43.550103],[-122.134294,43.550858],[-122.13376,43.552162],[-122.131748,43.555593],[-122.131276,43.556485],[-122.131182,43.557011],[-122.128886,43.557675],[-122.127627,43.558201],[-122.127093,43.558681],[-122.126778,43.559139],[-122.125615,43.559848],[-122.125237,43.560488],[-122.124231,43.562273],[-122.123822,43.562524],[-122.121777,43.563165],[-122.121116,43.563165],[-122.119386,43.562844],[-122.118537,43.562433],[-122.117751,43.56225],[-122.117216,43.562318],[-122.116776,43.562524],[-122.113032,43.56401],[-122.111773,43.56568],[-122.11127,43.566549],[-122.110704,43.567121],[-122.108092,43.568905],[-122.106487,43.570392],[-122.106204,43.570895],[-122.105983,43.572382],[-122.105543,43.573114],[-122.104315,43.574166],[-122.101452,43.575652],[-122.098714,43.577298],[-122.097927,43.577687],[-122.097077,43.577915],[-122.095378,43.578304],[-122.091854,43.579469],[-122.088015,43.580109],[-122.087165,43.580017],[-122.084774,43.579056],[-122.083359,43.578781],[-122.080339,43.577933],[-122.079426,43.577818],[-122.078797,43.577864],[-122.078073,43.57807],[-122.077758,43.578275],[-122.076845,43.579258],[-122.076341,43.579601],[-122.075712,43.579784],[-122.074988,43.579784],[-122.073289,43.579509],[-122.07266,43.579531],[-122.071842,43.580011],[-122.070644,43.581749],[-122.070739,43.582092],[-122.071713,43.583076],[-122.073191,43.584015],[-122.075708,43.585365],[-122.075927,43.585846],[-122.075895,43.586441],[-122.075643,43.587355],[-122.075265,43.58763],[-122.074353,43.587629],[-122.073692,43.5874],[-122.07322,43.587126],[-122.071553,43.586553],[-122.070892,43.586461],[-122.069539,43.586621],[-122.067241,43.587466],[-122.06573,43.587465],[-122.064441,43.586916],[-122.063811,43.586869],[-122.063151,43.586938],[-122.062678,43.587075],[-122.062395,43.58728],[-122.062332,43.587532],[-122.06211,43.588721],[-122.061858,43.58911],[-122.061397,43.58948],[-122.061396,43.58948],[-122.061396,43.590916],[-122.061396,43.594537],[-122.061396,43.598157],[-122.061397,43.599014],[-122.061397,43.599016],[-122.06462,43.598989],[-122.065179,43.599055],[-122.065713,43.599176],[-122.066154,43.599338],[-122.066567,43.59955],[-122.066869,43.599832],[-122.067278,43.600149],[-122.067634,43.600445],[-122.067984,43.600662],[-122.068303,43.60081],[-122.068717,43.600992],[-122.072303,43.602218],[-122.072597,43.602386],[-122.072858,43.602551],[-122.073141,43.602803],[-122.073396,43.603061],[-122.073791,43.603402],[-122.07515,43.60481],[-122.075359,43.605028],[-122.075638,43.605209],[-122.075951,43.605384],[-122.076263,43.605515],[-122.076666,43.605662],[-122.07707,43.605764],[-122.077461,43.605852],[-122.077889,43.605924],[-122.078365,43.605977],[-122.078788,43.605972],[-122.079207,43.605934],[-122.079584,43.605913],[-122.080009,43.605823],[-122.082729,43.604837],[-122.083171,43.604705],[-122.083622,43.604622],[-122.084106,43.604615],[-122.084525,43.604626],[-122.084933,43.604638],[-122.085386,43.604689],[-122.085791,43.604812],[-122.086133,43.604913],[-122.086516,43.605073],[-122.086822,43.605233],[-122.087136,43.605434],[-122.087417,43.605684],[-122.087759,43.606026],[-122.088982,43.60753],[-122.089282,43.607867],[-122.089534,43.608155],[-122.08977,43.608395],[-122.090102,43.608658],[-122.090405,43.6089],[-122.090867,43.609161],[-122.092906,43.610395],[-122.093279,43.610578],[-122.093622,43.610743],[-122.09404,43.610887],[-122.094433,43.610992],[-122.094889,43.611111],[-122.095305,43.611181],[-122.095887,43.611238],[-122.096427,43.611308],[-122.096825,43.611303],[-122.097297,43.611265],[-122.097763,43.611212],[-122.098242,43.611115],[-122.098829,43.610947],[-122.099518,43.610742],[-122.100218,43.610518],[-122.100704,43.610381],[-122.101627,43.610046],[-122.102167,43.609841],[-122.102849,43.609598],[-122.103392,43.609417],[-122.103941,43.609292],[-122.10439,43.609161],[-122.104703,43.609056],[-122.105008,43.608887],[-122.10538,43.608688],[-122.105736,43.60847],[-122.10606,43.608295],[-122.106378,43.608128],[-122.106798,43.607977],[-122.107363,43.607804],[-122.11104,43.606553],[-122.113617,43.605695],[-122.114261,43.605458],[-122.114836,43.605247],[-122.115333,43.605102],[-122.11584,43.604977],[-122.116372,43.604851],[-122.117063,43.604723],[-122.117585,43.604633],[-122.118224,43.604524],[-122.11876,43.604449],[-122.119325,43.604391],[-122.119977,43.6043],[-122.120663,43.604224],[-122.121201,43.604167],[-122.121762,43.604097],[-122.122333,43.603976],[-122.12298,43.603853],[-122.1236,43.603705],[-122.124144,43.603679],[-122.124615,43.603655],[-122.125097,43.603667],[-122.125527,43.60373],[-122.125936,43.603774],[-122.126354,43.603835],[-122.126865,43.603908],[-122.127285,43.603951],[-122.127719,43.603992],[-122.128185,43.604001],[-122.128657,43.604029],[-122.129144,43.604072],[-122.129721,43.604131],[-122.130223,43.604193],[-122.130698,43.604289],[-122.131232,43.604399],[-122.131768,43.604532],[-122.132213,43.604695],[-122.132571,43.604803],[-122.133006,43.604945],[-122.133818,43.605193],[-122.134296,43.605324],[-122.134657,43.605475],[-122.135059,43.605623],[-122.135399,43.605792],[-122.135717,43.605945],[-122.136037,43.606151],[-122.136359,43.60636],[-122.136611,43.606521],[-122.136867,43.606684],[-122.137108,43.606796],[-122.137356,43.606897],[-122.137584,43.606968],[-122.137829,43.607038],[-122.13811,43.607088],[-122.138401,43.607098],[-122.138727,43.607094],[-122.139015,43.607063],[-122.139346,43.606959],[-122.139713,43.606834],[-122.139955,43.606707],[-122.140147,43.606577],[-122.140363,43.606398],[-122.140584,43.606164],[-122.140848,43.605948],[-122.141056,43.60572],[-122.14131,43.605548],[-122.141568,43.60537],[-122.141851,43.605214],[-122.142185,43.605077],[-122.142521,43.604978],[-122.142832,43.604917],[-122.143194,43.604874],[-122.143531,43.604869],[-122.143843,43.604883]],[[-122.073167,43.580938],[-122.073301,43.581005],[-122.073435,43.581045],[-122.073551,43.581126],[-122.073686,43.581234],[-122.073784,43.581343],[-122.073863,43.581466],[-122.074017,43.581561],[-122.07417,43.581627],[-122.074305,43.581694],[-122.074439,43.581748],[-122.074497,43.581802],[-122.074614,43.581911],[-122.074752,43.582116],[-122.074833,43.582321],[-122.074895,43.582513],[-122.07488,43.582679],[-122.074865,43.582844],[-122.074869,43.582968],[-122.074853,43.583093],[-122.0748,43.583231],[-122.074745,43.583315],[-122.074652,43.583385],[-122.074462,43.583388],[-122.074273,43.58339],[-122.074083,43.583393],[-122.07397,43.583408],[-122.073818,43.58341],[-122.073648,43.583426],[-122.073477,43.583401],[-122.073398,43.583278],[-122.073301,43.583183],[-122.073126,43.583047],[-122.07303,43.582966],[-122.072969,43.582815],[-122.072909,43.582692],[-122.072866,43.582513],[-122.072862,43.582348],[-122.072839,43.582211],[-122.072741,43.582074],[-122.072624,43.581938],[-122.072508,43.581843],[-122.072427,43.581665],[-122.072423,43.5815],[-122.0724,43.581348],[-122.072453,43.581182],[-122.072506,43.581057],[-122.072618,43.580973],[-122.072769,43.580944],[-122.072996,43.580927],[-122.073167,43.580938]],[[-122.10183,43.602399],[-122.101745,43.602463],[-122.101712,43.602526],[-122.101681,43.602652],[-122.101683,43.602765],[-122.101685,43.60284],[-122.101637,43.602967],[-122.101587,43.603055],[-122.101486,43.603132],[-122.101348,43.603159],[-122.101244,43.603148],[-122.101087,43.603088],[-122.100963,43.603001],[-122.100822,43.602903],[-122.10075,43.602765],[-122.100659,43.602628],[-122.100535,43.602504],[-122.100426,43.602317],[-122.10037,43.602155],[-122.100331,43.601992],[-122.100327,43.601829],[-122.100289,43.601678],[-122.100303,43.601553],[-122.100387,43.601488],[-122.100541,43.601398],[-122.100714,43.601396],[-122.100819,43.60147],[-122.100943,43.601581],[-122.101049,43.601643],[-122.101154,43.601692],[-122.101241,43.601728],[-122.101346,43.601752],[-122.101485,43.601787],[-122.101694,43.601847],[-122.101884,43.601857],[-122.102093,43.60188],[-122.102301,43.601927],[-122.102441,43.601975],[-122.102563,43.602011],[-122.102635,43.602123],[-122.102638,43.602224],[-122.102553,43.6023],[-122.102399,43.602365],[-122.102227,43.602393],[-122.102072,43.602395],[-122.101967,43.602384],[-122.10183,43.602399]]],[[[-122.124447,43.611318],[-122.124741,43.61148],[-122.125011,43.611669],[-122.125316,43.611935],[-122.126111,43.61261],[-122.126176,43.61261],[-122.131159,43.61261],[-122.136141,43.61261],[-122.136141,43.61261],[-122.141123,43.61261],[-122.144829,43.61261],[-122.149577,43.612614],[-122.148334,43.609632],[-122.148171,43.609299],[-122.148019,43.609017],[-122.147841,43.608811],[-122.14758,43.608583],[-122.1473,43.608342],[-122.146933,43.608118],[-122.146576,43.607815],[-122.146276,43.607502],[-122.145997,43.60715],[-122.145819,43.606836],[-122.145678,43.606561],[-122.145506,43.606281],[-122.145324,43.606084],[-122.145106,43.60589],[-122.144897,43.605771],[-122.14469,43.60567],[-122.14449,43.605587],[-122.144241,43.605507],[-122.144031,43.605469],[-122.143747,43.605429],[-122.143514,43.605418],[-122.143262,43.605422],[-122.142992,43.605454],[-122.142763,43.605499],[-122.142514,43.605572],[-122.142266,43.605674],[-122.142057,43.605789],[-122.141827,43.605947],[-122.141636,43.606077],[-122.141448,43.606283],[-122.14118,43.606503],[-122.14096,43.606736],[-122.140689,43.606959],[-122.140436,43.607131],[-122.140097,43.607309],[-122.139656,43.607459],[-122.139223,43.607596],[-122.138789,43.607642],[-122.13839,43.607647],[-122.138001,43.607634],[-122.137599,43.607562],[-122.137296,43.607475],[-122.137022,43.607389],[-122.13672,43.607267],[-122.136411,43.607124],[-122.136113,43.606933],[-122.135859,43.606771],[-122.135535,43.606561],[-122.135255,43.606381],[-122.134977,43.606247],[-122.134674,43.606096],[-122.134298,43.605958],[-122.133972,43.605822],[-122.133538,43.605703],[-122.132705,43.605448],[-122.132271,43.605306],[-122.131899,43.605194],[-122.131475,43.60504],[-122.131007,43.604923],[-122.130494,43.604818],[-122.130058,43.604729],[-122.129605,43.604673],[-122.129046,43.604616],[-122.12858,43.604575],[-122.128144,43.604549],[-122.127659,43.604539],[-122.127184,43.604494],[-122.126741,43.60445],[-122.126206,43.604373],[-122.125806,43.604315],[-122.125397,43.604271],[-122.125009,43.604214],[-122.124629,43.604205],[-122.124195,43.604227],[-122.123744,43.604248],[-122.123194,43.60438],[-122.122534,43.604505],[-122.121933,43.604632],[-122.12132,43.604709],[-122.120774,43.604767],[-122.120105,43.604841],[-122.119448,43.604933],[-122.118884,43.60499],[-122.118382,43.605061],[-122.117758,43.605167],[-122.117243,43.605256],[-122.116582,43.605378],[-122.116078,43.605497],[-122.115595,43.605617],[-122.115148,43.605748],[-122.114601,43.605948],[-122.113945,43.60619],[-122.111357,43.60705],[-122.10767,43.608305],[-122.107112,43.608476],[-122.106769,43.6086],[-122.106506,43.608737],[-122.106205,43.6089],[-122.105848,43.60912],[-122.10546,43.609326],[-122.105095,43.609529],[-122.104689,43.609665],[-122.104195,43.60981],[-122.103663,43.60993],[-122.103173,43.610093],[-122.102508,43.61033],[-122.101971,43.610535],[-122.10101,43.610884],[-122.100507,43.611025],[-122.099814,43.611247],[-122.09911,43.611457],[-122.098482,43.611635],[-122.097924,43.611749],[-122.097397,43.611809],[-122.096874,43.611851],[-122.096366,43.611858],[-122.09577,43.61178],[-122.09517,43.611721],[-122.094676,43.611639],[-122.094175,43.611508],[-122.093747,43.611394],[-122.09325,43.611222],[-122.092859,43.611034],[-122.092452,43.610834],[-122.090394,43.609589],[-122.08989,43.609304],[-122.089545,43.609028],[-122.089183,43.608741],[-122.088908,43.608462],[-122.088646,43.608164],[-122.088339,43.607818],[-122.087128,43.606327],[-122.086819,43.60602],[-122.08659,43.605816],[-122.086351,43.605662],[-122.086106,43.605534],[-122.085802,43.605407],[-122.085504,43.605319],[-122.085179,43.605221],[-122.084859,43.605185],[-122.084497,43.605174],[-122.0841,43.605164],[-122.083724,43.605169],[-122.083409,43.605227],[-122.083041,43.605337],[-122.080286,43.606336],[-122.07972,43.606456],[-122.079282,43.60648],[-122.078842,43.60652],[-122.078314,43.606527],[-122.077746,43.606463],[-122.077264,43.606382],[-122.076834,43.606285],[-122.076372,43.606168],[-122.075906,43.605998],[-122.075531,43.605842],[-122.075155,43.605631],[-122.074789,43.605394],[-122.074531,43.605124],[-122.073192,43.603737],[-122.072799,43.603398],[-122.072541,43.603136],[-122.072314,43.602935],[-122.072116,43.602809],[-122.071904,43.602688],[-122.06836,43.601476],[-122.067904,43.601276],[-122.067534,43.601104],[-122.067102,43.600837],[-122.066718,43.600518],[-122.066294,43.600188],[-122.06604,43.599951],[-122.065764,43.59981],[-122.065428,43.599686],[-122.065005,43.59959],[-122.064564,43.599538],[-122.061397,43.599566],[-122.061397,43.601259],[-122.061396,43.601778],[-122.061396,43.609018],[-122.061396,43.611492],[-122.061397,43.611492],[-122.061707,43.611511],[-122.062303,43.611534],[-122.062969,43.611525],[-122.063424,43.611541],[-122.063828,43.61158],[-122.064228,43.611656],[-122.064711,43.611818],[-122.065151,43.612002],[-122.066474,43.61261],[-122.071363,43.61261],[-122.07507,43.61261],[-122.076346,43.61261],[-122.08133,43.61261],[-122.085035,43.61261],[-122.086313,43.61261],[-122.091296,43.61261],[-122.09628,43.61261],[-122.101263,43.61261],[-122.104968,43.61261],[-122.105293,43.61261],[-122.105609,43.612434],[-122.106228,43.612149],[-122.106687,43.611969],[-122.107156,43.611811],[-122.107526,43.611698],[-122.108143,43.611539],[-122.108647,43.611423],[-122.109103,43.611351],[-122.109784,43.611287],[-122.111455,43.611179],[-122.113162,43.611087],[-122.115413,43.610898],[-122.116241,43.610823],[-122.117285,43.610755],[-122.117923,43.610704],[-122.119502,43.610608],[-122.120464,43.610541],[-122.121013,43.610528],[-122.121471,43.610533],[-122.121786,43.61054],[-122.122188,43.610601],[-122.122589,43.610668],[-122.122972,43.610709],[-122.123279,43.610832],[-122.123599,43.610933],[-122.124064,43.611115],[-122.124447,43.611318]],[[-122.13238,43.610065],[-122.132412,43.61012],[-122.132459,43.610186],[-122.132461,43.610241],[-122.132386,43.61032],[-122.13231,43.610321],[-122.132188,43.610345],[-122.132021,43.610381],[-122.1319,43.610405],[-122.131825,43.61045],[-122.13178,43.610484],[-122.13172,43.61054],[-122.131676,43.610608],[-122.131601,43.610664],[-122.131494,43.610666],[-122.131388,43.610667],[-122.131266,43.61068],[-122.131159,43.610693],[-122.131083,43.610716],[-122.130977,43.610751],[-122.130887,43.610807],[-122.130737,43.610887],[-122.130631,43.610922],[-122.13051,43.610979],[-122.130405,43.611069],[-122.130285,43.611116],[-122.130178,43.611128],[-122.130086,43.611129],[-122.130039,43.611075],[-122.130082,43.610985],[-122.130126,43.610885],[-122.130138,43.610774],[-122.130166,43.610684],[-122.130164,43.610618],[-122.130209,43.610562],[-122.130283,43.610505],[-122.130405,43.61047],[-122.130511,43.610458],[-122.130601,43.610379],[-122.130583,43.610301],[-122.130611,43.61019],[-122.130625,43.610123],[-122.130638,43.610067],[-122.130713,43.610022],[-122.130835,43.609987],[-122.130972,43.609985],[-122.131094,43.609983],[-122.131217,43.610015],[-122.13134,43.610035],[-122.131401,43.610034],[-122.131524,43.610044],[-122.131629,43.609987],[-122.131704,43.609919],[-122.131778,43.609862],[-122.131853,43.609784],[-122.131959,43.609749],[-122.132019,43.609726],[-122.132125,43.609702],[-122.132127,43.609758],[-122.132128,43.609802],[-122.132161,43.609879],[-122.132224,43.609945],[-122.132225,43.61],[-122.132287,43.610022],[-122.132363,43.610021],[-122.13238,43.610065]]],[[[-122.120496,43.610897],[-122.119546,43.610963],[-122.11797,43.611059],[-122.117334,43.61111],[-122.116293,43.611177],[-122.115471,43.611252],[-122.113208,43.611442],[-122.111495,43.611535],[-122.109837,43.611642],[-122.109187,43.611702],[-122.108774,43.611768],[-122.108299,43.611877],[-122.107704,43.61203],[-122.107355,43.612137],[-122.106907,43.612288],[-122.106476,43.612457],[-122.106144,43.61261],[-122.106245,43.61261],[-122.111228,43.61261],[-122.116211,43.61261],[-122.121194,43.61261],[-122.124899,43.61261],[-122.125465,43.61261],[-122.124941,43.612166],[-122.124651,43.611913],[-122.124421,43.611751],[-122.124154,43.611604],[-122.123802,43.611417],[-122.123385,43.611254],[-122.123062,43.611153],[-122.122812,43.611052],[-122.122498,43.611019],[-122.122083,43.610949],[-122.121727,43.610895],[-122.12146,43.610889],[-122.121018,43.610885],[-122.120496,43.610897]]],[[[-122.061396,43.61261],[-122.061397,43.61261],[-122.065555,43.61261],[-122.064897,43.612307],[-122.064485,43.612135],[-122.064062,43.611993],[-122.063733,43.611931],[-122.06338,43.611896],[-122.062962,43.611882],[-122.062295,43.611891],[-122.061674,43.611867],[-122.061397,43.61185],[-122.061396,43.61185],[-122.061396,43.61261]]]]}}]}