{"type":"FeatureCollection","features":[{"type":"Feature","properties":{"MAPTAXLOT":"2015000000100","MAPNUMBER":"20150000","TAXLOT":"100","ACCTNO":"0926335","MAPACRES":11492.43194972},"geometry":{"type":"Polygon","coordinates":[[[-122.722466,43.863312],[-122.722254,43.866899],[-122.727304,43.866875],[-122.737393,43.866863],[-122.745305,43.866512],[-122.745305,43.866512],[-122.745303,43.866453],[-122.745236,43.863902],[-122.745236,43.863901],[-122.745236,43.863901],[-122.745214,43.862794],[-122.745214,43.862794],[-122.745214,43.862794],[-122.74515,43.860172],[-122.74513,43.859076],[-122.745066,43.856442],[-122.745046,43.855356],[-122.744981,43.852713],[-122.744961,43.851637],[-122.744851,43.849134],[-122.744893,43.848026],[-122.744784,43.845557],[-122.744736,43.844397],[-122.744565,43.841959],[-122.744565,43.841958],[-122.744474,43.840744],[-122.744307,43.83838],[-122.744196,43.837092],[-122.744196,43.837091],[-122.744103,43.834786],[-122.744084,43.8335],[-122.743991,43.831199],[-122.743991,43.831199],[-122.74399,43.831193],[-122.743972,43.829907],[-122.743971,43.827591],[-122.743972,43.827522],[-122.743973,43.826315],[-122.743973,43.824108],[-122.743973,43.823988],[-122.743965,43.823988],[-122.736889,43.823999],[-122.726951,43.824021],[-122.726932,43.816791],[-122.717128,43.816773],[-122.717087,43.813174],[-122.707152,43.813275],[-122.707125,43.809673],[-122.70716,43.795387],[-122.727031,43.795437],[-122.727024,43.791847],[-122.732019,43.791862],[-122.73201,43.788286],[-122.736996,43.788314],[-122.736981,43.784482],[-122.740835,43.784613],[-122.740858,43.779822],[-122.736965,43.779878],[-122.736962,43.779878],[-122.736485,43.779885],[-122.736482,43.779886],[-122.727028,43.780018],[-122.727021,43.780018],[-122.726541,43.780023],[-122.726534,43.780023],[-122.717092,43.780117],[-122.717082,43.780117],[-122.716582,43.780122],[-122.716573,43.780122],[-122.707156,43.780216],[-122.707143,43.780216],[-122.706624,43.780221],[-122.706612,43.780221],[-122.697288,43.780356],[-122.696748,43.780361],[-122.696737,43.780362],[-122.687433,43.780497],[-122.686862,43.78051],[-122.677501,43.780737],[-122.677104,43.780746],[-122.66747,43.780967],[-122.667452,43.788294],[-122.667435,43.795504],[-122.667401,43.809836],[-122.667284,43.824196],[-122.667229,43.831327],[-122.667173,43.838475],[-122.66717,43.842049],[-122.667167,43.845625],[-122.667165,43.846189],[-122.667154,43.848456],[-122.667135,43.852775],[-122.677227,43.852745],[-122.687322,43.852715],[-122.686997,43.85996],[-122.692065,43.859962],[-122.692098,43.866938],[-122.692098,43.866938],[-122.697146,43.866943],[-122.697495,43.866944],[-122.7071,43.866972],[-122.717203,43.866923],[-122.717426,43.863337],[-122.722466,43.863312]],[[-122.707808,43.848927],[-122.712858,43.848982],[-122.712826,43.852628],[-122.712732,43.856205],[-122.707605,43.856184],[-122.702353,43.856237],[-122.702327,43.852591],[-122.702334,43.848986],[-122.707808,43.848927]],[[-122.712282,43.827671],[-122.712336,43.831222],[-122.712392,43.834771],[-122.707444,43.834765],[-122.707429,43.831211],[-122.70735,43.827655],[-122.712282,43.827671]]]}},{"type":"Feature","properties":{"MAPTAXLOT":"2015000000600","MAPNUMBER":"20150000","TAXLOT":"600","ACCTNO":"0926384","MAPACRES":4301.22333026},"geometry":{"type":"Polygon","coordinates":[[[-122.647419,43.838515],[-122.657297,43.838494],[-122.667173,43.838475],[-122.667229,43.831327],[-122.667284,43.824196],[-122.667401,43.809836],[-122.667435,43.795504],[-122.657474,43.795533],[-122.647509,43.795561],[-122.64747,43.788355],[-122.647432,43.781194],[-122.647419,43.781194],[-122.637548,43.781235],[-122.627664,43.781275],[-122.627709,43.784834],[-122.627754,43.788394],[-122.627799,43.791954],[-122.627844,43.795513],[-122.627854,43.802692],[-122.627895,43.809862],[-122.627854,43.820583],[-122.62784,43.824157],[-122.627756,43.831314],[-122.627764,43.834874],[-122.632687,43.83488],[-122.636366,43.83488],[-122.636322,43.838429],[-122.63754,43.838426],[-122.647419,43.838515]]]}},{"type":"Feature","properties":{"MAPTAXLOT":"2015000000800","MAPNUMBER":"20150000","TAXLOT":"800","ACCTNO":"0926400","MAPACRES":537.9920103},"geometry":{"type":"Polygon","coordinates":[[[-122.726932,43.816791],[-122.726951,43.824021],[-122.736889,43.823999],[-122.743965,43.823988],[-122.743973,43.823988],[-122.743945,43.822722],[-122.743945,43.822721],[-122.743957,43.821895],[-122.743977,43.820464],[-122.743996,43.819191],[-122.744004,43.818643],[-122.744028,43.816939],[-122.744042,43.815995],[-122.744047,43.81566],[-122.744047,43.81566],[-122.744048,43.815618],[-122.744109,43.813349],[-122.744137,43.812007],[-122.744138,43.811956],[-122.74414,43.811888],[-122.744196,43.809758],[-122.744191,43.809758],[-122.744187,43.809758],[-122.736846,43.809787],[-122.73153,43.809746],[-122.726966,43.809705],[-122.726932,43.816791]]]}},{"type":"Feature","properties":{"MAPTAXLOT":"2015000000900","MAPNUMBER":"20150000","TAXLOT":"900","ACCTNO":"0926418","MAPACRES":233.25684241},"geometry":{"type":"Polygon","coordinates":[[[-122.717128,43.816773],[-122.726932,43.816791],[-122.726966,43.809705],[-122.717046,43.809634],[-122.707125,43.809673],[-122.707152,43.813275],[-122.717087,43.813174],[-122.717128,43.816773]]]}},{"type":"Feature","properties":{"MAPTAXLOT":"2015000001000","MAPNUMBER":"20150000","TAXLOT":"1000","ACCTNO":"0926426","MAPACRES":625.16518182},"geometry":{"type":"Polygon","coordinates":[[[-122.717046,43.809634],[-122.726966,43.809705],[-122.727005,43.802622],[-122.727031,43.795437],[-122.70716,43.795387],[-122.707125,43.809673],[-122.717046,43.809634]]]}},{"type":"Feature","properties":{"MAPTAXLOT":"2015000001100","MAPNUMBER":"20150000","TAXLOT":"1100","ACCTNO":"0926434","MAPACRES":549.69706492},"geometry":{"type":"Polygon","coordinates":[[[-122.727005,43.802622],[-122.726966,43.809705],[-122.73153,43.809746],[-122.736846,43.809787],[-122.744187,43.809758],[-122.744191,43.809758],[-122.744196,43.809758],[-122.744225,43.808309],[-122.744225,43.808309],[-122.744226,43.808252],[-122.744226,43.808252],[-122.744229,43.808157],[-122.744281,43.80618],[-122.744311,43.804778],[-122.744312,43.804722],[-122.744369,43.802601],[-122.74444,43.801188],[-122.744441,43.801126],[-122.744483,43.79902],[-122.744503,43.797545],[-122.744504,43.797513],[-122.744505,43.797454],[-122.744543,43.795439],[-122.74454,43.795439],[-122.74454,43.795439],[-122.737023,43.795438],[-122.727031,43.795437],[-122.727005,43.802622]]]}},{"type":"Feature","properties":{"MAPTAXLOT":"2015000001200","MAPNUMBER":"20150000","TAXLOT":"1200","ACCTNO":"0926442","MAPACRES":343.42078931},"geometry":{"type":"Polygon","coordinates":[[[-122.727031,43.795437],[-122.737023,43.795438],[-122.74454,43.795439],[-122.74454,43.795439],[-122.744543,43.795439],[-122.744567,43.793838],[-122.744567,43.793838],[-122.744621,43.791895],[-122.744663,43.790349],[-122.744719,43.788354],[-122.744719,43.788354],[-122.744719,43.78827],[-122.744724,43.786861],[-122.744724,43.786859],[-122.744724,43.786855],[-122.744732,43.784747],[-122.744737,43.783315],[-122.744754,43.779767],[-122.740858,43.779822],[-122.740835,43.784613],[-122.736981,43.784482],[-122.736996,43.788314],[-122.73201,43.788286],[-122.732019,43.791862],[-122.727024,43.791847],[-122.727031,43.795437]]]}},{"type":"Feature","properties":{"MAPTAXLOT":"2015000001300","MAPNUMBER":"20150000","TAXLOT":"1300","ACCTNO":"0926459","MAPACRES":158.91404377},"geometry":{"type":"Polygon","coordinates":[[[-122.657474,43.795533],[-122.667435,43.795504],[-122.667452,43.788294],[-122.657462,43.788325],[-122.657474,43.795533]]]}},{"type":"Feature","properties":{"MAPTAXLOT":"2015000001400","MAPNUMBER":"20150000","TAXLOT":"1400","ACCTNO":"0926467","MAPACRES":479.24329695},"geometry":{"type":"Polygon","coordinates":[[[-122.647509,43.795561],[-122.657474,43.795533],[-122.657462,43.788325],[-122.667452,43.788294],[-122.66747,43.780967],[-122.667245,43.780969],[-122.657451,43.78108],[-122.657338,43.781081],[-122.647432,43.781194],[-122.64747,43.788355],[-122.647509,43.795561]]]}},{"type":"Feature","properties":{"MAPTAXLOT":"2115000000200","MAPNUMBER":"21150000","TAXLOT":"200","ACCTNO":"0944981","MAPACRES":19968.69982205},"geometry":{"type":"Polygon","coordinates":[[[-122.696737,43.780362],[-122.696748,43.780361],[-122.697288,43.780356],[-122.706612,43.780221],[-122.706624,43.780221],[-122.707143,43.780216],[-122.707156,43.780216],[-122.716573,43.780122],[-122.716582,43.780122],[-122.717082,43.780117],[-122.717092,43.780117],[-122.726534,43.780023],[-122.726541,43.780023],[-122.727021,43.780018],[-122.727028,43.780018],[-122.736482,43.779886],[-122.736485,43.779885],[-122.736962,43.779878],[-122.736965,43.779878],[-122.740858,43.779822],[-122.744754,43.779767],[-122.744749,43.776233],[-122.744749,43.776232],[-122.744745,43.772699],[-122.744745,43.772698],[-122.744745,43.772494],[-122.744745,43.772494],[-122.744741,43.769164],[-122.744741,43.769164],[-122.744737,43.76563],[-122.74473,43.76209],[-122.74473,43.76209],[-122.744723,43.75855],[-122.744723,43.758549],[-122.744716,43.755009],[-122.744716,43.755008],[-122.744709,43.751468],[-122.744752,43.744341],[-122.744718,43.737106],[-122.744718,43.737099],[-122.744717,43.736878],[-122.744702,43.733519],[-122.744686,43.729939],[-122.74467,43.726358],[-122.74467,43.726351],[-122.744654,43.722778],[-122.744642,43.721395],[-122.744642,43.721388],[-122.744624,43.719255],[-122.744595,43.715732],[-122.744565,43.712208],[-122.744502,43.708781],[-122.741478,43.708713],[-122.73648,43.708758],[-122.726478,43.708841],[-122.706531,43.709026],[-122.7065,43.694612],[-122.696657,43.694775],[-122.686824,43.694863],[-122.68663,43.694864],[-122.677013,43.694907],[-122.667087,43.694862],[-122.657143,43.694879],[-122.647199,43.694886],[-122.6373,43.694943],[-122.632638,43.694971],[-122.632637,43.694971],[-122.627534,43.695001],[-122.627413,43.695002],[-122.627421,43.696927],[-122.627421,43.696928],[-122.627432,43.702243],[-122.627518,43.702242],[-122.635832,43.702172],[-122.637367,43.702159],[-122.637433,43.709385],[-122.627635,43.709474],[-122.627586,43.709475],[-122.627586,43.709475],[-122.627593,43.711457],[-122.627594,43.716653],[-122.627557,43.718694],[-122.627451,43.723867],[-122.627446,43.725923],[-122.627436,43.731076],[-122.627448,43.733095],[-122.627499,43.738277],[-122.627504,43.740268],[-122.627529,43.74548],[-122.627538,43.747479],[-122.62754,43.747755],[-122.627578,43.752697],[-122.627578,43.752698],[-122.627613,43.754693],[-122.62772,43.759904],[-122.627728,43.7619],[-122.627765,43.767096],[-122.627765,43.767097],[-122.64309,43.76694],[-122.647392,43.766896],[-122.647412,43.774075],[-122.647418,43.777671],[-122.647432,43.781194],[-122.657338,43.781081],[-122.657451,43.78108],[-122.667245,43.780969],[-122.66747,43.780967],[-122.677104,43.780746],[-122.677501,43.780737],[-122.686862,43.78051],[-122.687433,43.780497],[-122.696737,43.780362]],[[-122.686957,43.73775],[-122.69184,43.737722],[-122.706584,43.737637],[-122.706583,43.744858],[-122.706583,43.744858],[-122.691837,43.744918],[-122.691839,43.74132],[-122.686918,43.741361],[-122.686919,43.737751],[-122.686957,43.73775]]]}}]}