{"type":"FeatureCollection","features":[{"type":"Feature","properties":{"MAPTAXLOT":"2201000000077","MAPNUMBER":"22010000","TAXLOT":"77","ACCTNO":"000None","MAPACRES":44.29912706},"geometry":{"type":"MultiPolygon","coordinates":[[[[-122.792783,43.642504],[-122.792922,43.642704],[-122.793054,43.642906],[-122.79318,43.64311],[-122.793301,43.643316],[-122.793415,43.643524],[-122.793523,43.643733],[-122.793625,43.643944],[-122.79372,43.644157],[-122.793809,43.644371],[-122.793861,43.644509],[-122.793905,43.644648],[-122.793942,43.644788],[-122.793972,43.644929],[-122.794721,43.648944],[-122.794784,43.649492],[-122.794867,43.649831],[-122.794907,43.649925],[-122.794936,43.650017],[-122.794971,43.650107],[-122.795013,43.650195],[-122.795062,43.650282],[-122.795118,43.650366],[-122.79518,43.650448],[-122.795249,43.650527],[-122.795324,43.650604],[-122.795404,43.650677],[-122.79549,43.650746],[-122.795762,43.651035],[-122.796077,43.651196],[-122.796532,43.651545],[-122.796533,43.651545],[-122.797271,43.652117],[-122.797438,43.652243],[-122.797609,43.652367],[-122.797783,43.652488],[-122.798202,43.652758],[-122.798421,43.652888],[-122.798645,43.653015],[-122.798873,43.653137],[-122.799106,43.653255],[-122.799343,43.653369],[-122.799583,43.653478],[-122.803088,43.655019],[-122.803181,43.655063],[-122.80327,43.655111],[-122.803355,43.655164],[-122.803434,43.655221],[-122.803508,43.655281],[-122.803577,43.655345],[-122.80364,43.655411],[-122.803696,43.655481],[-122.803746,43.655553],[-122.80379,43.655628],[-122.803826,43.655704],[-122.803856,43.655782],[-122.803878,43.655861],[-122.803893,43.655941],[-122.803901,43.656022],[-122.803902,43.656103],[-122.803895,43.656184],[-122.803881,43.656264],[-122.803859,43.656343],[-122.8038,43.656532],[-122.803651,43.657002],[-122.803622,43.657105],[-122.803601,43.657209],[-122.803587,43.657314],[-122.80358,43.657419],[-122.80358,43.657505],[-122.803585,43.657591],[-122.803595,43.657677],[-122.80361,43.657762],[-122.803629,43.657843],[-122.803652,43.657922],[-122.80368,43.658002],[-122.803712,43.65808],[-122.804511,43.659909],[-122.804577,43.660055],[-122.804647,43.660201],[-122.804735,43.660372],[-122.804828,43.660541],[-122.804927,43.660709],[-122.805031,43.660875],[-122.80514,43.661039],[-122.805254,43.661201],[-122.805468,43.661497],[-122.805572,43.661645],[-122.805668,43.661796],[-122.805758,43.661949],[-122.805842,43.662105],[-122.805918,43.662262],[-122.806441,43.6634],[-122.806518,43.663574],[-122.806589,43.663749],[-122.806655,43.663925],[-122.806715,43.664103],[-122.806769,43.664281],[-122.807044,43.665242],[-122.807075,43.665337],[-122.807113,43.665432],[-122.807158,43.665524],[-122.80721,43.665615],[-122.807268,43.665703],[-122.807333,43.665789],[-122.807404,43.665873],[-122.807481,43.665953],[-122.807564,43.666031],[-122.807653,43.666105],[-122.807747,43.666176],[-122.807846,43.666242],[-122.80795,43.666305],[-122.808058,43.666364],[-122.808171,43.666418],[-122.80817,43.666219],[-122.808066,43.666162],[-122.807967,43.6661],[-122.807873,43.666034],[-122.807784,43.665964],[-122.807701,43.665891],[-122.807624,43.665815],[-122.807552,43.665735],[-122.807488,43.665653],[-122.807429,43.665568],[-122.807378,43.665481],[-122.807333,43.665391],[-122.807296,43.6653],[-122.807266,43.665208],[-122.806991,43.664248],[-122.806936,43.664066],[-122.806875,43.663884],[-122.806808,43.663704],[-122.806735,43.663525],[-122.806656,43.663347],[-122.806133,43.66221],[-122.806068,43.662074],[-122.805998,43.66194],[-122.805923,43.661808],[-122.805843,43.661677],[-122.805758,43.661547],[-122.805669,43.66142],[-122.805455,43.661124],[-122.805331,43.660948],[-122.805213,43.660769],[-122.805102,43.660587],[-122.804997,43.660404],[-122.804898,43.660219],[-122.804809,43.66004],[-122.804727,43.659859],[-122.803928,43.65803],[-122.803894,43.657947],[-122.803866,43.657863],[-122.803843,43.657778],[-122.803826,43.657693],[-122.803814,43.657607],[-122.803807,43.657521],[-122.803806,43.657434],[-122.803812,43.657335],[-122.803825,43.657235],[-122.803845,43.657137],[-122.803872,43.657039],[-122.804027,43.656548],[-122.80408,43.65638],[-122.804103,43.656294],[-122.804119,43.656208],[-122.804127,43.656121],[-122.804128,43.656034],[-122.804121,43.655947],[-122.804107,43.655861],[-122.804086,43.655775],[-122.804057,43.65569],[-122.804021,43.655607],[-122.803977,43.655526],[-122.803927,43.655447],[-122.80387,43.65537],[-122.803807,43.655296],[-122.803737,43.655225],[-122.803662,43.655158],[-122.803581,43.655094],[-122.803494,43.655033],[-122.803402,43.654977],[-122.803306,43.654925],[-122.803205,43.654878],[-122.799701,43.653337],[-122.799469,43.653232],[-122.79924,43.653122],[-122.799015,43.653009],[-122.798795,43.652891],[-122.798579,43.652769],[-122.798367,43.652643],[-122.798159,43.652514],[-122.797973,43.652391],[-122.79779,43.652265],[-122.797611,43.652136],[-122.797437,43.652004],[-122.796697,43.651432],[-122.795982,43.650883],[-122.795737,43.650576],[-122.7955,43.650477],[-122.79544,43.650413],[-122.795384,43.650347],[-122.795333,43.650279],[-122.795287,43.65021],[-122.795246,43.650138],[-122.79511,43.649807],[-122.794197,43.644907],[-122.794172,43.644789],[-122.794143,43.644672],[-122.794109,43.644556],[-122.79407,43.64444],[-122.794027,43.644325],[-122.793936,43.644108],[-122.793839,43.643892],[-122.793736,43.643677],[-122.793626,43.643464],[-122.79351,43.643253],[-122.793388,43.643044],[-122.79326,43.642837],[-122.793125,43.642632],[-122.792985,43.642429],[-122.791475,43.640304],[-122.791335,43.640048],[-122.790676,43.63912],[-122.790628,43.639059],[-122.790575,43.639001],[-122.790517,43.638945],[-122.790452,43.638893],[-122.790383,43.638844],[-122.79031,43.638798],[-122.790232,43.638757],[-122.789336,43.638316],[-122.789255,43.638279],[-122.78917,43.638246],[-122.789083,43.638218],[-122.788993,43.638194],[-122.788901,43.638175],[-122.788808,43.638161],[-122.788713,43.638151],[-122.788618,43.638147],[-122.788522,43.638147],[-122.788427,43.638152],[-122.788332,43.638162],[-122.788239,43.638177],[-122.787491,43.638317],[-122.786765,43.638467],[-122.786715,43.638474],[-122.786665,43.638476],[-122.786615,43.638474],[-122.786565,43.638468],[-122.786517,43.638457],[-122.786471,43.638442],[-122.786428,43.638422],[-122.786389,43.6384],[-122.786354,43.638374],[-122.786323,43.638345],[-122.786271,43.638284],[-122.786223,43.638221],[-122.786181,43.638157],[-122.786144,43.638091],[-122.786112,43.638023],[-122.786086,43.637954],[-122.786066,43.637884],[-122.786051,43.637813],[-122.786157,43.637532],[-122.786125,43.637345],[-122.786111,43.637259],[-122.785887,43.636829],[-122.785866,43.636721],[-122.785837,43.636613],[-122.7858,43.636508],[-122.785757,43.636403],[-122.785706,43.6363],[-122.785648,43.636199],[-122.785584,43.636101],[-122.785513,43.636004],[-122.785435,43.635911],[-122.785351,43.63582],[-122.785261,43.635733],[-122.785165,43.635649],[-122.785063,43.635568],[-122.784956,43.635492],[-122.784844,43.635419],[-122.784727,43.63535],[-122.784605,43.635286],[-122.784479,43.635226],[-122.78435,43.635171],[-122.784216,43.635121],[-122.784079,43.635075],[-122.78394,43.635035],[-122.783798,43.635],[-122.783653,43.634969],[-122.783507,43.634945],[-122.783359,43.634925],[-122.782981,43.634886],[-122.78218,43.634804],[-122.782051,43.634787],[-122.781924,43.634765],[-122.781798,43.634739],[-122.781675,43.634708],[-122.781553,43.634672],[-122.781435,43.634632],[-122.781319,43.634588],[-122.781206,43.63454],[-122.781097,43.634487],[-122.780992,43.634431],[-122.780891,43.634371],[-122.779071,43.633233],[-122.77887,43.633053],[-122.778793,43.632791],[-122.779297,43.632203],[-122.779587,43.631671],[-122.779653,43.631385],[-122.779665,43.631295],[-122.77967,43.631205],[-122.779669,43.631114],[-122.779661,43.631023],[-122.779646,43.630933],[-122.779624,43.630844],[-122.779596,43.630756],[-122.779561,43.630669],[-122.779519,43.630584],[-122.779471,43.6305],[-122.779417,43.630418],[-122.779357,43.630339],[-122.779308,43.630282],[-122.779093,43.630035],[-122.778782,43.629849],[-122.77814,43.629549],[-122.777342,43.628716],[-122.777021,43.628189],[-122.775855,43.627188],[-122.775777,43.627114],[-122.775705,43.627038],[-122.775639,43.626958],[-122.775579,43.626876],[-122.775526,43.626792],[-122.775479,43.626706],[-122.775439,43.626617],[-122.775406,43.626528],[-122.775379,43.626437],[-122.77536,43.626345],[-122.775348,43.626253],[-122.775343,43.62616],[-122.775355,43.625623],[-122.7753,43.624276],[-122.775294,43.624121],[-122.775281,43.623967],[-122.775261,43.623813],[-122.775234,43.623659],[-122.7752,43.623506],[-122.775158,43.623354],[-122.77511,43.623204],[-122.775055,43.623055],[-122.774992,43.622907],[-122.774923,43.622761],[-122.774848,43.622617],[-122.774601,43.622079],[-122.774323,43.621871],[-122.774236,43.621775],[-122.774146,43.62168],[-122.774053,43.621587],[-122.772318,43.619894],[-122.772227,43.6198],[-122.772142,43.619704],[-122.772063,43.619605],[-122.77199,43.619504],[-122.771923,43.6194],[-122.771863,43.619295],[-122.771809,43.619187],[-122.771762,43.619078],[-122.771722,43.618967],[-122.771689,43.618856],[-122.771663,43.618743],[-122.77147,43.617775],[-122.771457,43.617715],[-122.771444,43.617632],[-122.771437,43.61755],[-122.771437,43.617467],[-122.771442,43.617384],[-122.771454,43.617301],[-122.771473,43.61722],[-122.771497,43.617139],[-122.771528,43.617059],[-122.771739,43.616747],[-122.772104,43.616301],[-122.772151,43.616242],[-122.772202,43.616176],[-122.772246,43.616108],[-122.772283,43.616037],[-122.772314,43.615965],[-122.772339,43.615891],[-122.772357,43.615817],[-122.772342,43.615528],[-122.772035,43.613613],[-122.772082,43.613195],[-122.772027,43.612908],[-122.771539,43.612303],[-122.771122,43.611942],[-122.771062,43.611886],[-122.771008,43.611826],[-122.77096,43.611764],[-122.770919,43.611699],[-122.770885,43.611632],[-122.770829,43.611229],[-122.770895,43.610589],[-122.771015,43.610323],[-122.77105,43.610036],[-122.770984,43.609743],[-122.770744,43.609235],[-122.770744,43.609235],[-122.770446,43.609238],[-122.770637,43.609521],[-122.770678,43.610176],[-122.77051,43.611201],[-122.770501,43.611281],[-122.770499,43.61136],[-122.770505,43.61144],[-122.770518,43.611519],[-122.770539,43.611597],[-122.770567,43.611674],[-122.770601,43.61175],[-122.770643,43.611823],[-122.770692,43.611895],[-122.770747,43.611964],[-122.770809,43.61203],[-122.770877,43.612092],[-122.771322,43.612436],[-122.771631,43.612839],[-122.771662,43.612917],[-122.771686,43.612996],[-122.771702,43.613076],[-122.77177,43.613497],[-122.77181,43.613632],[-122.772029,43.614995],[-122.77208,43.61555],[-122.772087,43.615618],[-122.772088,43.615686],[-122.772082,43.615753],[-122.772069,43.615821],[-122.77205,43.615887],[-122.772024,43.615952],[-122.771991,43.616016],[-122.771953,43.616078],[-122.771908,43.616137],[-122.771791,43.616305],[-122.771654,43.616502],[-122.771528,43.616656],[-122.771465,43.616738],[-122.771409,43.616823],[-122.77136,43.616909],[-122.771317,43.616998],[-122.771282,43.617088],[-122.771253,43.617179],[-122.771231,43.617271],[-122.771217,43.617364],[-122.77121,43.617458],[-122.771211,43.617552],[-122.771218,43.617645],[-122.771233,43.617738],[-122.771245,43.617799],[-122.771439,43.618766],[-122.771464,43.618877],[-122.771496,43.618986],[-122.771533,43.619094],[-122.771577,43.619201],[-122.771627,43.619307],[-122.771683,43.619411],[-122.771744,43.619513],[-122.771812,43.619613],[-122.771885,43.619711],[-122.771963,43.619807],[-122.772047,43.619901],[-122.772137,43.619992],[-122.773872,43.621685],[-122.773961,43.621775],[-122.774048,43.621866],[-122.774131,43.621959],[-122.774765,43.622931],[-122.774826,43.623073],[-122.774881,43.623216],[-122.774928,43.623361],[-122.77497,43.623508],[-122.775004,43.623656],[-122.775032,43.623804],[-122.775053,43.623954],[-122.775066,43.624103],[-122.775073,43.624253],[-122.775054,43.624278],[-122.775079,43.626161],[-122.775084,43.626257],[-122.775095,43.626352],[-122.775114,43.626447],[-122.775139,43.626541],[-122.77517,43.626634],[-122.775209,43.626726],[-122.775253,43.626816],[-122.775305,43.626904],[-122.775362,43.62699],[-122.775425,43.627074],[-122.775495,43.627155],[-122.77557,43.627234],[-122.775651,43.627309],[-122.77656,43.628097],[-122.776759,43.628324],[-122.777161,43.629067],[-122.777658,43.629548],[-122.778328,43.629839],[-122.778871,43.630184],[-122.779075,43.63034],[-122.779117,43.630371],[-122.779179,43.630445],[-122.779235,43.630522],[-122.779284,43.6306],[-122.779327,43.630681],[-122.779364,43.630764],[-122.779393,43.630848],[-122.779416,43.630933],[-122.779432,43.631019],[-122.779442,43.631105],[-122.779444,43.631192],[-122.779439,43.631278],[-122.779428,43.631364],[-122.779298,43.631606],[-122.779127,43.631893],[-122.779001,43.632081],[-122.778563,43.632696],[-122.778534,43.632738],[-122.778512,43.632782],[-122.778498,43.632828],[-122.77849,43.632875],[-122.77849,43.632922],[-122.778498,43.632968],[-122.778512,43.633014],[-122.778534,43.633058],[-122.778563,43.633101],[-122.778598,43.63314],[-122.778639,43.633176],[-122.778686,43.633209],[-122.780743,43.634495],[-122.780853,43.634561],[-122.780968,43.634622],[-122.781086,43.634679],[-122.781209,43.634732],[-122.781334,43.63478],[-122.781463,43.634823],[-122.781595,43.634862],[-122.78173,43.634895],[-122.781866,43.634924],[-122.782005,43.634948],[-122.782145,43.634966],[-122.782978,43.635145],[-122.783121,43.635175],[-122.783309,43.635155],[-122.783847,43.635215],[-122.783977,43.635253],[-122.784105,43.635296],[-122.784229,43.635343],[-122.78435,43.635394],[-122.784467,43.635451],[-122.78458,43.635511],[-122.784688,43.635576],[-122.784792,43.635644],[-122.784891,43.635716],[-122.784985,43.635792],[-122.785073,43.635871],[-122.785156,43.635953],[-122.785233,43.636039],[-122.785303,43.636127],[-122.785368,43.636217],[-122.785426,43.63631],[-122.785477,43.636404],[-122.785522,43.636501],[-122.785477,43.636779],[-122.785644,43.637355],[-122.785707,43.637571],[-122.785751,43.637839],[-122.785756,43.638158],[-122.786119,43.638444],[-122.78616,43.638483],[-122.786205,43.638519],[-122.786255,43.638551],[-122.78631,43.638579],[-122.786368,43.638604],[-122.78643,43.638623],[-122.786494,43.638638],[-122.78656,43.638649],[-122.786626,43.638654],[-122.786694,43.638654],[-122.78676,43.638649],[-122.786826,43.638639],[-122.787192,43.638571],[-122.787567,43.638529],[-122.788314,43.63839],[-122.788393,43.638377],[-122.788474,43.638369],[-122.788555,43.638366],[-122.788636,43.638367],[-122.788716,43.638372],[-122.788796,43.638382],[-122.788875,43.638397],[-122.788951,43.638416],[-122.789026,43.638439],[-122.789098,43.638466],[-122.789166,43.638497],[-122.789247,43.638537],[-122.789636,43.638854],[-122.790063,43.638939],[-122.790133,43.638976],[-122.790199,43.639018],[-122.790259,43.639064],[-122.790314,43.639113],[-122.790364,43.639165],[-122.790407,43.639221],[-122.790776,43.639948],[-122.791067,43.640148],[-122.791413,43.640636],[-122.791447,43.640623],[-122.792783,43.642504]]],[[[-122.744292,43.676858],[-122.744396,43.676873],[-122.744584,43.676891],[-122.744776,43.67691],[-122.744957,43.676927],[-122.745159,43.676946],[-122.74536,43.676964],[-122.745549,43.676987],[-122.745744,43.677005],[-122.745943,43.677024],[-122.746125,43.677043],[-122.746311,43.677061],[-122.746505,43.677083],[-122.746698,43.677098],[-122.746892,43.677118],[-122.747087,43.677137],[-122.747279,43.677158],[-122.74747,43.677179],[-122.74766,43.677197],[-122.747849,43.677216],[-122.748043,43.677236],[-122.748241,43.677258],[-122.748454,43.677278],[-122.748617,43.677297],[-122.748785,43.677312],[-122.748976,43.677333],[-122.749197,43.677355],[-122.749391,43.677376],[-122.749605,43.677398],[-122.749774,43.677415],[-122.749976,43.677435],[-122.750186,43.677454],[-122.750386,43.677473],[-122.750577,43.677492],[-122.750766,43.677512],[-122.750959,43.677532],[-122.75116,43.677553],[-122.751357,43.677574],[-122.751521,43.677592],[-122.751714,43.677613],[-122.751849,43.677632],[-122.751976,43.677653],[-122.752108,43.677683],[-122.752293,43.677732],[-122.75246,43.677783],[-122.752602,43.677832],[-122.752758,43.677887],[-122.752906,43.677948],[-122.753121,43.678038],[-122.753285,43.678109],[-122.753443,43.67818],[-122.753608,43.678253],[-122.753767,43.678327],[-122.753909,43.678403],[-122.754038,43.678504],[-122.754133,43.678593],[-122.754218,43.678671],[-122.754296,43.678758],[-122.754374,43.678855],[-122.754415,43.67893],[-122.754453,43.679025],[-122.754471,43.679105],[-122.754469,43.679197],[-122.754452,43.679282],[-122.754421,43.679385],[-122.754369,43.679525],[-122.754328,43.679681],[-122.754311,43.679787],[-122.754313,43.679897],[-122.75454,43.679898],[-122.754539,43.67989],[-122.754538,43.679796],[-122.754552,43.679706],[-122.75459,43.679562],[-122.754641,43.679424],[-122.754674,43.679311],[-122.754695,43.67921],[-122.754697,43.679093],[-122.754674,43.678989],[-122.754629,43.678875],[-122.754578,43.678782],[-122.754489,43.678671],[-122.754402,43.678574],[-122.754311,43.678491],[-122.754211,43.678397],[-122.75406,43.678279],[-122.753894,43.67819],[-122.753727,43.678113],[-122.753561,43.678039],[-122.753402,43.677968],[-122.753235,43.677895],[-122.753017,43.677804],[-122.752863,43.677741],[-122.752701,43.677683],[-122.752552,43.677631],[-122.752375,43.677578],[-122.75218,43.677526],[-122.752034,43.677493],[-122.751895,43.67747],[-122.751752,43.67745],[-122.751555,43.677428],[-122.75139,43.67741],[-122.751192,43.677389],[-122.750991,43.677368],[-122.750798,43.677348],[-122.750608,43.677328],[-122.750416,43.677309],[-122.750215,43.67729],[-122.750005,43.67727],[-122.749805,43.677251],[-122.749636,43.677233],[-122.749423,43.677212],[-122.749229,43.677191],[-122.749007,43.677169],[-122.748815,43.677148],[-122.74865,43.677133],[-122.748487,43.677114],[-122.748272,43.677094],[-122.748076,43.677072],[-122.74788,43.677052],[-122.74769,43.677032],[-122.747501,43.677014],[-122.747312,43.676994],[-122.747118,43.676972],[-122.746922,43.676954],[-122.746726,43.676933],[-122.746533,43.676919],[-122.746343,43.676897],[-122.746155,43.676879],[-122.745973,43.67686],[-122.745773,43.676841],[-122.745582,43.676823],[-122.745392,43.6768],[-122.745187,43.676782],[-122.744985,43.676763],[-122.744805,43.676746],[-122.744614,43.676726],[-122.744427,43.676709],[-122.744291,43.676691],[-122.744292,43.676858]]]]}},{"type":"Feature","properties":{"MAPTAXLOT":"2201000002600","MAPNUMBER":"22010000","TAXLOT":"2600","ACCTNO":"0966778","MAPACRES":4985.52371164},"geometry":{"type":"Polygon","coordinates":[[[-122.852395,43.682267],[-122.857122,43.6823],[-122.86185,43.682336],[-122.866578,43.682371],[-122.871305,43.682406],[-122.87302,43.682419],[-122.87309,43.679385],[-122.873121,43.678071],[-122.873156,43.676558],[-122.870016,43.676572],[-122.869183,43.672793],[-122.873087,43.672758],[-122.873082,43.67256],[-122.873081,43.672522],[-122.873006,43.669333],[-122.873012,43.668959],[-122.873052,43.666721],[-122.873071,43.665655],[-122.87308,43.66516],[-122.873128,43.661976],[-122.873129,43.661844],[-122.873149,43.65853],[-122.87315,43.65838],[-122.87317,43.655217],[-122.873173,43.654782],[-122.873192,43.651904],[-122.873196,43.651185],[-122.873215,43.647714],[-122.873216,43.647588],[-122.872888,43.643525],[-122.872882,43.643449],[-122.872548,43.639336],[-122.872546,43.63931],[-122.872556,43.635813],[-122.872557,43.635147],[-122.872566,43.632316],[-122.872579,43.6319],[-122.873031,43.629365],[-122.873033,43.629251],[-122.873519,43.626626],[-122.873522,43.626453],[-122.873631,43.623357],[-122.869585,43.623367],[-122.856434,43.623474],[-122.851525,43.623513],[-122.841678,43.623369],[-122.841652,43.62665],[-122.836799,43.626714],[-122.83191,43.626779],[-122.831837,43.623436],[-122.836757,43.623403],[-122.841678,43.623369],[-122.841579,43.616364],[-122.841741,43.608849],[-122.836815,43.608873],[-122.831875,43.60889],[-122.82695,43.608911],[-122.822025,43.608932],[-122.822033,43.612586],[-122.822041,43.616241],[-122.822075,43.618041],[-122.822109,43.619842],[-122.822127,43.620743],[-122.822144,43.621643],[-122.822178,43.623444],[-122.822326,43.626904],[-122.822473,43.630365],[-122.822259,43.633769],[-122.822045,43.637174],[-122.832132,43.6371],[-122.836929,43.637088],[-122.841725,43.637077],[-122.847193,43.636081],[-122.847131,43.640194],[-122.84183,43.64077],[-122.841938,43.644463],[-122.842144,43.651849],[-122.842264,43.655377],[-122.842383,43.658905],[-122.842448,43.66253],[-122.842502,43.666154],[-122.843644,43.669583],[-122.844786,43.673013],[-122.84593,43.676676],[-122.847074,43.680339],[-122.85181,43.680301],[-122.852395,43.682267]]]}},{"type":"Feature","properties":{"MAPTAXLOT":"2201000005400","MAPNUMBER":"22010000","TAXLOT":"5400","ACCTNO":"0967222","MAPACRES":747.16367467},"geometry":{"type":"Polygon","coordinates":[[[-122.869585,43.623367],[-122.873631,43.623357],[-122.873641,43.623049],[-122.873735,43.619644],[-122.873734,43.619584],[-122.871469,43.619611],[-122.871514,43.615837],[-122.856467,43.616103],[-122.856497,43.608715],[-122.8516,43.608831],[-122.846671,43.60884],[-122.841741,43.608849],[-122.841579,43.616364],[-122.841678,43.623369],[-122.851525,43.623513],[-122.856434,43.623474],[-122.869585,43.623367]]]}},{"type":"Feature","properties":{"MAPTAXLOT":"2201000005500","MAPNUMBER":"22010000","TAXLOT":"5500","ACCTNO":"0967230","MAPACRES":305.52700433},"geometry":{"type":"Polygon","coordinates":[[[-122.871469,43.619611],[-122.873734,43.619584],[-122.873746,43.616004],[-122.873748,43.615797],[-122.873724,43.612363],[-122.873734,43.612],[-122.873807,43.608775],[-122.873823,43.608204],[-122.871436,43.608274],[-122.866456,43.608421],[-122.861477,43.608568],[-122.856497,43.608715],[-122.856467,43.616103],[-122.871514,43.615837],[-122.871469,43.619611]]]}},{"type":"Feature","properties":{"MAPTAXLOT":"2201000005800","MAPNUMBER":"22010000","TAXLOT":"5800","ACCTNO":"0967313","MAPACRES":571.04884057},"geometry":{"type":"Polygon","coordinates":[[[-122.817313,43.623417],[-122.822178,43.623444],[-122.822144,43.621643],[-122.822127,43.620743],[-122.819705,43.620698],[-122.819664,43.617988],[-122.822075,43.618041],[-122.822041,43.616241],[-122.822033,43.612586],[-122.822025,43.608932],[-122.817154,43.608924],[-122.812283,43.608916],[-122.807376,43.608942],[-122.807417,43.61243],[-122.802498,43.612376],[-122.802428,43.61578],[-122.802533,43.619392],[-122.802638,43.623005],[-122.807543,43.623197],[-122.812448,43.623389],[-122.817313,43.623417]]]}},{"type":"Feature","properties":{"MAPTAXLOT":"2201000005900","MAPNUMBER":"22010000","TAXLOT":"5900","ACCTNO":"0967339","MAPACRES":37.12965994},"geometry":{"type":"Polygon","coordinates":[[[-122.802498,43.612376],[-122.807417,43.61243],[-122.807376,43.608942],[-122.802569,43.608972],[-122.802498,43.612376]]]}},{"type":"Feature","properties":{"MAPTAXLOT":"2201000006000","MAPNUMBER":"22010000","TAXLOT":"6000","ACCTNO":"0967347","MAPACRES":71.79467052},"geometry":{"type":"Polygon","coordinates":[[[-122.797778,43.612423],[-122.797769,43.615878],[-122.802428,43.61578],[-122.802498,43.612376],[-122.802569,43.608972],[-122.797787,43.608956],[-122.797778,43.612423]]]}},{"type":"Feature","properties":{"MAPTAXLOT":"2201000006100","MAPNUMBER":"22010000","TAXLOT":"6100","ACCTNO":"0967354","MAPACRES":531.40790293},"geometry":{"type":"Polygon","coordinates":[[[-122.79775,43.62304],[-122.802638,43.623005],[-122.802533,43.619392],[-122.802428,43.61578],[-122.797769,43.615878],[-122.797778,43.612423],[-122.797787,43.608956],[-122.793006,43.608939],[-122.788187,43.608956],[-122.783369,43.608974],[-122.783287,43.612566],[-122.783218,43.616165],[-122.783163,43.619645],[-122.783104,43.623131],[-122.787986,43.6231],[-122.792868,43.623069],[-122.79775,43.62304]]]}},{"type":"Feature","properties":{"MAPTAXLOT":"2301000000600","MAPNUMBER":"23010000","TAXLOT":"600","ACCTNO":"0972974","MAPACRES":363.07419907},"geometry":{"type":"Polygon","coordinates":[[[-122.797787,43.608956],[-122.802569,43.608972],[-122.802547,43.605047],[-122.797715,43.605067],[-122.792886,43.605085],[-122.792773,43.60145],[-122.78788,43.601467],[-122.787731,43.597833],[-122.792661,43.597816],[-122.792546,43.594183],[-122.78758,43.594199],[-122.782616,43.594215],[-122.78281,43.59785],[-122.783004,43.601483],[-122.783181,43.605119],[-122.783369,43.608974],[-122.788187,43.608956],[-122.793006,43.608939],[-122.797787,43.608956]]]}},{"type":"Feature","properties":{"MAPTAXLOT":"2301000000700","MAPNUMBER":"23010000","TAXLOT":"700","ACCTNO":"0972982","MAPACRES":236.5249746},"geometry":{"type":"Polygon","coordinates":[[[-122.797715,43.605067],[-122.802547,43.605047],[-122.802528,43.601413],[-122.802506,43.59778],[-122.797582,43.597798],[-122.797515,43.594165],[-122.792546,43.594183],[-122.792661,43.597816],[-122.787731,43.597833],[-122.78788,43.601467],[-122.792773,43.60145],[-122.792886,43.605085],[-122.797715,43.605067]]]}},{"type":"Feature","properties":{"MAPTAXLOT":"2301000000800","MAPNUMBER":"23010000","TAXLOT":"800","ACCTNO":"0972990","MAPACRES":39.84123056},"geometry":{"type":"Polygon","coordinates":[[[-122.797582,43.597798],[-122.802506,43.59778],[-122.802485,43.594147],[-122.797515,43.594165],[-122.797582,43.597798]]]}},{"type":"Feature","properties":{"MAPTAXLOT":"2301000000900","MAPNUMBER":"23010000","TAXLOT":"900","ACCTNO":"0973006","MAPACRES":641.53286611},"geometry":{"type":"Polygon","coordinates":[[[-122.817154,43.608924],[-122.822025,43.608932],[-122.822052,43.605],[-122.822095,43.601379],[-122.822135,43.597757],[-122.822177,43.594134],[-122.802485,43.594147],[-122.802506,43.59778],[-122.802528,43.601413],[-122.802547,43.605047],[-122.802569,43.608972],[-122.807376,43.608942],[-122.812283,43.608916],[-122.817154,43.608924]]]}},{"type":"Feature","properties":{"MAPTAXLOT":"2301000001000","MAPNUMBER":"23010000","TAXLOT":"1000","ACCTNO":"0973014","MAPACRES":169.63351868},"geometry":{"type":"Polygon","coordinates":[[[-122.836815,43.608873],[-122.841741,43.608849],[-122.841755,43.605015],[-122.836841,43.605011],[-122.831913,43.605007],[-122.826988,43.605004],[-122.822052,43.605],[-122.822025,43.608932],[-122.82695,43.608911],[-122.831875,43.60889],[-122.836815,43.608873]]]}},{"type":"Feature","properties":{"MAPTAXLOT":"2301000001002","MAPNUMBER":"23010000","TAXLOT":"1002","ACCTNO":"1405644","MAPACRES":38.5202876},"geometry":{"type":"Polygon","coordinates":[[[-122.836841,43.605011],[-122.841755,43.605015],[-122.841782,43.601491],[-122.836865,43.601463],[-122.836841,43.605011]]]}},{"type":"Feature","properties":{"MAPTAXLOT":"2301000001100","MAPNUMBER":"23010000","TAXLOT":"1100","ACCTNO":"0973048","MAPACRES":428.02190741},"geometry":{"type":"Polygon","coordinates":[[[-122.831913,43.605007],[-122.836841,43.605011],[-122.836865,43.601463],[-122.841782,43.601491],[-122.841814,43.597996],[-122.841846,43.5945],[-122.836928,43.594407],[-122.832012,43.594313],[-122.827093,43.594224],[-122.822177,43.594134],[-122.822135,43.597757],[-122.822095,43.601379],[-122.822052,43.605],[-122.826988,43.605004],[-122.831913,43.605007]]]}},{"type":"Feature","properties":{"MAPTAXLOT":"2301000001200","MAPNUMBER":"23010000","TAXLOT":"1200","ACCTNO":"0973055","MAPACRES":782.98124658},"geometry":{"type":"Polygon","coordinates":[[[-122.846671,43.60884],[-122.8516,43.608831],[-122.851629,43.604833],[-122.854083,43.604788],[-122.854112,43.601288],[-122.85414,43.597857],[-122.856602,43.597829],[-122.85657,43.601247],[-122.861524,43.601164],[-122.866479,43.601082],[-122.866468,43.604558],[-122.866456,43.608421],[-122.871436,43.608274],[-122.873823,43.608204],[-122.873835,43.605184],[-122.874523,43.605186],[-122.874522,43.604408],[-122.874512,43.600947],[-122.874526,43.597625],[-122.874541,43.594302],[-122.871432,43.594321],[-122.866498,43.594349],[-122.861565,43.594377],[-122.856632,43.594405],[-122.851701,43.594432],[-122.846772,43.594466],[-122.841846,43.5945],[-122.841814,43.597996],[-122.841782,43.601491],[-122.841755,43.605015],[-122.841741,43.608849],[-122.846671,43.60884]]]}},{"type":"Feature","properties":{"MAPTAXLOT":"2301000001201","MAPNUMBER":"23010000","TAXLOT":"1201","ACCTNO":"1141751","MAPACRES":243.95715763},"geometry":{"type":"Polygon","coordinates":[[[-122.851629,43.604833],[-122.8516,43.608831],[-122.856497,43.608715],[-122.861477,43.608568],[-122.866456,43.608421],[-122.866468,43.604558],[-122.866479,43.601082],[-122.861524,43.601164],[-122.85657,43.601247],[-122.856602,43.597829],[-122.85414,43.597857],[-122.854112,43.601288],[-122.854083,43.604788],[-122.851629,43.604833]]]}},{"type":"Feature","properties":{"MAPTAXLOT":"2301000001500","MAPNUMBER":"23010000","TAXLOT":"1500","ACCTNO":"0973089","MAPACRES":537.39597847},"geometry":{"type":"Polygon","coordinates":[[[-122.866498,43.594349],[-122.871432,43.594321],[-122.871424,43.590847],[-122.866472,43.590873],[-122.861521,43.590898],[-122.861477,43.587414],[-122.861432,43.583916],[-122.856442,43.583935],[-122.851451,43.583953],[-122.851535,43.587453],[-122.846567,43.587473],[-122.846463,43.583971],[-122.84636,43.580469],[-122.841353,43.580485],[-122.841476,43.583989],[-122.841599,43.587492],[-122.841722,43.590996],[-122.841846,43.5945],[-122.846772,43.594466],[-122.851701,43.594432],[-122.856632,43.594405],[-122.861565,43.594377],[-122.866498,43.594349]]]}},{"type":"Feature","properties":{"MAPTAXLOT":"2301000001600","MAPNUMBER":"23010000","TAXLOT":"1600","ACCTNO":"0973097","MAPACRES":386.2714632},"geometry":{"type":"Polygon","coordinates":[[[-122.866472,43.590873],[-122.871424,43.590847],[-122.871419,43.587373],[-122.871414,43.583879],[-122.871409,43.580385],[-122.866399,43.580402],[-122.861388,43.580419],[-122.856377,43.580436],[-122.851366,43.580453],[-122.84636,43.580469],[-122.846463,43.583971],[-122.846567,43.587473],[-122.851535,43.587453],[-122.851451,43.583953],[-122.856442,43.583935],[-122.861432,43.583916],[-122.861477,43.587414],[-122.861521,43.590898],[-122.866472,43.590873]]]}},{"type":"Feature","properties":{"MAPTAXLOT":"2301000001700","MAPNUMBER":"23010000","TAXLOT":"1700","ACCTNO":"0973105","MAPACRES":155.36530137},"geometry":{"type":"Polygon","coordinates":[[[-122.836928,43.594407],[-122.841846,43.5945],[-122.841722,43.590996],[-122.836782,43.590877],[-122.831841,43.590758],[-122.826897,43.590638],[-122.821946,43.590518],[-122.822177,43.594134],[-122.827093,43.594224],[-122.832012,43.594313],[-122.836928,43.594407]]]}},{"type":"Feature","properties":{"MAPTAXLOT":"2301000001800","MAPNUMBER":"23010000","TAXLOT":"1800","ACCTNO":"0973113","MAPACRES":431.66474571},"geometry":{"type":"Polygon","coordinates":[[[-122.836782,43.590877],[-122.841722,43.590996],[-122.841599,43.587492],[-122.841476,43.583989],[-122.841353,43.580485],[-122.836336,43.580283],[-122.831319,43.580082],[-122.826302,43.57988],[-122.821284,43.579678],[-122.8215,43.58329],[-122.821717,43.586902],[-122.821946,43.590518],[-122.826897,43.590638],[-122.826698,43.58705],[-122.831666,43.587198],[-122.831841,43.590758],[-122.836782,43.590877]]]}},{"type":"Feature","properties":{"MAPTAXLOT":"2301000001900","MAPNUMBER":"23010000","TAXLOT":"1900","ACCTNO":"0973121","MAPACRES":39.20928446},"geometry":{"type":"Polygon","coordinates":[[[-122.826897,43.590638],[-122.831841,43.590758],[-122.831666,43.587198],[-122.826698,43.58705],[-122.826897,43.590638]]]}},{"type":"Feature","properties":{"MAPTAXLOT":"2301000002000","MAPNUMBER":"23010000","TAXLOT":"2000","ACCTNO":"0973139","MAPACRES":636.7730228},"geometry":{"type":"Polygon","coordinates":[[[-122.802485,43.594147],[-122.822177,43.594134],[-122.821946,43.590518],[-122.821717,43.586902],[-122.8215,43.58329],[-122.821284,43.579678],[-122.801297,43.579634],[-122.802485,43.594147]]]}},{"type":"Feature","properties":{"MAPTAXLOT":"2301000002100","MAPNUMBER":"23010000","TAXLOT":"2100","ACCTNO":"0973147","MAPACRES":642.58772937},"geometry":{"type":"Polygon","coordinates":[[[-122.797515,43.594165],[-122.802485,43.594147],[-122.801297,43.579634],[-122.781241,43.579698],[-122.781584,43.583327],[-122.781928,43.586957],[-122.782616,43.594215],[-122.78758,43.594199],[-122.792546,43.594183],[-122.797515,43.594165]]]}},{"type":"Feature","properties":{"MAPTAXLOT":"2301000002700","MAPNUMBER":"23010000","TAXLOT":"2700","ACCTNO":"0973204","MAPACRES":632.43933836},"geometry":{"type":"Polygon","coordinates":[[[-122.781241,43.579698],[-122.801297,43.579634],[-122.801245,43.565107],[-122.791735,43.565106],[-122.782103,43.565134],[-122.781241,43.579698]]]}},{"type":"Feature","properties":{"MAPTAXLOT":"2301000002800","MAPNUMBER":"23010000","TAXLOT":"2800","ACCTNO":"0973212","MAPACRES":636.46204919},"geometry":{"type":"Polygon","coordinates":[[[-122.801297,43.579634],[-122.821284,43.579678],[-122.820831,43.565191],[-122.801245,43.565107],[-122.801297,43.579634]]]}},{"type":"Feature","properties":{"MAPTAXLOT":"2301000002900","MAPNUMBER":"23010000","TAXLOT":"2900","ACCTNO":"0973238","MAPACRES":670.53113695},"geometry":{"type":"Polygon","coordinates":[[[-122.836336,43.580283],[-122.841353,43.580485],[-122.841784,43.576976],[-122.842216,43.573468],[-122.842648,43.569959],[-122.84308,43.56645],[-122.820831,43.565191],[-122.821284,43.579678],[-122.826302,43.57988],[-122.831319,43.580082],[-122.836336,43.580283]]]}},{"type":"Feature","properties":{"MAPTAXLOT":"2301000003000","MAPNUMBER":"23010000","TAXLOT":"3000","ACCTNO":"0973246","MAPACRES":966.06166628},"geometry":{"type":"Polygon","coordinates":[[[-122.871409,43.580385],[-122.874558,43.580374],[-122.874554,43.579198],[-122.874545,43.576886],[-122.874529,43.573398],[-122.874514,43.569911],[-122.874498,43.566424],[-122.871475,43.566424],[-122.866751,43.566425],[-122.866663,43.569924],[-122.861867,43.569931],[-122.862026,43.566425],[-122.857302,43.566426],[-122.852577,43.566426],[-122.847828,43.566439],[-122.84308,43.56645],[-122.842648,43.569959],[-122.842216,43.573468],[-122.841784,43.576976],[-122.841353,43.580485],[-122.84636,43.580469],[-122.851366,43.580453],[-122.856377,43.580436],[-122.861388,43.580419],[-122.866399,43.580402],[-122.871409,43.580385]]]}},{"type":"Feature","properties":{"MAPTAXLOT":"2301000003100","MAPNUMBER":"23010000","TAXLOT":"3100","ACCTNO":"0973253","MAPACRES":36.97333837},"geometry":{"type":"Polygon","coordinates":[[[-122.861867,43.569931],[-122.866663,43.569924],[-122.866751,43.566425],[-122.862026,43.566425],[-122.861867,43.569931]]]}},{"type":"Feature","properties":{"MAPTAXLOT":"2301000003200","MAPNUMBER":"23010000","TAXLOT":"3200","ACCTNO":"0973261","MAPACRES":364.2166293},"geometry":{"type":"Polygon","coordinates":[[[-122.871475,43.566424],[-122.874498,43.566424],[-122.874439,43.562817],[-122.87438,43.559209],[-122.874032,43.555463],[-122.873685,43.551716],[-122.87069,43.551778],[-122.866046,43.551875],[-122.866314,43.555564],[-122.866583,43.559251],[-122.861836,43.559277],[-122.857089,43.559302],[-122.857196,43.562871],[-122.861931,43.562856],[-122.862026,43.566425],[-122.866751,43.566425],[-122.871475,43.566424]]]}},{"type":"Feature","properties":{"MAPTAXLOT":"2301000003300","MAPNUMBER":"23010000","TAXLOT":"3300","ACCTNO":"0973279","MAPACRES":539.26268187},"geometry":{"type":"Polygon","coordinates":[[[-122.857302,43.566426],[-122.862026,43.566425],[-122.861931,43.562856],[-122.857196,43.562871],[-122.857089,43.559302],[-122.861836,43.559277],[-122.866583,43.559251],[-122.866314,43.555564],[-122.866046,43.551875],[-122.863724,43.551924],[-122.863966,43.555595],[-122.861619,43.555625],[-122.856923,43.555687],[-122.852227,43.555748],[-122.852113,43.552166],[-122.847466,43.552262],[-122.842818,43.552359],[-122.842932,43.555868],[-122.843046,43.559377],[-122.843063,43.562914],[-122.84308,43.56645],[-122.847828,43.566439],[-122.852577,43.566426],[-122.857302,43.566426]]]}},{"type":"Feature","properties":{"MAPTAXLOT":"2301000003301","MAPNUMBER":"23010000","TAXLOT":"3301","ACCTNO":"1219482","MAPACRES":18.98736258},"geometry":{"type":"Polygon","coordinates":[[[-122.861619,43.555625],[-122.863966,43.555595],[-122.863724,43.551924],[-122.861402,43.551972],[-122.861619,43.555625]]]}},{"type":"Feature","properties":{"MAPTAXLOT":"2301000003400","MAPNUMBER":"23010000","TAXLOT":"3400","ACCTNO":"0973287","MAPACRES":75.00571428},"geometry":{"type":"Polygon","coordinates":[[[-122.856923,43.555687],[-122.861619,43.555625],[-122.861402,43.551972],[-122.856757,43.552069],[-122.852113,43.552166],[-122.852227,43.555748],[-122.856923,43.555687]]]}},{"type":"Feature","properties":{"MAPTAXLOT":"2301000003500","MAPNUMBER":"23010000","TAXLOT":"3500","ACCTNO":"0973295","MAPACRES":694.1294098},"geometry":{"type":"Polygon","coordinates":[[[-122.820831,43.565191],[-122.84308,43.56645],[-122.843063,43.562914],[-122.843046,43.559377],[-122.842932,43.555868],[-122.842818,43.552359],[-122.820758,43.551154],[-122.820667,43.558166],[-122.820831,43.565191]]]}},{"type":"Feature","properties":{"MAPTAXLOT":"2301000003600","MAPNUMBER":"23010000","TAXLOT":"3600","ACCTNO":"0973303","MAPACRES":630.23575463},"geometry":{"type":"Polygon","coordinates":[[[-122.801245,43.565107],[-122.820831,43.565191],[-122.820667,43.558166],[-122.820758,43.551154],[-122.809638,43.550863],[-122.800235,43.550816],[-122.801245,43.565107]]]}},{"type":"Feature","properties":{"MAPTAXLOT":"2301000003700","MAPNUMBER":"23010000","TAXLOT":"3700","ACCTNO":"0973311","MAPACRES":609.86625783},"geometry":{"type":"Polygon","coordinates":[[[-122.791735,43.565106],[-122.801245,43.565107],[-122.800235,43.550816],[-122.790602,43.550753],[-122.781065,43.550705],[-122.782103,43.565134],[-122.791735,43.565106]]]}},{"type":"Feature","properties":{"MAPTAXLOT":"2301000004100","MAPNUMBER":"23010000","TAXLOT":"4100","ACCTNO":"0973352","MAPACRES":286.6242108},"geometry":{"type":"Polygon","coordinates":[[[-122.790602,43.550753],[-122.800235,43.550816],[-122.800311,43.544219],[-122.781133,43.543819],[-122.781065,43.550705],[-122.790602,43.550753]]]}},{"type":"Feature","properties":{"MAPTAXLOT":"2301000004200","MAPNUMBER":"23010000","TAXLOT":"4200","ACCTNO":"0973360","MAPACRES":262.57716826},"geometry":{"type":"Polygon","coordinates":[[[-122.809638,43.550863],[-122.820758,43.551154],[-122.820733,43.547715],[-122.815299,43.547663],[-122.815402,43.544261],[-122.815402,43.544261],[-122.810091,43.544246],[-122.800311,43.544219],[-122.800235,43.550816],[-122.809638,43.550863]]]}},{"type":"Feature","properties":{"MAPTAXLOT":"2301000004300","MAPNUMBER":"23010000","TAXLOT":"4300","ACCTNO":"0973386","MAPACRES":40.74646693},"geometry":{"type":"Polygon","coordinates":[[[-122.815299,43.547663],[-122.820733,43.547715],[-122.820708,43.544276],[-122.815402,43.544261],[-122.815402,43.544261],[-122.815299,43.547663]]]}},{"type":"Feature","properties":{"MAPTAXLOT":"2301000004400","MAPNUMBER":"23010000","TAXLOT":"4400","ACCTNO":"0973402","MAPACRES":340.00675378},"geometry":{"type":"Polygon","coordinates":[[[-122.820758,43.551154],[-122.842818,43.552359],[-122.842242,43.548646],[-122.841665,43.544933],[-122.820708,43.544276],[-122.820733,43.547715],[-122.820758,43.551154]]]}},{"type":"Feature","properties":{"MAPTAXLOT":"2301000004500","MAPNUMBER":"23010000","TAXLOT":"4500","ACCTNO":"0973410","MAPACRES":37.56084151},"geometry":{"type":"Polygon","coordinates":[[[-122.856567,43.548427],[-122.856757,43.552069],[-122.861402,43.551972],[-122.861246,43.548355],[-122.856567,43.548427]]]}},{"type":"Feature","properties":{"MAPTAXLOT":"2301000004600","MAPNUMBER":"23010000","TAXLOT":"4600","ACCTNO":"0973428","MAPACRES":449.61166135},"geometry":{"type":"Polygon","coordinates":[[[-122.842242,43.548646],[-122.842818,43.552359],[-122.847466,43.552262],[-122.852113,43.552166],[-122.856757,43.552069],[-122.856567,43.548427],[-122.861246,43.548355],[-122.861402,43.551972],[-122.863724,43.551924],[-122.866046,43.551875],[-122.87069,43.551778],[-122.873685,43.551716],[-122.873601,43.548165],[-122.873517,43.544614],[-122.870518,43.544644],[-122.865805,43.544692],[-122.865865,43.546488],[-122.861168,43.546547],[-122.861091,43.544739],[-122.856377,43.544787],[-122.851663,43.544834],[-122.841665,43.544933],[-122.842242,43.548646]]]}},{"type":"Feature","properties":{"MAPTAXLOT":"2301000004601","MAPNUMBER":"23010000","TAXLOT":"4601","ACCTNO":"1141777","MAPACRES":18.81466077},"geometry":{"type":"Polygon","coordinates":[[[-122.861168,43.546547],[-122.865865,43.546488],[-122.865805,43.544692],[-122.861091,43.544739],[-122.861168,43.546547]]]}}]}