{"type":"FeatureCollection","features":[{"type":"Feature","properties":{"MAPTAXLOT":"1845000000100","MAPNUMBER":"18450000","TAXLOT":"100","ACCTNO":"0810232","MAPACRES":23760.36954722},"geometry":{"type":"Polygon","coordinates":[[[-122.361515,44.0419],[-122.366277,44.041991],[-122.371404,44.042092],[-122.376352,44.04225],[-122.38094,44.042425],[-122.385529,44.042601],[-122.386291,44.042604],[-122.386269,44.035552],[-122.386263,44.03193],[-122.386239,44.024683],[-122.386185,44.010186],[-122.386179,43.995699],[-122.386138,43.988495],[-122.386137,43.988353],[-122.386096,43.981219],[-122.3861,43.966748],[-122.386119,43.952282],[-122.381608,43.952273],[-122.376088,43.952259],[-122.371576,43.95225],[-122.366054,43.952242],[-122.361541,43.952238],[-122.356019,43.952231],[-122.351567,43.952227],[-122.345985,43.952226],[-122.341534,43.952224],[-122.335952,43.952222],[-122.331515,43.952221],[-122.32592,43.95222],[-122.321483,43.95222],[-122.315887,43.95222],[-122.311426,43.95222],[-122.305855,43.952223],[-122.301393,43.952229],[-122.295822,43.952238],[-122.291406,43.952244],[-122.285788,43.952243],[-122.281371,43.952251],[-122.275754,43.952264],[-122.271398,43.952271],[-122.26572,43.952272],[-122.265719,43.955872],[-122.265719,43.959472],[-122.265719,43.963072],[-122.265718,43.966672],[-122.265718,43.966786],[-122.265714,43.970272],[-122.265709,43.973871],[-122.265704,43.977471],[-122.2657,43.981071],[-122.265699,43.981267],[-122.265689,43.98467],[-122.265679,43.988269],[-122.265669,43.991868],[-122.265658,43.995468],[-122.265657,43.995749],[-122.265642,43.999066],[-122.265625,44.002665],[-122.265609,44.006263],[-122.265592,44.009862],[-122.265589,44.01023],[-122.265559,44.013459],[-122.265525,44.017057],[-122.265491,44.020654],[-122.265458,44.024252],[-122.265453,44.024711],[-122.26542,44.027849],[-122.265382,44.031447],[-122.265344,44.035044],[-122.265307,44.038642],[-122.265285,44.04134],[-122.27338,44.041483],[-122.275363,44.041489],[-122.283546,44.041506],[-122.285441,44.041506],[-122.293649,44.041513],[-122.295575,44.041512],[-122.29856,44.041513],[-122.303472,44.041515],[-122.305706,44.041511],[-122.308416,44.041511],[-122.31336,44.041511],[-122.315839,44.041525],[-122.323103,44.041579],[-122.325969,44.04161],[-122.332858,44.041702],[-122.336083,44.041715],[-122.342421,44.041753],[-122.346195,44.041747],[-122.352039,44.041752],[-122.356242,44.041815],[-122.35889,44.041857],[-122.361515,44.0419]]]}}]}