{"type":"FeatureCollection","features":[{"type":"Feature","properties":{"MAPTAXLOT":"1515000000100","MAPNUMBER":"15150000","TAXLOT":"100","ACCTNO":"0026623","MAPACRES":639.70833908},"geometry":{"type":"Polygon","coordinates":[[[-122.728808,44.287673],[-122.731512,44.288022],[-122.734099,44.287158],[-122.737917,44.2859],[-122.742047,44.28702],[-122.744101,44.286173],[-122.744014,44.272477],[-122.733634,44.272507],[-122.723556,44.272537],[-122.723273,44.283373],[-122.724863,44.28465],[-122.725835,44.286584],[-122.728469,44.286757],[-122.728565,44.287017],[-122.728808,44.287673]]]}},{"type":"Feature","properties":{"MAPTAXLOT":"1515000000200","MAPNUMBER":"15150000","TAXLOT":"200","ACCTNO":"0026631","MAPACRES":350.51716962},"geometry":{"type":"Polygon","coordinates":[[[-122.723183,44.283301],[-122.723273,44.283373],[-122.723556,44.272537],[-122.713516,44.272551],[-122.708498,44.272556],[-122.703479,44.272562],[-122.703438,44.279431],[-122.711383,44.279503],[-122.715098,44.281616],[-122.717992,44.280868],[-122.721065,44.281598],[-122.723183,44.283301]]]}},{"type":"Feature","properties":{"MAPTAXLOT":"1515000000300","MAPNUMBER":"15150000","TAXLOT":"300","ACCTNO":"0026649","MAPACRES":171.2571376},"geometry":{"type":"Polygon","coordinates":[[[-122.698459,44.279389],[-122.703438,44.279431],[-122.703479,44.272562],[-122.69349,44.272572],[-122.683499,44.272582],[-122.683483,44.274774],[-122.683596,44.274812],[-122.689056,44.273401],[-122.693546,44.276176],[-122.696501,44.276969],[-122.695834,44.278763],[-122.698459,44.279389]]]}},{"type":"Feature","properties":{"MAPTAXLOT":"1515000000500","MAPNUMBER":"15150000","TAXLOT":"500","ACCTNO":"0026664","MAPACRES":425.71023601},"geometry":{"type":"Polygon","coordinates":[[[-122.656537,44.269823],[-122.659601,44.270894],[-122.661131,44.270272],[-122.66356,44.270113],[-122.663719,44.257938],[-122.645797,44.257977],[-122.645773,44.258032],[-122.644527,44.259631],[-122.644196,44.261021],[-122.646334,44.263533],[-122.646908,44.265084],[-122.646562,44.266523],[-122.651774,44.266961],[-122.652739,44.268887],[-122.654186,44.268559],[-122.655383,44.269596],[-122.656537,44.269823]]]}},{"type":"Feature","properties":{"MAPTAXLOT":"1515000000600","MAPNUMBER":"15150000","TAXLOT":"600","ACCTNO":"0026672","MAPACRES":607.13195427},"geometry":{"type":"Polygon","coordinates":[[[-122.680701,44.273836],[-122.683483,44.274774],[-122.683499,44.272582],[-122.683724,44.257863],[-122.673759,44.257901],[-122.663719,44.257938],[-122.66356,44.270113],[-122.669627,44.268949],[-122.670894,44.270918],[-122.672823,44.271154],[-122.673533,44.271785],[-122.674935,44.27259],[-122.676017,44.273243],[-122.680701,44.273836]]]}},{"type":"Feature","properties":{"MAPTAXLOT":"1515000000700","MAPNUMBER":"15150000","TAXLOT":"700","ACCTNO":"0026680","MAPACRES":635.96495322},"geometry":{"type":"Polygon","coordinates":[[[-122.69349,44.272572],[-122.703479,44.272562],[-122.703581,44.265398],[-122.70368,44.258236],[-122.693701,44.25805],[-122.683724,44.257863],[-122.683499,44.272582],[-122.69349,44.272572]]]}},{"type":"Feature","properties":{"MAPTAXLOT":"1515000000800","MAPNUMBER":"15150000","TAXLOT":"800","ACCTNO":"0026698","MAPACRES":396.11945997},"geometry":{"type":"Polygon","coordinates":[[[-122.713516,44.272551],[-122.723556,44.272537],[-122.723723,44.265329],[-122.713652,44.265364],[-122.708616,44.265381],[-122.708731,44.258209],[-122.70368,44.258236],[-122.703581,44.265398],[-122.703479,44.272562],[-122.708498,44.272556],[-122.713516,44.272551]]]}},{"type":"Feature","properties":{"MAPTAXLOT":"1515000000900","MAPNUMBER":"15150000","TAXLOT":"900","ACCTNO":"0026706","MAPACRES":238.57888427},"geometry":{"type":"Polygon","coordinates":[[[-122.713652,44.265364],[-122.723723,44.265329],[-122.723807,44.261725],[-122.723891,44.258121],[-122.718837,44.258151],[-122.713784,44.258181],[-122.708731,44.258209],[-122.708616,44.265381],[-122.713652,44.265364]]]}},{"type":"Feature","properties":{"MAPTAXLOT":"1515000001000","MAPNUMBER":"15150000","TAXLOT":"1000","ACCTNO":"0026714","MAPACRES":403.85601318},"geometry":{"type":"Polygon","coordinates":[[[-122.733634,44.272507],[-122.744014,44.272477],[-122.744014,44.272476],[-122.744098,44.26519],[-122.733774,44.265261],[-122.733844,44.261649],[-122.723807,44.261725],[-122.723723,44.265329],[-122.723556,44.272537],[-122.733634,44.272507]]]}},{"type":"Feature","properties":{"MAPTAXLOT":"1515000001100","MAPNUMBER":"15150000","TAXLOT":"1100","ACCTNO":"0026730","MAPACRES":242.29048766},"geometry":{"type":"Polygon","coordinates":[[[-122.733774,44.265261],[-122.744098,44.26519],[-122.744098,44.265189],[-122.744117,44.26157],[-122.744117,44.261569],[-122.74413,44.259141],[-122.744132,44.258865],[-122.744135,44.258231],[-122.744136,44.258103],[-122.744137,44.257949],[-122.733913,44.258036],[-122.723891,44.258121],[-122.723807,44.261725],[-122.733844,44.261649],[-122.733774,44.265261]]]}},{"type":"Feature","properties":{"MAPTAXLOT":"1515000001200","MAPNUMBER":"15150000","TAXLOT":"1200","ACCTNO":"0026748","MAPACRES":648.04961223},"geometry":{"type":"Polygon","coordinates":[[[-122.733913,44.258036],[-122.744137,44.257949],[-122.744137,44.257949],[-122.744152,44.25083],[-122.74416,44.247164],[-122.744168,44.243497],[-122.73401,44.243397],[-122.72404,44.243301],[-122.724003,44.247006],[-122.723965,44.250711],[-122.723928,44.254416],[-122.723891,44.258121],[-122.733913,44.258036]]]}},{"type":"Feature","properties":{"MAPTAXLOT":"1515000001300","MAPNUMBER":"15150000","TAXLOT":"1300","ACCTNO":"0026755","MAPACRES":41.15112848},"geometry":{"type":"Polygon","coordinates":[[[-122.718837,44.258151],[-122.723891,44.258121],[-122.723928,44.254416],[-122.718894,44.254415],[-122.718837,44.258151]]]}},{"type":"Feature","properties":{"MAPTAXLOT":"1515000001400","MAPNUMBER":"15150000","TAXLOT":"1400","ACCTNO":"0026763","MAPACRES":82.81646849},"geometry":{"type":"Polygon","coordinates":[[[-122.713784,44.258181],[-122.718837,44.258151],[-122.718894,44.254415],[-122.718949,44.250681],[-122.713933,44.25065],[-122.713859,44.254414],[-122.713784,44.258181]]]}},{"type":"Feature","properties":{"MAPTAXLOT":"1515000001401","MAPNUMBER":"15150000","TAXLOT":"1401","ACCTNO":"0026771","MAPACRES":40.99864165},"geometry":{"type":"Polygon","coordinates":[[[-122.718894,44.254415],[-122.723928,44.254416],[-122.723965,44.250711],[-122.718949,44.250681],[-122.718894,44.254415]]]}},{"type":"Feature","properties":{"MAPTAXLOT":"1515000001500","MAPNUMBER":"15150000","TAXLOT":"1500","ACCTNO":"0026789","MAPACRES":166.97899626},"geometry":{"type":"Polygon","coordinates":[[[-122.708825,44.254414],[-122.713859,44.254414],[-122.713933,44.25065],[-122.714007,44.246886],[-122.70901,44.246826],[-122.704012,44.246766],[-122.703901,44.250589],[-122.70379,44.254412],[-122.708825,44.254414]]]}},{"type":"Feature","properties":{"MAPTAXLOT":"1515000001501","MAPNUMBER":"15150000","TAXLOT":"1501","ACCTNO":"1029428","MAPACRES":83.94514957},"geometry":{"type":"Polygon","coordinates":[[[-122.708731,44.258209],[-122.713784,44.258181],[-122.713859,44.254414],[-122.708825,44.254414],[-122.70379,44.254412],[-122.70368,44.258236],[-122.708731,44.258209]]]}},{"type":"Feature","properties":{"MAPTAXLOT":"1515000001600","MAPNUMBER":"15150000","TAXLOT":"1600","ACCTNO":"0026797","MAPACRES":246.84140185},"geometry":{"type":"Polygon","coordinates":[[[-122.718949,44.250681],[-122.723965,44.250711],[-122.724003,44.247006],[-122.72404,44.243301],[-122.719061,44.243212],[-122.714081,44.243122],[-122.709102,44.243032],[-122.704123,44.242942],[-122.704012,44.246766],[-122.70901,44.246826],[-122.714007,44.246886],[-122.713933,44.25065],[-122.718949,44.250681]]]}},{"type":"Feature","properties":{"MAPTAXLOT":"1515000001700","MAPNUMBER":"15150000","TAXLOT":"1700","ACCTNO":"0026805","MAPACRES":496.03674919},"geometry":{"type":"Polygon","coordinates":[[[-122.683991,44.242979],[-122.683925,44.2467],[-122.683858,44.250421],[-122.683724,44.257863],[-122.693701,44.25805],[-122.70368,44.258236],[-122.70379,44.254412],[-122.703901,44.250589],[-122.69889,44.250547],[-122.69899,44.246749],[-122.693968,44.246733],[-122.688914,44.246742],[-122.689024,44.24297],[-122.683991,44.242979]]]}},{"type":"Feature","properties":{"MAPTAXLOT":"1515000001800","MAPNUMBER":"15150000","TAXLOT":"1800","ACCTNO":"0026813","MAPACRES":167.42094789},"geometry":{"type":"Polygon","coordinates":[[[-122.69889,44.250547],[-122.703901,44.250589],[-122.704012,44.246766],[-122.704123,44.242942],[-122.69909,44.242952],[-122.694057,44.242961],[-122.689024,44.24297],[-122.688914,44.246742],[-122.693968,44.246733],[-122.69899,44.246749],[-122.69889,44.250547]]]}},{"type":"Feature","properties":{"MAPTAXLOT":"1515000001900","MAPNUMBER":"15150000","TAXLOT":"1900","ACCTNO":"0026821","MAPACRES":651.20236514},"geometry":{"type":"Polygon","coordinates":[[[-122.663719,44.257938],[-122.673759,44.257901],[-122.683724,44.257863],[-122.683858,44.250421],[-122.683925,44.2467],[-122.683991,44.242979],[-122.683991,44.242979],[-122.673961,44.243078],[-122.663933,44.243176],[-122.663719,44.257938]]]}},{"type":"Feature","properties":{"MAPTAXLOT":"1515000002000","MAPNUMBER":"15150000","TAXLOT":"2000","ACCTNO":"0026839","MAPACRES":615.1201119},"geometry":{"type":"Polygon","coordinates":[[[-122.645797,44.257977],[-122.663719,44.257938],[-122.663933,44.243176],[-122.643902,44.24341],[-122.643768,44.252009],[-122.647137,44.25496],[-122.645797,44.257977]]]}},{"type":"Feature","properties":{"MAPTAXLOT":"1515000002600","MAPNUMBER":"15150000","TAXLOT":"2600","ACCTNO":"0026888","MAPACRES":630.57178654},"geometry":{"type":"Polygon","coordinates":[[[-122.643902,44.24341],[-122.663933,44.243176],[-122.664177,44.228731],[-122.654109,44.228952],[-122.644042,44.229172],[-122.644045,44.236406],[-122.643902,44.24341]]]}},{"type":"Feature","properties":{"MAPTAXLOT":"1515000002700","MAPNUMBER":"15150000","TAXLOT":"2700","ACCTNO":"0026896","MAPACRES":637.43950592},"geometry":{"type":"Polygon","coordinates":[[[-122.663933,44.243176],[-122.673961,44.243078],[-122.683991,44.242979],[-122.683991,44.242979],[-122.683991,44.242979],[-122.684,44.239281],[-122.684086,44.235662],[-122.684172,44.23204],[-122.684258,44.228419],[-122.674217,44.228576],[-122.664177,44.228731],[-122.663933,44.243176]]]}},{"type":"Feature","properties":{"MAPTAXLOT":"1515000002900","MAPNUMBER":"15150000","TAXLOT":"2900","ACCTNO":"0026912","MAPACRES":82.81059675},"geometry":{"type":"Polygon","coordinates":[[[-122.683991,44.242979],[-122.683991,44.242979],[-122.689024,44.24297],[-122.694057,44.242961],[-122.695027,44.242406],[-122.694818,44.242134],[-122.694517,44.241905],[-122.694072,44.241727],[-122.694102,44.239306],[-122.68908,44.239293],[-122.684,44.239281],[-122.683991,44.242979]]]}},{"type":"Feature","properties":{"MAPTAXLOT":"1515000003100","MAPNUMBER":"15150000","TAXLOT":"3100","ACCTNO":"0026938","MAPACRES":78.66481232},"geometry":{"type":"Polygon","coordinates":[[[-122.69909,44.242952],[-122.704123,44.242942],[-122.704145,44.239329],[-122.699123,44.239318],[-122.694102,44.239306],[-122.694072,44.241727],[-122.694517,44.241905],[-122.694818,44.242134],[-122.695027,44.242406],[-122.694057,44.242961],[-122.69909,44.242952]]]}},{"type":"Feature","properties":{"MAPTAXLOT":"1515000003600","MAPNUMBER":"15150000","TAXLOT":"3600","ACCTNO":"0026987","MAPACRES":644.90705741},"geometry":{"type":"Polygon","coordinates":[[[-122.719061,44.243212],[-122.72404,44.243301],[-122.724265,44.228336],[-122.704212,44.228491],[-122.70419,44.232104],[-122.704167,44.235717],[-122.704145,44.239329],[-122.704123,44.242942],[-122.709102,44.243032],[-122.714081,44.243122],[-122.719061,44.243212]]]}},{"type":"Feature","properties":{"MAPTAXLOT":"1515000003700","MAPNUMBER":"15150000","TAXLOT":"3700","ACCTNO":"0026995","MAPACRES":649.83385799},"geometry":{"type":"Polygon","coordinates":[[[-122.73401,44.243397],[-122.744168,44.243497],[-122.744168,44.243497],[-122.744225,44.239886],[-122.744225,44.239885],[-122.744282,44.236274],[-122.744282,44.236274],[-122.744369,44.229029],[-122.734322,44.228683],[-122.724265,44.228336],[-122.72404,44.243301],[-122.73401,44.243397]]]}}]}