{"type":"FeatureCollection","features":[{"type":"Feature","properties":{"MAPTAXLOT":"1775000000100","MAPNUMBER":"17750000","TAXLOT":"100","ACCTNO":"1857406","MAPACRES":23101.32091609},"geometry":{"type":"Polygon","coordinates":[[[-121.829641,44.052442],[-121.827641,44.052439],[-121.827991,44.066484],[-121.827992,44.080967],[-121.827994,44.09545],[-121.827994,44.09907],[-121.827994,44.10269],[-121.827994,44.106311],[-121.827994,44.109931],[-121.827994,44.113551],[-121.827995,44.117171],[-121.827995,44.120791],[-121.827995,44.124412],[-121.827995,44.128032],[-121.827995,44.131652],[-121.827995,44.135272],[-121.827995,44.138993],[-121.833022,44.138993],[-121.838049,44.138993],[-121.843076,44.138993],[-121.848103,44.138993],[-121.85313,44.138993],[-121.858157,44.138993],[-121.863184,44.138993],[-121.868211,44.138993],[-121.873238,44.138993],[-121.878265,44.138993],[-121.883292,44.138993],[-121.888319,44.138993],[-121.893346,44.138993],[-121.898373,44.138993],[-121.900024,44.138993],[-121.9034,44.138993],[-121.908427,44.138993],[-121.913454,44.138994],[-121.918481,44.138994],[-121.920132,44.138994],[-121.923508,44.138994],[-121.928535,44.138994],[-121.933562,44.138994],[-121.938589,44.138994],[-121.94024,44.138994],[-121.943616,44.138994],[-121.949763,44.138994],[-121.949763,44.135373],[-121.949763,44.135273],[-121.949763,44.131752],[-121.949763,44.131652],[-121.949763,44.128132],[-121.949763,44.128032],[-121.949763,44.127034],[-121.949763,44.125394],[-121.949763,44.124411],[-121.949763,44.120791],[-121.949763,44.117171],[-121.949763,44.114534],[-121.949763,44.113551],[-121.949763,44.113551],[-121.949763,44.10993],[-121.949763,44.10631],[-121.949763,44.10269],[-121.949763,44.100053],[-121.949763,44.09907],[-121.949763,44.09545],[-121.949763,44.091829],[-121.949763,44.088209],[-121.949763,44.085572],[-121.949763,44.084589],[-121.949763,44.080969],[-121.949763,44.077348],[-121.949763,44.073728],[-121.949763,44.071091],[-121.949763,44.070108],[-121.949763,44.066488],[-121.949762,44.056609],[-121.94964,44.053041],[-121.94964,44.05304],[-121.945121,44.05302],[-121.9401,44.052994],[-121.93508,44.052968],[-121.930059,44.052942],[-121.92839,44.052934],[-121.925038,44.052916],[-121.920017,44.05289],[-121.914996,44.052865],[-121.909976,44.052839],[-121.908312,44.05283],[-121.904955,44.052813],[-121.899934,44.052787],[-121.894913,44.052761],[-121.889893,44.052735],[-121.888228,44.052727],[-121.884872,44.052709],[-121.879851,44.052684],[-121.87483,44.052658],[-121.86981,44.052632],[-121.86815,44.052623],[-121.864789,44.052606],[-121.859768,44.05258],[-121.854747,44.052554],[-121.849727,44.052528],[-121.848071,44.05252],[-121.844706,44.052502],[-121.839685,44.052477],[-121.834664,44.052451],[-121.829641,44.052442]]]}},{"type":"Feature","properties":{"MAPTAXLOT":"1785000000100","MAPNUMBER":"17850000","TAXLOT":"100","ACCTNO":"1857414","MAPACRES":9326.53456193},"geometry":{"type":"Polygon","coordinates":[[[-121.822488,44.138993],[-121.827995,44.138993],[-121.827995,44.135272],[-121.827995,44.131652],[-121.827995,44.128032],[-121.827995,44.124412],[-121.827995,44.120791],[-121.827995,44.117171],[-121.827994,44.113551],[-121.827994,44.109931],[-121.827994,44.106311],[-121.827994,44.10269],[-121.827994,44.09907],[-121.827994,44.09545],[-121.827992,44.080967],[-121.827991,44.066484],[-121.827641,44.052439],[-121.823035,44.052407],[-121.818014,44.052369],[-121.814825,44.052344],[-121.814736,44.052423],[-121.813848,44.052834],[-121.813214,44.052994],[-121.812389,44.053016],[-121.809631,44.052626],[-121.806562,44.052281],[-121.802953,44.052253],[-121.80283,44.052252],[-121.802432,44.052462],[-121.801988,44.052919],[-121.80205,44.053765],[-121.801763,44.055617],[-121.801413,44.056418],[-121.800715,44.056806],[-121.80046,44.057126],[-121.800079,44.058018],[-121.799983,44.058864],[-121.799601,44.059847],[-121.799188,44.060327],[-121.79849,44.060624],[-121.797316,44.060989],[-121.796427,44.061538],[-121.795569,44.062863],[-121.794456,44.065584],[-121.793882,44.067505],[-121.793564,44.068214],[-121.79277,44.069174],[-121.790293,44.071596],[-121.789435,44.072739],[-121.789369,44.074409],[-121.789051,44.074797],[-121.787622,44.076031],[-121.786987,44.07642],[-121.78559,44.076762],[-121.784701,44.077241],[-121.783589,44.078292],[-121.780796,44.079479],[-121.77997,44.079959],[-121.779334,44.080782],[-121.779396,44.082017],[-121.779173,44.082772],[-121.777775,44.084005],[-121.777234,44.084966],[-121.777074,44.085469],[-121.777232,44.086361],[-121.777135,44.087504],[-121.776943,44.088007],[-121.776403,44.088441],[-121.773863,44.089308],[-121.773165,44.089788],[-121.772528,44.090816],[-121.772015,44.093995],[-121.772299,44.094956],[-121.772073,44.09754],[-121.771817,44.098729],[-121.771371,44.099506],[-121.770768,44.100009],[-121.769084,44.100991],[-121.768829,44.101334],[-121.768953,44.103118],[-121.769365,44.103598],[-121.769491,44.104262],[-121.769203,44.105657],[-121.769202,44.106],[-121.769519,44.106617],[-121.77012,44.107373],[-121.770436,44.108494],[-121.770308,44.109226],[-121.770021,44.109934],[-121.768907,44.111603],[-121.768205,44.113821],[-121.768267,44.114713],[-121.769246,44.117618],[-121.769591,44.119745],[-121.769876,44.120478],[-121.771143,44.122286],[-121.771332,44.12288],[-121.771332,44.123269],[-121.77079,44.124618],[-121.770788,44.125396],[-121.771708,44.126289],[-121.771961,44.126883],[-121.771991,44.127387],[-121.771895,44.128141],[-121.771288,44.130153],[-121.771097,44.130565],[-121.772301,44.131892],[-121.772935,44.132945],[-121.772551,44.134317],[-121.772518,44.135072],[-121.772835,44.135507],[-121.773373,44.136651],[-121.772831,44.138388],[-121.772681,44.138993],[-121.777244,44.138993],[-121.782271,44.138993],[-121.787298,44.138993],[-121.792325,44.138993],[-121.797353,44.138993],[-121.80238,44.138993],[-121.807407,44.138993],[-121.812434,44.138993],[-121.817461,44.138993],[-121.822488,44.138993]]]}},{"type":"Feature","properties":{"MAPTAXLOT":"1875000000066","MAPNUMBER":"18750000","TAXLOT":"66","ACCTNO":"000None","MAPACRES":90.43169797},"geometry":{"type":"MultiPolygon","coordinates":[[[[-121.871276,44.002709],[-121.87143,44.003025],[-121.87156,44.003377],[-121.871687,44.003552],[-121.871812,44.003675],[-121.872035,44.003761],[-121.872305,44.003793],[-121.872548,44.003719],[-121.872593,44.003542],[-121.872615,44.003453],[-121.87266,44.003276],[-121.872609,44.003153],[-121.872604,44.00294],[-121.872626,44.002816],[-121.872795,44.002744],[-121.872841,44.002584],[-121.872986,44.002529],[-121.873207,44.002527],[-121.873379,44.00256],[-121.873525,44.002505],[-121.87362,44.002398],[-121.873617,44.002239],[-121.87354,44.002116],[-121.873489,44.002011],[-121.873512,44.00194],[-121.873658,44.00192],[-121.873852,44.001829],[-121.874021,44.001704],[-121.874291,44.001736],[-121.874512,44.001769],[-121.874709,44.001784],[-121.874855,44.001764],[-121.874976,44.001675],[-121.874997,44.001551],[-121.874994,44.001392],[-121.874869,44.001287],[-121.874697,44.001254],[-121.874524,44.001185],[-121.874326,44.001117],[-121.874129,44.001048],[-121.874004,44.000944],[-121.873855,44.000857],[-121.873633,44.000789],[-121.873408,44.000597],[-121.873235,44.000511],[-121.873037,44.000425],[-121.872912,44.000338],[-121.872911,44.000285],[-121.873009,44.000301],[-121.873157,44.000317],[-121.873304,44.000351],[-121.873428,44.000402],[-121.873624,44.000382],[-121.873819,44.00038],[-121.87404,44.000377],[-121.874261,44.000428],[-121.874435,44.000514],[-121.874583,44.000583],[-121.874781,44.000651],[-121.874929,44.000703],[-121.87505,44.000631],[-121.875096,44.000524],[-121.875094,44.0004],[-121.875092,44.000312],[-121.875139,44.000223],[-121.875186,44.000152],[-121.875112,44.000117],[-121.875013,44.000101],[-121.874966,44.000154],[-121.874868,44.000173],[-121.874696,44.000157],[-121.874572,44.00007],[-121.874349,43.999985],[-121.874247,43.999809],[-121.874243,43.999632],[-121.874167,43.999509],[-121.874044,43.999475],[-121.873847,43.999425],[-121.873723,43.999373],[-121.873501,43.999287],[-121.873204,43.999167],[-121.872784,43.999013],[-121.872487,43.998857],[-121.872215,43.998755],[-121.872017,43.998686],[-121.871796,43.998653],[-121.8716,43.998656],[-121.87143,43.998693],[-121.871259,43.99873],[-121.871016,43.998822],[-121.870897,43.998947],[-121.870778,43.999125],[-121.870709,43.999303],[-121.870516,43.999464],[-121.87037,43.999501],[-121.870251,43.999644],[-121.869961,43.999807],[-121.869695,43.999987],[-121.869749,44.000181],[-121.869851,44.000374],[-121.86988,44.00055],[-121.869736,44.000711],[-121.869813,44.000852],[-121.869939,44.000992],[-121.870065,44.001167],[-121.870191,44.001342],[-121.870319,44.001571],[-121.870471,44.001781],[-121.87067,44.001938],[-121.870844,44.002024],[-121.871069,44.002216],[-121.871121,44.002357],[-121.871174,44.002533],[-121.871276,44.002709]]],[[[-121.942576,43.986825],[-121.942623,43.986864],[-121.942688,43.986896],[-121.942762,43.986928],[-121.942829,43.987007],[-121.942876,43.98706],[-121.942914,43.987139],[-121.942917,43.987245],[-121.942956,43.987331],[-121.943012,43.987396],[-121.943069,43.987455],[-121.943116,43.987514],[-121.943109,43.987581],[-121.943064,43.987648],[-121.943039,43.987721],[-121.942939,43.987775],[-121.942913,43.987835],[-121.942942,43.987915],[-121.94299,43.98798],[-121.943046,43.988033],[-121.943149,43.988091],[-121.943269,43.988149],[-121.94338,43.988155],[-121.943462,43.988154],[-121.943535,43.988113],[-121.943616,43.988059],[-121.943679,43.988005],[-121.943706,43.987958],[-121.943713,43.987885],[-121.943748,43.987805],[-121.943773,43.987692],[-121.943818,43.987658],[-121.943826,43.987592],[-121.943815,43.987532],[-121.943731,43.987493],[-121.943648,43.987448],[-121.943609,43.987376],[-121.943598,43.987303],[-121.943606,43.987243],[-121.943651,43.987183],[-121.943695,43.987129],[-121.943758,43.987055],[-121.943848,43.986988],[-121.943939,43.98694],[-121.943956,43.98688],[-121.943936,43.986828],[-121.94388,43.986782],[-121.943788,43.98679],[-121.943688,43.986811],[-121.943614,43.986785],[-121.943548,43.98672],[-121.94349,43.986627],[-121.94346,43.986528],[-121.943431,43.986462],[-121.943357,43.98645],[-121.943293,43.986431],[-121.943201,43.986432],[-121.943054,43.986421],[-121.942943,43.986429],[-121.942834,43.986443],[-121.94277,43.98649],[-121.942735,43.986564],[-121.942672,43.986611],[-121.942599,43.986625],[-121.9426,43.986678],[-121.942574,43.986745],[-121.942576,43.986825]]],[[[-121.874141,43.989436],[-121.874175,43.989428],[-121.874214,43.989415],[-121.874277,43.989394],[-121.874334,43.989393],[-121.87439,43.98938],[-121.874498,43.989375],[-121.874572,43.989341],[-121.874611,43.98932],[-121.874656,43.989278],[-121.874712,43.989245],[-121.874762,43.989195],[-121.874818,43.989157],[-121.874885,43.989119],[-121.87493,43.98909],[-121.874981,43.989056],[-121.875043,43.989031],[-121.875122,43.989001],[-121.875184,43.98898],[-121.875264,43.988967],[-121.87532,43.988925],[-121.875279,43.988884],[-121.875239,43.988877],[-121.875193,43.988873],[-121.875119,43.988857],[-121.874999,43.988842],[-121.874918,43.988819],[-121.874844,43.98882],[-121.874775,43.988783],[-121.874718,43.988751],[-121.874666,43.988719],[-121.874614,43.988682],[-121.874539,43.988646],[-121.874441,43.988619],[-121.874389,43.988578],[-121.874308,43.988542],[-121.874217,43.988514],[-121.874137,43.988495],[-121.874039,43.988467],[-121.873959,43.988448],[-121.873862,43.988424],[-121.873759,43.988417],[-121.873668,43.988422],[-121.8736,43.98844],[-121.873544,43.988485],[-121.873505,43.988527],[-121.873461,43.988581],[-121.873445,43.988635],[-121.873423,43.98868],[-121.873401,43.988717],[-121.873391,43.988767],[-121.873387,43.988825],[-121.873405,43.988882],[-121.873418,43.98896],[-121.873425,43.989026],[-121.873432,43.989091],[-121.873462,43.989157],[-121.873493,43.98923],[-121.873579,43.989275],[-121.873643,43.989327],[-121.87374,43.989359],[-121.873815,43.989387],[-121.873884,43.989407],[-121.873953,43.989418],[-121.874015,43.98943],[-121.874072,43.989429],[-121.874141,43.989436]]],[[[-121.855555,43.990761],[-121.855544,43.990895],[-121.85559,43.991018],[-121.855648,43.991089],[-121.855776,43.991088],[-121.855904,43.991086],[-121.855974,43.991003],[-121.855986,43.990931],[-121.855985,43.990869],[-121.856012,43.990787],[-121.856111,43.990755],[-121.856197,43.990805],[-121.856353,43.990762],[-121.85648,43.99072],[-121.856608,43.990708],[-121.856721,43.990676],[-121.856762,43.990603],[-121.856904,43.990561],[-121.857017,43.990539],[-121.857186,43.990475],[-121.857385,43.990421],[-121.857469,43.990369],[-121.857539,43.990317],[-121.857551,43.990234],[-121.857549,43.990131],[-121.857547,43.990029],[-121.857616,43.989956],[-121.857716,43.989955],[-121.857802,43.989985],[-121.857889,43.990035],[-121.857975,43.990075],[-121.858117,43.990084],[-121.858246,43.990082],[-121.85833,43.99004],[-121.858385,43.989947],[-121.85844,43.989874],[-121.858452,43.989782],[-121.85845,43.989658],[-121.858476,43.989555],[-121.858559,43.989472],[-121.858586,43.989389],[-121.858555,43.989297],[-121.858539,43.989195],[-121.858521,43.98903],[-121.858475,43.988908],[-121.858444,43.988774],[-121.858413,43.988651],[-121.858353,43.988518],[-121.858294,43.988427],[-121.858178,43.988325],[-121.858063,43.988275],[-121.857962,43.988235],[-121.857931,43.988133],[-121.8579,43.987999],[-121.857856,43.987959],[-121.857756,43.987929],[-121.857642,43.987951],[-121.857543,43.987973],[-121.857415,43.987974],[-121.857272,43.987945],[-121.857128,43.987885],[-121.857027,43.987814],[-121.856899,43.987806],[-121.856772,43.987848],[-121.856745,43.987941],[-121.856777,43.988085],[-121.856765,43.988177],[-121.85671,43.98826],[-121.856669,43.988353],[-121.8566,43.988446],[-121.856515,43.988468],[-121.85643,43.988489],[-121.856316,43.988501],[-121.856203,43.988513],[-121.856147,43.988565],[-121.856093,43.988678],[-121.856067,43.988792],[-121.856041,43.988916],[-121.85603,43.98907],[-121.856019,43.989193],[-121.855978,43.989297],[-121.855866,43.98938],[-121.855782,43.989453],[-121.855714,43.989557],[-121.855688,43.989701],[-121.855606,43.989825],[-121.855594,43.989938],[-121.855569,43.990083],[-121.855556,43.990165],[-121.855516,43.990289],[-121.855476,43.990402],[-121.855507,43.990505],[-121.855537,43.990566],[-121.855553,43.990638],[-121.855555,43.990761]]],[[[-121.878788,43.992602],[-121.878838,43.992651],[-121.878897,43.992699],[-121.878908,43.992769],[-121.878948,43.992838],[-121.878969,43.992901],[-121.879077,43.992955],[-121.879175,43.993003],[-121.879234,43.993051],[-121.879293,43.993114],[-121.879362,43.993155],[-121.87947,43.993209],[-121.879529,43.993237],[-121.879607,43.993271],[-121.879635,43.993221],[-121.879634,43.993165],[-121.879613,43.993096],[-121.879582,43.993019],[-121.879532,43.99295],[-121.879501,43.99288],[-121.879481,43.992825],[-121.879488,43.992748],[-121.879457,43.99265],[-121.879495,43.992594],[-121.879562,43.992558],[-121.879658,43.992536],[-121.879725,43.992521],[-121.879802,43.992499],[-121.87986,43.992471],[-121.879908,43.992442],[-121.879975,43.992406],[-121.880012,43.992343],[-121.88004,43.992287],[-121.880038,43.992217],[-121.880027,43.992168],[-121.879987,43.992106],[-121.879937,43.99205],[-121.879878,43.992002],[-121.879838,43.991961],[-121.879837,43.991898],[-121.879875,43.991862],[-121.879942,43.991813],[-121.879998,43.991756],[-121.880026,43.991707],[-121.879939,43.991701],[-121.879881,43.991688],[-121.879783,43.991654],[-121.879666,43.99162],[-121.879578,43.991586],[-121.879452,43.991581],[-121.879355,43.991561],[-121.879258,43.991569],[-121.879171,43.991584],[-121.879054,43.991551],[-121.878957,43.991517],[-121.87885,43.991504],[-121.878744,43.991512],[-121.878677,43.991562],[-121.87863,43.991626],[-121.878525,43.991683],[-121.878459,43.991746],[-121.878402,43.991824],[-121.878385,43.991894],[-121.878357,43.991971],[-121.878369,43.992048],[-121.878371,43.992146],[-121.878393,43.99225],[-121.878395,43.992348],[-121.878387,43.992418],[-121.87832,43.992454],[-121.878243,43.99249],[-121.878128,43.992526],[-121.878061,43.992576],[-121.877956,43.99264],[-121.877928,43.992689],[-121.877891,43.992753],[-121.877883,43.992837],[-121.877951,43.992857],[-121.87801,43.992877],[-121.878097,43.992883],[-121.878146,43.992911],[-121.878234,43.992937],[-121.878301,43.992916],[-121.878359,43.992908],[-121.878427,43.9929],[-121.878494,43.992878],[-121.878532,43.992843],[-121.87854,43.992787],[-121.87851,43.992724],[-121.87847,43.992676],[-121.878468,43.992592],[-121.878418,43.992523],[-121.878466,43.99248],[-121.878533,43.992479],[-121.878583,43.992528],[-121.878661,43.992569],[-121.878719,43.992568],[-121.878788,43.992602]]],[[[-121.856723,43.995375],[-121.856747,43.995409],[-121.856725,43.995476],[-121.856734,43.99552],[-121.856704,43.99557],[-121.856667,43.995621],[-121.856676,43.995682],[-121.856716,43.995737],[-121.856801,43.995769],[-121.856893,43.995768],[-121.856985,43.995734],[-121.857069,43.995711],[-121.857146,43.99571],[-121.857238,43.995697],[-121.857338,43.995691],[-121.857415,43.995679],[-121.857476,43.995639],[-121.857514,43.9956],[-121.857543,43.995549],[-121.857581,43.995499],[-121.857665,43.995465],[-121.857718,43.995436],[-121.857786,43.995396],[-121.857854,43.99534],[-121.857908,43.995312],[-121.857946,43.995311],[-121.857993,43.995355],[-121.858056,43.99541],[-121.858103,43.995459],[-121.858151,43.995537],[-121.858176,43.995586],[-121.858215,43.995625],[-121.858293,43.995652],[-121.85837,43.995668],[-121.858431,43.995661],[-121.858516,43.995655],[-121.858585,43.995637],[-121.858692,43.995597],[-121.858776,43.995557],[-121.858821,43.995529],[-121.858843,43.995484],[-121.858888,43.995428],[-121.85891,43.995383],[-121.858947,43.995316],[-121.858993,43.995271],[-121.859069,43.995237],[-121.859145,43.995203],[-121.859252,43.995168],[-121.859328,43.995117],[-121.85935,43.995061],[-121.859301,43.994951],[-121.859246,43.994879],[-121.859191,43.99483],[-121.859143,43.994769],[-121.859103,43.994703],[-121.859048,43.994653],[-121.858978,43.994598],[-121.858908,43.994571],[-121.858901,43.99461],[-121.858894,43.994655],[-121.858834,43.994706],[-121.858781,43.994751],[-121.858681,43.994763],[-121.858613,43.994814],[-121.858498,43.99486],[-121.858384,43.994906],[-121.858269,43.994957],[-121.858154,43.994964],[-121.857977,43.994966],[-121.857893,43.994984],[-121.857722,43.994941],[-121.857629,43.994909],[-121.857466,43.994839],[-121.857364,43.994784],[-121.857263,43.994741],[-121.857169,43.994681],[-121.857053,43.994649],[-121.856992,43.99465],[-121.857008,43.994688],[-121.857055,43.994732],[-121.857095,43.994804],[-121.857104,43.994876],[-121.857137,43.994948],[-121.857168,43.994981],[-121.857199,43.994986],[-121.857231,43.995025],[-121.857194,43.99507],[-121.85714,43.995093],[-121.857063,43.995105],[-121.857018,43.995133],[-121.857003,43.995172],[-121.856942,43.995201],[-121.856842,43.995191],[-121.85675,43.995192],[-121.85665,43.995204],[-121.856542,43.995205],[-121.856451,43.995256],[-121.856406,43.995312],[-121.856384,43.995368],[-121.856378,43.99543],[-121.856402,43.995479],[-121.856472,43.995501],[-121.856541,43.995489],[-121.856602,43.995466],[-121.856624,43.995421],[-121.856669,43.995371],[-121.856723,43.995375]]],[[[-121.883311,43.996187],[-121.883361,43.996235],[-121.883409,43.996242],[-121.883506,43.996254],[-121.883536,43.996275],[-121.883613,43.996267],[-121.883641,43.996225],[-121.88364,43.996176],[-121.883619,43.996113],[-121.883599,43.996057],[-121.883558,43.995988],[-121.883519,43.995947],[-121.883478,43.995884],[-121.883429,43.995829],[-121.883398,43.995766],[-121.883349,43.995718],[-121.883328,43.995641],[-121.883316,43.995565],[-121.883372,43.99548],[-121.883439,43.995423],[-121.883486,43.995381],[-121.883553,43.995338],[-121.883591,43.995303],[-121.88358,43.99524],[-121.883491,43.995164],[-121.88347,43.995101],[-121.883411,43.995067],[-121.883344,43.995068],[-121.883276,43.995097],[-121.88318,43.995119],[-121.883074,43.995141],[-121.882958,43.995142],[-121.882852,43.995186],[-121.882755,43.995159],[-121.882667,43.995111],[-121.882588,43.995056],[-121.882509,43.995001],[-121.882373,43.994961],[-121.882257,43.994962],[-121.882131,43.994984],[-121.882074,43.995041],[-121.882017,43.99507],[-121.881959,43.99507],[-121.881852,43.995065],[-121.881764,43.99501],[-121.881638,43.994997],[-121.881522,43.995006],[-121.881445,43.995042],[-121.881359,43.995092],[-121.881361,43.995175],[-121.881275,43.995239],[-121.881199,43.995282],[-121.881094,43.995346],[-121.881073,43.995415],[-121.881116,43.995445],[-121.881154,43.995481],[-121.881202,43.99552],[-121.881253,43.99555],[-121.881296,43.99558],[-121.881322,43.995619],[-121.881314,43.995686],[-121.881316,43.995742],[-121.881327,43.995791],[-121.881338,43.995847],[-121.881378,43.995902],[-121.881398,43.995965],[-121.881429,43.996027],[-121.88143,43.996083],[-121.881392,43.996133],[-121.881375,43.996203],[-121.881414,43.996237],[-121.881482,43.996257],[-121.881531,43.996278],[-121.881648,43.996276],[-121.881695,43.996241],[-121.881792,43.996233],[-121.88183,43.996197],[-121.881848,43.996148],[-121.881895,43.996106],[-121.881963,43.996077],[-121.882012,43.996104],[-121.88209,43.996131],[-121.882148,43.996152],[-121.882226,43.996144],[-121.882283,43.996129],[-121.882341,43.996114],[-121.88235,43.996079],[-121.882368,43.996044],[-121.882465,43.996036],[-121.882464,43.996008],[-121.882444,43.99598],[-121.882444,43.995938],[-121.88251,43.995903],[-121.882578,43.995902],[-121.882665,43.995866],[-121.882713,43.995886],[-121.882753,43.995935],[-121.882773,43.995969],[-121.882832,43.995997],[-121.882881,43.996017],[-121.882949,43.996037],[-121.883018,43.996085],[-121.883048,43.996134],[-121.883078,43.996169],[-121.883136,43.996175],[-121.883205,43.996202],[-121.883243,43.996181],[-121.883311,43.996187]]],[[[-121.899629,44.017949],[-121.899732,44.017959],[-121.899814,44.017979],[-121.899896,44.017984],[-121.900007,44.017998],[-121.900103,44.017986],[-121.9002,44.017985],[-121.900303,44.017968],[-121.900399,44.017951],[-121.90048,44.017928],[-121.900523,44.017885],[-121.900604,44.017841],[-121.900632,44.017788],[-121.90066,44.017729],[-121.900696,44.017685],[-121.900732,44.017626],[-121.900745,44.017562],[-121.900721,44.017482],[-121.900668,44.017413],[-121.900636,44.017344],[-121.900613,44.017286],[-121.900567,44.017217],[-121.900543,44.017147],[-121.900482,44.017079],[-121.900399,44.017005],[-121.900346,44.016947],[-121.900226,44.016879],[-121.900136,44.016821],[-121.900016,44.016764],[-121.899904,44.016733],[-121.899851,44.016686],[-121.899828,44.016648],[-121.899716,44.016602],[-121.899692,44.016543],[-121.899625,44.016512],[-121.899549,44.016443],[-121.899473,44.016332],[-121.899383,44.016296],[-121.899279,44.016292],[-121.899213,44.01633],[-121.89914,44.016341],[-121.899072,44.016289],[-121.899042,44.016289],[-121.898946,44.01628],[-121.898865,44.016323],[-121.8988,44.016383],[-121.898719,44.016427],[-121.898631,44.016433],[-121.898565,44.016482],[-121.898545,44.016568],[-121.898518,44.016664],[-121.898475,44.016734],[-121.898409,44.016778],[-121.898404,44.016863],[-121.898413,44.016927],[-121.898428,44.016965],[-121.898393,44.017034],[-121.898372,44.017109],[-121.898374,44.017179],[-121.898406,44.017275],[-121.898415,44.01736],[-121.898432,44.017435],[-121.898434,44.017515],[-121.898458,44.017589],[-121.898467,44.017685],[-121.898491,44.017771],[-121.898545,44.01784],[-121.89862,44.017897],[-121.89874,44.017933],[-121.898843,44.017943],[-121.898933,44.017958],[-121.899037,44.017973],[-121.89914,44.017966],[-121.899266,44.017948],[-121.899399,44.017941],[-121.899525,44.01794],[-121.899629,44.017949]]],[[[-121.834422,44.04052],[-121.834468,44.040571],[-121.834478,44.040648],[-121.834533,44.040719],[-121.834561,44.040777],[-121.834625,44.040821],[-121.834697,44.040859],[-121.83477,44.04089],[-121.834843,44.040947],[-121.834906,44.041005],[-121.83498,44.041107],[-121.835026,44.041158],[-121.835098,44.04117],[-121.83517,44.041189],[-121.83525,44.041175],[-121.835294,44.041149],[-121.835293,44.04111],[-121.835248,44.041091],[-121.835194,44.041079],[-121.835157,44.041034],[-121.835138,44.040983],[-121.835084,44.040945],[-121.835065,44.0409],[-121.835063,44.040809],[-121.83508,44.040764],[-121.835115,44.040719],[-121.835131,44.040647],[-121.835139,44.040596],[-121.835165,44.04057],[-121.835218,44.040537],[-121.835298,44.040504],[-121.835396,44.040483],[-121.835485,44.040495],[-121.835548,44.040501],[-121.835601,44.040474],[-121.835645,44.040429],[-121.835679,44.040364],[-121.835714,44.040312],[-121.835739,44.04024],[-121.835783,44.040195],[-121.835817,44.040143],[-121.835843,44.040097],[-121.835842,44.04002],[-121.83584,44.039942],[-121.83582,44.039872],[-121.835819,44.039827],[-121.835845,44.039794],[-121.835907,44.039761],[-121.835988,44.039754],[-121.836086,44.039759],[-121.836185,44.039777],[-121.836275,44.039808],[-121.836357,44.039853],[-121.83642,44.039884],[-121.836483,44.039916],[-121.836573,44.039915],[-121.836689,44.039913],[-121.836769,44.039912],[-121.836832,44.039925],[-121.836895,44.039956],[-121.83695,44.039988],[-121.837022,44.04],[-121.837084,44.039993],[-121.83712,44.039986],[-121.837137,44.039953],[-121.837118,44.039908],[-121.837099,44.039863],[-121.837018,44.039819],[-121.836963,44.039788],[-121.8369,44.039756],[-121.836899,44.039711],[-121.836871,44.039673],[-121.836835,44.039647],[-121.836798,44.039596],[-121.836735,44.039564],[-121.836645,44.039533],[-121.836573,44.039508],[-121.836491,44.039458],[-121.836445,44.039413],[-121.836427,44.039381],[-121.836453,44.039361],[-121.836488,44.039335],[-121.836549,44.03927],[-121.836602,44.039237],[-121.836637,44.039198],[-121.8366,44.03914],[-121.836537,44.039096],[-121.836482,44.039071],[-121.836428,44.039058],[-121.836392,44.039014],[-121.836417,44.038968],[-121.836443,44.038923],[-121.836443,44.03889],[-121.836487,44.038883],[-121.836541,44.038876],[-121.836612,44.038869],[-121.836683,44.038862],[-121.836763,44.038835],[-121.836816,44.038802],[-121.836815,44.038744],[-121.836743,44.038713],[-121.836671,44.038701],[-121.836581,44.038689],[-121.836492,44.03869],[-121.836421,44.03871],[-121.836332,44.03873],[-121.83626,44.038725],[-121.836243,44.038777],[-121.836245,44.038835],[-121.836157,44.03892],[-121.836078,44.038972],[-121.835962,44.039012],[-121.835865,44.039039],[-121.835803,44.039085],[-121.83575,44.039137],[-121.835617,44.039177],[-121.835511,44.039237],[-121.835396,44.039277],[-121.835253,44.039298],[-121.835147,44.039331],[-121.835112,44.039364],[-121.835095,44.039416],[-121.835042,44.039448],[-121.834943,44.039443],[-121.834835,44.039406],[-121.834763,44.039394],[-121.834701,44.03942],[-121.834622,44.039473],[-121.834571,44.039576],[-121.834537,44.039654],[-121.83452,44.039725],[-121.83454,44.039809],[-121.834551,44.03988],[-121.834561,44.039964],[-121.834545,44.040035],[-121.834502,44.040093],[-121.834431,44.040146],[-121.834379,44.040224],[-121.834326,44.040257],[-121.834274,44.040296],[-121.834194,44.040336],[-121.834195,44.040368],[-121.834241,44.040425],[-121.834295,44.040457],[-121.834358,44.040476],[-121.834422,44.04052]]],[[[-121.855995,44.043433],[-121.856147,44.04344],[-121.856286,44.043446],[-121.856438,44.043453],[-121.856565,44.043452],[-121.856658,44.043434],[-121.856739,44.043424],[-121.856798,44.043449],[-121.856879,44.043448],[-121.857019,44.043446],[-121.857111,44.043403],[-121.857168,44.043361],[-121.857284,44.043334],[-121.857422,44.043291],[-121.857515,44.043264],[-121.857619,44.043246],[-121.857758,44.04322],[-121.857862,44.04321],[-121.857955,44.043209],[-121.85806,44.043199],[-121.858164,44.043181],[-121.85828,44.043163],[-121.858419,44.043161],[-121.858524,44.043169],[-121.858652,44.043159],[-121.858767,44.043124],[-121.858824,44.043073],[-121.858845,44.04298],[-121.858855,44.042913],[-121.858831,44.042846],[-121.858771,44.042797],[-121.858701,44.042747],[-121.858619,44.042757],[-121.858538,44.042766],[-121.85841,44.042759],[-121.858328,44.042735],[-121.858281,44.042685],[-121.858338,44.042634],[-121.858417,44.042566],[-121.858486,44.042515],[-121.858519,44.042431],[-121.858529,44.042347],[-121.858492,44.042255],[-121.858374,44.042172],[-121.858268,44.042115],[-121.858127,44.042066],[-121.85794,44.04201],[-121.85773,44.041979],[-121.857532,44.041973],[-121.857288,44.041959],[-121.857125,44.041961],[-121.856973,44.041937],[-121.85682,44.041855],[-121.856702,44.041781],[-121.856607,44.04169],[-121.856581,44.041573],[-121.856544,44.041447],[-121.85653,44.041347],[-121.856504,44.041221],[-121.856525,44.041146],[-121.856455,44.041105],[-121.856362,44.041139],[-121.856283,44.041207],[-121.856273,44.041308],[-121.856218,44.041434],[-121.856139,44.041536],[-121.856034,44.041529],[-121.855929,44.041513],[-121.855779,44.041557],[-121.85564,44.041592],[-121.855548,44.041635],[-121.855386,44.041662],[-121.85527,44.041689],[-121.855179,44.041749],[-121.855121,44.041783],[-121.855053,44.041851],[-121.854996,44.041885],[-121.854916,44.041944],[-121.854871,44.04202],[-121.854814,44.042088],[-121.854758,44.042181],[-121.854771,44.042256],[-121.854831,44.042314],[-121.85496,44.042347],[-121.855065,44.042396],[-121.855183,44.042445],[-121.855254,44.042536],[-121.855326,44.042602],[-121.85534,44.042703],[-121.855353,44.042803],[-121.855343,44.042862],[-121.855345,44.042929],[-121.855323,44.042988],[-121.855289,44.043047],[-121.855279,44.043114],[-121.855292,44.043181],[-121.855375,44.043239],[-121.855457,44.043288],[-121.855551,44.043329],[-121.855668,44.04337],[-121.855844,44.04341],[-121.855995,44.043433]]]]}},{"type":"Feature","properties":{"MAPTAXLOT":"1875000000100","MAPNUMBER":"18750000","TAXLOT":"100","ACCTNO":"1857448","MAPACRES":22305.91129875},"geometry":{"type":"Polygon","coordinates":[[[-121.827899,44.045227],[-121.82777,44.048833],[-121.827641,44.052439],[-121.829641,44.052442],[-121.834664,44.052451],[-121.839685,44.052477],[-121.844706,44.052502],[-121.848071,44.05252],[-121.849727,44.052528],[-121.854747,44.052554],[-121.859768,44.05258],[-121.864789,44.052606],[-121.86815,44.052623],[-121.86981,44.052632],[-121.87483,44.052658],[-121.879851,44.052684],[-121.884872,44.052709],[-121.888228,44.052727],[-121.889893,44.052735],[-121.894913,44.052761],[-121.899934,44.052787],[-121.904955,44.052813],[-121.908312,44.05283],[-121.909976,44.052839],[-121.914996,44.052865],[-121.920017,44.05289],[-121.925038,44.052916],[-121.92839,44.052934],[-121.930059,44.052942],[-121.93508,44.052968],[-121.9401,44.052994],[-121.945121,44.05302],[-121.94964,44.05304],[-121.94964,44.04942],[-121.94964,44.045799],[-121.94964,44.042178],[-121.94964,44.042128],[-121.949668,44.038556],[-121.949669,44.034939],[-121.949671,44.031322],[-121.949672,44.027706],[-121.949673,44.024711],[-121.949673,44.024089],[-121.949682,44.020474],[-121.94969,44.016859],[-121.949699,44.013244],[-121.949707,44.01023],[-121.949708,44.009629],[-121.949742,44.006017],[-121.949776,44.002406],[-121.94981,43.998794],[-121.949839,43.995749],[-121.949844,43.995183],[-121.949914,43.991574],[-121.949985,43.987965],[-121.950055,43.984356],[-121.950115,43.981268],[-121.950125,43.980748],[-121.950108,43.977116],[-121.950091,43.973485],[-121.950074,43.969854],[-121.95006,43.966786],[-121.950057,43.966222],[-121.945371,43.966199],[-121.940318,43.966173],[-121.935266,43.966146],[-121.930213,43.966119],[-121.925157,43.966095],[-121.9201,43.966072],[-121.915044,43.966048],[-121.909987,43.966025],[-121.904932,43.966007],[-121.899876,43.965989],[-121.89482,43.965971],[-121.889765,43.965953],[-121.884694,43.965959],[-121.879623,43.965964],[-121.874553,43.96597],[-121.869482,43.965975],[-121.864413,43.965993],[-121.859344,43.966012],[-121.855211,43.966027],[-121.854961,43.966237],[-121.854137,43.966694],[-121.853124,43.966831],[-121.852079,43.966534],[-121.850812,43.966831],[-121.849894,43.967242],[-121.848469,43.967471],[-121.847265,43.967287],[-121.846252,43.96731],[-121.845397,43.967653],[-121.844605,43.968156],[-121.838808,43.97083],[-121.837921,43.971104],[-121.837066,43.971149],[-121.836718,43.971424],[-121.836749,43.971767],[-121.837066,43.97211],[-121.838237,43.972248],[-121.839725,43.972568],[-121.841277,43.972592],[-121.842449,43.972752],[-121.843589,43.973347],[-121.84495,43.974537],[-121.845393,43.975383],[-121.845266,43.976275],[-121.844251,43.978013],[-121.843269,43.979545],[-121.841495,43.980368],[-121.840702,43.980894],[-121.839593,43.98142],[-121.8369,43.98318],[-121.836393,43.984026],[-121.836297,43.984758],[-121.836486,43.98565],[-121.836866,43.986039],[-121.836454,43.986633],[-121.835694,43.987136],[-121.834236,43.987387],[-121.833128,43.987364],[-121.830466,43.98798],[-121.829135,43.988528],[-121.828742,43.988879],[-121.82874,43.989174],[-121.829198,43.98926],[-121.830053,43.989169],[-121.830909,43.989192],[-121.831447,43.989421],[-121.831826,43.990679],[-121.832396,43.990977],[-121.833442,43.991115],[-121.833568,43.991526],[-121.832459,43.992441],[-121.83005,43.994087],[-121.829098,43.995161],[-121.828781,43.995893],[-121.828682,43.996021],[-121.828644,43.998543],[-121.828591,44.002122],[-121.828537,44.0057],[-121.828483,44.009279],[-121.828429,44.012858],[-121.828375,44.016438],[-121.828321,44.020018],[-121.828267,44.023598],[-121.82824,44.027202],[-121.828222,44.029569],[-121.828261,44.029672],[-121.8288,44.030313],[-121.829529,44.030976],[-121.829845,44.03116],[-121.830448,44.03132],[-121.831145,44.031595],[-121.832539,44.032807],[-121.832919,44.033471],[-121.832919,44.033905],[-121.832601,44.03498],[-121.832601,44.035438],[-121.832759,44.035643],[-121.83409,44.036307],[-121.834851,44.036902],[-121.835136,44.03736],[-121.835135,44.038206],[-121.833136,44.040973],[-121.832502,44.04127],[-121.831773,44.041338],[-121.830505,44.041315],[-121.829997,44.041406],[-121.829109,44.041977],[-121.828887,44.042298],[-121.827979,44.042997],[-121.827899,44.045227]],[[-121.872841,44.002584],[-121.872795,44.002744],[-121.872626,44.002816],[-121.872604,44.00294],[-121.872609,44.003153],[-121.87266,44.003276],[-121.872615,44.003453],[-121.872593,44.003542],[-121.872548,44.003719],[-121.872305,44.003793],[-121.872035,44.003761],[-121.871812,44.003675],[-121.871687,44.003552],[-121.87156,44.003377],[-121.87143,44.003025],[-121.871276,44.002709],[-121.871174,44.002533],[-121.871121,44.002357],[-121.871069,44.002216],[-121.870844,44.002024],[-121.87067,44.001938],[-121.870471,44.001781],[-121.870319,44.001571],[-121.870191,44.001342],[-121.870065,44.001167],[-121.869939,44.000992],[-121.869813,44.000852],[-121.869736,44.000711],[-121.86988,44.00055],[-121.869851,44.000374],[-121.869749,44.000181],[-121.869695,43.999987],[-121.869961,43.999807],[-121.870251,43.999644],[-121.87037,43.999501],[-121.870516,43.999464],[-121.870709,43.999303],[-121.870778,43.999125],[-121.870897,43.998947],[-121.871016,43.998822],[-121.871259,43.99873],[-121.87143,43.998693],[-121.8716,43.998656],[-121.871796,43.998653],[-121.872017,43.998686],[-121.872215,43.998755],[-121.872487,43.998857],[-121.872784,43.999013],[-121.873204,43.999167],[-121.873501,43.999287],[-121.873723,43.999373],[-121.873847,43.999425],[-121.874044,43.999475],[-121.874167,43.999509],[-121.874243,43.999632],[-121.874247,43.999809],[-121.874349,43.999985],[-121.874572,44.00007],[-121.874696,44.000157],[-121.874868,44.000173],[-121.874966,44.000154],[-121.875013,44.000101],[-121.875112,44.000117],[-121.875186,44.000152],[-121.875139,44.000223],[-121.875092,44.000312],[-121.875094,44.0004],[-121.875096,44.000524],[-121.87505,44.000631],[-121.874929,44.000703],[-121.874781,44.000651],[-121.874583,44.000583],[-121.874435,44.000514],[-121.874261,44.000428],[-121.87404,44.000377],[-121.873819,44.00038],[-121.873624,44.000382],[-121.873428,44.000402],[-121.873304,44.000351],[-121.873157,44.000317],[-121.873009,44.000301],[-121.872911,44.000285],[-121.872912,44.000338],[-121.873037,44.000425],[-121.873235,44.000511],[-121.873408,44.000597],[-121.873633,44.000789],[-121.873855,44.000857],[-121.874004,44.000944],[-121.874129,44.001048],[-121.874326,44.001117],[-121.874524,44.001185],[-121.874697,44.001254],[-121.874869,44.001287],[-121.874994,44.001392],[-121.874997,44.001551],[-121.874976,44.001675],[-121.874855,44.001764],[-121.874709,44.001784],[-121.874512,44.001769],[-121.874291,44.001736],[-121.874021,44.001704],[-121.873852,44.001829],[-121.873658,44.00192],[-121.873512,44.00194],[-121.873489,44.002011],[-121.87354,44.002116],[-121.873617,44.002239],[-121.87362,44.002398],[-121.873525,44.002505],[-121.873379,44.00256],[-121.873207,44.002527],[-121.872986,44.002529],[-121.872841,44.002584]],[[-121.855985,43.990869],[-121.855986,43.990931],[-121.855974,43.991003],[-121.855904,43.991086],[-121.855776,43.991088],[-121.855648,43.991089],[-121.85559,43.991018],[-121.855544,43.990895],[-121.855555,43.990761],[-121.855553,43.990638],[-121.855537,43.990566],[-121.855507,43.990505],[-121.855476,43.990402],[-121.855516,43.990289],[-121.855556,43.990165],[-121.855569,43.990083],[-121.855594,43.989938],[-121.855606,43.989825],[-121.855688,43.989701],[-121.855714,43.989557],[-121.855782,43.989453],[-121.855866,43.98938],[-121.855978,43.989297],[-121.856019,43.989193],[-121.85603,43.98907],[-121.856041,43.988916],[-121.856067,43.988792],[-121.856093,43.988678],[-121.856147,43.988565],[-121.856203,43.988513],[-121.856316,43.988501],[-121.85643,43.988489],[-121.856515,43.988468],[-121.8566,43.988446],[-121.856669,43.988353],[-121.85671,43.98826],[-121.856765,43.988177],[-121.856777,43.988085],[-121.856745,43.987941],[-121.856772,43.987848],[-121.856899,43.987806],[-121.857027,43.987814],[-121.857128,43.987885],[-121.857272,43.987945],[-121.857415,43.987974],[-121.857543,43.987973],[-121.857642,43.987951],[-121.857756,43.987929],[-121.857856,43.987959],[-121.8579,43.987999],[-121.857931,43.988133],[-121.857962,43.988235],[-121.858063,43.988275],[-121.858178,43.988325],[-121.858294,43.988427],[-121.858353,43.988518],[-121.858413,43.988651],[-121.858444,43.988774],[-121.858475,43.988908],[-121.858521,43.98903],[-121.858539,43.989195],[-121.858555,43.989297],[-121.858586,43.989389],[-121.858559,43.989472],[-121.858476,43.989555],[-121.85845,43.989658],[-121.858452,43.989782],[-121.85844,43.989874],[-121.858385,43.989947],[-121.85833,43.99004],[-121.858246,43.990082],[-121.858117,43.990084],[-121.857975,43.990075],[-121.857889,43.990035],[-121.857802,43.989985],[-121.857716,43.989955],[-121.857616,43.989956],[-121.857547,43.990029],[-121.857549,43.990131],[-121.857551,43.990234],[-121.857539,43.990317],[-121.857469,43.990369],[-121.857385,43.990421],[-121.857186,43.990475],[-121.857017,43.990539],[-121.856904,43.990561],[-121.856762,43.990603],[-121.856721,43.990676],[-121.856608,43.990708],[-121.85648,43.99072],[-121.856353,43.990762],[-121.856197,43.990805],[-121.856111,43.990755],[-121.856012,43.990787],[-121.855985,43.990869]],[[-121.856565,44.043452],[-121.856438,44.043453],[-121.856286,44.043446],[-121.856147,44.04344],[-121.855995,44.043433],[-121.855844,44.04341],[-121.855668,44.04337],[-121.855551,44.043329],[-121.855457,44.043288],[-121.855375,44.043239],[-121.855292,44.043181],[-121.855279,44.043114],[-121.855289,44.043047],[-121.855323,44.042988],[-121.855345,44.042929],[-121.855343,44.042862],[-121.855353,44.042803],[-121.85534,44.042703],[-121.855326,44.042602],[-121.855254,44.042536],[-121.855183,44.042445],[-121.855065,44.042396],[-121.85496,44.042347],[-121.854831,44.042314],[-121.854771,44.042256],[-121.854758,44.042181],[-121.854814,44.042088],[-121.854871,44.04202],[-121.854916,44.041944],[-121.854996,44.041885],[-121.855053,44.041851],[-121.855121,44.041783],[-121.855179,44.041749],[-121.85527,44.041689],[-121.855386,44.041662],[-121.855548,44.041635],[-121.85564,44.041592],[-121.855779,44.041557],[-121.855929,44.041513],[-121.856034,44.041529],[-121.856139,44.041536],[-121.856218,44.041434],[-121.856273,44.041308],[-121.856283,44.041207],[-121.856362,44.041139],[-121.856455,44.041105],[-121.856525,44.041146],[-121.856504,44.041221],[-121.85653,44.041347],[-121.856544,44.041447],[-121.856581,44.041573],[-121.856607,44.04169],[-121.856702,44.041781],[-121.85682,44.041855],[-121.856973,44.041937],[-121.857125,44.041961],[-121.857288,44.041959],[-121.857532,44.041973],[-121.85773,44.041979],[-121.85794,44.04201],[-121.858127,44.042066],[-121.858268,44.042115],[-121.858374,44.042172],[-121.858492,44.042255],[-121.858529,44.042347],[-121.858519,44.042431],[-121.858486,44.042515],[-121.858417,44.042566],[-121.858338,44.042634],[-121.858281,44.042685],[-121.858328,44.042735],[-121.85841,44.042759],[-121.858538,44.042766],[-121.858619,44.042757],[-121.858701,44.042747],[-121.858771,44.042797],[-121.858831,44.042846],[-121.858855,44.042913],[-121.858845,44.04298],[-121.858824,44.043073],[-121.858767,44.043124],[-121.858652,44.043159],[-121.858524,44.043169],[-121.858419,44.043161],[-121.85828,44.043163],[-121.858164,44.043181],[-121.85806,44.043199],[-121.857955,44.043209],[-121.857862,44.04321],[-121.857758,44.04322],[-121.857619,44.043246],[-121.857515,44.043264],[-121.857422,44.043291],[-121.857284,44.043334],[-121.857168,44.043361],[-121.857111,44.043403],[-121.857019,44.043446],[-121.856879,44.043448],[-121.856798,44.043449],[-121.856739,44.043424],[-121.856658,44.043434],[-121.856565,44.043452]],[[-121.899383,44.016296],[-121.899473,44.016332],[-121.899549,44.016443],[-121.899625,44.016512],[-121.899692,44.016543],[-121.899716,44.016602],[-121.899828,44.016648],[-121.899851,44.016686],[-121.899904,44.016733],[-121.900016,44.016764],[-121.900136,44.016821],[-121.900226,44.016879],[-121.900346,44.016947],[-121.900399,44.017005],[-121.900482,44.017079],[-121.900543,44.017147],[-121.900567,44.017217],[-121.900613,44.017286],[-121.900636,44.017344],[-121.900668,44.017413],[-121.900721,44.017482],[-121.900745,44.017562],[-121.900732,44.017626],[-121.900696,44.017685],[-121.90066,44.017729],[-121.900632,44.017788],[-121.900604,44.017841],[-121.900523,44.017885],[-121.90048,44.017928],[-121.900399,44.017951],[-121.900303,44.017968],[-121.9002,44.017985],[-121.900103,44.017986],[-121.900007,44.017998],[-121.899896,44.017984],[-121.899814,44.017979],[-121.899732,44.017959],[-121.899629,44.017949],[-121.899525,44.01794],[-121.899399,44.017941],[-121.899266,44.017948],[-121.89914,44.017966],[-121.899037,44.017973],[-121.898933,44.017958],[-121.898843,44.017943],[-121.89874,44.017933],[-121.89862,44.017897],[-121.898545,44.01784],[-121.898491,44.017771],[-121.898467,44.017685],[-121.898458,44.017589],[-121.898434,44.017515],[-121.898432,44.017435],[-121.898415,44.01736],[-121.898406,44.017275],[-121.898374,44.017179],[-121.898372,44.017109],[-121.898393,44.017034],[-121.898428,44.016965],[-121.898413,44.016927],[-121.898404,44.016863],[-121.898409,44.016778],[-121.898475,44.016734],[-121.898518,44.016664],[-121.898545,44.016568],[-121.898565,44.016482],[-121.898631,44.016433],[-121.898719,44.016427],[-121.8988,44.016383],[-121.898865,44.016323],[-121.898946,44.01628],[-121.899042,44.016289],[-121.899072,44.016289],[-121.89914,44.016341],[-121.899213,44.01633],[-121.899279,44.016292],[-121.899383,44.016296]],[[-121.835298,44.040504],[-121.835218,44.040537],[-121.835165,44.04057],[-121.835139,44.040596],[-121.835131,44.040647],[-121.835115,44.040719],[-121.83508,44.040764],[-121.835063,44.040809],[-121.835065,44.0409],[-121.835084,44.040945],[-121.835138,44.040983],[-121.835157,44.041034],[-121.835194,44.041079],[-121.835248,44.041091],[-121.835293,44.04111],[-121.835294,44.041149],[-121.83525,44.041175],[-121.83517,44.041189],[-121.835098,44.04117],[-121.835026,44.041158],[-121.83498,44.041107],[-121.834906,44.041005],[-121.834843,44.040947],[-121.83477,44.04089],[-121.834697,44.040859],[-121.834625,44.040821],[-121.834561,44.040777],[-121.834533,44.040719],[-121.834478,44.040648],[-121.834468,44.040571],[-121.834422,44.04052],[-121.834358,44.040476],[-121.834295,44.040457],[-121.834241,44.040425],[-121.834195,44.040368],[-121.834194,44.040336],[-121.834274,44.040296],[-121.834326,44.040257],[-121.834379,44.040224],[-121.834431,44.040146],[-121.834502,44.040093],[-121.834545,44.040035],[-121.834561,44.039964],[-121.834551,44.03988],[-121.83454,44.039809],[-121.83452,44.039725],[-121.834537,44.039654],[-121.834571,44.039576],[-121.834622,44.039473],[-121.834701,44.03942],[-121.834763,44.039394],[-121.834835,44.039406],[-121.834943,44.039443],[-121.835042,44.039448],[-121.835095,44.039416],[-121.835112,44.039364],[-121.835147,44.039331],[-121.835253,44.039298],[-121.835396,44.039277],[-121.835511,44.039237],[-121.835617,44.039177],[-121.83575,44.039137],[-121.835803,44.039085],[-121.835865,44.039039],[-121.835962,44.039012],[-121.836078,44.038972],[-121.836157,44.03892],[-121.836245,44.038835],[-121.836243,44.038777],[-121.83626,44.038725],[-121.836332,44.03873],[-121.836421,44.03871],[-121.836492,44.03869],[-121.836581,44.038689],[-121.836671,44.038701],[-121.836743,44.038713],[-121.836815,44.038744],[-121.836816,44.038802],[-121.836763,44.038835],[-121.836683,44.038862],[-121.836612,44.038869],[-121.836541,44.038876],[-121.836487,44.038883],[-121.836443,44.03889],[-121.836443,44.038923],[-121.836417,44.038968],[-121.836392,44.039014],[-121.836428,44.039058],[-121.836482,44.039071],[-121.836537,44.039096],[-121.8366,44.03914],[-121.836637,44.039198],[-121.836602,44.039237],[-121.836549,44.03927],[-121.836488,44.039335],[-121.836453,44.039361],[-121.836427,44.039381],[-121.836445,44.039413],[-121.836491,44.039458],[-121.836573,44.039508],[-121.836645,44.039533],[-121.836735,44.039564],[-121.836798,44.039596],[-121.836835,44.039647],[-121.836871,44.039673],[-121.836899,44.039711],[-121.8369,44.039756],[-121.836963,44.039788],[-121.837018,44.039819],[-121.837099,44.039863],[-121.837118,44.039908],[-121.837137,44.039953],[-121.83712,44.039986],[-121.837084,44.039993],[-121.837022,44.04],[-121.83695,44.039988],[-121.836895,44.039956],[-121.836832,44.039925],[-121.836769,44.039912],[-121.836689,44.039913],[-121.836573,44.039915],[-121.836483,44.039916],[-121.83642,44.039884],[-121.836357,44.039853],[-121.836275,44.039808],[-121.836185,44.039777],[-121.836086,44.039759],[-121.835988,44.039754],[-121.835907,44.039761],[-121.835845,44.039794],[-121.835819,44.039827],[-121.83582,44.039872],[-121.83584,44.039942],[-121.835842,44.04002],[-121.835843,44.040097],[-121.835817,44.040143],[-121.835783,44.040195],[-121.835739,44.04024],[-121.835714,44.040312],[-121.835679,44.040364],[-121.835645,44.040429],[-121.835601,44.040474],[-121.835548,44.040501],[-121.835485,44.040495],[-121.835396,44.040483],[-121.835298,44.040504]],[[-121.88347,43.995101],[-121.883491,43.995164],[-121.88358,43.99524],[-121.883591,43.995303],[-121.883553,43.995338],[-121.883486,43.995381],[-121.883439,43.995423],[-121.883372,43.99548],[-121.883316,43.995565],[-121.883328,43.995641],[-121.883349,43.995718],[-121.883398,43.995766],[-121.883429,43.995829],[-121.883478,43.995884],[-121.883519,43.995947],[-121.883558,43.995988],[-121.883599,43.996057],[-121.883619,43.996113],[-121.88364,43.996176],[-121.883641,43.996225],[-121.883613,43.996267],[-121.883536,43.996275],[-121.883506,43.996254],[-121.883409,43.996242],[-121.883361,43.996235],[-121.883311,43.996187],[-121.883243,43.996181],[-121.883205,43.996202],[-121.883136,43.996175],[-121.883078,43.996169],[-121.883048,43.996134],[-121.883018,43.996085],[-121.882949,43.996037],[-121.882881,43.996017],[-121.882832,43.995997],[-121.882773,43.995969],[-121.882753,43.995935],[-121.882713,43.995886],[-121.882665,43.995866],[-121.882578,43.995902],[-121.88251,43.995903],[-121.882444,43.995938],[-121.882444,43.99598],[-121.882464,43.996008],[-121.882465,43.996036],[-121.882368,43.996044],[-121.88235,43.996079],[-121.882341,43.996114],[-121.882283,43.996129],[-121.882226,43.996144],[-121.882148,43.996152],[-121.88209,43.996131],[-121.882012,43.996104],[-121.881963,43.996077],[-121.881895,43.996106],[-121.881848,43.996148],[-121.88183,43.996197],[-121.881792,43.996233],[-121.881695,43.996241],[-121.881648,43.996276],[-121.881531,43.996278],[-121.881482,43.996257],[-121.881414,43.996237],[-121.881375,43.996203],[-121.881392,43.996133],[-121.88143,43.996083],[-121.881429,43.996027],[-121.881398,43.995965],[-121.881378,43.995902],[-121.881338,43.995847],[-121.881327,43.995791],[-121.881316,43.995742],[-121.881314,43.995686],[-121.881322,43.995619],[-121.881296,43.99558],[-121.881253,43.99555],[-121.881202,43.99552],[-121.881154,43.995481],[-121.881116,43.995445],[-121.881073,43.995415],[-121.881094,43.995346],[-121.881199,43.995282],[-121.881275,43.995239],[-121.881361,43.995175],[-121.881359,43.995092],[-121.881445,43.995042],[-121.881522,43.995006],[-121.881638,43.994997],[-121.881764,43.99501],[-121.881852,43.995065],[-121.881959,43.99507],[-121.882017,43.99507],[-121.882074,43.995041],[-121.882131,43.994984],[-121.882257,43.994962],[-121.882373,43.994961],[-121.882509,43.995001],[-121.882588,43.995056],[-121.882667,43.995111],[-121.882755,43.995159],[-121.882852,43.995186],[-121.882958,43.995142],[-121.883074,43.995141],[-121.88318,43.995119],[-121.883276,43.995097],[-121.883344,43.995068],[-121.883411,43.995067],[-121.88347,43.995101]],[[-121.879452,43.991581],[-121.879578,43.991586],[-121.879666,43.99162],[-121.879783,43.991654],[-121.879881,43.991688],[-121.879939,43.991701],[-121.880026,43.991707],[-121.879998,43.991756],[-121.879942,43.991813],[-121.879875,43.991862],[-121.879837,43.991898],[-121.879838,43.991961],[-121.879878,43.992002],[-121.879937,43.99205],[-121.879987,43.992106],[-121.880027,43.992168],[-121.880038,43.992217],[-121.88004,43.992287],[-121.880012,43.992343],[-121.879975,43.992406],[-121.879908,43.992442],[-121.87986,43.992471],[-121.879802,43.992499],[-121.879725,43.992521],[-121.879658,43.992536],[-121.879562,43.992558],[-121.879495,43.992594],[-121.879457,43.99265],[-121.879488,43.992748],[-121.879481,43.992825],[-121.879501,43.99288],[-121.879532,43.99295],[-121.879582,43.993019],[-121.879613,43.993096],[-121.879634,43.993165],[-121.879635,43.993221],[-121.879607,43.993271],[-121.879529,43.993237],[-121.87947,43.993209],[-121.879362,43.993155],[-121.879293,43.993114],[-121.879234,43.993051],[-121.879175,43.993003],[-121.879077,43.992955],[-121.878969,43.992901],[-121.878948,43.992838],[-121.878908,43.992769],[-121.878897,43.992699],[-121.878838,43.992651],[-121.878788,43.992602],[-121.878719,43.992568],[-121.878661,43.992569],[-121.878583,43.992528],[-121.878533,43.992479],[-121.878466,43.99248],[-121.878418,43.992523],[-121.878468,43.992592],[-121.87847,43.992676],[-121.87851,43.992724],[-121.87854,43.992787],[-121.878532,43.992843],[-121.878494,43.992878],[-121.878427,43.9929],[-121.878359,43.992908],[-121.878301,43.992916],[-121.878234,43.992937],[-121.878146,43.992911],[-121.878097,43.992883],[-121.87801,43.992877],[-121.877951,43.992857],[-121.877883,43.992837],[-121.877891,43.992753],[-121.877928,43.992689],[-121.877956,43.99264],[-121.878061,43.992576],[-121.878128,43.992526],[-121.878243,43.99249],[-121.87832,43.992454],[-121.878387,43.992418],[-121.878395,43.992348],[-121.878393,43.99225],[-121.878371,43.992146],[-121.878369,43.992048],[-121.878357,43.991971],[-121.878385,43.991894],[-121.878402,43.991824],[-121.878459,43.991746],[-121.878525,43.991683],[-121.87863,43.991626],[-121.878677,43.991562],[-121.878744,43.991512],[-121.87885,43.991504],[-121.878957,43.991517],[-121.879054,43.991551],[-121.879171,43.991584],[-121.879258,43.991569],[-121.879355,43.991561],[-121.879452,43.991581]],[[-121.857415,43.995679],[-121.857338,43.995691],[-121.857238,43.995697],[-121.857146,43.99571],[-121.857069,43.995711],[-121.856985,43.995734],[-121.856893,43.995768],[-121.856801,43.995769],[-121.856716,43.995737],[-121.856676,43.995682],[-121.856667,43.995621],[-121.856704,43.99557],[-121.856734,43.99552],[-121.856725,43.995476],[-121.856747,43.995409],[-121.856723,43.995375],[-121.856669,43.995371],[-121.856624,43.995421],[-121.856602,43.995466],[-121.856541,43.995489],[-121.856472,43.995501],[-121.856402,43.995479],[-121.856378,43.99543],[-121.856384,43.995368],[-121.856406,43.995312],[-121.856451,43.995256],[-121.856542,43.995205],[-121.85665,43.995204],[-121.85675,43.995192],[-121.856842,43.995191],[-121.856942,43.995201],[-121.857003,43.995172],[-121.857018,43.995133],[-121.857063,43.995105],[-121.85714,43.995093],[-121.857194,43.99507],[-121.857231,43.995025],[-121.857199,43.994986],[-121.857168,43.994981],[-121.857137,43.994948],[-121.857104,43.994876],[-121.857095,43.994804],[-121.857055,43.994732],[-121.857008,43.994688],[-121.856992,43.99465],[-121.857053,43.994649],[-121.857169,43.994681],[-121.857263,43.994741],[-121.857364,43.994784],[-121.857466,43.994839],[-121.857629,43.994909],[-121.857722,43.994941],[-121.857893,43.994984],[-121.857977,43.994966],[-121.858154,43.994964],[-121.858269,43.994957],[-121.858384,43.994906],[-121.858498,43.99486],[-121.858613,43.994814],[-121.858681,43.994763],[-121.858781,43.994751],[-121.858834,43.994706],[-121.858894,43.994655],[-121.858901,43.99461],[-121.858908,43.994571],[-121.858978,43.994598],[-121.859048,43.994653],[-121.859103,43.994703],[-121.859143,43.994769],[-121.859191,43.99483],[-121.859246,43.994879],[-121.859301,43.994951],[-121.85935,43.995061],[-121.859328,43.995117],[-121.859252,43.995168],[-121.859145,43.995203],[-121.859069,43.995237],[-121.858993,43.995271],[-121.858947,43.995316],[-121.85891,43.995383],[-121.858888,43.995428],[-121.858843,43.995484],[-121.858821,43.995529],[-121.858776,43.995557],[-121.858692,43.995597],[-121.858585,43.995637],[-121.858516,43.995655],[-121.858431,43.995661],[-121.85837,43.995668],[-121.858293,43.995652],[-121.858215,43.995625],[-121.858176,43.995586],[-121.858151,43.995537],[-121.858103,43.995459],[-121.858056,43.99541],[-121.857993,43.995355],[-121.857946,43.995311],[-121.857908,43.995312],[-121.857854,43.99534],[-121.857786,43.995396],[-121.857718,43.995436],[-121.857665,43.995465],[-121.857581,43.995499],[-121.857543,43.995549],[-121.857514,43.9956],[-121.857476,43.995639],[-121.857415,43.995679]],[[-121.942688,43.986896],[-121.942623,43.986864],[-121.942576,43.986825],[-121.942574,43.986745],[-121.9426,43.986678],[-121.942599,43.986625],[-121.942672,43.986611],[-121.942735,43.986564],[-121.94277,43.98649],[-121.942834,43.986443],[-121.942943,43.986429],[-121.943054,43.986421],[-121.943201,43.986432],[-121.943293,43.986431],[-121.943357,43.98645],[-121.943431,43.986462],[-121.94346,43.986528],[-121.94349,43.986627],[-121.943548,43.98672],[-121.943614,43.986785],[-121.943688,43.986811],[-121.943788,43.98679],[-121.94388,43.986782],[-121.943936,43.986828],[-121.943956,43.98688],[-121.943939,43.98694],[-121.943848,43.986988],[-121.943758,43.987055],[-121.943695,43.987129],[-121.943651,43.987183],[-121.943606,43.987243],[-121.943598,43.987303],[-121.943609,43.987376],[-121.943648,43.987448],[-121.943731,43.987493],[-121.943815,43.987532],[-121.943826,43.987592],[-121.943818,43.987658],[-121.943773,43.987692],[-121.943748,43.987805],[-121.943713,43.987885],[-121.943706,43.987958],[-121.943679,43.988005],[-121.943616,43.988059],[-121.943535,43.988113],[-121.943462,43.988154],[-121.94338,43.988155],[-121.943269,43.988149],[-121.943149,43.988091],[-121.943046,43.988033],[-121.94299,43.98798],[-121.942942,43.987915],[-121.942913,43.987835],[-121.942939,43.987775],[-121.943039,43.987721],[-121.943064,43.987648],[-121.943109,43.987581],[-121.943116,43.987514],[-121.943069,43.987455],[-121.943012,43.987396],[-121.942956,43.987331],[-121.942917,43.987245],[-121.942914,43.987139],[-121.942876,43.98706],[-121.942829,43.987007],[-121.942762,43.986928],[-121.942688,43.986896]],[[-121.874999,43.988842],[-121.875119,43.988857],[-121.875193,43.988873],[-121.875239,43.988877],[-121.875279,43.988884],[-121.87532,43.988925],[-121.875264,43.988967],[-121.875184,43.98898],[-121.875122,43.989001],[-121.875043,43.989031],[-121.874981,43.989056],[-121.87493,43.98909],[-121.874885,43.989119],[-121.874818,43.989157],[-121.874762,43.989195],[-121.874712,43.989245],[-121.874656,43.989278],[-121.874611,43.98932],[-121.874572,43.989341],[-121.874498,43.989375],[-121.87439,43.98938],[-121.874334,43.989393],[-121.874277,43.989394],[-121.874214,43.989415],[-121.874175,43.989428],[-121.874141,43.989436],[-121.874072,43.989429],[-121.874015,43.98943],[-121.873953,43.989418],[-121.873884,43.989407],[-121.873815,43.989387],[-121.87374,43.989359],[-121.873643,43.989327],[-121.873579,43.989275],[-121.873493,43.98923],[-121.873462,43.989157],[-121.873432,43.989091],[-121.873425,43.989026],[-121.873418,43.98896],[-121.873405,43.988882],[-121.873387,43.988825],[-121.873391,43.988767],[-121.873401,43.988717],[-121.873423,43.98868],[-121.873445,43.988635],[-121.873461,43.988581],[-121.873505,43.988527],[-121.873544,43.988485],[-121.8736,43.98844],[-121.873668,43.988422],[-121.873759,43.988417],[-121.873862,43.988424],[-121.873959,43.988448],[-121.874039,43.988467],[-121.874137,43.988495],[-121.874217,43.988514],[-121.874308,43.988542],[-121.874389,43.988578],[-121.874441,43.988619],[-121.874539,43.988646],[-121.874614,43.988682],[-121.874666,43.988719],[-121.874718,43.988751],[-121.874775,43.988783],[-121.874844,43.98882],[-121.874918,43.988819],[-121.874999,43.988842]]]}},{"type":"Feature","properties":{"MAPTAXLOT":"1885000000100","MAPNUMBER":"18850000","TAXLOT":"100","ACCTNO":"1857455","MAPACRES":351.8428899},"geometry":{"type":"MultiPolygon","coordinates":[[[[-121.828305,43.99651],[-121.827671,43.997059],[-121.827069,43.997768],[-121.826878,43.998431],[-121.826909,43.999117],[-121.826033,43.999819],[-121.826094,44.001699],[-121.825777,44.002637],[-121.825237,44.003597],[-121.824698,44.004123],[-121.824539,44.004901],[-121.824886,44.006662],[-121.824727,44.007714],[-121.824315,44.008331],[-121.823363,44.009131],[-121.822761,44.00984],[-121.822094,44.011281],[-121.822157,44.012539],[-121.822948,44.013683],[-121.823011,44.014003],[-121.822598,44.015695],[-121.82282,44.015947],[-121.823611,44.016473],[-121.824688,44.017389],[-121.825607,44.018647],[-121.825701,44.019974],[-121.825225,44.020431],[-121.824876,44.021163],[-121.824939,44.021734],[-121.825192,44.022329],[-121.825825,44.023084],[-121.827916,44.025144],[-121.828168,44.02647],[-121.827755,44.028346],[-121.828222,44.029569],[-121.82824,44.027202],[-121.828267,44.023598],[-121.828321,44.020018],[-121.828375,44.016438],[-121.828429,44.012858],[-121.828483,44.009279],[-121.828537,44.0057],[-121.828591,44.002122],[-121.828644,43.998543],[-121.828682,43.996021],[-121.828305,43.99651]]],[[[-121.815435,44.051806],[-121.814825,44.052344],[-121.818014,44.052369],[-121.823035,44.052407],[-121.827641,44.052439],[-121.82777,44.048833],[-121.827899,44.045227],[-121.827979,44.042997],[-121.827967,44.043006],[-121.82562,44.04424],[-121.823875,44.045635],[-121.821272,44.048332],[-121.820828,44.049155],[-121.820541,44.050528],[-121.820256,44.050985],[-121.819082,44.051419],[-121.818162,44.051464],[-121.816482,44.051052],[-121.815943,44.051143],[-121.815435,44.051806]]],[[[-121.802908,44.05221],[-121.80283,44.052252],[-121.802953,44.052253],[-121.806562,44.052281],[-121.805952,44.052212],[-121.803796,44.052051],[-121.802908,44.05221]]],[[[-121.82847,43.989123],[-121.82874,43.989174],[-121.828742,43.988879],[-121.82847,43.989123]]]]}}]}