{"type":"FeatureCollection","features":[{"type":"Feature","properties":{"MAPTAXLOT":"2355000000100","MAPNUMBER":"23550000","TAXLOT":"100","ACCTNO":"0976181","MAPACRES":22680.07168692},"geometry":{"type":"Polygon","coordinates":[[[-122.152084,43.612616],[-122.152092,43.612616],[-122.157068,43.612623],[-122.162044,43.612631],[-122.16702,43.612639],[-122.170982,43.612645],[-122.171996,43.612647],[-122.176972,43.612655],[-122.181947,43.612663],[-122.186923,43.612671],[-122.190912,43.612677],[-122.191899,43.612679],[-122.196875,43.612687],[-122.201851,43.612695],[-122.206827,43.612703],[-122.210837,43.61271],[-122.211803,43.612711],[-122.216779,43.612719],[-122.221755,43.612728],[-122.226731,43.612736],[-122.230768,43.612742],[-122.231707,43.612744],[-122.236683,43.612752],[-122.241659,43.61276],[-122.246635,43.612768],[-122.2507,43.612775],[-122.251611,43.612776],[-122.256586,43.612784],[-122.261562,43.612792],[-122.266538,43.6128],[-122.271118,43.612808],[-122.271118,43.612808],[-122.271118,43.6128],[-122.271118,43.599259],[-122.271118,43.595638],[-122.271118,43.592018],[-122.271118,43.588397],[-122.271118,43.584777],[-122.271118,43.581156],[-122.271118,43.577536],[-122.271118,43.573915],[-122.271118,43.570295],[-122.271118,43.566674],[-122.271118,43.563053],[-122.271118,43.559433],[-122.271118,43.555812],[-122.270883,43.549251],[-122.270883,43.54563],[-122.270883,43.54201],[-122.270914,43.538393],[-122.270945,43.534777],[-122.270976,43.531161],[-122.271007,43.527545],[-122.265984,43.527517],[-122.260992,43.527517],[-122.255999,43.527517],[-122.251006,43.527517],[-122.246018,43.527507],[-122.241029,43.527497],[-122.236041,43.527487],[-122.231052,43.527477],[-122.226068,43.527468],[-122.221083,43.527458],[-122.216098,43.527449],[-122.211114,43.52744],[-122.206131,43.527429],[-122.201149,43.527419],[-122.196166,43.527409],[-122.191184,43.527399],[-122.186202,43.527394],[-122.18122,43.527389],[-122.176238,43.527385],[-122.171256,43.52738],[-122.166276,43.527371],[-122.161295,43.527362],[-122.156315,43.527353],[-122.151334,43.527344],[-122.151043,43.529598],[-122.151043,43.532985],[-122.151043,43.536606],[-122.151043,43.540227],[-122.151043,43.541329],[-122.151043,43.543848],[-122.151043,43.547468],[-122.151043,43.551089],[-122.151043,43.55471],[-122.151043,43.555812],[-122.151043,43.55833],[-122.151043,43.561951],[-122.151043,43.565572],[-122.151043,43.569192],[-122.151043,43.570294],[-122.151043,43.572813],[-122.151043,43.576433],[-122.151042,43.580054],[-122.151042,43.583675],[-122.151042,43.584776],[-122.151042,43.587295],[-122.151042,43.590916],[-122.151042,43.594537],[-122.151042,43.598158],[-122.151042,43.59926],[-122.151042,43.601778],[-122.152084,43.612616]]]}}]}